{"version": 0.6, "generator": "Overpass API 0.7.62.8 e802775f", "osm3s": {"timestamp_osm_base": "2026-01-05T15:31:00Z", "copyright": "The data included in this document is from www.openstreetmap.org. The data is made available under ODbL."}, "elements": [{"type": "node", "id": 256939539, "lat": 49.3833505, "lon": 12.7837128, "tags": {"ele": "1042", "man_made": "survey_point", "name": "\u010cerchov", "name:cs": "\u010cerchov", "name:de": "Schwarzkopf", "natural": "peak", "prominence": "526", "source": "\u010c\u00daZK", "wikidata": "Q338747"}}, {"type": "node", "id": 256939540, "lat": 49.429254, "lon": 12.7822263, "tags": {"ele": "854", "name": "S\u00e1dek", "natural": "peak"}}, {"type": "node", "id": 257101403, "lat": 49.4321905, "lon": 12.7778305, "tags": {"ele": "830", "hiking": "yes", "information": "guidepost", "name": "Pod S\u00e1dkem", "operator": "cz:K\u010cT", "ref": "DO027", "tourism": "information"}}, {"type": "node", "id": 260142901, "lat": 49.4340176, "lon": 12.7738965, "tags": {"created_by": "JOSM", "name": "S\u00e1dkova sk\u00e1la", "natural": "peak"}}, {"type": "node", "id": 260142910, "lat": 49.4364832, "lon": 12.7717426, "tags": {"ele": "807", "hiking": "yes", "information": "guidepost", "name": "Pod Haltravou (rozcest\u00ed)", "official_name": "Pod Haltravou (rozc.)", "operator": "cz:K\u010cT", "ref": "DO028", "tourism": "information"}}, {"type": "node", "id": 318706329, "lat": 49.531007, "lon": 12.6077147, "tags": {"board_type": "warning", "information": "board", "inscription": "POZOR St\u00e1tn\u00ed hranice", "tourism": "information"}}, {"type": "node", "id": 330432427, "lat": 49.417964, "lon": 12.7141168, "tags": {"information": "board", "name": "\u010cESK\u00c1 REPUBLIKA", "tourism": "information"}}, {"type": "node", "id": 334426058, "lat": 49.3854313, "lon": 12.7084796, "tags": {"direction": "220-320", "name": "B\u00f6hmerkreuz", "tourism": "viewpoint"}}, {"type": "node", "id": 348027982, "lat": 49.5145866, "lon": 12.6207487, "tags": {"ele": "874", "name": "Reichenstein", "natural": "peak", "wikidata": "Q2797881"}}, {"type": "node", "id": 349135911, "lat": 49.5242009, "lon": 12.6326954}, {"type": "node", "id": 349135912, "lat": 49.5240976, "lon": 12.6326963}, {"type": "node", "id": 349135914, "lat": 49.524097, "lon": 12.6325353}, {"type": "node", "id": 349135917, "lat": 49.5242003, "lon": 12.6325345}, {"type": "node", "id": 349135925, "lat": 49.5242978, "lon": 12.6328762, "tags": {"ele": "894", "name": "Ebene", "natural": "peak", "wikidata": "Q31548895"}}, {"type": "node", "id": 352976294, "lat": 49.5241641, "lon": 12.6326105, "tags": {"access": "yes", "direction": "0-360", "ele": "896", "fee": "no", "level": "1", "name": "B\u00f6hmerwaldturm", "name:cs": "Rozhledna Ebene", "name:de": "B\u00f6hmerwaldturm", "tourism": "viewpoint"}}, {"type": "node", "id": 394877893, "lat": 49.5501423, "lon": 12.6368131, "tags": {"ele": "862", "name": "Velk\u00fd Zvon", "name:de": "Plattenberg", "natural": "peak", "old_name": "Zvon", "source": "\u010c\u00daZK", "wikidata": "Q2512496"}}, {"type": "node", "id": 408725959, "lat": 49.4537853, "lon": 12.7504471, "tags": {"ele": "887", "name": "\u0160karmanka", "natural": "peak", "wikidata": "Q23811916"}}, {"type": "node", "id": 409769202, "lat": 49.3906581, "lon": 12.7859425, "tags": {"amenity": "shelter", "shelter_type": "picnic_shelter"}}, {"type": "node", "id": 409769214, "lat": 49.3662199, "lon": 12.7774079, "tags": {"amenity": "shelter", "name": "Na zlomu / Sattelh\u00fctte", "name:cs": "Na zlomu", "name:de": "Sattelh\u00fctte", "shelter_type": "picnic_shelter"}}, {"type": "node", "id": 577338442, "lat": 49.3821489, "lon": 12.7767114, "tags": {"ele": "1008", "name": "Na skalce", "natural": "peak", "old_name": "Skalka", "source": "\u010c\u00daZK", "wikidata": "Q12054383"}}, {"type": "node", "id": 611648198, "lat": 49.4881142, "lon": 12.7187176, "tags": {"alt_name:de": "Lisaberg", "ele": "870", "name": "Lys\u00e1", "name:cs": "Lys\u00e1", "name:de": "Lissaberg", "natural": "peak", "source": "\u010c\u00daZK", "wikidata": "Q30093265"}}, {"type": "node", "id": 611648697, "lat": 49.4928856, "lon": 12.7080555, "tags": {"ele": "754", "hiking": "yes", "information": "guidepost", "name": "Li\u0161\u010d\u00ed Domky", "operator": "cz:K\u010cT", "ref": "DO036", "tourism": "information"}}, {"type": "node", "id": 611649723, "lat": 49.4917925, "lon": 12.6831463, "tags": {"ele": "604", "hiking": "yes", "information": "guidepost", "name": "Z\u00e1vist", "operator": "cz:K\u010cT", "ref": "DO037", "tourism": "information"}}, {"type": "node", "id": 611650266, "lat": 49.4877701, "lon": 12.7067665, "tags": {"ele": "745", "hiking": "yes", "information": "guidepost", "inscription": "Zanikl\u00e1 osada na \u00fabo\u010d\u00ed Lys\u00e9 hory. V\u00a0roce 1930 zde st\u00e1lo 38 dom\u016f s\u00a0266 obyvately.", "name": "Hern\u0161tejnsk\u00e9 chalupy", "operator": "cz:K\u010cT", "ref": "DO035", "tourism": "information"}}, {"type": "node", "id": 611650755, "lat": 49.4728593, "lon": 12.7286212, "tags": {"ele": "756", "hiking": "yes", "information": "guidepost", "inscription": "Sedlo k\u00a0Pivoni pod \u010cerchovsk\u00fdm lesem pod z\u0159\u00edceninou Star\u00e9ho Her\u0161tejna", "name": "Vranovsk\u00e9 sedlo", "operator": "cz:K\u010cT", "ref": "DO033", "tourism": "information"}}, {"type": "node", "id": 611653629, "lat": 49.3907044, "lon": 12.7858629, "tags": {"ele": "830", "hiking": "yes", "information": "guidepost", "name": "Pod \u010cerchovem", "operator": "cz:K\u010cT", "ref": "DO051", "tourism": "information"}}, {"type": "node", "id": 611654578, "lat": 49.3841595, "lon": 12.7845295, "tags": {"ele": "1042", "information": "map", "tourism": "information"}}, {"type": "node", "id": 611654662, "lat": 49.3841068, "lon": 12.7845589, "tags": {"bicycle": "yes", "ele": "1042", "hiking": "yes", "information": "guidepost", "name": "\u010cerchov", "operator": "cz:K\u010cT", "ref": "DO190", "tourism": "information"}}, {"type": "node", "id": 771215827, "lat": 49.3774058, "lon": 12.7665628, "tags": {"bicycle": "yes", "information": "guidepost", "tourism": "information"}}, {"type": "node", "id": 771215831, "lat": 49.3673543, "lon": 12.7732354, "tags": {"name": "Pavliks Aussicht", "tourism": "viewpoint"}}, {"type": "node", "id": 771217639, "lat": 49.3662495, "lon": 12.777292, "tags": {"ele": "915", "hiking": "yes", "information": "guidepost", "name": "Na Zlomu", "operator": "cz:K\u010cT", "ref": "DO205", "source": "survey", "tourism": "information"}}, {"type": "node", "id": 771217650, "lat": 49.3795461, "lon": 12.7599736, "tags": {"ele": "834", "hiking": "yes", "information": "guidepost", "name": "Hlinit\u00e1 cesta CZ/D", "operator": "cz:K\u010cT", "ref": "DO236", "source": "survey", "tourism": "information"}}, {"type": "node", "id": 771217653, "lat": 49.3577352, "lon": 12.7712763, "tags": {"information": "guidepost", "source": "survey", "tourism": "information"}}, {"type": "node", "id": 771638225, "lat": 49.3663526, "lon": 12.7773351, "tags": {"information": "map", "name": "Ly\u017ea\u0159sk\u00e9 trasy 5: Na zlomu / Langlaufstrecken 5: Sattelh\u00fctte", "name:cs": "Ly\u017ea\u0159sk\u00e9 trasy 5: Na zlomu", "name:de": "Langlaufstrecken 5: Sattelh\u00fctte", "ref": "5", "ski": "yes", "tourism": "information"}}, {"type": "node", "id": 771638263, "lat": 49.3663374, "lon": 12.7773637, "tags": {"board_type": "nature", "information": "board", "name": "P\u0159\u00edrodn\u00ed rezervace Smr\u010d\u00ed", "tourism": "information"}}, {"type": "node", "id": 771638271, "lat": 49.3795506, "lon": 12.759917, "tags": {"board_type": "history", "information": "board", "tourism": "information"}}, {"type": "node", "id": 776672916, "lat": 49.3795308, "lon": 12.7599503, "tags": {"information": "map", "name": "Ly\u017ea\u0159sk\u00e9 trasy 3: Hlinit\u00e1 cesta / Langlaufstrecken 3: Lehmgrubenweg", "name:cs": "Ly\u017ea\u0159sk\u00e9 trasy 3: Hlinit\u00e1 cesta", "name:de": "Langlaufstrecken 3: Lehmgrubenweg", "ski": "yes", "tourism": "information"}}, {"type": "node", "id": 776672940, "lat": 49.3914598, "lon": 12.7844179, "tags": {"information": "map", "name": "Ly\u017ea\u0159sk\u00e9 trasy 1: Pod \u010cerkovem / Langlaufstrecken 1: Kreuzung unter \u010cerkov", "name:cs": "Ly\u017ea\u0159sk\u00e9 trasy 1: Pod \u010cerkovem", "name:de": "Langlaufstrecken 1: Kreuzung unter \u010cerkov", "ski": "yes", "tourism": "information"}}, {"type": "node", "id": 915269696, "lat": 49.3794079, "lon": 12.7312229, "tags": {"hiking": "yes", "information": "guidepost", "tourism": "information"}}, {"type": "node", "id": 915269701, "lat": 49.399212, "lon": 12.7307961, "tags": {"information": "board", "name": "Ebenhof", "tourism": "information"}}, {"type": "node", "id": 915269703, "lat": 49.3920507, "lon": 12.7330017, "tags": {"amenity": "shelter", "bench": "yes", "bin": "no", "check_date": "2022-10-29", "shelter_type": "picnic_shelter"}}, {"type": "node", "id": 915269719, "lat": 49.3833864, "lon": 12.7810264, "tags": {"ele": "1000", "hiking": "yes", "information": "guidepost", "name": "Odb. na \u010cerchov", "operator": "cz:K\u010cT", "ref": "DO202", "tourism": "information"}}, {"type": "node", "id": 915269721, "lat": 49.3768242, "lon": 12.7700455, "tags": {"ele": "900", "hiking": "yes", "information": "guidepost", "name": "U stud\u00e1nky - 900m", "operator": "cz:K\u010cT", "ref": "DO204", "tourism": "information"}}, {"type": "node", "id": 915269722, "lat": 49.3990491, "lon": 12.7330631, "tags": {"information": "guidepost", "tourism": "information"}}, {"type": "node", "id": 915269734, "lat": 49.3920959, "lon": 12.7326924, "tags": {"information": "guidepost", "tourism": "information"}}, {"type": "node", "id": 915269753, "lat": 49.3991734, "lon": 12.7309467, "tags": {"information": "guidepost", "tourism": "information"}}, {"type": "node", "id": 915301274, "lat": 49.3797665, "lon": 12.7583492, "tags": {"information": "guidepost", "source": "survey", "tourism": "information"}}, {"type": "node", "id": 915301276, "lat": 49.3805007, "lon": 12.7449981, "tags": {"hiking": "yes", "information": "guidepost", "source": "survey", "tourism": "information"}}, {"type": "node", "id": 915301278, "lat": 49.3896566, "lon": 12.7665063, "tags": {"information": "guidepost", "source": "survey", "tourism": "information"}}, {"type": "node", "id": 915301306, "lat": 49.3869928, "lon": 12.7513275, "tags": {"information": "guidepost", "source": "survey", "tourism": "information"}}, {"type": "node", "id": 915301307, "lat": 49.3806187, "lon": 12.7450514, "tags": {"check_date": "2022-10-30", "information": "map", "name": "Siedlungsgeschichtlicher Lehrpfad", "tourism": "information"}}, {"type": "node", "id": 915301311, "lat": 49.38254, "lon": 12.7455596, "tags": {"information": "board", "name": "Siedlungsgeschichtlicher Lehrpfad", "tourism": "information"}}, {"type": "node", "id": 915301312, "lat": 49.3823551, "lon": 12.745034, "tags": {"information": "guidepost", "source": "survey", "tourism": "information"}}, {"type": "node", "id": 915301315, "lat": 49.3832421, "lon": 12.7537884, "tags": {"information": "guidepost", "source": "survey", "tourism": "information"}}, {"type": "node", "id": 915699749, "lat": 49.3799102, "lon": 12.727154, "tags": {"information": "map", "map_type": "topo", "name": "Wanderkarte", "tourism": "information"}}, {"type": "node", "id": 915699822, "lat": 49.3921234, "lon": 12.7331084, "tags": {"name": "M\u00fchlrad", "tourism": "attraction"}}, {"type": "node", "id": 915699845, "lat": 49.3767118, "lon": 12.7743172, "tags": {"ele": "923", "hiking": "yes", "information": "guidepost", "name": "Kamenn\u00e1 lou\u010dka", "operator": "cz:K\u010cT", "ref": "DO203", "tourism": "information"}}, {"type": "node", "id": 915699883, "lat": 49.3901881, "lon": 12.7298663, "tags": {"board_type": "history", "check_date": "2022-10-29", "information": "board", "name": "K\u00f6hlerei", "tourism": "information"}}, {"type": "node", "id": 946082303, "lat": 49.5394289, "lon": 12.7029926, "tags": {"ele": "640", "hiking": "yes", "information": "guidepost", "name": "Pod Kamencem", "operator": "cz:K\u010cT", "ref": "DO239", "source": "survey", "tourism": "information"}}, {"type": "node", "id": 946082311, "lat": 49.5432819, "lon": 12.6110115, "tags": {"description": "Zanikl\u00e1 ves, skl\u00e1rna ji\u017e roku 1573. 2 kostely. Po roce 1945 zbour\u00e1ny. V\u00a0roce 1930 106 usedlost\u00ed s\u00a0719 obyvateli.", "ele": "768", "hiking": "yes", "information": "guidepost", "name": "Ple\u0161 (b\u00fdval\u00e1 obec)", "official_name": "Ple\u0161 (b\u00fdv. obec)", "operator": "cz:K\u010cT", "ref": "DO041", "source": "survey", "tourism": "information"}}, {"type": "node", "id": 946082358, "lat": 49.4979375, "lon": 12.7654203, "tags": {"ele": "480", "hiking": "yes", "information": "guidepost", "name": "Mnichov", "operator": "cz:K\u010cT", "ref": "DO242", "tourism": "information"}}, {"type": "node", "id": 946082502, "lat": 49.5392414, "lon": 12.6633066, "tags": {"ele": "550", "hiking": "yes", "information": "guidepost", "name": "Nad Mostkem", "operator": "cz:K\u010cT", "ref": "DO039;0223/11,5", "source": "survey", "tourism": "information"}}, {"type": "node", "id": 946082954, "lat": 49.4826663, "lon": 12.7738314, "tags": {"ele": "620", "hiking": "yes", "information": "guidepost", "name": "Vyhl\u00eddka (b\u00fdval\u00e1 osada)", "official_name": "Vyhl\u00eddka (b\u00fdv. osada)", "operator": "cz:K\u010cT", "ref": "DO112", "source": "survey", "tourism": "information"}}, {"type": "node", "id": 1259931832, "lat": 49.388264, "lon": 12.7914027, "tags": {"ele": "827", "hiking": "yes", "information": "guidepost", "name": "Horizont\u00e1lka", "operator": "cz:K\u010cT", "ref": "DO052", "source": "survey", "tourism": "information"}}, {"type": "node", "id": 1692928624, "lat": 49.3777787, "lon": 12.633987, "tags": {"bicycle": "yes", "hiking": "yes", "information": "guidepost", "name": "Wegweiser", "tourism": "information"}}, {"type": "node", "id": 1692938820, "lat": 49.3940339, "lon": 12.6259062, "tags": {"board_type": "notice", "information": "board", "name": "Karte + Wegweiser", "tourism": "information"}}, {"type": "node", "id": 1692956773, "lat": 49.4945754, "lon": 12.6415454, "tags": {"information": "guidepost", "tourism": "information"}}, {"type": "node", "id": 1872843531, "lat": 49.4226296, "lon": 12.6169273, "tags": {"alt_name": "Drachenturm", "building": "yes", "castle:tower": "yes", "height": "15", "historic": "castle", "man_made": "tower", "name": "Burgruine Treffelstein", "ruins": "yes", "tourism": "viewpoint", "tower:type": "defensive", "wheelchair": "no", "wikidata": "Q1015544", "wikipedia": "de:Burgruine Treffelstein"}}, {"type": "node", "id": 1872843539, "lat": 49.4082332, "lon": 12.6045159, "tags": {"board_type": "history", "check_date": "2022-08-11", "information": "board", "name": "Hochwasserschutz", "tourism": "information"}}, {"type": "node", "id": 1872843599, "lat": 49.4117859, "lon": 12.6062715, "tags": {"amenity": "shelter", "fireplace": "no", "shelter_type": "picnic_shelter"}}, {"type": "node", "id": 1872901219, "lat": 49.4041197, "lon": 12.6063003, "tags": {"amenity": "shelter", "bench": "yes", "fireplace": "no", "shelter_type": "public_transport", "wheelchair": "no"}}, {"type": "node", "id": 1873014329, "lat": 49.3764129, "lon": 12.6431631, "tags": {"amenity": "shelter", "fireplace": "no", "shelter_type": "weather_shelter"}}, {"type": "node", "id": 1874207802, "lat": 49.35276, "lon": 12.6599056, "tags": {"amenity": "shelter", "fireplace": "no"}}, {"type": "node", "id": 1881556593, "lat": 49.372853, "lon": 12.7554759, "tags": {"tourism": "information"}}, {"type": "node", "id": 2086254146, "lat": 49.5288146, "lon": 12.6307097, "tags": {"board_type": "history", "check_date": "2023-09-10", "information": "board", "name": "B\u00fcgellohe", "tourism": "information"}}, {"type": "node", "id": 2086295307, "lat": 49.5241529, "lon": 12.6327491, "tags": {"information": "guidepost", "tourism": "information"}}, {"type": "node", "id": 2086295338, "lat": 49.526921, "lon": 12.6286679, "tags": {"information": "guidepost", "tourism": "information"}}, {"type": "node", "id": 2086295449, "lat": 49.545069, "lon": 12.6052175, "tags": {"ele": "760", "hiking": "yes", "information": "guidepost", "name": "Ple\u0161 (n\u00e1m. p\u0159\u00edrody)", "operator": "cz:K\u010cT", "ref": "DO042", "tourism": "information"}}, {"type": "node", "id": 2086295452, "lat": 49.5315054, "lon": 12.6319477, "tags": {"information": "board", "name": "Wei\u00dfbachquelle", "tourism": "information"}}, {"type": "node", "id": 2318715147, "lat": 49.523709, "lon": 12.75826}, {"type": "node", "id": 2318715149, "lat": 49.523726, "lon": 12.758221}, {"type": "node", "id": 2318715151, "lat": 49.523743, "lon": 12.758296}, {"type": "node", "id": 2318715153, "lat": 49.523761, "lon": 12.758261}, {"type": "node", "id": 2349956067, "lat": 49.5451349, "lon": 12.6054101, "tags": {"amenity": "shelter", "covered": "yes", "leisure": "picnic_table", "shelter_type": "picnic_shelter"}}, {"type": "node", "id": 2387078548, "lat": 49.4973197, "lon": 12.6490338, "tags": {"amenity": "shelter", "shelter_type": "picnic_shelter"}}, {"type": "node", "id": 2387753312, "lat": 49.5074728, "lon": 12.6173737, "tags": {"addr:postcode": "92549", "board_type": "geology", "check_date": "2023-04-30", "information": "board", "name": "Gneis am Hochfels", "outdoor_seating": "no", "tourism": "information", "website": "https://www.oberpfaelzerwald.de/natur-navi/details-content.php?guid=p_30992"}}, {"type": "node", "id": 2387753314, "lat": 49.5188099, "lon": 12.6426552, "tags": {"information": "board", "name": "Goldbrunnen", "tourism": "information"}}, {"type": "node", "id": 2387753317, "lat": 49.5070752, "lon": 12.6171393, "tags": {"ele": "755", "name": "Hochfels", "natural": "peak", "wikidata": "Q57585905"}}, {"type": "node", "id": 2387753354, "lat": 49.4974809, "lon": 12.6132153, "tags": {"information": "guidepost", "tourism": "information"}}, {"type": "node", "id": 2387753360, "lat": 49.5036295, "lon": 12.6123125, "tags": {"information": "guidepost", "tourism": "information"}}, {"type": "node", "id": 2387753390, "lat": 49.5058784, "lon": 12.6167543, "tags": {"information": "guidepost", "tourism": "information"}}, {"type": "node", "id": 2387753451, "lat": 49.5195873, "lon": 12.6271175, "tags": {"information": "guidepost", "tourism": "information"}}, {"type": "node", "id": 2387753470, "lat": 49.5261805, "lon": 12.6315682, "tags": {"information": "guidepost", "tourism": "information"}}, {"type": "node", "id": 2387753473, "lat": 49.526622, "lon": 12.631007, "tags": {"information": "guidepost", "tourism": "information"}}, {"type": "node", "id": 2388211602, "lat": 49.4952984, "lon": 12.6430726, "tags": {"ele": "560", "hiking": "yes", "information": "guidepost", "name": "\u0160varcava CZ/D", "operator": "cz:K\u010cT", "ref": "DO090", "tourism": "information"}}, {"type": "node", "id": 2388211604, "lat": 49.4954857, "lon": 12.643317, "tags": {"information": "board", "tourism": "information"}}, {"type": "node", "id": 2388438877, "lat": 49.5059155, "lon": 12.6169476, "tags": {"check_date": "2023-04-30", "information": "map", "tourism": "information"}}, {"type": "node", "id": 2393230038, "lat": 49.4721801, "lon": 12.7139164, "tags": {"information": "board", "name": "Star\u00fd Her\u0161tejn", "name:cs": "Her\u0161tejn", "name:de": "Hirschstein", "tourism": "information"}}, {"type": "node", "id": 2393230063, "lat": 49.4720155, "lon": 12.714169, "tags": {"tourism": "viewpoint"}}, {"type": "node", "id": 2393230082, "lat": 49.4725806, "lon": 12.7228793, "tags": {"tourism": "viewpoint"}}, {"type": "node", "id": 2393230085, "lat": 49.4720291, "lon": 12.7153134, "tags": {"board_type": "history", "information": "board", "name": "Z\u0159\u00edcenina hradu Star\u00fd Her\u0161tejn", "name:de": "Burgruine Hirschstein", "tourism": "information"}}, {"type": "node", "id": 2393230086, "lat": 49.4721261, "lon": 12.7138979, "tags": {"ele": "878", "hiking": "yes", "information": "guidepost", "name": "Star\u00fd Her\u0161tejn (z\u0159\u00edcenina)", "official_name": "Star\u00fd Her\u0161tejn (z\u0159\u00edc.)", "operator": "cz:K\u010cT", "ref": "DO503", "tourism": "information"}}, {"type": "node", "id": 2393230087, "lat": 49.4720184, "lon": 12.715261, "tags": {"ele": "850", "hiking": "yes", "information": "guidepost", "name": "Star\u00fd Her\u0161tejn (rozcest\u00ed)", "official_name": "Star\u00fd Her\u0161tejn (rozc.)", "operator": "cz:K\u010cT", "ref": "DO034", "tourism": "information"}}, {"type": "node", "id": 2406087873, "lat": 49.5058699, "lon": 12.6170046, "tags": {"board_type": "geology", "check_date": "2023-04-30", "information": "board", "tourism": "information"}}, {"type": "node", "id": 2406087894, "lat": 49.5107708, "lon": 12.6188014, "tags": {"information": "guidepost", "tourism": "information"}}, {"type": "node", "id": 2409120556, "lat": 49.5415331, "lon": 12.6705319, "tags": {"board_type": "history", "description": "informace o zanikl\u00fdch obc\u00edch \u010cesk\u00e9ho lesa, v\u010detn\u011b Mostku", "information": "board", "name": "Mostek", "tourism": "information"}}, {"type": "node", "id": 2412526910, "lat": 49.3968548, "lon": 12.7017144, "tags": {"board_type": "notice", "information": "board", "name": "Erlebnisbereich Perlsee", "tourism": "information"}}, {"type": "node", "id": 2412526911, "lat": 49.3893611, "lon": 12.6981533, "tags": {"information": "board", "name": "Hochwasserr\u00fcckhaltung", "tourism": "information"}}, {"type": "node", "id": 2412526912, "lat": 49.3952373, "lon": 12.6980629, "tags": {"information": "board", "name": "Kr\u00e4uterlehrpfad", "tourism": "information"}}, {"type": "node", "id": 2412526913, "lat": 49.389234, "lon": 12.6983273, "tags": {"information": "board", "name": "Perlseerundweg", "tourism": "information"}}, {"type": "node", "id": 2412526914, "lat": 49.3952368, "lon": 12.6981265, "tags": {"information": "board", "name": "Perlseerundweg", "tourism": "information"}}, {"type": "node", "id": 2412526915, "lat": 49.396487, "lon": 12.7035945, "tags": {"board_type": "nature", "information": "board", "name": "Perlseerundweg", "tourism": "information"}}, {"type": "node", "id": 2412526924, "lat": 49.3937448, "lon": 12.694679, "tags": {"hiking": "yes", "information": "map", "map_size": "region", "map_type": "topo", "tourism": "information"}}, {"type": "node", "id": 2412526941, "lat": 49.3952358, "lon": 12.6981857, "tags": {"information": "board", "name": "Schwarzach", "tourism": "information"}}, {"type": "node", "id": 2425580344, "lat": 49.4025877, "lon": 12.7035035, "tags": {"amenity": "shelter", "bench": "yes"}}, {"type": "node", "id": 2425580353, "lat": 49.4074987, "lon": 12.7029899, "tags": {"tourism": "information"}}, {"type": "node", "id": 2425595997, "lat": 49.4263176, "lon": 12.6794238, "tags": {"amenity": "shelter"}}, {"type": "node", "id": 2425605355, "lat": 49.469773, "lon": 12.6581514, "tags": {"board_type": "history", "information": "board", "name": "Hrani\u010dn\u00e1", "name:de": "Paadorf", "tourism": "information"}}, {"type": "node", "id": 2585393458, "lat": 49.414196, "lon": 12.7507128, "tags": {"information": "board", "source": "survey", "tourism": "information"}}, {"type": "node", "id": 2594975458, "lat": 49.528765, "lon": 12.674844, "tags": {"board_type": "history", "description": "Zanikl\u00e1 Ves - Untergegangenes Dorf", "information": "board", "name": "Star\u00e1 Hut'", "name:de": "Alth\u00fctten", "tourism": "information"}}, {"type": "node", "id": 2663951107, "lat": 49.3785327, "lon": 12.7066491}, {"type": "node", "id": 2663951109, "lat": 49.3784683, "lon": 12.7067451}, {"type": "node", "id": 2663951111, "lat": 49.3784019, "lon": 12.7066399}, {"type": "node", "id": 2670482802, "lat": 49.3784662, "lon": 12.7065439}, {"type": "node", "id": 2750518356, "lat": 49.3636308, "lon": 12.6754043, "tags": {"ele": "652", "name": "Engelberg", "natural": "peak"}}, {"type": "node", "id": 2887513878, "lat": 49.4721364, "lon": 12.7140813, "tags": {"ele": "878", "name": "Star\u00fd Her\u0161tejn", "name:cs": "Star\u00fd Her\u0161tejn", "name:de": "Hirschstein", "natural": "peak", "source": "\u010c\u00daZK"}}, {"type": "node", "id": 3118251948, "lat": 49.3777953, "lon": 12.7066787, "tags": {"addr:city": "Waldm\u00fcnchen", "addr:country": "DE", "addr:housenumber": "16", "addr:postcode": "93449", "addr:street": "Marktplatz", "information": "tourist-info", "name": "Touristinfo S\u00e4ule", "operator": "Stadt Waldm\u00fcnchen", "tourism": "information"}}, {"type": "node", "id": 3166475156, "lat": 49.5391082, "lon": 12.640427, "tags": {"amenity": "shelter", "backrest": "yes", "shelter_type": "picnic_shelter"}}, {"type": "node", "id": 3166475159, "lat": 49.5392371, "lon": 12.6633778, "tags": {"amenity": "shelter", "backrest": "yes", "shelter_type": "picnic_shelter"}}, {"type": "node", "id": 3372209176, "lat": 49.4101473, "lon": 12.611949}, {"type": "node", "id": 3372209177, "lat": 49.4101617, "lon": 12.6119149}, {"type": "node", "id": 3372209178, "lat": 49.410187, "lon": 12.6119885}, {"type": "node", "id": 3372209179, "lat": 49.4102013, "lon": 12.6119543}, {"type": "node", "id": 3405267069, "lat": 49.3932972, "lon": 12.7053929}, {"type": "node", "id": 3701999603, "lat": 49.3753432, "lon": 12.7867819, "tags": {"information": "board", "tourism": "information"}}, {"type": "node", "id": 3701999620, "lat": 49.3777928, "lon": 12.7330095, "tags": {"hiking": "yes", "information": "guidepost", "tourism": "information"}}, {"type": "node", "id": 3701999626, "lat": 49.3795653, "lon": 12.7598504, "tags": {"hiking": "yes", "information": "guidepost", "tourism": "information"}}, {"type": "node", "id": 3701999629, "lat": 49.3807264, "lon": 12.7471293, "tags": {"hiking": "yes", "information": "guidepost", "tourism": "information"}}, {"type": "node", "id": 3701999631, "lat": 49.3814841, "lon": 12.7512849, "tags": {"hiking": "yes", "information": "guidepost", "tourism": "information"}}, {"type": "node", "id": 3717475770, "lat": 49.3883023, "lon": 12.7502739, "tags": {"hiking": "yes", "information": "guidepost", "tourism": "information"}}, {"type": "node", "id": 3717475773, "lat": 49.3879514, "lon": 12.7458196, "tags": {"information": "board", "name": "Wagenhof 1", "tourism": "information"}}, {"type": "node", "id": 3717475775, "lat": 49.3882161, "lon": 12.749325, "tags": {"information": "board", "name": "Wagenhof 2", "tourism": "information"}}, {"type": "node", "id": 3717475777, "lat": 49.3877603, "lon": 12.7506529, "tags": {"information": "board", "name": "Wagenhofm\u00fchle", "tourism": "information"}}, {"type": "node", "id": 3825170788, "lat": 49.5182681, "lon": 12.641889, "tags": {"information": "guidepost", "tourism": "information"}}, {"type": "node", "id": 3940864047, "lat": 49.4846838, "lon": 12.7372244, "tags": {"ele": "600", "hiking": "yes", "information": "guidepost", "name": "Pivo\u0148", "operator": "cz:K\u010cT", "ref": "DO175", "tourism": "information"}}, {"type": "node", "id": 3953955042, "lat": 49.3829761, "lon": 12.7835871, "tags": {"tourism": "viewpoint"}}, {"type": "node", "id": 4031521081, "lat": 49.477559, "lon": 12.7478427, "tags": {"ele": "620", "hiking": "yes", "information": "guidepost", "name": "Skl\u00e1\u0159e u Mnichova", "operator": "cz:K\u010cT", "ref": "DO174", "tourism": "information"}}, {"type": "node", "id": 4031521560, "lat": 49.4538487, "lon": 12.7512375, "tags": {"amenity": "shelter", "shelter_type": "picnic_shelter"}}, {"type": "node", "id": 4031521675, "lat": 49.4992035, "lon": 12.7908787, "tags": {"ele": "490", "hiking": "yes", "information": "guidepost", "name": "\u0160itbo\u0159", "operator": "cz:K\u010cT", "ref": "DO113", "tourism": "information"}}, {"type": "node", "id": 4068979552, "lat": 49.3579674, "lon": 12.6817828, "tags": {"amenity": "shelter", "bench": "yes", "bin": "yes", "name": "Grub (Oberpf)", "note": "Station wird seit 11.12.2016 wieder bedient", "shelter_type": "public_transport"}}, {"type": "node", "id": 4147337382, "lat": 49.4125678, "lon": 12.7981842, "tags": {"board_type": "nature", "information": "board", "ref": "4", "tourism": "information"}}, {"type": "node", "id": 4147337385, "lat": 49.4129537, "lon": 12.7892875, "tags": {"ele": "715", "hiking": "yes", "information": "guidepost", "name": "Capartice (bus)", "operator": "cz:K\u010cT", "ref": "DO025", "ski": "yes", "tourism": "information"}}, {"type": "node", "id": 4147337386, "lat": 49.413047, "lon": 12.7966464, "tags": {"board_type": "nature", "information": "board", "name": "Produk\u010dn\u00ed funkce lesa", "ref": "5", "tourism": "information"}}, {"type": "node", "id": 4147337387, "lat": 49.4141276, "lon": 12.7911411, "tags": {"information": "board", "tourism": "information"}}, {"type": "node", "id": 4147339604, "lat": 49.4180242, "lon": 12.7896869, "tags": {"information": "board", "tourism": "information"}}, {"type": "node", "id": 4147339619, "lat": 49.4329904, "lon": 12.7760218, "tags": {"information": "board", "tourism": "information"}}, {"type": "node", "id": 4147339649, "lat": 49.4535594, "lon": 12.7513384, "tags": {"ele": "888", "hiking": "yes", "information": "guidepost", "name": "\u0160karmanka", "operator": "cz:K\u010cT", "ref": "DO031", "tourism": "information"}}, {"type": "node", "id": 4212424386, "lat": 49.4393218, "lon": 12.7216601, "tags": {"information": "board", "tourism": "information"}}, {"type": "node", "id": 4212467909, "lat": 49.445263, "lon": 12.6892864, "tags": {"board_type": "history", "information": "board", "name": "Pila", "name:de": "Seeg", "tourism": "information"}}, {"type": "node", "id": 4368418696, "lat": 49.4332844, "lon": 12.6809565, "tags": {"amenity": "shelter"}}, {"type": "node", "id": 4368418699, "lat": 49.541646, "lon": 12.6708472, "tags": {"amenity": "shelter"}}, {"type": "node", "id": 4403809105, "lat": 49.5212925, "lon": 12.602575, "tags": {"check_date": "2023-09-10", "information": "map", "tourism": "information"}}, {"type": "node", "id": 4403809106, "lat": 49.5213482, "lon": 12.6027319, "tags": {"information": "guidepost", "tourism": "information"}}, {"type": "node", "id": 4907782306, "lat": 49.4452756, "lon": 12.6892412, "tags": {"ele": "560", "hiking": "yes", "information": "guidepost", "name": "Pila", "name:cs": "Pila", "name:de": "Seeg", "operator": "cz:K\u010cT", "ref": "DO212", "tourism": "information"}}, {"type": "node", "id": 4922432042, "lat": 49.393106, "lon": 12.6214457, "tags": {"bicycle": "yes", "hiking": "yes", "information": "guidepost", "tourism": "information"}}, {"type": "node", "id": 4929039431, "lat": 49.3782525, "lon": 12.6783747, "tags": {"board_type": "nature", "information": "board", "tourism": "information"}}, {"type": "node", "id": 4929182343, "lat": 49.4584612, "lon": 12.6461984, "tags": {"amenity": "shelter", "backrest": "yes", "material": "wood", "seats": "5", "shelter_type": "weather_shelter"}}, {"type": "node", "id": 4929182406, "lat": 49.4621499, "lon": 12.6518042, "tags": {"bicycle": "yes", "hiking": "yes", "information": "map", "map_size": "region", "map_type": "topo", "tourism": "information"}}, {"type": "node", "id": 4929182407, "lat": 49.4621351, "lon": 12.6517898, "tags": {"board_type": "nature", "information": "board", "tourism": "information"}}, {"type": "node", "id": 4929182408, "lat": 49.4621267, "lon": 12.6518047}, {"type": "node", "id": 4929182409, "lat": 49.4621183, "lon": 12.6518148}, {"type": "node", "id": 4929182410, "lat": 49.4621149, "lon": 12.651833}, {"type": "node", "id": 4929182411, "lat": 49.4621234, "lon": 12.651844}, {"type": "node", "id": 4929182412, "lat": 49.4621329, "lon": 12.6518471}, {"type": "node", "id": 4929182413, "lat": 49.46214, "lon": 12.6518366}, {"type": "node", "id": 4929182414, "lat": 49.4621433, "lon": 12.6518256}, {"type": "node", "id": 4929182415, "lat": 49.462136, "lon": 12.6518077}, {"type": "node", "id": 4933921468, "lat": 49.3940064, "lon": 12.6255378, "tags": {"board_type": "notice", "information": "board", "tourism": "information"}}, {"type": "node", "id": 4947683990, "lat": 49.5347972, "lon": 12.639513, "tags": {"ele": "847", "name": "Mal\u00fd Zvon", "name:cs": "Mal\u00fd Zvon", "name:de": "Gl\u00f6ckelberg", "natural": "peak", "old_name": "Zvonec", "source": "\u010c\u00daZK", "wikidata": "Q72007977"}}, {"type": "node", "id": 5089799443, "lat": 49.3895372, "lon": 12.7760241, "tags": {"ele": "971", "name": "Malinov\u00e1 hora", "natural": "peak", "source": "\u010c\u00daZK"}}, {"type": "node", "id": 5089873750, "lat": 49.3919746, "lon": 12.7662051, "tags": {"ele": "927", "name": "Skalka", "natural": "peak", "source": "\u010c\u00daZK"}}, {"type": "node", "id": 5089886378, "lat": 49.4145488, "lon": 12.7384728, "tags": {"ele": "698", "name": "Li\u0161\u010d\u00edn", "natural": "peak"}}, {"type": "node", "id": 5089890636, "lat": 49.4065408, "lon": 12.7484344, "tags": {"ele": "790", "name": "Kv\u011btn\u00e1 skalina", "name:de": "Blaublumenfels", "natural": "peak"}}, {"type": "node", "id": 5089898185, "lat": 49.4183483, "lon": 12.7529242, "tags": {"ele": "686", "name": "Plesno", "name:de": "Plesselberg", "natural": "peak"}}, {"type": "node", "id": 5089903542, "lat": 49.4254044, "lon": 12.738287, "tags": {"ele": "683", "name": "Les\u00edk", "natural": "peak"}}, {"type": "node", "id": 5089904049, "lat": 49.430027, "lon": 12.693251, "tags": {"ele": "721", "name": "Nad Z\u00e1me\u010dkem", "natural": "peak", "source": "\u010c\u00daZK", "wikidata": "Q109657530"}}, {"type": "node", "id": 5089911309, "lat": 49.4315491, "lon": 12.6718682, "tags": {"ele": "676.9", "name": "K\u0159\u00ed\u017eov\u00fd vrch", "name:cs": "K\u0159\u00ed\u017eov\u00fd vrch", "name:de": "Am Berg", "natural": "peak"}}, {"type": "node", "id": 5089922349, "lat": 49.4428015, "lon": 12.674424, "tags": {"ele": "683", "name": "Skalka", "name:cs": "Skalka", "name:de": "Steinfels", "natural": "peak"}}, {"type": "node", "id": 5089924995, "lat": 49.4520073, "lon": 12.6682439, "tags": {"ele": "698.0", "name": "Koz\u00ed vrch", "name:cs": "Koz\u00ed vrch", "name:de": "Gaissh\u00fcbl", "natural": "peak"}}, {"type": "node", "id": 5089930660, "lat": 49.4513674, "lon": 12.6849996, "tags": {"ele": "636", "name": "Ml\u00fdnsk\u00fd vrch", "name:cs": "Ml\u00fdnsk\u00fd vrch", "name:de": "M\u00fchlberg", "natural": "peak"}}, {"type": "node", "id": 5089938534, "lat": 49.4743202, "lon": 12.656288, "tags": {"ele": "703", "name": "Z\u00e1seky", "natural": "peak"}}, {"type": "node", "id": 5089938535, "lat": 49.4686636, "lon": 12.6624524, "tags": {"ele": "669", "name": "Nad L\u00edskovcem", "natural": "peak"}}, {"type": "node", "id": 5089940584, "lat": 49.4792238, "lon": 12.6405312, "tags": {"ele": "579", "name": "Pod Horn\u00ed Hut\u00ed", "name:cs": "Pod Horn\u00ed Hut\u00ed", "natural": "peak"}}, {"type": "node", "id": 5089942312, "lat": 49.4928732, "lon": 12.6796022, "tags": {"ele": "615", "name": "U Z\u00e1visti", "natural": "peak", "source": "\u010c\u00daZK"}}, {"type": "node", "id": 5089945932, "lat": 49.4958964, "lon": 12.6549324, "tags": {"ele": "619", "name": "Vr\u0161ek", "natural": "peak"}}, {"type": "node", "id": 5089952125, "lat": 49.4954371, "lon": 12.7438429, "tags": {"ele": "596", "name": "U les\u00edka", "natural": "peak", "source": "\u010c\u00daZK"}}, {"type": "node", "id": 5089954083, "lat": 49.5070221, "lon": 12.7526566, "tags": {"ele": "562", "name": "Nademl\u00fdnsk\u00fd vrch", "natural": "peak"}}, {"type": "node", "id": 5089959694, "lat": 49.5089628, "lon": 12.7645988, "tags": {"ele": "548", "name": "Vran\u00ed hora", "natural": "peak"}}, {"type": "node", "id": 5089967888, "lat": 49.5126073, "lon": 12.7738124, "tags": {"ele": "533", "name": "Skalky", "natural": "peak"}}, {"type": "node", "id": 5089970322, "lat": 49.521819, "lon": 12.792227, "tags": {"ele": "512", "name": "\u010cernava", "natural": "peak"}}, {"type": "node", "id": 5346681349, "lat": 49.4075457, "lon": 12.7413082, "tags": {"ele": "630", "hiking": "yes", "information": "guidepost", "name": "Nad Bastlov\u00fdm ml\u00fdnem", "operator": "cz:K\u010cT", "ref": "DO106", "tourism": "information"}}, {"type": "node", "id": 5346718231, "lat": 49.4181172, "lon": 12.7140784, "tags": {"ele": "630", "hiking": "yes", "information": "guidepost", "name": "L\u00edskov\u00e1 CZ/D", "operator": "cz:K\u010cT", "ref": "DO106", "tourism": "information"}}, {"type": "node", "id": 5346787351, "lat": 49.4331915, "lon": 12.6806206, "tags": {"ele": "650", "hiking": "yes", "information": "guidepost", "name": "Lu\u010dina", "operator": "cz:K\u010cT", "ref": "DO211", "tourism": "information"}}, {"type": "node", "id": 5346787352, "lat": 49.4261639, "lon": 12.6794994, "tags": {"ele": "615", "hiking": "yes", "information": "guidepost", "name": "Lu\u010dina CZ/D", "operator": "cz:K\u010cT", "ref": "DO210", "tourism": "information"}}, {"type": "node", "id": 5347384276, "lat": 49.5380487, "lon": 12.6284784, "tags": {"ele": "749", "hiking": "yes", "information": "guidepost", "name": "V\u00e1clav", "operator": "cz:K\u010cT", "ref": "DO040", "tourism": "information"}}, {"type": "node", "id": 5400884422, "lat": 49.5054642, "lon": 12.77026, "tags": {"ele": "510", "hiking": "yes", "information": "guidepost", "name": "Hvo\u017edany", "operator": "cz:K\u010cT", "ref": "DO243", "tourism": "information"}}, {"type": "node", "id": 5401318734, "lat": 49.5179789, "lon": 12.699278, "tags": {"ele": "700", "hiking": "yes", "information": "guidepost", "name": "B\u00fdval\u00e9 Korytany", "operator": "cz:K\u010cT", "ref": "DO240", "tourism": "information"}}, {"type": "node", "id": 5401325518, "lat": 49.5125179, "lon": 12.6771605, "tags": {"ele": "535", "hiking": "yes", "information": "guidepost", "name": "Rybn\u00edk", "operator": "cz:K\u010cT", "ref": "DO038", "tourism": "information"}}, {"type": "node", "id": 5438282044, "lat": 49.3537945, "lon": 12.7772531, "tags": {"ele": "865", "name": "Knockh\u00fcgel", "natural": "peak"}}, {"type": "node", "id": 5709023242, "lat": 49.4622007, "lon": 12.7710915, "tags": {"ele": "580", "hiking": "yes", "information": "guidepost", "name": "Osl\u00ed ml\u00fdne\u010dek", "operator": "cz:K\u010cT", "ref": "DO173", "tourism": "information"}}, {"type": "node", "id": 5745315822, "lat": 49.5206223, "lon": 12.6311346, "tags": {"name": "Blick auf den Bayerischen Wald", "tourism": "viewpoint"}}, {"type": "node", "id": 6005933043, "lat": 49.4901021, "lon": 12.6933421, "tags": {"amenity": "shelter", "shelter_type": "picnic_shelter"}}, {"type": "node", "id": 6005933045, "lat": 49.475028, "lon": 12.6606944, "tags": {"amenity": "shelter", "shelter_type": "picnic_shelter"}}, {"type": "node", "id": 6256258559, "lat": 49.4461375, "lon": 12.7874716, "tags": {"tourism": "viewpoint"}}, {"type": "node", "id": 6256258564, "lat": 49.4464983, "lon": 12.786874, "tags": {"ele": "610", "hiking": "yes", "information": "guidepost", "name": "D\u00edly", "operator": "cz:K\u010cT", "ref": "DO234", "tourism": "information"}}, {"type": "node", "id": 6450077987, "lat": 49.3824068, "lon": 12.7770066, "tags": {"name:de": "+DO-9217", "tourism": "information"}}, {"type": "node", "id": 6450077988, "lat": 49.3772452, "lon": 12.7674551, "tags": {"name:de": "+DO-9227", "tourism": "information"}}, {"type": "node", "id": 6450077989, "lat": 49.3773785, "lon": 12.766696, "tags": {"name:de": "+DO-9228", "tourism": "information"}}, {"type": "node", "id": 6450077990, "lat": 49.3795433, "lon": 12.7599339, "tags": {"information": "map", "name:de": "+CHA-9036", "tourism": "information"}}, {"type": "node", "id": 6450077991, "lat": 49.3805925, "lon": 12.7449392, "tags": {"name": "+CHA-9038", "tourism": "information"}}, {"type": "node", "id": 6450077992, "lat": 49.3799192, "lon": 12.7403215, "tags": {"name": "+CHA-9040", "tourism": "information"}}, {"type": "node", "id": 6450110285, "lat": 49.3771228, "lon": 12.7708907, "tags": {"name:de": "+DO-9223", "tourism": "information"}}, {"type": "node", "id": 6450110286, "lat": 49.3770838, "lon": 12.7683921, "tags": {"name:de": "+DO-9226", "tourism": "information"}}, {"type": "node", "id": 6450110287, "lat": 49.381144, "lon": 12.7424324, "tags": {"name": "+CHA-9039", "tourism": "information"}}, {"type": "node", "id": 6450110288, "lat": 49.3824989, "lon": 12.7773307, "tags": {"name:de": "+DO-9218", "tourism": "information"}}, {"type": "node", "id": 6450110385, "lat": 49.377121, "lon": 12.768775, "tags": {"name:de": "+DO-9225", "tourism": "information"}}, {"type": "node", "id": 6450110386, "lat": 49.3776992, "lon": 12.7312529, "tags": {"name": "+CHA-9055", "tourism": "information"}}, {"type": "node", "id": 6450110785, "lat": 49.3797575, "lon": 12.758176, "tags": {"name": "+CHA-9035", "tourism": "information"}}, {"type": "node", "id": 6450110786, "lat": 49.3814728, "lon": 12.7511506, "tags": {"name": "+CHA-9037", "tourism": "information"}}, {"type": "node", "id": 6501831285, "lat": 49.3556185, "lon": 12.780551, "tags": {"name": "DO-9191", "tourism": "information"}}, {"type": "node", "id": 6501831286, "lat": 49.3588454, "lon": 12.7844522, "tags": {"name": "DO-9192", "tourism": "information"}}, {"type": "node", "id": 6501849285, "lat": 49.3629581, "lon": 12.7827238, "tags": {"name": "DO-9193", "tourism": "information"}}, {"type": "node", "id": 6501849286, "lat": 49.3654452, "lon": 12.7762088, "tags": {"name:de": "DO-9194", "tourism": "information"}}, {"type": "node", "id": 6501870187, "lat": 49.3767186, "lon": 12.7740814, "tags": {"name:de": "DO-9212", "tourism": "information"}}, {"type": "node", "id": 6501874585, "lat": 49.3745669, "lon": 12.7736933, "tags": {"name:de": "DO-9222", "tourism": "information"}}, {"type": "node", "id": 6501988287, "lat": 49.3827891, "lon": 12.7800198, "tags": {"name:de": "DO-9219", "tourism": "information"}}, {"type": "node", "id": 6501989185, "lat": 49.3834805, "lon": 12.7810759, "tags": {"hiking": "yes", "information": "guidepost", "name:de": "DO-9220", "ref": "none", "tourism": "information"}}, {"type": "node", "id": 6517840581, "lat": 49.5394464, "lon": 12.7029958, "tags": {"bicycle": "yes", "information": "map", "map_size": "region", "map_type": "topo", "tourism": "information"}}, {"type": "node", "id": 6517841789, "lat": 49.5178405, "lon": 12.699244, "tags": {"board_type": "history", "information": "board", "name": "Korytany", "name:de": "Riendl", "tourism": "information"}}, {"type": "node", "id": 6517841792, "lat": 49.4930694, "lon": 12.7080737, "tags": {"bicycle": "yes", "information": "map", "map_size": "region", "map_type": "topo", "tourism": "information"}}, {"type": "node", "id": 6517841798, "lat": 49.4926449, "lon": 12.7079404, "tags": {"amenity": "shelter", "shelter_type": "picnic_shelter"}}, {"type": "node", "id": 6875308285, "lat": 49.4292743, "lon": 12.7822368, "tags": {"ele": "854", "hiking": "yes", "information": "guidepost", "name": "S\u00e1dek chata", "name:de": "DO 019 Rettungspunkt", "operator": "cz:K\u010cT", "ref": "DO235", "tourism": "information"}}, {"type": "node", "id": 7099351205, "lat": 49.3795647, "lon": 12.7599264}, {"type": "node", "id": 7099351206, "lat": 49.3796025, "lon": 12.7599426}, {"type": "node", "id": 7099351207, "lat": 49.3795958, "lon": 12.7599847}, {"type": "node", "id": 7099351208, "lat": 49.3795562, "lon": 12.7599678}, {"type": "node", "id": 7099371425, "lat": 49.3613031, "lon": 12.782191, "tags": {"ele": "939", "name": "Smr\u010d\u00ed", "natural": "peak", "source": "\u010c\u00daZK"}}, {"type": "node", "id": 7169705909, "lat": 49.457497, "lon": 12.7950758, "tags": {"ele": "480", "hiking": "yes", "information": "guidepost", "name": "Post\u0159ekov rozc,", "operator": "cz:K\u010cT", "ref": "DO172", "tourism": "information"}}, {"type": "node", "id": 7171512339, "lat": 49.4604469, "lon": 12.6864731, "tags": {"ele": "537", "hiking": "yes", "information": "guidepost", "name": "L\u00edskovec", "operator": "cz:K\u010cT", "ref": "DO213", "tourism": "information"}}, {"type": "node", "id": 7171557152, "lat": 49.4682949, "lon": 12.7363783, "tags": {"ele": "806", "hiking": "yes", "information": "guidepost", "name": "Mal\u00e1 sk\u00e1la", "operator": "cz:K\u010cT", "ref": "DO035", "tourism": "information"}}, {"type": "node", "id": 7171595664, "lat": 49.4436659, "lon": 12.7627283, "tags": {"ele": "822", "hiking": "yes", "information": "guidepost", "name": "Haltrava", "operator": "cz:K\u010cT", "ref": "DO029", "tourism": "information"}}, {"type": "node", "id": 7174638638, "lat": 49.4731753, "lon": 12.7630073, "tags": {"ele": "650", "hiking": "yes", "information": "guidepost", "name": "Valt\u00ed\u0159ov", "operator": "cz:K\u010cT", "ref": "DO111", "tourism": "information"}}, {"type": "node", "id": 7174702997, "lat": 49.4790775, "lon": 12.7377205, "tags": {"ele": "650", "hiking": "yes", "information": "guidepost", "name": "Vranov", "operator": "cz:K\u010cT", "ref": "DO176", "tourism": "information"}}, {"type": "node", "id": 7174702998, "lat": 49.4888381, "lon": 12.7197218, "tags": {"ele": "870", "hiking": "yes", "information": "guidepost", "name": "Lys\u00e1 hora", "operator": "cz:K\u010cT", "ref": "DO241", "tourism": "information"}}, {"type": "node", "id": 7179234211, "lat": 49.4111093, "lon": 12.7538663, "tags": {"ele": "635", "hiking": "yes", "information": "guidepost", "name": "\u010cern\u00e1 \u0159eka", "operator": "cz:K\u010cT", "ref": "DO105", "tourism": "information"}}, {"type": "node", "id": 7179234212, "lat": 49.4211497, "lon": 12.752772, "tags": {"ele": "670", "hiking": "yes", "information": "guidepost", "name": "Jind\u0159ichova hora", "operator": "cz:K\u010cT", "ref": "DO191", "tourism": "information"}}, {"type": "node", "id": 7179234213, "lat": 49.4273711, "lon": 12.7613068, "tags": {"ele": "770", "hiking": "yes", "information": "guidepost", "name": "Capartick\u00e1 sk\u00e1la", "operator": "cz:K\u010cT", "ref": "DO192", "tourism": "information"}}, {"type": "node", "id": 7222866565, "lat": 49.5293529, "lon": 12.618934, "tags": {"board_type": "warning", "information": "board", "inscription": "POZOR St\u00e1tn\u00ed hranice", "tourism": "information"}}, {"type": "node", "id": 7419663152, "lat": 49.4727674, "lon": 12.7288896, "tags": {"amenity": "shelter", "shelter_type": "picnic_shelter", "source": "GPX;survey;Maxar Premium", "tourism": "picnic_site"}}, {"type": "node", "id": 7423924356, "lat": 49.5192539, "lon": 12.740422}, {"type": "node", "id": 7423924357, "lat": 49.519232, "lon": 12.7404062}, {"type": "node", "id": 7423924358, "lat": 49.5192399, "lon": 12.7403799}, {"type": "node", "id": 7423924359, "lat": 49.5192618, "lon": 12.7403958}, {"type": "node", "id": 7423924360, "lat": 49.5201971, "lon": 12.751996}, {"type": "node", "id": 7423924361, "lat": 49.5201736, "lon": 12.7519876}, {"type": "node", "id": 7423924362, "lat": 49.5201778, "lon": 12.7519594}, {"type": "node", "id": 7423924363, "lat": 49.5202014, "lon": 12.7519678}, {"type": "node", "id": 7423924364, "lat": 49.5214805, "lon": 12.7183149}, {"type": "node", "id": 7423924365, "lat": 49.5214699, "lon": 12.7182814}, {"type": "node", "id": 7423924366, "lat": 49.5214867, "lon": 12.7182686}, {"type": "node", "id": 7423924367, "lat": 49.5214974, "lon": 12.7183021}, {"type": "node", "id": 7424442420, "lat": 49.5427902, "lon": 12.6729101}, {"type": "node", "id": 7424442421, "lat": 49.5428233, "lon": 12.6730915}, {"type": "node", "id": 7507114954, "lat": 49.4329747, "lon": 12.680648, "tags": {"board_type": "history", "information": "board", "name": "Lu\u010dina - b\u00fdval\u00fd Grafenried", "source": "GPX;survey", "tourism": "information"}}, {"type": "node", "id": 7507114955, "lat": 49.4332734, "lon": 12.6809277, "tags": {"information": "board", "name": "Grafenried \u2013 Lu\u010dina St.-Georg-Kirche", "name:cs": "Lu\u010dina \u2013 Grafenried Kostel sv. Ji\u0159\u00ed", "name:de": "Grafenried \u2013 Lu\u010dina St.-Georg-Kirche", "tourism": "information"}}, {"type": "node", "id": 7507114960, "lat": 49.4335708, "lon": 12.6806581, "tags": {"board_type": "history", "information": "board", "name": "Lu\u010dina - b\u00fdval\u00fd Grafenried", "source": "GPX;survey", "tourism": "information"}}, {"type": "node", "id": 7657258492, "lat": 49.5193798, "lon": 12.7405035, "tags": {"information": "map", "map_size": "region", "map_type": "topo", "tourism": "information"}}, {"type": "node", "id": 7657258497, "lat": 49.505682, "lon": 12.7708863, "tags": {"information": "map", "map_size": "region", "map_type": "topo", "tourism": "information"}}, {"type": "node", "id": 7671123314, "lat": 49.5130133, "lon": 12.6775011, "tags": {"information": "map", "map_size": "region", "map_type": "topo", "tourism": "information"}}, {"type": "node", "id": 7699437375, "lat": 49.5273812, "lon": 12.6569366, "tags": {"ele": "790", "name": "\u017delezn\u00fd vrch", "name:cs": "\u017delezn\u00fd vrch", "name:de": "Eisenberg", "natural": "peak", "source": "\u010c\u00daZK", "wikidata": "Q23824335"}}, {"type": "node", "id": 7699437376, "lat": 49.5201939, "lon": 12.6515292, "tags": {"ele": "794", "name": "Velk\u00e1 sk.", "natural": "peak", "source": "\u010c\u00daZK"}}, {"type": "node", "id": 7699476211, "lat": 49.5324289, "lon": 12.6868961, "tags": {"ele": "598", "name": "Hor\u0161\u00ednsk\u00fd h\u00e1j", "natural": "peak", "source": "\u010c\u00daZK"}}, {"type": "node", "id": 7699476212, "lat": 49.5181847, "lon": 12.7045767, "tags": {"ele": "753", "name": "Str\u00e1\u017e", "natural": "peak", "source": "\u010c\u00daZK"}}, {"type": "node", "id": 7699476213, "lat": 49.525487, "lon": 12.7091216, "tags": {"ele": "717", "name": "Mo\u0161na", "name:de": "Muschnaberg", "natural": "peak", "source": "\u010c\u00daZK"}}, {"type": "node", "id": 7699476214, "lat": 49.493023, "lon": 12.6907968, "tags": {"ele": "643", "natural": "peak"}}, {"type": "node", "id": 7699476215, "lat": 49.4867786, "lon": 12.7149152, "tags": {"ele": "863", "natural": "peak", "source": "\u010c\u00daZK"}}, {"type": "node", "id": 7699476216, "lat": 49.4971557, "lon": 12.7047288, "tags": {"ele": "756", "natural": "peak", "source": "\u010c\u00daZK"}}, {"type": "node", "id": 7717901517, "lat": 49.3680174, "lon": 12.7573693, "tags": {"ele": "821", "name": "Plattenberg", "natural": "peak"}}, {"type": "node", "id": 7717901518, "lat": 49.3789922, "lon": 12.7524232, "tags": {"ele": "861", "name": "Kramberg", "natural": "peak"}}, {"type": "node", "id": 7717901519, "lat": 49.3966053, "lon": 12.7433467, "tags": {"ele": "802", "name": "kl. Ebenberg", "natural": "peak"}}, {"type": "node", "id": 7717901520, "lat": 49.4234388, "lon": 12.776134, "tags": {"ele": "860", "name": "Bucina", "name:de": "Buchenberg", "natural": "peak"}}, {"type": "node", "id": 7717901521, "lat": 49.427249, "lon": 12.765212, "tags": {"ele": "821", "name": "Capartick\u00e1 sk\u00e1la", "natural": "peak"}}, {"type": "node", "id": 7717933001, "lat": 49.4232155, "lon": 12.628591, "tags": {"ele": "507", "natural": "peak"}}, {"type": "node", "id": 7717933002, "lat": 49.4263698, "lon": 12.6263594, "tags": {"ele": "503", "natural": "peak"}}, {"type": "node", "id": 7717933003, "lat": 49.4270676, "lon": 12.63623, "tags": {"ele": "527", "natural": "peak"}}, {"type": "node", "id": 7717933004, "lat": 49.4178974, "lon": 12.6406288, "tags": {"ele": "527", "natural": "peak"}}, {"type": "node", "id": 7717933005, "lat": 49.4109174, "lon": 12.6317453, "tags": {"ele": "561", "natural": "peak"}}, {"type": "node", "id": 7717933006, "lat": 49.3996286, "lon": 12.6459718, "tags": {"ele": "493", "name": "Haidberg", "natural": "peak", "wikidata": "Q30650182"}}, {"type": "node", "id": 7717933007, "lat": 49.3920175, "lon": 12.6513362, "tags": {"ele": "490", "natural": "peak"}}, {"type": "node", "id": 7717933008, "lat": 49.3926809, "lon": 12.6601124, "tags": {"ele": "551", "name": "Sinzenberg", "natural": "peak"}}, {"type": "node", "id": 7717933009, "lat": 49.3957464, "lon": 12.6816344, "tags": {"ele": "535", "natural": "peak"}}, {"type": "node", "id": 7717933010, "lat": 49.3980297, "lon": 12.6951957, "tags": {"ele": "551", "natural": "peak"}}, {"type": "node", "id": 7717933011, "lat": 49.3976317, "lon": 12.7395272, "tags": {"ele": "810", "name": "Ebenberg", "natural": "peak"}}, {"type": "node", "id": 7717933012, "lat": 49.3980995, "lon": 12.7274787, "tags": {"ele": "742", "name": "Galgenberg", "natural": "peak", "wikidata": "Q31546275"}}, {"type": "node", "id": 7717933013, "lat": 49.4117236, "lon": 12.7251399, "tags": {"ele": "671", "natural": "peak"}}, {"type": "node", "id": 7717933014, "lat": 49.4079436, "lon": 12.7225757, "tags": {"ele": "680", "name": "Durrn Berg", "natural": "peak"}}, {"type": "node", "id": 7717933015, "lat": 49.4101216, "lon": 12.6882863, "tags": {"ele": "615", "natural": "peak"}}, {"type": "node", "id": 7717933016, "lat": 49.4072176, "lon": 12.6879644, "tags": {"ele": "615", "natural": "peak"}}, {"type": "node", "id": 7717933017, "lat": 49.4055002, "lon": 12.693479, "tags": {"ele": "615", "name": "Kapellenberg", "natural": "peak"}}, {"type": "node", "id": 7717933018, "lat": 49.4076294, "lon": 12.6715386, "tags": {"ele": "545", "natural": "peak"}}, {"type": "node", "id": 7717933019, "lat": 49.4137095, "lon": 12.6922774, "tags": {"ele": "623", "name": "H\u00f6ller Berg", "natural": "peak"}}, {"type": "node", "id": 7717933020, "lat": 49.4171715, "lon": 12.6723218, "tags": {"ele": "633", "natural": "peak"}}, {"type": "node", "id": 7717933021, "lat": 49.4227409, "lon": 12.6732874, "tags": {"ele": "652", "name": "Kochberg", "natural": "peak"}}, {"type": "node", "id": 7717933022, "lat": 49.4204518, "lon": 12.6666891, "tags": {"ele": "672", "name": "Spielberg", "natural": "peak"}}, {"type": "node", "id": 7717933023, "lat": 49.4448169, "lon": 12.6167893, "tags": {"ele": "556", "name": "Schusterb\u00fcgel", "natural": "peak"}}, {"type": "node", "id": 7717933024, "lat": 49.4501181, "lon": 12.6090002, "tags": {"ele": "544", "natural": "peak"}}, {"type": "node", "id": 7717933025, "lat": 49.4425009, "lon": 12.6229906, "tags": {"ele": "583", "natural": "peak"}}, {"type": "node", "id": 7717933026, "lat": 49.4519874, "lon": 12.6298571, "tags": {"ele": "648", "name": "Silberberg", "natural": "peak"}}, {"type": "node", "id": 7717933027, "lat": 49.4435892, "lon": 12.6406503, "tags": {"ele": "652", "name": "Schwabenberg", "natural": "peak"}}, {"type": "node", "id": 7717933028, "lat": 49.4390337, "lon": 12.6439118, "tags": {"ele": "694", "name": "Kleeberg", "natural": "peak", "wikidata": "Q31534883"}}, {"type": "node", "id": 7717938397, "lat": 49.359542, "lon": 12.6554882, "tags": {"ele": "543", "natural": "peak"}}, {"type": "node", "id": 7717938398, "lat": 49.3624278, "lon": 12.6804757, "tags": {"ele": "640", "name": "Kleiner Engelberg", "natural": "peak"}}, {"type": "node", "id": 7717938399, "lat": 49.3696383, "lon": 12.6521945, "tags": {"ele": "600", "name": "Albernhofer Berg", "natural": "peak"}}, {"type": "node", "id": 7717938400, "lat": 49.3690165, "lon": 12.6613891, "tags": {"ele": "637", "name": "Blauberg", "natural": "peak"}}, {"type": "node", "id": 7717938401, "lat": 49.3749546, "lon": 12.6622367, "tags": {"ele": "567", "name": "Aster Berg", "natural": "peak", "wikidata": "Q30724241"}}, {"type": "node", "id": 7717938402, "lat": 49.3549927, "lon": 12.6932108, "tags": {"ele": "546", "natural": "peak"}}, {"type": "node", "id": 7722260050, "lat": 49.5183516, "lon": 12.622886, "tags": {"ele": "858", "natural": "peak"}}, {"type": "node", "id": 7722260051, "lat": 49.5157012, "lon": 12.6051003, "tags": {"ele": "779", "natural": "peak"}}, {"type": "node", "id": 7722269778, "lat": 49.5267335, "lon": 12.6146114, "tags": {"ele": "790", "natural": "peak"}}, {"type": "node", "id": 7722269779, "lat": 49.5252989, "lon": 12.6010716, "tags": {"ele": "784", "name": "Schillerberg", "natural": "peak", "wikidata": "Q31523051"}}, {"type": "node", "id": 7722289730, "lat": 49.4718402, "lon": 12.6189512, "tags": {"ele": "628", "natural": "peak"}}, {"type": "node", "id": 7722289731, "lat": 49.4712999, "lon": 12.6127177, "tags": {"ele": "666", "natural": "peak"}}, {"type": "node", "id": 7722289732, "lat": 49.4609699, "lon": 12.6398992, "tags": {"ele": "717", "natural": "peak"}}, {"type": "node", "id": 7722289733, "lat": 49.4543169, "lon": 12.6038825, "tags": {"ele": "534", "name": "Mitterberg", "natural": "peak"}}, {"type": "node", "id": 7722289735, "lat": 49.4479245, "lon": 12.6458645, "tags": {"ele": "628", "name": "Seugb\u00fchl", "natural": "peak"}}, {"type": "node", "id": 7722290146, "lat": 49.4005712, "lon": 12.6371848, "tags": {"ele": "506", "natural": "peak"}}, {"type": "node", "id": 7722290147, "lat": 49.4010497, "lon": 12.6301588, "tags": {"ele": "526", "name": "Degenberg", "natural": "peak"}}, {"type": "node", "id": 7722290148, "lat": 49.3972165, "lon": 12.6310872, "tags": {"ele": "522", "name": "Pfaffenberg", "natural": "peak"}}, {"type": "node", "id": 7722290150, "lat": 49.3907954, "lon": 12.6075196, "tags": {"ele": "493", "natural": "peak"}}, {"type": "node", "id": 7722308057, "lat": 49.3739208, "lon": 12.6917303, "tags": {"ele": "532", "name": "Leerenh\u00e4usl", "natural": "peak"}}, {"type": "node", "id": 7722308058, "lat": 49.3680873, "lon": 12.6709109, "tags": {"ele": "626", "natural": "peak"}}, {"type": "node", "id": 7722309562, "lat": 49.4949394, "lon": 12.6059747, "tags": {"ele": "695", "natural": "peak"}}, {"type": "node", "id": 7722309563, "lat": 49.4933157, "lon": 12.6114678, "tags": {"ele": "711", "name": "Stadlernberg", "natural": "peak", "wikidata": "Q31519793"}}, {"type": "node", "id": 7722309564, "lat": 49.4840882, "lon": 12.6144934, "tags": {"ele": "722", "natural": "peak"}}, {"type": "node", "id": 8690961172, "lat": 49.4801527, "lon": 12.6280354, "tags": {"information": "history", "tourism": "information"}}, {"type": "node", "id": 8870444797, "lat": 49.5058756, "lon": 12.6167242, "tags": {"amenity": "shelter", "shelter_type": "weather_shelter"}}, {"type": "node", "id": 8870444799, "lat": 49.5036076, "lon": 12.6124346, "tags": {"amenity": "shelter", "bench": "yes", "bin": "yes", "shelter_type": "public_transport", "wheelchair": "no"}}, {"type": "node", "id": 8870444807, "lat": 49.5041457, "lon": 12.6096723}, {"type": "node", "id": 8870444808, "lat": 49.5041211, "lon": 12.6096767}, {"type": "node", "id": 8870444809, "lat": 49.504108, "lon": 12.6097092}, {"type": "node", "id": 8870444810, "lat": 49.5041162, "lon": 12.6097452}, {"type": "node", "id": 8870444811, "lat": 49.5041397, "lon": 12.6097577}, {"type": "node", "id": 8870444812, "lat": 49.5041607, "lon": 12.6097372}, {"type": "node", "id": 8870444813, "lat": 49.5041634, "lon": 12.6096992}, {"type": "node", "id": 8900313963, "lat": 49.411774, "lon": 12.7327905, "tags": {"amenity": "shelter", "shelter_type": "picnic_shelter"}}, {"type": "node", "id": 8900313965, "lat": 49.411755, "lon": 12.7328066, "tags": {"board_type": "history", "information": "board", "name": "Haselbach Weiher", "tourism": "information"}}, {"type": "node", "id": 8900313966, "lat": 49.4165609, "lon": 12.7202321, "tags": {"board_type": "history", "information": "board", "name": "Haselbach Kaple", "ref": "2", "tourism": "information"}}, {"type": "node", "id": 8900313967, "lat": 49.4193181, "lon": 12.719109, "tags": {"board_type": "history", "information": "board", "name": "1. L\u00edskov\u00e1", "ref": "1", "tourism": "information"}}, {"type": "node", "id": 8900313968, "lat": 49.4393867, "lon": 12.7216442, "tags": {"amenity": "shelter", "shelter_type": "picnic_shelter"}}, {"type": "node", "id": 8900313969, "lat": 49.4388743, "lon": 12.6826195, "tags": {"amenity": "shelter", "shelter_type": "picnic_shelter"}}, {"type": "node", "id": 8900313980, "lat": 49.4930903, "lon": 12.7080545, "tags": {"amenity": "shelter", "shelter_type": "weather_shelter"}}, {"type": "node", "id": 8900313982, "lat": 49.4926439, "lon": 12.7080033, "tags": {"board_type": "nature", "information": "board", "name": "Kv\u011btena okol\u00ed Li\u0161\u010d\u00edch Domk\u016f", "tourism": "information"}}, {"type": "node", "id": 8900764740, "lat": 49.4362474, "lon": 12.7715972, "tags": {"amenity": "shelter", "shelter_type": "picnic_shelter"}}, {"type": "node", "id": 8900764785, "lat": 49.4130323, "lon": 12.7965489, "tags": {"amenity": "shelter", "shelter_type": "picnic_shelter"}}, {"type": "node", "id": 8962036882, "lat": 49.4771275, "lon": 12.7634401, "tags": {"ele": "691", "name": "U p\u00edskovny", "natural": "peak"}}, {"type": "node", "id": 8962047892, "lat": 49.4724947, "lon": 12.7791113, "tags": {"ele": "685", "name": "Mod\u0159\u00ednovec", "natural": "peak", "wikidata": "Q100751054"}}, {"type": "node", "id": 8999594653, "lat": 49.5394259, "lon": 12.7029328, "tags": {"amenity": "shelter", "fireplace": "yes", "shelter_type": "picnic_shelter"}}, {"type": "node", "id": 9000615258, "lat": 49.5056824, "lon": 12.7707421, "tags": {"amenity": "shelter", "shelter_type": "weather_shelter"}}, {"type": "node", "id": 9000615267, "lat": 49.4968156, "lon": 12.7648088, "tags": {"amenity": "shelter", "shelter_type": "picnic_shelter"}}, {"type": "node", "id": 9000615268, "lat": 49.4968965, "lon": 12.7648212, "tags": {"information": "map", "tourism": "information"}}, {"type": "node", "id": 9000615312, "lat": 49.5226038, "lon": 12.7203085, "tags": {"information": "map", "tourism": "information"}}, {"type": "node", "id": 9001392141, "lat": 49.5449338, "lon": 12.6051881, "tags": {"board_type": "nature", "check_date": "2025-08-15", "information": "board", "name": "Ple\u0161 - N\u00e1m\u011bst\u00ed p\u0159\u00edrody", "tourism": "information"}}, {"type": "node", "id": 9001392144, "lat": 49.542547, "lon": 12.6094273, "tags": {"board_type": "nature", "information": "board", "name": "Rozs\u00e1hl\u00fd komplex mok\u0159adn\u00edch spole\u010denstev", "tourism": "information"}}, {"type": "node", "id": 9001392145, "lat": 49.5372322, "lon": 12.6319268, "tags": {"board_type": "history", "information": "board", "name": "V\u00e1clav (Wenzelsdorf)", "tourism": "information"}}, {"type": "node", "id": 9001392147, "lat": 49.5152215, "lon": 12.6775433, "tags": {"amenity": "shelter", "shelter_type": "picnic_shelter"}}, {"type": "node", "id": 9001392148, "lat": 49.5151171, "lon": 12.6775991, "tags": {"amenity": "shelter", "shelter_type": "picnic_shelter"}}, {"type": "node", "id": 9001392164, "lat": 49.4581746, "lon": 12.7078843, "tags": {"ele": "567", "hiking": "yes", "information": "guidepost", "name": "Pob\u011b\u017eovick\u00fd roh", "operator": "cz:K\u010cT", "tourism": "information"}}, {"type": "node", "id": 9152508690, "lat": 49.4418228, "lon": 12.766086, "tags": {"ele": "883", "name": "Haltrava", "natural": "peak"}}, {"type": "node", "id": 9179735731, "lat": 49.3772952, "lon": 12.7286932}, {"type": "node", "id": 9179735732, "lat": 49.3772879, "lon": 12.7287158}, {"type": "node", "id": 9179735733, "lat": 49.377297, "lon": 12.7287368}, {"type": "node", "id": 9179735734, "lat": 49.3773134, "lon": 12.7287352}, {"type": "node", "id": 9179735735, "lat": 49.3773207, "lon": 12.7287125}, {"type": "node", "id": 9179735736, "lat": 49.3773116, "lon": 12.7286915}, {"type": "node", "id": 9179735737, "lat": 49.3799136, "lon": 12.7271314, "tags": {"hiking": "yes", "information": "guidepost", "operator": "Tourismusverbandes Ostbayern e.V.", "tourism": "information"}}, {"type": "node", "id": 9179735740, "lat": 49.385256, "lon": 12.7080724, "tags": {"hiking": "yes", "information": "guidepost", "operator": "Naturpark Oberer Bayerischer Wald e.V.", "tourism": "information"}}, {"type": "node", "id": 9179735741, "lat": 49.3855293, "lon": 12.7084042, "tags": {"description": "Goldsteig", "hiking": "yes", "information": "map", "map_size": "region", "map_type": "topo", "tourism": "information"}}, {"type": "node", "id": 9179735744, "lat": 49.385385, "lon": 12.7084333, "tags": {"description": "Waldm\u00fcnchner Golsteigrunde", "hiking": "yes", "information": "map", "map_size": "region", "map_type": "topo", "tourism": "information"}}, {"type": "node", "id": 9179735745, "lat": 49.3932904, "lon": 12.7053577}, {"type": "node", "id": 9179735746, "lat": 49.3932672, "lon": 12.7053492}, {"type": "node", "id": 9179735747, "lat": 49.3932508, "lon": 12.7053758}, {"type": "node", "id": 9179735748, "lat": 49.3932576, "lon": 12.7054109}, {"type": "node", "id": 9179735749, "lat": 49.3932808, "lon": 12.7054195}, {"type": "node", "id": 9179735753, "lat": 49.3737479, "lon": 12.7053329, "tags": {"description": "Verlauf des Pandurensteig", "hiking": "yes", "information": "map", "map_type": "topo", "name": "Fernwanderweg Pandurensteig", "tourism": "information"}}, {"type": "node", "id": 9179735754, "lat": 49.3701475, "lon": 12.6959569, "tags": {"direction": "300-90", "tourism": "viewpoint"}}, {"type": "node", "id": 9179735759, "lat": 49.3671399, "lon": 12.698822, "tags": {"direction": "315-90", "tourism": "viewpoint"}}, {"type": "node", "id": 9179735760, "lat": 49.3671085, "lon": 12.6988351, "tags": {"description": "Waldm\u00fcnchner Golsteigrunde", "hiking": "yes", "information": "map", "map_type": "topo", "tourism": "information"}}, {"type": "node", "id": 9179743807, "lat": 49.3556395, "lon": 12.7188682, "tags": {"hiking": "yes", "information": "guidepost", "operator": "Naturpark Oberer Bayerischer Wald e.V.", "tourism": "information"}}, {"type": "node", "id": 9179743808, "lat": 49.3556842, "lon": 12.7187812, "tags": {"board_type": "history", "description": "Das Bergdorf Herzogau - Hofmark im Naturpark", "information": "board", "operator": "Naturpark Oberer Bayerischer Wald e.V.", "tourism": "information"}}, {"type": "node", "id": 9179743809, "lat": 49.3557448, "lon": 12.7187721, "tags": {"hiking": "yes", "information": "map", "map_size": "region", "map_type": "topo", "operator": "Naturpark Oberer Bayerischer Wald e.V.", "tourism": "information"}}, {"type": "node", "id": 9179743810, "lat": 49.3557219, "lon": 12.7187065, "tags": {"description": "Goldsteig", "hiking": "yes", "information": "map", "map_size": "region", "map_type": "topo", "operator": "Tourismusverbandes Ostbayern e.V.", "tourism": "information"}}, {"type": "node", "id": 9243606109, "lat": 49.3642636, "lon": 12.6727614, "tags": {"direction": "0-180", "tourism": "viewpoint"}}, {"type": "node", "id": 9243606111, "lat": 49.3632192, "lon": 12.6710378, "tags": {"description": "Wanderwege um Waldm\u00fcnchen", "hiking": "yes", "information": "map", "map_size": "region", "map_type": "topo", "tourism": "information"}}, {"type": "node", "id": 9243672125, "lat": 49.3790512, "lon": 12.6487025, "tags": {"amenity": "shelter", "bench": "yes", "shelter_type": "public_transport"}}, {"type": "node", "id": 9385447159, "lat": 49.5471544, "lon": 12.6357681, "tags": {"board_type": "nature", "information": "board", "name": "P\u016fvodn\u00ed kysel\u00e1 bu\u010dina", "tourism": "information"}}, {"type": "node", "id": 9653413633, "lat": 49.3794907, "lon": 12.7096811, "tags": {"board_type": "nature", "information": "board", "name": "Wander und Moutainbike Region", "tourism": "information"}}, {"type": "node", "id": 9653420437, "lat": 49.3873098, "lon": 12.7230552, "tags": {"information": "board", "tourism": "information"}}, {"type": "node", "id": 9653871429, "lat": 49.377, "lon": 12.7111691, "tags": {"information": "board", "tourism": "information"}}, {"type": "node", "id": 9653986926, "lat": 49.3954067, "lon": 12.6985009, "tags": {"information": "board", "tourism": "information"}}, {"type": "node", "id": 9653986927, "lat": 49.3954162, "lon": 12.6985409, "tags": {"information": "board", "tourism": "information"}}, {"type": "node", "id": 9653986928, "lat": 49.3954267, "lon": 12.6985802, "tags": {"information": "board", "tourism": "information"}}, {"type": "node", "id": 9653986929, "lat": 49.3954398, "lon": 12.6988727, "tags": {"information": "board", "tourism": "information"}}, {"type": "node", "id": 9655604405, "lat": 49.3937399, "lon": 12.6946617, "tags": {"board_type": "nature", "information": "board", "tourism": "information"}}, {"type": "node", "id": 9655628470, "lat": 49.394425, "lon": 12.6989594, "tags": {"information": "board", "name": "Tretboot Verleih", "tourism": "information"}}, {"type": "node", "id": 9655628523, "lat": 49.3892338, "lon": 12.6983424, "tags": {"information": "board", "name": "Schwarzach", "tourism": "information"}}, {"type": "node", "id": 9655710367, "lat": 49.4099082, "lon": 12.7330606, "tags": {"board_type": "warning", "information": "board", "inscription": "POZOR St\u00e1tn\u00ed hranice", "tourism": "information"}}, {"type": "node", "id": 9655733543, "lat": 49.4221237, "lon": 12.7253083, "tags": {"information": "board", "name": "Villa Ziegler", "tourism": "information"}}, {"type": "node", "id": 9655812247, "lat": 49.38349, "lon": 12.7835677, "tags": {"tourism": "viewpoint"}}, {"type": "node", "id": 9655844418, "lat": 49.3831264, "lon": 12.7840566, "tags": {"information": "board", "tourism": "information"}}, {"type": "node", "id": 9655844420, "lat": 49.3831532, "lon": 12.7848076, "tags": {"description:de": "Neubau Informationen", "information": "board", "tourism": "information"}}, {"type": "node", "id": 9655952667, "lat": 49.4047257, "lon": 12.7247546, "tags": {"tourism": "viewpoint"}}, {"type": "node", "id": 9664234034, "lat": 49.3964007, "lon": 12.7036382, "tags": {"information": "sign", "name": "Startpunkt Vital Parcours am Perlsee", "tourism": "information"}}, {"type": "node", "id": 9664234072, "lat": 49.3980574, "lon": 12.7052406, "tags": {"board_type": "sport", "information": "board", "name": "Kneippanlage am Perlsee", "survey:date": "2022-05-21", "tourism": "information"}}, {"type": "node", "id": 9664234080, "lat": 49.3982219, "lon": 12.7048318, "tags": {"name": "Vogel Beobachtungsturm am Perlsee", "tourism": "viewpoint", "wheelchair": "no"}}, {"type": "node", "id": 9668108741, "lat": 49.3737441, "lon": 12.6917203, "tags": {"tourism": "viewpoint"}}, {"type": "node", "id": 9668108743, "lat": 49.3737243, "lon": 12.6917321, "tags": {"information": "map", "tourism": "information"}}, {"type": "node", "id": 9707838155, "lat": 49.4252645, "lon": 12.7032231, "tags": {"amenity": "shelter"}}, {"type": "node", "id": 9959392754, "lat": 49.4135023, "lon": 12.75121, "tags": {"amenity": "shelter", "shelter_type": "lean_to"}}, {"type": "node", "id": 10121544025, "lat": 49.3813635, "lon": 12.7475547, "tags": {"information": "board", "name": "Kramberg", "tourism": "information"}}, {"type": "node", "id": 10135654217, "lat": 49.3794463, "lon": 12.7098179, "tags": {"check_date": "2022-10-28", "information": "guidepost", "tourism": "information"}}, {"type": "node", "id": 10137754819, "lat": 49.3832452, "lon": 12.7538689, "tags": {"check_date": "2022-10-29", "information": "guidepost", "tourism": "information"}}, {"type": "node", "id": 10137754917, "lat": 49.3882971, "lon": 12.7502197, "tags": {"check_date": "2022-10-29", "information": "guidepost", "tourism": "information"}}, {"type": "node", "id": 10204812758, "lat": 49.5240973, "lon": 12.6326158, "tags": {"entrance": "main"}}, {"type": "node", "id": 10561422508, "lat": 49.5246989, "lon": 12.6135359, "tags": {"information": "guidepost", "tourism": "information"}}, {"type": "node", "id": 10561452462, "lat": 49.5284336, "lon": 12.6306124, "tags": {"information": "guidepost", "tourism": "information"}}, {"type": "node", "id": 10855782693, "lat": 49.3730059, "lon": 12.6513506, "tags": {"ele": "533", "natural": "peak"}}, {"type": "node", "id": 10861010319, "lat": 49.3647146, "lon": 12.6767729, "tags": {"information": "guidepost", "tourism": "information"}}, {"type": "node", "id": 10861010320, "lat": 49.3649119, "lon": 12.675058, "tags": {"information": "guidepost", "tourism": "information"}}, {"type": "node", "id": 10936494857, "lat": 49.4991014, "lon": 12.7909592, "tags": {"information": "map", "tourism": "information"}}, {"type": "node", "id": 10949787455, "lat": 49.3834488, "lon": 12.7843901, "tags": {"board_type": "history", "check_date": "2025-07-14", "information": "board", "name": "\u010cerchov v dob\u011b 1938 \u2013 1989", "name:cs": "\u010cerchov v dob\u011b 1938 \u2013 1989", "name:de": "Der Berg \u010cerchov in der Zeit von 1938 bis 1989", "name:en": "\u010cerchov peak in 1938 \u2013 1989", "name:es": "\u010cerchov durante 1938\u20131989", "name:zh-Hans": "\u91c7\u5c14\u970d\u592b\u5cf0 1938\u20131989 \u5e74\u671f\u95f4", "source": "survey;Maxar Premium", "source:name:es": "Open-source translator", "source:name:zh-Hans": "Open-source translator", "subject:wikidata": "Q338747", "subject:wikipedia": "cs:\u010cerchov", "tourism": "information"}}, {"type": "node", "id": 10949787456, "lat": 49.3834425, "lon": 12.7843334, "tags": {"board_type": "nature", "information": "board", "name": "Rys Ostrovid", "name:cs": "Rys Ostrovid", "name:de": "Eurasischer Luchs", "name:en": "Eurasian lynx", "name:sk": "rys ostrovid", "source": "survey;Maxar Premium", "subject:wikidata": "Q43375", "subject:wikipedia": "cs:Rys ostrovid", "tourism": "information"}}, {"type": "node", "id": 10959432644, "lat": 49.5285136, "lon": 12.61457, "tags": {"board_type": "warning", "information": "board", "inscription": "POZOR St\u00e1tn\u00ed hranice", "tourism": "information"}}, {"type": "node", "id": 10959437314, "lat": 49.5268027, "lon": 12.6207839, "tags": {"board_type": "warning", "information": "board", "inscription": "POZOR St\u00e1tn\u00ed hranice", "tourism": "information"}}, {"type": "node", "id": 10959437316, "lat": 49.5266345, "lon": 12.6208594, "tags": {"board_type": "warning", "information": "board", "inscription": "POZOR St\u00e1tn\u00ed hranice", "tourism": "information"}}, {"type": "node", "id": 10959500596, "lat": 49.5271093, "lon": 12.6283622, "tags": {"board_type": "warning", "information": "board", "inscription": "POZOR St\u00e1tn\u00ed hranice", "tourism": "information"}}, {"type": "node", "id": 10959526335, "lat": 49.5310515, "lon": 12.6305648, "tags": {"board_type": "warning", "information": "board", "inscription": "POZOR St\u00e1tn\u00ed hranice", "tourism": "information"}}, {"type": "node", "id": 10959532778, "lat": 49.521822, "lon": 12.6442911, "tags": {"board_type": "warning", "information": "board", "inscription": "POZOR St\u00e1tn\u00ed hranice", "tourism": "information"}}, {"type": "node", "id": 10959532991, "lat": 49.5320352, "lon": 12.6322042, "tags": {"board_type": "warning", "information": "board", "inscription": "POZOR St\u00e1tn\u00ed hranice", "tourism": "information"}}, {"type": "node", "id": 10959532992, "lat": 49.532108, "lon": 12.6355669, "tags": {"board_type": "warning", "information": "board", "inscription": "POZOR St\u00e1tn\u00ed hranice", "tourism": "information"}}, {"type": "node", "id": 10959541834, "lat": 49.5313843, "lon": 12.6379024, "tags": {"board_type": "warning", "information": "board", "inscription": "POZOR St\u00e1tn\u00ed hranice", "tourism": "information"}}, {"type": "node", "id": 10959541835, "lat": 49.5285245, "lon": 12.640081, "tags": {"board_type": "warning", "information": "board", "inscription": "POZOR St\u00e1tn\u00ed hranice", "tourism": "information"}}, {"type": "node", "id": 10959546495, "lat": 49.5202067, "lon": 12.642937, "tags": {"board_type": "warning", "information": "board", "inscription": "POZOR St\u00e1tn\u00ed hranice", "tourism": "information"}}, {"type": "node", "id": 10959547013, "lat": 49.5273042, "lon": 12.6412553, "tags": {"board_type": "warning", "information": "board", "inscription": "POZOR St\u00e1tn\u00ed hranice", "tourism": "information"}}, {"type": "node", "id": 10959547014, "lat": 49.5232511, "lon": 12.6440948, "tags": {"board_type": "warning", "information": "board", "inscription": "POZOR St\u00e1tn\u00ed hranice", "tourism": "information"}}, {"type": "node", "id": 10959634263, "lat": 49.4870608, "lon": 12.6438479, "tags": {"board_type": "warning", "information": "board", "name": "LANDESGRENZE", "tourism": "information"}}, {"type": "node", "id": 10959634268, "lat": 49.4835745, "lon": 12.6429022, "tags": {"board_type": "warning", "information": "board", "name": "LANDESGRENZE", "tourism": "information"}}, {"type": "node", "id": 10959666557, "lat": 49.4797732, "lon": 12.6355523, "tags": {"board_type": "warning", "information": "board", "name": "LANDESGRENZE", "tourism": "information"}}, {"type": "node", "id": 10959867207, "lat": 49.4663292, "lon": 12.6495873, "tags": {"board_type": "warning", "information": "board", "inscription": "POZOR St\u00e1tn\u00ed hranice", "tourism": "information"}}, {"type": "node", "id": 10959898712, "lat": 49.4614559, "lon": 12.6523389, "tags": {"board_type": "warning", "direction": "90", "information": "board", "inscription": "POZOR St\u00e1tn\u00ed hranice", "tourism": "information"}}, {"type": "node", "id": 10959898713, "lat": 49.4614027, "lon": 12.6522954, "tags": {"board_type": "warning", "direction": "260", "information": "board", "inscription": "LANDESGRENZE", "tourism": "information"}}, {"type": "node", "id": 10959898715, "lat": 49.4552383, "lon": 12.6556222, "tags": {"board_type": "warning", "information": "board", "inscription": "POZOR St\u00e1tn\u00ed hranice", "tourism": "information"}}, {"type": "node", "id": 10959907892, "lat": 49.4261946, "lon": 12.6795243, "tags": {"board_type": "warning", "information": "board", "inscription": "POZOR St\u00e1tn\u00ed hranice", "tourism": "information"}}, {"type": "node", "id": 10959911903, "lat": 49.4503925, "lon": 12.657958, "tags": {"board_type": "warning", "information": "board", "inscription": "POZOR St\u00e1tn\u00ed hranice", "tourism": "information"}}, {"type": "node", "id": 10959918006, "lat": 49.4493182, "lon": 12.6560716, "tags": {"board_type": "warning", "information": "board", "inscription": "POZOR St\u00e1tn\u00ed hranice", "tourism": "information"}}, {"type": "node", "id": 10959920850, "lat": 49.4492567, "lon": 12.6558473, "tags": {"board_type": "warning", "information": "board", "name": "LANDESGRENZE", "tourism": "information"}}, {"type": "node", "id": 10960066689, "lat": 49.4311153, "lon": 12.6662576, "tags": {"board_type": "warning", "information": "board", "inscription": "POZOR St\u00e1tn\u00ed hranice", "tourism": "information"}}, {"type": "node", "id": 10960080697, "lat": 49.4261054, "lon": 12.679371, "tags": {"direction": "180", "information": "board", "name": "\u010cESK\u00c1 REPUBLIKA", "tourism": "information"}}, {"type": "node", "id": 10960087102, "lat": 49.4250475, "lon": 12.7044262, "tags": {"board_type": "warning", "information": "board", "inscription": "POZOR St\u00e1tn\u00ed hranice", "tourism": "information"}}, {"type": "node", "id": 10960087103, "lat": 49.4248675, "lon": 12.7083458, "tags": {"board_type": "warning", "information": "board", "inscription": "POZOR St\u00e1tn\u00ed hranice", "tourism": "information"}}, {"type": "node", "id": 10960127003, "lat": 49.426151, "lon": 12.6848367, "tags": {"board_type": "warning", "direction": "5", "information": "board", "inscription": "POZOR St\u00e1tn\u00ed hranice", "tourism": "information"}}, {"type": "node", "id": 10960131145, "lat": 49.4180671, "lon": 12.7140368, "tags": {"board_type": "warning", "information": "board", "inscription": "POZOR St\u00e1tn\u00ed hranice", "tourism": "information"}}, {"type": "node", "id": 10960137198, "lat": 49.4253415, "lon": 12.6987882, "tags": {"board_type": "warning", "information": "board", "inscription": "POZOR St\u00e1tn\u00ed hranice", "tourism": "information"}}, {"type": "node", "id": 10960137505, "lat": 49.4257587, "lon": 12.6921495, "tags": {"board_type": "warning", "information": "board", "inscription": "POZOR St\u00e1tn\u00ed hranice", "tourism": "information"}}, {"type": "node", "id": 10960171447, "lat": 49.4233915, "lon": 12.7100979, "tags": {"board_type": "warning", "information": "board", "inscription": "POZOR St\u00e1tn\u00ed hranice", "tourism": "information"}}, {"type": "node", "id": 10960171450, "lat": 49.4199748, "lon": 12.7135297, "tags": {"board_type": "warning", "information": "board", "inscription": "POZOR St\u00e1tn\u00ed hranice", "tourism": "information"}}, {"type": "node", "id": 10960171451, "lat": 49.4192286, "lon": 12.7138259, "tags": {"board_type": "warning", "information": "board", "inscription": "POZOR St\u00e1tn\u00ed hranice", "tourism": "information"}}, {"type": "node", "id": 10960278477, "lat": 49.4171264, "lon": 12.71496, "tags": {"board_type": "warning", "information": "board", "inscription": "POZOR St\u00e1tn\u00ed hranice", "tourism": "information"}}, {"type": "node", "id": 10960278664, "lat": 49.4115856, "lon": 12.7261438, "tags": {"board_type": "warning", "information": "board", "inscription": "POZOR St\u00e1tn\u00ed hranice", "tourism": "information"}}, {"type": "node", "id": 10960286544, "lat": 49.4132208, "lon": 12.7190461, "tags": {"board_type": "warning", "information": "board", "inscription": "POZOR St\u00e1tn\u00ed hranice", "tourism": "information"}}, {"type": "node", "id": 10960287601, "lat": 49.4158521, "lon": 12.7149006, "tags": {"board_type": "warning", "information": "board", "inscription": "POZOR St\u00e1tn\u00ed hranice", "tourism": "information"}}, {"type": "node", "id": 10960305933, "lat": 49.4079105, "lon": 12.7363338, "tags": {"board_type": "warning", "information": "board", "inscription": "POZOR St\u00e1tn\u00ed hranice", "tourism": "information"}}, {"type": "node", "id": 10960305934, "lat": 49.4051304, "lon": 12.7408178, "tags": {"board_type": "warning", "information": "board", "inscription": "POZOR St\u00e1tn\u00ed hranice", "tourism": "information"}}, {"type": "node", "id": 10960324897, "lat": 49.3967825, "lon": 12.754451, "tags": {"board_type": "warning", "information": "board", "inscription": "POZOR St\u00e1tn\u00ed hranice", "tourism": "information"}}, {"type": "node", "id": 10960326061, "lat": 49.3935655, "lon": 12.758028, "tags": {"board_type": "warning", "information": "board", "inscription": "POZOR St\u00e1tn\u00ed hranice", "tourism": "information"}}, {"type": "node", "id": 10960330280, "lat": 49.4020845, "lon": 12.7458258, "tags": {"board_type": "warning", "information": "board", "inscription": "POZOR St\u00e1tn\u00ed hranice", "tourism": "information"}}, {"type": "node", "id": 10960330282, "lat": 49.399937, "lon": 12.7493914, "tags": {"board_type": "warning", "information": "board", "inscription": "POZOR St\u00e1tn\u00ed hranice", "tourism": "information"}}, {"type": "node", "id": 10960330284, "lat": 49.3985478, "lon": 12.7515708, "tags": {"board_type": "warning", "information": "board", "inscription": "POZOR St\u00e1tn\u00ed hranice", "tourism": "information"}}, {"type": "node", "id": 10960359191, "lat": 49.3750048, "lon": 12.7584535, "tags": {"board_type": "warning", "information": "board", "inscription": "POZOR St\u00e1tn\u00ed hranice", "tourism": "information"}}, {"type": "node", "id": 10960359381, "lat": 49.3887007, "lon": 12.7594476, "tags": {"board_type": "warning", "information": "board", "inscription": "POZOR St\u00e1tn\u00ed hranice", "tourism": "information"}}, {"type": "node", "id": 10960359382, "lat": 49.386001, "lon": 12.7601884, "tags": {"board_type": "warning", "information": "board", "inscription": "POZOR St\u00e1tn\u00ed hranice", "tourism": "information"}}, {"type": "node", "id": 10960361121, "lat": 49.3831462, "lon": 12.7611445, "tags": {"board_type": "warning", "information": "board", "inscription": "POZOR St\u00e1tn\u00ed hranice", "tourism": "information"}}, {"type": "node", "id": 10960363331, "lat": 49.3704646, "lon": 12.763157, "tags": {"board_type": "warning", "information": "board", "inscription": "POZOR St\u00e1tn\u00ed hranice", "tourism": "information"}}, {"type": "node", "id": 10960368581, "lat": 49.3592317, "lon": 12.7823615, "tags": {"board_type": "warning", "information": "board", "inscription": "POZOR St\u00e1tn\u00ed hranice", "tourism": "information"}}, {"type": "node", "id": 10960377175, "lat": 49.3794728, "lon": 12.7598434, "tags": {"board_type": "warning", "direction": "105", "information": "board", "inscription": "POZOR St\u00e1tn\u00ed hranice", "tourism": "information"}}, {"type": "node", "id": 10960377176, "lat": 49.3795961, "lon": 12.7598566, "tags": {"board_type": "warning", "information": "board", "name": "LANDESGRENZE", "tourism": "information"}}, {"type": "node", "id": 10960377179, "lat": 49.377863, "lon": 12.7591803, "tags": {"board_type": "warning", "information": "board", "inscription": "POZOR St\u00e1tn\u00ed hranice", "tourism": "information"}}, {"type": "node", "id": 10960377181, "lat": 49.3764769, "lon": 12.7585992, "tags": {"board_type": "warning", "information": "board", "inscription": "POZOR St\u00e1tn\u00ed hranice", "tourism": "information"}}, {"type": "node", "id": 10960377190, "lat": 49.3653816, "lon": 12.7684315, "tags": {"board_type": "warning", "information": "board", "inscription": "POZOR St\u00e1tn\u00ed hranice", "tourism": "information"}}, {"type": "node", "id": 10960377193, "lat": 49.3646799, "lon": 12.7725967, "tags": {"board_type": "warning", "information": "board", "inscription": "POZOR St\u00e1tn\u00ed hranice", "tourism": "information"}}, {"type": "node", "id": 10960388315, "lat": 49.361492, "lon": 12.7800806, "tags": {"board_type": "warning", "information": "board", "inscription": "POZOR St\u00e1tn\u00ed hranice", "tourism": "information"}}, {"type": "node", "id": 10960393072, "lat": 49.3552331, "lon": 12.7786421, "tags": {"board_type": "warning", "information": "board", "inscription": "POZOR St\u00e1tn\u00ed hranice", "tourism": "information"}}, {"type": "node", "id": 10960393074, "lat": 49.3519314, "lon": 12.778356, "tags": {"board_type": "warning", "information": "board", "inscription": "POZOR St\u00e1tn\u00ed hranice", "tourism": "information"}}, {"type": "node", "id": 10960395865, "lat": 49.3686302, "lon": 12.7651332, "tags": {"board_type": "warning", "information": "board", "inscription": "POZOR St\u00e1tn\u00ed hranice", "tourism": "information"}}, {"type": "node", "id": 11020753748, "lat": 49.4319617, "lon": 12.6795074, "tags": {"information": "board", "tourism": "information"}}, {"type": "node", "id": 11020753749, "lat": 49.4318989, "lon": 12.6794752, "tags": {"information": "office", "tourism": "information"}}, {"type": "node", "id": 11036078953, "lat": 49.374718, "lon": 12.7665206, "tags": {"information": "board", "tourism": "information"}}, {"type": "node", "id": 11068923887, "lat": 49.4912832, "lon": 12.6910363, "tags": {"information": "board", "name": "Pramen Radbuzy", "tourism": "information"}}, {"type": "node", "id": 11108573907, "lat": 49.4820177, "lon": 12.6285577}, {"type": "node", "id": 11108573908, "lat": 49.4820342, "lon": 12.6286043}, {"type": "node", "id": 11108573909, "lat": 49.4820532, "lon": 12.6285884}, {"type": "node", "id": 11108573910, "lat": 49.4820366, "lon": 12.6285418}, {"type": "node", "id": 11108573911, "lat": 49.4801661, "lon": 12.6277337}, {"type": "node", "id": 11108573912, "lat": 49.4801656, "lon": 12.627768}, {"type": "node", "id": 11108573913, "lat": 49.4802041, "lon": 12.6277695}, {"type": "node", "id": 11108573914, "lat": 49.4802046, "lon": 12.6277352}, {"type": "node", "id": 11149200319, "lat": 49.3907413, "lon": 12.785849, "tags": {"board_type": "nature", "information": "board", "name": "N\u00e1rodn\u00ed p\u0159\u00edrodn\u00ed rezervace \u010cerchovsk\u00e9 hvozdy: Nejrozs\u00e1hlej\u0161\u00ed bu\u010dina \u010cesk\u00e9ho lesa", "operator": "AOPK", "tourism": "information"}}, {"type": "node", "id": 11149200320, "lat": 49.3907282, "lon": 12.7858946, "tags": {"information": "map", "map_size": "site", "map_type": "scheme", "name": "Rozcest\u00ed pod \u010cerchovem - 840 m. - Kreuzung unter dem \u010cerchov", "ref": "1", "ski": "yes", "source": "survey;GPX", "tourism": "information"}}, {"type": "node", "id": 11403616202, "lat": 49.3981638, "lon": 12.6732992}, {"type": "node", "id": 11403616203, "lat": 49.3981467, "lon": 12.6732879}, {"type": "node", "id": 11403616204, "lat": 49.3981587, "lon": 12.6732451}, {"type": "node", "id": 11403616205, "lat": 49.3981758, "lon": 12.6732564}, {"type": "node", "id": 11403631054, "lat": 49.388522, "lon": 12.7142917}, {"type": "node", "id": 11403631055, "lat": 49.3884839, "lon": 12.7142534}, {"type": "node", "id": 11403631056, "lat": 49.3884694, "lon": 12.7142876}, {"type": "node", "id": 11403631057, "lat": 49.3885074, "lon": 12.7143259}, {"type": "node", "id": 11403649995, "lat": 49.4190927, "lon": 12.6836971}, {"type": "node", "id": 11403649996, "lat": 49.4190735, "lon": 12.6836625}, {"type": "node", "id": 11403649997, "lat": 49.4190574, "lon": 12.6836836}, {"type": "node", "id": 11403649998, "lat": 49.4190766, "lon": 12.6837182}, {"type": "node", "id": 11717581269, "lat": 49.3818793, "lon": 12.792747, "tags": {"ele": "988", "name": "Mal\u00fd \u010cerchov", "natural": "peak"}}, {"type": "node", "id": 11717581271, "lat": 49.3834065, "lon": 12.7842376}, {"type": "node", "id": 11717581272, "lat": 49.3833828, "lon": 12.7842163}, {"type": "node", "id": 11717581273, "lat": 49.3833592, "lon": 12.7842393}, {"type": "node", "id": 11717581274, "lat": 49.3833575, "lon": 12.7842791}, {"type": "node", "id": 11717581275, "lat": 49.3833828, "lon": 12.7842986}, {"type": "node", "id": 11717581276, "lat": 49.383407, "lon": 12.7842783}, {"type": "node", "id": 11717581286, "lat": 49.3891646, "lon": 12.7803064, "tags": {"information": "board", "tourism": "information"}}, {"type": "node", "id": 11717581303, "lat": 49.383332, "lon": 12.7837311, "tags": {"check_date": "2025-07-14", "ele": "1042", "name": "\u010cerchov", "natural": "peak", "summit:cross": "no"}}, {"type": "node", "id": 11726791855, "lat": 49.4464674, "lon": 12.7034644, "tags": {"board_type": "nature", "information": "board", "name": "Evropsky v\u00fdznamn\u00e1 lokalita niva Nemanick\u00e9ho potoka", "tourism": "information"}}, {"type": "node", "id": 11755151251, "lat": 49.5036187, "lon": 12.6124948}, {"type": "node", "id": 11755151252, "lat": 49.503596, "lon": 12.6124834}, {"type": "node", "id": 11755151253, "lat": 49.5036005, "lon": 12.6124623}, {"type": "node", "id": 11755151254, "lat": 49.5036232, "lon": 12.6124737}, {"type": "node", "id": 11804972059, "lat": 49.3898002, "lon": 12.729922, "tags": {"amenity": "shelter"}}, {"type": "node", "id": 11973294675, "lat": 49.5428155, "lon": 12.6728999}, {"type": "node", "id": 11973294676, "lat": 49.5427713, "lon": 12.6729177}, {"type": "node", "id": 11973294677, "lat": 49.5427991, "lon": 12.6730999}, {"type": "node", "id": 11973294678, "lat": 49.5428411, "lon": 12.6730853}, {"type": "node", "id": 11973294679, "lat": 49.5428372, "lon": 12.6730454}, {"type": "node", "id": 12174751137, "lat": 49.4184877, "lon": 12.7153348, "tags": {"information": "map", "map_size": "region", "panoramax": "d70494b2-5da6-4536-97d0-bc542c5434ec", "tourism": "information"}}, {"type": "node", "id": 12279038153, "lat": 49.3920931, "lon": 12.7599661, "tags": {"amenity": "shelter"}}, {"type": "node", "id": 12279038154, "lat": 49.389642, "lon": 12.768761, "tags": {"amenity": "shelter"}}, {"type": "node", "id": 12409654484, "lat": 49.3834575, "lon": 12.7844419, "tags": {"information": "board", "name": "Fotopoint", "subject:wikidata": "Q338747", "subject:wikipedia": "cs:\u010cerchov", "tourism": "information"}}, {"type": "node", "id": 12588318407, "lat": 49.3794653, "lon": 12.7398551, "tags": {"information": "board", "tourism": "information"}}, {"type": "node", "id": 12656626868, "lat": 49.5148469, "lon": 12.6215635, "tags": {"information": "guidepost", "tourism": "information"}}, {"type": "node", "id": 12656626886, "lat": 49.5241861, "lon": 12.6032024, "tags": {"information": "guidepost", "tourism": "information"}}, {"type": "node", "id": 12714018142, "lat": 49.4948621, "lon": 12.7015541, "tags": {"amenity": "shelter"}}, {"type": "node", "id": 12776422613, "lat": 49.4172953, "lon": 12.7232786, "tags": {"information": "board", "tourism": "information"}}, {"type": "node", "id": 13065140505, "lat": 49.5478833, "lon": 12.7401156, "tags": {"board_type": "nature", "information": "board", "name": "Mut\u011bn\u00ednsk\u00fd  lom", "tourism": "information"}}, {"type": "node", "id": 13324955923, "lat": 49.5148339, "lon": 12.6388831, "tags": {"bicycle": "yes", "information": "map", "tourism": "information"}}, {"type": "way", "id": 31347914, "nodes": [349135911, 349135912, 10204812758, 349135914, 349135917, 349135911], "tags": {"access": "yes", "building": "construction", "fee": "no", "man_made": "tower", "name": "B\u00f6hmerwaldturm", "name:cs": "Rozhledna Ebene", "name:de": "B\u00f6hmerwaldturm", "opening_hours": "24/7", "tourism": "attraction", "tower:construction": "wood", "tower:type": "observation"}}, {"type": "way", "id": 222927171, "nodes": [2318715151, 2318715147, 2318715149, 2318715153, 2318715151], "tags": {"amenity": "shelter", "building": "transportation", "building:levels": "1", "roof:shape": "skillion", "shelter_type": "public_transport", "source": "cuzk:km"}}, {"type": "way", "id": 260828931, "nodes": [2670482802, 2663951111, 2663951109, 2663951107, 2670482802], "tags": {"alt_name": "Kirchturm", "alt_name:cs": "Kosteln\u00ed v\u011b\u017e", "building": "yes", "description": "Kirchturm mit Uhrenmuseum", "historic": "yes", "man_made": "tower", "name": "Stadtturm", "name:cs": "M\u011bstsk\u00e1 v\u011b\u017e", "tourism": "viewpoint", "tower:type": "bell_tower", "wheelchair": "no"}}, {"type": "way", "id": 330265299, "nodes": [3372209179, 3372209177, 3372209176, 3372209178, 3372209179], "tags": {"amenity": "shelter", "shelter_type": "weather_shelter"}}, {"type": "way", "id": 502443948, "nodes": [4929182415, 4929182414, 4929182413, 4929182412, 4929182411, 4929182410, 4929182409, 4929182408, 4929182415], "tags": {"amenity": "shelter", "shelter_type": "weather_shelter"}}, {"type": "way", "id": 759967880, "nodes": [7099351205, 7099351206, 7099351207, 7099351208, 7099351205], "tags": {"amenity": "shelter", "building": "yes", "name": "Grenz\u00fcberggang Lemgrubenweg-Hlinit\u00e1 cesta CZ/D"}}, {"type": "way", "id": 793649258, "nodes": [7423924356, 7423924357, 7423924358, 7423924359, 7423924356], "tags": {"amenity": "shelter", "building": "transportation", "building:levels": "1", "roof:shape": "saltbox", "shelter_type": "public_transport"}}, {"type": "way", "id": 793649259, "nodes": [7423924360, 7423924361, 7423924362, 7423924363, 7423924360], "tags": {"amenity": "shelter", "building": "transportation", "shelter_type": "public_transport"}}, {"type": "way", "id": 793649260, "nodes": [7423924364, 7423924365, 7423924366, 7423924367, 7423924364], "tags": {"amenity": "shelter", "building": "transportation", "building:levels": "1", "roof:shape": "saltbox", "shelter_type": "public_transport"}}, {"type": "way", "id": 793716885, "nodes": [7424442420, 7424442421], "tags": {"bridge": "yes", "bridge:structure": "arch", "highway": "track", "layer": "1", "material": "stone", "source": "survey", "surface": "ground", "tourism": "attraction", "tracktype": "grade4"}}, {"type": "way", "id": 958685172, "nodes": [8870444813, 8870444812, 8870444811, 8870444810, 8870444809, 8870444808, 8870444807, 8870444813], "tags": {"amenity": "shelter", "shelter_type": "weather_shelter"}}, {"type": "way", "id": 993606854, "nodes": [9179735736, 9179735735, 9179735734, 9179735733, 9179735732, 9179735731, 9179735736], "tags": {"amenity": "shelter", "shelter_type": "picnic_shelter"}}, {"type": "way", "id": 993606855, "nodes": [3405267069, 9179735749, 9179735748, 9179735747, 9179735746, 9179735745, 3405267069], "tags": {"amenity": "shelter", "fireplace": "no", "shelter_type": "picnic_shelter"}}, {"type": "way", "id": 1197206120, "nodes": [11108573910, 11108573909, 11108573908, 11108573907, 11108573910], "tags": {"amenity": "shelter", "shelter_type": "weather_shelter"}}, {"type": "way", "id": 1197206121, "nodes": [11108573914, 11108573913, 11108573912, 11108573911, 11108573914], "tags": {"amenity": "shelter", "building": "yes", "shelter_type": "public_transport"}}, {"type": "way", "id": 1229720529, "nodes": [11403616205, 11403616204, 11403616203, 11403616202, 11403616205], "tags": {"amenity": "shelter", "shelter_type": "public_transport"}}, {"type": "way", "id": 1229724160, "nodes": [11403631057, 11403631056, 11403631055, 11403631054, 11403631057], "tags": {"amenity": "shelter", "shelter_type": "public_transport"}}, {"type": "way", "id": 1229725175, "nodes": [11403649998, 11403649997, 11403649996, 11403649995, 11403649998], "tags": {"amenity": "shelter", "shelter_type": "public_transport"}}, {"type": "way", "id": 1260705629, "nodes": [11717581271, 11717581272, 11717581273, 11717581274, 11717581275, 11717581276, 11717581271], "tags": {"amenity": "shelter", "building": "yes", "shelter_type": "gazebo"}}, {"type": "way", "id": 1265475359, "nodes": [11755151254, 11755151251, 11755151252, 11755151253, 11755151254], "tags": {"amenity": "shelter", "building": "yes", "shelter_type": "public_transport"}}, {"type": "way", "id": 1291506232, "nodes": [11973294675, 7424442420, 11973294676, 11973294677, 7424442421, 11973294678, 11973294679, 11973294675], "tags": {"area": "yes", "bridge": "yes", "bridge:structure": "arch", "layer": "1", "man_made": "bridge", "material": "stone", "name": "Mostek", "name:de": "Schwanenbr\u00fcckl", "source": "survey", "start_date": "1809", "surface": "ground", "tourism": "attraction"}}]}