{"version": 0.6, "generator": "Overpass API 0.7.62.8 e802775f", "osm3s": {"timestamp_osm_base": "2026-01-05T15:59:30Z", "copyright": "The data included in this document is from www.openstreetmap.org. The data is made available under ODbL."}, "elements": [{"type": "node", "id": 257056233, "lat": 48.9024196, "lon": 13.4868362, "tags": {"tourism": "viewpoint"}}, {"type": "node", "id": 271658280, "lat": 48.7575648, "lon": 13.4879262, "tags": {"tourism": "viewpoint"}}, {"type": "node", "id": 295434506, "lat": 48.8980067, "lon": 13.491045}, {"type": "node", "id": 295434508, "lat": 48.8980688, "lon": 13.4912338}, {"type": "node", "id": 295434509, "lat": 48.8981534, "lon": 13.4911909}, {"type": "node", "id": 295434510, "lat": 48.8981309, "lon": 13.4910021}, {"type": "node", "id": 295434716, "lat": 48.8981417, "lon": 13.4910676, "tags": {"access": "yes", "barrier": "gate"}}, {"type": "node", "id": 295434717, "lat": 48.8980119, "lon": 13.4911019, "tags": {"access": "yes", "barrier": "gate"}}, {"type": "node", "id": 295437951, "lat": 48.9029058, "lon": 13.4827254}, {"type": "node", "id": 295438329, "lat": 48.9031166, "lon": 13.4823546}, {"type": "node", "id": 315540106, "lat": 48.945429, "lon": 13.5721232, "tags": {"hiking": "yes", "information": "guidepost", "tourism": "information"}}, {"type": "node", "id": 315540115, "lat": 48.9454022, "lon": 13.572721, "tags": {"information": "guidepost", "tourism": "information"}}, {"type": "node", "id": 315540133, "lat": 48.9495444, "lon": 13.5760463, "tags": {"information": "guidepost", "tourism": "information"}}, {"type": "node", "id": 338522508, "lat": 48.9378828, "lon": 13.5074147, "tags": {"check_date": "2024-07-12", "hiking": "yes", "historic": "wayside_cross", "information": "map", "map_type": "scheme", "tourism": "information"}}, {"type": "node", "id": 338522509, "lat": 48.9398901, "lon": 13.5589732, "tags": {"information": "board", "name": "Unterwegs im Nationalpark - Hacklreibe", "tourism": "information"}}, {"type": "node", "id": 338631678, "lat": 48.9379186, "lon": 13.4536563, "tags": {"information": "guidepost", "tourism": "information"}}, {"type": "node", "id": 338631693, "lat": 48.9336338, "lon": 13.4611329, "tags": {"bicycle": "yes", "hiking": "yes", "information": "guidepost", "tourism": "information"}}, {"type": "node", "id": 338632909, "lat": 48.8985578, "lon": 13.5037674, "tags": {"designation": "Weweiser", "information": "guidepost", "tourism": "information"}}, {"type": "node", "id": 340424800, "lat": 48.9396933, "lon": 13.4811339, "tags": {"hiking": "yes", "information": "guidepost", "name": "Rachel / Teufelsloch-Lusen / Martinsklause", "tourism": "information"}}, {"type": "node", "id": 340444488, "lat": 48.8878225, "lon": 13.5345737, "tags": {"information": "guidepost", "tourism": "information"}}, {"type": "node", "id": 340444504, "lat": 48.8874931, "lon": 13.531225, "tags": {"information": "guidepost", "tourism": "information"}}, {"type": "node", "id": 341262352, "lat": 48.9372068, "lon": 13.4729525, "tags": {"bicycle": "yes", "hiking": "yes", "information": "guidepost", "tourism": "information"}}, {"type": "node", "id": 410947271, "lat": 48.896927, "lon": 13.5083663, "tags": {"information": "guidepost", "tourism": "information"}}, {"type": "node", "id": 410947362, "lat": 48.8978749, "lon": 13.5400629, "tags": {"designation": "Wegweiser", "information": "guidepost", "tourism": "information"}}, {"type": "node", "id": 410947367, "lat": 48.8963647, "lon": 13.535616, "tags": {"designation": "Wegweiser", "information": "guidepost", "tourism": "information"}}, {"type": "node", "id": 410947392, "lat": 48.8967709, "lon": 13.5101491, "tags": {"information": "guidepost", "tourism": "information"}}, {"type": "node", "id": 410947396, "lat": 48.8966719, "lon": 13.5090736, "tags": {"information": "guidepost", "tourism": "information"}}, {"type": "node", "id": 410947436, "lat": 48.8984639, "lon": 13.5465603}, {"type": "node", "id": 410947437, "lat": 48.8984582, "lon": 13.546545, "tags": {"information": "hikingmap", "name": "Steinbachklause", "tourism": "information"}}, {"type": "node", "id": 410947529, "lat": 48.9391964, "lon": 13.5067775, "tags": {"ele": "1373", "name": "Lusen", "name:cs": "Luzn\u00fd", "name:de": "Lusen", "natural": "peak", "summit:cross": "yes", "summit:register": "no", "tourism": "viewpoint", "wheelchair": "no", "wikidata": "Q896982", "wikipedia": "de:Lusen"}}, {"type": "node", "id": 410953775, "lat": 48.8963247, "lon": 13.5354716, "tags": {"information": "hikingmap", "name": "Wanderkarte", "tourism": "information"}}, {"type": "node", "id": 411065774, "lat": 48.8970301, "lon": 13.4916169, "tags": {"tourism": "viewpoint"}}, {"type": "node", "id": 411068824, "lat": 48.8917188, "lon": 13.4903283, "tags": {"attraction": "animal", "name": "Nationalparkwacht", "tourism": "attraction"}}, {"type": "node", "id": 411068998, "lat": 48.8923249, "lon": 13.488588, "tags": {"information": "office", "name": "Touristinfo", "tourism": "information"}}, {"type": "node", "id": 411079850, "lat": 48.897749, "lon": 13.483385, "tags": {"tourism": "viewpoint"}}, {"type": "node", "id": 411494382, "lat": 48.9421181, "lon": 13.5082012, "tags": {"designation": "Grenzsteigregeln zw. 30er und 1er Grenzstein", "hiking": "yes", "information": "guidepost", "tourism": "information"}}, {"type": "node", "id": 411495887, "lat": 48.9209339, "lon": 13.5056634, "tags": {"amenity": "shelter", "name": "Schutzh\u00fctte Sagwasserklause", "shelter_type": "lean_to"}}, {"type": "node", "id": 411496791, "lat": 48.9378647, "lon": 13.5076731}, {"type": "node", "id": 411496792, "lat": 48.9377178, "lon": 13.507756}, {"type": "node", "id": 411496793, "lat": 48.937666, "lon": 13.5075435}, {"type": "node", "id": 411496794, "lat": 48.9378038, "lon": 13.5074232}, {"type": "node", "id": 411840616, "lat": 48.9181674, "lon": 13.5279942}, {"type": "node", "id": 411886655, "lat": 48.9493293, "lon": 13.5729959, "tags": {"hiking": "yes", "information": "guidepost", "tourism": "information"}}, {"type": "node", "id": 412264596, "lat": 48.9030992, "lon": 13.4823397, "tags": {"access": "yes", "barrier": "gate"}}, {"type": "node", "id": 412270247, "lat": 48.9046085, "lon": 13.4765593, "tags": {"board_type": "nature", "check_date": "2025-08-13", "information": "board", "name": "Waldboden", "name:cs": "Lesn\u00ed p\u016fda", "tourism": "information"}}, {"type": "node", "id": 412270321, "lat": 48.9075622, "lon": 13.4737742, "tags": {"information": "board", "name": "J\u00e4ger am Waldbach", "name:cs": "Lovec v lese", "tourism": "information"}}, {"type": "node", "id": 412270420, "lat": 48.9070749, "lon": 13.4701213, "tags": {"board_type": "wildlife", "information": "board", "name": "Rothirsch - der gr\u00f6\u00dfte Hirsch im Wald", "tourism": "information"}}, {"type": "node", "id": 412271168, "lat": 48.9021249, "lon": 13.4758602, "tags": {"board_type": "wildlife", "information": "board", "name": "Giganten", "tourism": "information"}}, {"type": "node", "id": 412271647, "lat": 48.9002968, "lon": 13.4827781, "tags": {"board_type": "nature", "information": "board", "name": "Rotrandporling", "tourism": "information"}}, {"type": "node", "id": 412274872, "lat": 48.9028989, "lon": 13.4826938, "tags": {"access": "yes", "barrier": "gate"}}, {"type": "node", "id": 412275277, "lat": 48.9027387, "lon": 13.482711, "tags": {"board_type": "wildlife", "information": "board", "name": "Wildkatze", "name:cs": "Ko\u010dka divok\u00e1", "tourism": "information"}}, {"type": "node", "id": 429554283, "lat": 48.9356966, "lon": 13.4883736, "tags": {"information": "board", "name": "Die Glasarche", "tourism": "information"}}, {"type": "node", "id": 445764620, "lat": 48.9263542, "lon": 13.4775214, "tags": {"information": "guidepost", "tourism": "information"}}, {"type": "node", "id": 445764642, "lat": 48.9297457, "lon": 13.4718635, "tags": {"information": "guidepost", "tourism": "information"}}, {"type": "node", "id": 445764644, "lat": 48.930027, "lon": 13.471783, "tags": {"information": "guidepost", "tourism": "information"}}, {"type": "node", "id": 445764646, "lat": 48.9293492, "lon": 13.4713225, "tags": {"information": "guidepost", "tourism": "information"}}, {"type": "node", "id": 445764652, "lat": 48.9331067, "lon": 13.4679383, "tags": {"information": "guidepost", "tourism": "information"}}, {"type": "node", "id": 445764662, "lat": 48.9307529, "lon": 13.4729572, "tags": {"information": "guidepost", "tourism": "information"}}, {"type": "node", "id": 445764677, "lat": 48.9378163, "lon": 13.4742959, "tags": {"board_type": "history", "information": "board", "name": "Martinsklause", "tourism": "information"}}, {"type": "node", "id": 445764708, "lat": 48.92468, "lon": 13.4845986, "tags": {"ele": "1151", "name": "Waldh\u00e4userriegel", "natural": "peak", "wikidata": "Q2541650", "wikipedia": "de:Waldh\u00e4userriegel"}}, {"type": "node", "id": 445970161, "lat": 48.9510092, "lon": 13.4797727, "tags": {"ele": "1233", "name": "Kleiner Spitzberg", "name:cs": "Hrani\u010dn\u00ed hora", "name:de": "Kleiner Spitzberg", "natural": "peak"}}, {"type": "node", "id": 469869745, "lat": 48.951276, "lon": 13.5224041, "tags": {"ele": "1342", "name": "Steinfleckberg", "natural": "peak", "wikidata": "Q832784", "wikipedia": "de:Steinfleckberg"}}, {"type": "node", "id": 494497993, "lat": 48.8097001, "lon": 13.4487643, "tags": {"name": "Keltendorf Gabreta", "tourism": "attraction", "website": "https://www.gabreta.de"}}, {"type": "node", "id": 529048268, "lat": 48.8970467, "lon": 13.5117031, "tags": {"information": "guidepost", "tourism": "information"}}, {"type": "node", "id": 530749070, "lat": 48.9025172, "lon": 13.5181723, "tags": {"designation": "Wegweiser", "information": "guidepost", "tourism": "information"}}, {"type": "node", "id": 582496109, "lat": 48.9491661, "lon": 13.5729739, "tags": {"information": "guidepost", "tourism": "information"}}, {"type": "node", "id": 603270110, "lat": 48.8858385, "lon": 13.5842725, "tags": {"information": "office", "tourism": "information", "wheelchair": "yes"}}, {"type": "node", "id": 604961813, "lat": 48.8903972, "lon": 13.4854713}, {"type": "node", "id": 604961814, "lat": 48.8910611, "lon": 13.4831762}, {"type": "node", "id": 604961816, "lat": 48.8908734, "lon": 13.4842976}, {"type": "node", "id": 604961818, "lat": 48.8917568, "lon": 13.4840463, "tags": {"tourism": "viewpoint", "wheelchair": "yes"}}, {"type": "node", "id": 604961819, "lat": 48.8916573, "lon": 13.4835733}, {"type": "node", "id": 604961820, "lat": 48.891544, "lon": 13.4833087}, {"type": "node", "id": 604961821, "lat": 48.891163, "lon": 13.4828832, "tags": {"tourism": "viewpoint", "wheelchair": "yes"}}, {"type": "node", "id": 604961822, "lat": 48.8907463, "lon": 13.4845193}, {"type": "node", "id": 604961823, "lat": 48.8905051, "lon": 13.4848612}, {"type": "node", "id": 604961847, "lat": 48.8908632, "lon": 13.4847349, "tags": {"designation": "Baum-Ei", "layer": "2", "man_made": "tower", "name": "Aussichtsturm Baumwipfelpfad (Ei)", "noexit": "yes", "tourism": "viewpoint", "wheelchair": "yes"}}, {"type": "node", "id": 604961848, "lat": 48.8918901, "lon": 13.4851207}, {"type": "node", "id": 604961849, "lat": 48.8918102, "lon": 13.484687}, {"type": "node", "id": 604961855, "lat": 48.8916128, "lon": 13.4871631}, {"type": "node", "id": 604961856, "lat": 48.8915921, "lon": 13.4865732}, {"type": "node", "id": 604961857, "lat": 48.8918279, "lon": 13.4860875}, {"type": "node", "id": 604961858, "lat": 48.8915111, "lon": 13.4874613, "tags": {"entrance": "main", "fee": "yes", "website": "http://www.baumwipfelpfad.bayern/"}}, {"type": "node", "id": 605418979, "lat": 48.8883395, "lon": 13.5402211, "tags": {"tourism": "viewpoint"}}, {"type": "node", "id": 605419135, "lat": 48.8951545, "lon": 13.5648709, "tags": {"information": "guidepost", "tourism": "information"}}, {"type": "node", "id": 605457854, "lat": 48.8938149, "lon": 13.5116318, "tags": {"name": "Ochsenriegel", "natural": "peak"}}, {"type": "node", "id": 605457876, "lat": 48.8942528, "lon": 13.5183373, "tags": {"information": "guidepost", "tourism": "information"}}, {"type": "node", "id": 605457883, "lat": 48.894306, "lon": 13.5184688, "tags": {"amenity": "shelter", "name": "Schutzh\u00fctte Ochsenriegel", "shelter_type": "weather_shelter"}}, {"type": "node", "id": 605503339, "lat": 48.8873002, "lon": 13.5310852, "tags": {"ele": "1011", "name": "Steinberg", "natural": "peak", "wikidata": "Q31519201"}}, {"type": "node", "id": 605503365, "lat": 48.8872785, "lon": 13.5749147, "tags": {"check_date": "2021-06-08", "information": "map", "name": "Wanderkarte", "tourism": "information"}}, {"type": "node", "id": 623041041, "lat": 48.8096313, "lon": 13.4877563}, {"type": "node", "id": 623041042, "lat": 48.8092717, "lon": 13.4880429}, {"type": "node", "id": 705947481, "lat": 48.9378807, "lon": 13.4562927, "tags": {"board_type": "nature", "information": "board", "name": "Bergbach-Lehrpfad", "tourism": "information"}}, {"type": "node", "id": 705947485, "lat": 48.9376967, "lon": 13.4592811, "tags": {"board_type": "nature", "information": "board", "name": "Lebensraum Bergbach", "tourism": "information"}}, {"type": "node", "id": 705947486, "lat": 48.9385028, "lon": 13.4688597, "tags": {"board_type": "nature", "information": "board", "name": "Die kleine Ohe - Woher kommt das Wasser?", "tourism": "information"}}, {"type": "node", "id": 705947487, "lat": 48.9375765, "lon": 13.4647726, "tags": {"board_type": "nature", "information": "board", "name": "Die kleine Ohe - Pflanzen & Tiere am Bergbach", "tourism": "information"}}, {"type": "node", "id": 705947489, "lat": 48.9380431, "lon": 13.4730457, "tags": {"board_type": "nature", "information": "board", "name": "\u00d6kosystem in Gefahr", "tourism": "information"}}, {"type": "node", "id": 823748846, "lat": 48.92954, "lon": 13.5534612, "tags": {"information": "guidepost", "tourism": "information"}}, {"type": "node", "id": 823748872, "lat": 48.9444464, "lon": 13.5191832, "tags": {"information": "guidepost", "name": "Wegweiser (Lusen)", "tourism": "information"}}, {"type": "node", "id": 823748890, "lat": 48.9446387, "lon": 13.5193191, "tags": {"information": "guidepost", "name": "Wegweiser (Finsterau)", "tourism": "information"}}, {"type": "node", "id": 823748899, "lat": 48.9328812, "lon": 13.5519448, "tags": {"information": "guidepost", "name": "Schwarzbachbr\u00fccke", "tourism": "information"}}, {"type": "node", "id": 823748947, "lat": 48.9333392, "lon": 13.5412634, "tags": {"information": "guidepost", "tourism": "information"}}, {"type": "node", "id": 823749001, "lat": 48.9349367, "lon": 13.5519524, "tags": {"information": "guidepost", "tourism": "information"}}, {"type": "node", "id": 823749014, "lat": 48.9399051, "lon": 13.5590141, "tags": {"ele": "900", "information": "guidepost", "name": "Hacklreibe", "tourism": "information"}}, {"type": "node", "id": 823749019, "lat": 48.9183694, "lon": 13.5297602, "tags": {"hiking": "yes", "information": "guidepost", "tourism": "information"}}, {"type": "node", "id": 823749021, "lat": 48.9305687, "lon": 13.5527322, "tags": {"information": "guidepost", "tourism": "information"}}, {"type": "node", "id": 823749023, "lat": 48.9316752, "lon": 13.5404637, "tags": {"information": "guidepost", "tourism": "information"}}, {"type": "node", "id": 823790823, "lat": 48.9296858, "lon": 13.5532912, "tags": {"information": "board", "name": "Infotafel \u00bbGletscher\u00ab", "tourism": "information"}}, {"type": "node", "id": 823790826, "lat": 48.9371464, "lon": 13.5530404}, {"type": "node", "id": 823790832, "lat": 48.9370206, "lon": 13.5531017, "tags": {"information": "board", "name": "Infotafel \u00bbSpiegelauer Waldbahn\u00ab", "tourism": "information"}}, {"type": "node", "id": 823790834, "lat": 48.9369807, "lon": 13.5526445}, {"type": "node", "id": 823790843, "lat": 48.9370277, "lon": 13.553346, "tags": {"information": "guidepost", "tourism": "information"}}, {"type": "node", "id": 823790862, "lat": 48.9305845, "lon": 13.5525048, "tags": {"amenity": "shelter", "bench": "yes", "name": "Schutzh\u00fctte Oberes Reschbachtal", "shelter_type": "lean_to"}}, {"type": "node", "id": 823800926, "lat": 48.9327232, "lon": 13.5521876, "tags": {"bicycle": "yes", "hiking": "yes", "information": "map", "map_size": "site", "map_type": "scheme", "tourism": "information"}}, {"type": "node", "id": 823800929, "lat": 48.9305398, "lon": 13.5524012, "tags": {"bicycle": "yes", "hiking": "yes", "information": "map", "map_size": "site", "map_type": "scheme", "tourism": "information"}}, {"type": "node", "id": 823800933, "lat": 48.9296709, "lon": 13.5538116, "tags": {"bicycle": "yes", "hiking": "yes", "information": "map", "map_size": "site", "map_type": "scheme", "tourism": "information"}}, {"type": "node", "id": 824827052, "lat": 48.9388779, "lon": 13.5578825, "tags": {"information": "board", "name": "Infotafel \u00bbBergbach\u00ab", "tourism": "information"}}, {"type": "node", "id": 925482828, "lat": 48.8909074, "lon": 13.4836521, "tags": {"tourism": "viewpoint", "wheelchair": "yes"}}, {"type": "node", "id": 938008190, "lat": 48.9491827, "lon": 13.5662049, "tags": {"information": "guidepost", "tourism": "information"}}, {"type": "node", "id": 939159955, "lat": 48.885412, "lon": 13.5239944, "tags": {"name": "Felswandergebiet (Steinberg) Urspr\u00fcngl.Natur/Besonderheiten", "tourism": "information"}}, {"type": "node", "id": 939159958, "lat": 48.8798704, "lon": 13.5292265, "tags": {"hiking": "yes", "information": "map", "map_size": "site", "map_type": "scheme", "name": "Felswandergebiet", "tourism": "information"}}, {"type": "node", "id": 939450917, "lat": 48.8842844, "lon": 13.4773908, "tags": {"information": "office", "tourism": "information"}}, {"type": "node", "id": 941675408, "lat": 48.8812953, "lon": 13.4752261, "tags": {"description": "Fragen zum B\u00e4renpfad", "information": "board", "name": "B\u00e4renpfad", "tourism": "information"}}, {"type": "node", "id": 941675453, "lat": 48.882297, "lon": 13.4759475, "tags": {"board_type": "wildlife", "description": "Informationen zum B\u00e4renpfad", "information": "board", "name": "B\u00e4renpfad", "tourism": "information"}}, {"type": "node", "id": 942877216, "lat": 48.8816453, "lon": 13.4732476, "tags": {"board_type": "board", "information": "board", "tourism": "information"}}, {"type": "node", "id": 942877243, "lat": 48.8822009, "lon": 13.4737902, "tags": {"board_type": "board", "information": "board", "tourism": "information"}}, {"type": "node", "id": 1056105058, "lat": 48.811609, "lon": 13.5008522, "tags": {"memorial:conflict": "WW1", "name": "Felsdurchbruch (Tunnel aus dem 1. Weltkrieg)", "tourism": "attraction"}}, {"type": "node", "id": 1129888331, "lat": 48.8116017, "lon": 13.5330615, "tags": {"tourism": "viewpoint"}}, {"type": "node", "id": 1137983434, "lat": 48.8166829, "lon": 13.5303825, "tags": {"tourism": "viewpoint"}}, {"type": "node", "id": 1137983441, "lat": 48.821975, "lon": 13.525348, "tags": {"tourism": "viewpoint"}}, {"type": "node", "id": 1242860297, "lat": 48.9376056, "lon": 13.4124613, "tags": {"hiking": "yes", "information": "map", "note": "Taferlruck", "tourism": "information"}}, {"type": "node", "id": 1242974690, "lat": 48.9420634, "lon": 13.4040112, "tags": {"hiking": "yes", "information": "map", "name": "Neuh\u00fcttenwiese", "note": "NP-Karte - Neuh\u00fcttenwiese", "tourism": "information"}}, {"type": "node", "id": 1243026444, "lat": 48.9151651, "lon": 13.5301452, "tags": {"tourism": "viewpoint"}}, {"type": "node", "id": 1243026449, "lat": 48.9351902, "lon": 13.5631521, "tags": {"natural": "peak"}}, {"type": "node", "id": 1243605492, "lat": 48.9298333, "lon": 13.4920861, "tags": {"amenity": "shelter", "shelter_type": "weather_shelter"}}, {"type": "node", "id": 1243605493, "lat": 48.9303769, "lon": 13.491292, "tags": {"check_date": "2025-12-27", "hiking": "yes", "information": "map", "map_type": "scheme", "tourism": "information"}}, {"type": "node", "id": 1243647511, "lat": 48.9425802, "lon": 13.402406, "tags": {"hiking": "yes", "information": "guidepost", "tourism": "information"}}, {"type": "node", "id": 1245500875, "lat": 48.950651, "lon": 13.5222909, "tags": {"tourism": "viewpoint", "wheelchair": "no"}}, {"type": "node", "id": 1246589644, "lat": 48.946393, "lon": 13.4420807, "tags": {"information": "guidepost", "name": "Makierungspfosten-Kerngebiet mit Wegegebot", "tourism": "information"}}, {"type": "node", "id": 1252396859, "lat": 48.8899113, "lon": 13.486774}, {"type": "node", "id": 1252396878, "lat": 48.8900841, "lon": 13.4861065}, {"type": "node", "id": 1252396885, "lat": 48.890313, "lon": 13.4866773}, {"type": "node", "id": 1252396927, "lat": 48.8904988, "lon": 13.4865356}, {"type": "node", "id": 1252396966, "lat": 48.8903131, "lon": 13.4872706}, {"type": "node", "id": 1252396977, "lat": 48.8902699, "lon": 13.4861422}, {"type": "node", "id": 1252397015, "lat": 48.8902356, "lon": 13.4863723}, {"type": "node", "id": 1252397026, "lat": 48.8903388, "lon": 13.486279}, {"type": "node", "id": 1252397053, "lat": 48.8900011, "lon": 13.4866694}, {"type": "node", "id": 1252397064, "lat": 48.8899332, "lon": 13.4863793}, {"type": "node", "id": 1252397071, "lat": 48.8901247, "lon": 13.4868969}, {"type": "node", "id": 1252397102, "lat": 48.8900349, "lon": 13.4867364}, {"type": "node", "id": 1252397113, "lat": 48.8904074, "lon": 13.4866421}, {"type": "node", "id": 1252397150, "lat": 48.8902177, "lon": 13.4873818}, {"type": "node", "id": 1252397161, "lat": 48.890357, "lon": 13.4865421}, {"type": "node", "id": 1252397198, "lat": 48.8901528, "lon": 13.4862428}, {"type": "node", "id": 1252397209, "lat": 48.8903581, "lon": 13.4862565}, {"type": "node", "id": 1252397252, "lat": 48.8899953, "lon": 13.4863069}, {"type": "node", "id": 1252397290, "lat": 48.8900842, "lon": 13.4866789}, {"type": "node", "id": 1252397301, "lat": 48.8899646, "lon": 13.4862459}, {"type": "node", "id": 1252397349, "lat": 48.8902863, "lon": 13.4866245}, {"type": "node", "id": 1252397391, "lat": 48.8900704, "lon": 13.486339}, {"type": "node", "id": 1252397402, "lat": 48.8901752, "lon": 13.4862526}, {"type": "node", "id": 1252397440, "lat": 48.8901421, "lon": 13.4864813}, {"type": "node", "id": 1278207134, "lat": 48.9374988, "lon": 13.4123754, "tags": {"hiking": "yes", "information": "guidepost", "tourism": "information"}}, {"type": "node", "id": 1278257913, "lat": 48.9378829, "lon": 13.5074497, "tags": {"amenity": "shelter"}}, {"type": "node", "id": 1278984529, "lat": 48.9150996, "lon": 13.5301565, "tags": {"ele": "1196", "name": "Hohlstein", "natural": "peak", "wikidata": "Q1624090", "wikipedia": "de:Hohlstein"}}, {"type": "node", "id": 1279630814, "lat": 48.9448267, "lon": 13.489702, "tags": {"information": "board", "name": "Blaue S\u00e4ulen- Grenz\u00fcbergang (30)", "tourism": "information"}}, {"type": "node", "id": 1279637220, "lat": 48.9421828, "lon": 13.5082665, "tags": {"hiking": "yes", "information": "guidepost", "name": "Markfleckl", "tourism": "information"}}, {"type": "node", "id": 1280579387, "lat": 48.92215, "lon": 13.4106794, "tags": {"information": "board", "tourism": "information"}}, {"type": "node", "id": 1280761493, "lat": 48.9286781, "lon": 13.4309735, "tags": {"information": "board", "name": "Bergbau Informationen", "tourism": "information", "wheelchair": "no"}}, {"type": "node", "id": 1280811677, "lat": 48.9274175, "lon": 13.4269136, "tags": {"information": "hikingmap", "tourism": "information"}}, {"type": "node", "id": 1280822417, "lat": 48.9339188, "lon": 13.4333768, "tags": {"information": "board", "name": "Vorsicht Falle- Betreten verboten-Lebensgefahr", "tourism": "information"}}, {"type": "node", "id": 1287751726, "lat": 48.9423739, "lon": 13.4027372, "tags": {"hiking": "yes", "information": "guidepost", "tourism": "information"}}, {"type": "node", "id": 1289082559, "lat": 48.925736, "lon": 13.410534, "tags": {"information": "board", "name": "Schwarze-Kiesgrube- (Alter kleiner Steinbruch)....Info wurde entfernt! Stand 2015/16", "note": "wurde entfernt-seit Herbst 2015 (Stand 3.2016)", "tourism": "information"}}, {"type": "node", "id": 1289960132, "lat": 48.9293074, "lon": 13.4908427, "tags": {"information": "guidepost", "name": "Markierungspfosten-Wegegebot 15.7.-15.11. begehbar", "tourism": "information"}}, {"type": "node", "id": 1289970403, "lat": 48.9446416, "lon": 13.5193047, "tags": {"information": "board", "name": "Wegegebot- begehen nur 15.7.-15.11.gestattet n.NP Verordn.", "source": "betreff=Weg zum Kirchlinger Stand", "tourism": "information"}}, {"type": "node", "id": 1299255499, "lat": 48.9319507, "lon": 13.4330425, "tags": {"name": "Wegmarkierung", "tourism": "information"}}, {"type": "node", "id": 1299334470, "lat": 48.9394855, "lon": 13.4823909, "tags": {"name": "Teufelsloch", "place": "locality", "tourism": "attraction", "viewpoint": "yes"}}, {"type": "node", "id": 1303087077, "lat": 48.9019506, "lon": 13.5075762, "tags": {"information": "board", "name": "Kerngebiet", "tourism": "information"}}, {"type": "node", "id": 1354816708, "lat": 48.9374542, "lon": 13.4105381, "tags": {"information": "route_marker", "note": "Wegmarkierung Steinpilz", "tourism": "information"}}, {"type": "node", "id": 1358378958, "lat": 48.9380628, "lon": 13.4122659, "tags": {"designation": "Dienstelle-Taferlruck", "information": "board", "name": "Taferlruck", "tourism": "information"}}, {"type": "node", "id": 1359758447, "lat": 48.9182767, "lon": 13.403724, "tags": {"information": "guidepost", "tourism": "information"}}, {"type": "node", "id": 1360185399, "lat": 48.9273909, "lon": 13.4270149, "tags": {"information": "board", "name": "Wege und Loipenplan", "tourism": "information"}}, {"type": "node", "id": 1365110343, "lat": 48.9248008, "lon": 13.4156372, "tags": {"hiking": "yes", "information": "guidepost", "name": "Wegweiser", "tourism": "information"}}, {"type": "node", "id": 1367536393, "lat": 48.929331, "lon": 13.5033119, "tags": {"tourism": "viewpoint"}}, {"type": "node", "id": 1367543799, "lat": 48.9183995, "lon": 13.5296103, "tags": {"information": "guidepost", "name": "Kerngebiet (Wegegebot)", "tourism": "information"}}, {"type": "node", "id": 1372892935, "lat": 48.8903472, "lon": 13.4856707, "tags": {"barrier": "turnstile", "foot": "yes", "wheelchair": "yes"}}, {"type": "node", "id": 1372892937, "lat": 48.8913593, "lon": 13.4830238}, {"type": "node", "id": 1373011618, "lat": 48.9273023, "lon": 13.4704885}, {"type": "node", "id": 1415964875, "lat": 48.8906981, "lon": 13.4846671}, {"type": "node", "id": 1415964882, "lat": 48.8907291, "lon": 13.484879}, {"type": "node", "id": 1415964889, "lat": 48.8907635, "lon": 13.4845199}, {"type": "node", "id": 1415964908, "lat": 48.8908348, "lon": 13.4849715}, {"type": "node", "id": 1415964926, "lat": 48.8908959, "lon": 13.4844811}, {"type": "node", "id": 1415964942, "lat": 48.8909514, "lon": 13.4849297}, {"type": "node", "id": 1415964944, "lat": 48.8909932, "lon": 13.4845823}, {"type": "node", "id": 1415964946, "lat": 48.8910194, "lon": 13.4847702}, {"type": "node", "id": 1500979800, "lat": 48.8103828, "lon": 13.5308259, "tags": {"name": "Tourist Info", "tourism": "information"}}, {"type": "node", "id": 1509911496, "lat": 48.9380073, "lon": 13.4761959, "tags": {"description": "Beginn der Nationakpark-Kernzone - Benutzung unmarkierter Steige zeitlich eingeschr\u00e4nkt.", "highway": "stop", "information": "guidepost", "name": "Kernzone (Wegegebot)", "tourism": "information"}}, {"type": "node", "id": 1524323012, "lat": 48.7953653, "lon": 13.5393061, "tags": {"information": "map", "tourism": "information"}}, {"type": "node", "id": 1576536228, "lat": 48.7901152, "lon": 13.4299527, "tags": {"tourism": "viewpoint"}}, {"type": "node", "id": 1576536229, "lat": 48.7880882, "lon": 13.4383579, "tags": {"tourism": "viewpoint"}}, {"type": "node", "id": 1584111668, "lat": 48.7709039, "lon": 13.426255, "tags": {"ele": "572", "name": "Bubikberg", "natural": "peak"}}, {"type": "node", "id": 1584111670, "lat": 48.7896681, "lon": 13.4345317, "tags": {"ele": "638", "name": "Lindberg", "natural": "peak", "wikidata": "Q31566075"}}, {"type": "node", "id": 1593575217, "lat": 48.8114915, "lon": 13.5006594, "tags": {"information": "guidepost", "tourism": "information"}}, {"type": "node", "id": 1665497301, "lat": 48.9384686, "lon": 13.4756931, "tags": {"hiking": "yes", "information": "guidepost", "tourism": "information"}}, {"type": "node", "id": 1675117002, "lat": 48.8975794, "lon": 13.4907914, "tags": {"tourism": "viewpoint"}}, {"type": "node", "id": 1704774099, "lat": 48.9059732, "lon": 13.5066456, "tags": {"hiking": "yes", "information": "guidepost", "tourism": "information"}}, {"type": "node", "id": 1717562258, "lat": 48.7792263, "lon": 13.4448702, "tags": {"information": "office", "tourism": "information"}}, {"type": "node", "id": 1717562261, "lat": 48.7800539, "lon": 13.4398353, "tags": {"information": "board", "tourism": "information"}}, {"type": "node", "id": 1732158557, "lat": 48.767196, "lon": 13.4992596, "tags": {"tourism": "viewpoint"}}, {"type": "node", "id": 1737324957, "lat": 48.7792309, "lon": 13.4410198, "tags": {"information": "guidepost", "name": "ViaNova", "tourism": "information"}}, {"type": "node", "id": 1751528895, "lat": 48.841942, "lon": 13.4354913, "tags": {"ele": "754", "name": "Steinb\u00fchl", "natural": "peak"}}, {"type": "node", "id": 1768910884, "lat": 48.9173928, "lon": 13.5063277, "tags": {"designation": "Wildererkreuz", "information": "board", "name": "Wildererkreuz", "tourism": "information"}}, {"type": "node", "id": 1774951385, "lat": 48.8899763, "lon": 13.4357554, "tags": {"ele": "826", "name": "Gr\u00fcdelberg", "natural": "peak"}}, {"type": "node", "id": 1783518817, "lat": 48.8966919, "lon": 13.5199595, "tags": {"information": "guidepost", "tourism": "information"}}, {"type": "node", "id": 1783533508, "lat": 48.9037448, "lon": 13.5315306, "tags": {"information": "board", "name": "Radverbot", "tourism": "information"}}, {"type": "node", "id": 1793167418, "lat": 48.8939393, "lon": 13.5115459, "tags": {"description": "NP-Ei-Blick", "tourism": "viewpoint"}}, {"type": "node", "id": 1793293071, "lat": 48.893412, "lon": 13.5130877, "tags": {"hiking": "yes", "information": "guidepost", "tourism": "information"}}, {"type": "node", "id": 1800542676, "lat": 48.7623638, "lon": 13.4010819, "tags": {"description": "Wegweiser", "information": "guidepost", "tourism": "information"}}, {"type": "node", "id": 1800542685, "lat": 48.7677651, "lon": 13.4019529, "tags": {"information": "history", "name": "Informationstafel", "tourism": "information"}}, {"type": "node", "id": 1800542686, "lat": 48.7628786, "lon": 13.4008093, "tags": {"hiking": "yes", "information": "guidepost", "tourism": "information"}}, {"type": "node", "id": 1800542692, "lat": 48.7626291, "lon": 13.4010008, "tags": {"hiking": "yes", "information": "guidepost", "tourism": "information"}}, {"type": "node", "id": 1800542706, "lat": 48.7679666, "lon": 13.401744, "tags": {"hiking": "yes", "information": "guidepost", "tourism": "information"}}, {"type": "node", "id": 1800566604, "lat": 48.7682955, "lon": 13.4011388, "tags": {"hiking": "yes", "information": "guidepost", "tourism": "information"}}, {"type": "node", "id": 1817854431, "lat": 48.8953311, "lon": 13.5294186, "tags": {"information": "guidepost", "tourism": "information"}}, {"type": "node", "id": 1817854491, "lat": 48.8970512, "lon": 13.5393454, "tags": {"information": "guidepost", "tourism": "information"}}, {"type": "node", "id": 1856767856, "lat": 48.89221, "lon": 13.4885703, "tags": {"name": "Nationalparkzentrum Lusen", "toilets:wheelchair": "yes", "tourism": "attraction", "wheelchair": "yes"}}, {"type": "node", "id": 1856769309, "lat": 48.9033294, "lon": 13.4736659}, {"type": "node", "id": 1856769314, "lat": 48.9032887, "lon": 13.4735502}, {"type": "node", "id": 1856769315, "lat": 48.9032135, "lon": 13.4736114}, {"type": "node", "id": 1856769317, "lat": 48.9032542, "lon": 13.4737271}, {"type": "node", "id": 1857507754, "lat": 48.8292768, "lon": 13.4559508, "tags": {"description": "Im 30-J\u00e4hrigen Krieg sollen sich hier die Priester, Ministranten usw versteckt haben. Daher der Name \"geistlicher Stein\" Viele Klettersportler trainieren hier das frei klettern.", "ele": "671", "name": "Geistlicher Stein", "natural": "peak", "source": "Stoana", "summit:cross": "yes"}}, {"type": "node", "id": 1857899144, "lat": 48.8291447, "lon": 13.4541901, "tags": {"hiking": "yes", "information": "guidepost", "tourism": "information"}}, {"type": "node", "id": 1864939054, "lat": 48.797657, "lon": 13.5281372, "tags": {"ele": "730", "name": "Baderstein", "natural": "peak"}}, {"type": "node", "id": 1866563336, "lat": 48.8137237, "lon": 13.4834675, "tags": {"board_type": "board", "information": "map", "map_type": "hiking", "name": "Buchberger Leite", "tourism": "information"}}, {"type": "node", "id": 1905917651, "lat": 48.8972334, "lon": 13.4816668, "tags": {"board_type": "wildlife", "information": "board", "name": "Biber", "name:cs": "Stavitel", "tourism": "information"}}, {"type": "node", "id": 1907932025, "lat": 48.9029643, "lon": 13.4766626, "tags": {"tourism": "viewpoint"}}, {"type": "node", "id": 1938468020, "lat": 48.9293778, "lon": 13.4635712, "tags": {"hiking": "yes", "information": "map", "map_size": "region", "map_type": "scheme", "name": "Unterwegs im Nationalpakr", "tourism": "information"}}, {"type": "node", "id": 1965214733, "lat": 48.9053082, "lon": 13.4538117, "tags": {"information": "map", "name": "Kleine Au", "tourism": "information"}}, {"type": "node", "id": 1979985075, "lat": 48.8500718, "lon": 13.4879852, "tags": {"name": "Touristinformation", "tourism": "information"}}, {"type": "node", "id": 1979985077, "lat": 48.8500657, "lon": 13.4887423, "tags": {"tourism": "information"}}, {"type": "node", "id": 1985855196, "lat": 48.8064845, "lon": 13.5597306, "tags": {"information": "guidepost", "tourism": "information"}}, {"type": "node", "id": 1985855198, "lat": 48.8068481, "lon": 13.551477, "tags": {"information": "guidepost", "tourism": "information"}}, {"type": "node", "id": 1985855203, "lat": 48.8060463, "lon": 13.5630758, "tags": {"information": "board", "tourism": "information"}}, {"type": "node", "id": 1985855213, "lat": 48.806746, "lon": 13.5599023, "tags": {"information": "guidepost", "tourism": "information"}}, {"type": "node", "id": 1985855221, "lat": 48.8074789, "lon": 13.5474918, "tags": {"information": "guidepost", "tourism": "information"}}, {"type": "node", "id": 1985855241, "lat": 48.8050925, "lon": 13.5542482, "tags": {"information": "guidepost", "tourism": "information"}}, {"type": "node", "id": 1985866703, "lat": 48.803831, "lon": 13.5686624, "tags": {"information": "board", "tourism": "information"}}, {"type": "node", "id": 1985866706, "lat": 48.8023481, "lon": 13.5594275, "tags": {"information": "guidepost", "tourism": "information"}}, {"type": "node", "id": 1985866707, "lat": 48.8025945, "lon": 13.5656261, "tags": {"information": "guidepost", "tourism": "information"}}, {"type": "node", "id": 1985866709, "lat": 48.8026588, "lon": 13.5655668, "tags": {"information": "board", "tourism": "information"}}, {"type": "node", "id": 1985866718, "lat": 48.8029304, "lon": 13.5669664, "tags": {"information": "board", "tourism": "information"}}, {"type": "node", "id": 1985866721, "lat": 48.8037834, "lon": 13.5626734, "tags": {"information": "guidepost", "tourism": "information"}}, {"type": "node", "id": 1985866722, "lat": 48.8037815, "lon": 13.5688069, "tags": {"information": "guidepost", "tourism": "information"}}, {"type": "node", "id": 1985866723, "lat": 48.8038193, "lon": 13.5630451, "tags": {"information": "board", "tourism": "information"}}, {"type": "node", "id": 1985866725, "lat": 48.8037426, "lon": 13.5632577, "tags": {"information": "board", "tourism": "information"}}, {"type": "node", "id": 1985866728, "lat": 48.803075, "lon": 13.5584861, "tags": {"information": "guidepost", "tourism": "information"}}, {"type": "node", "id": 1985866733, "lat": 48.8048136, "lon": 13.5654273, "tags": {"information": "board", "tourism": "information"}}, {"type": "node", "id": 1986420820, "lat": 48.8025421, "lon": 13.5481686, "tags": {"information": "board", "tourism": "information"}}, {"type": "node", "id": 1999304250, "lat": 48.8917689, "lon": 13.4843274}, {"type": "node", "id": 2086893168, "lat": 48.9377462, "lon": 13.5074557}, {"type": "node", "id": 2086893169, "lat": 48.9377553, "lon": 13.5074931}, {"type": "node", "id": 2169735666, "lat": 48.8903162, "lon": 13.4865897, "tags": {"entrance": "main"}}, {"type": "node", "id": 2171714120, "lat": 48.8915747, "lon": 13.4868687}, {"type": "node", "id": 2171714121, "lat": 48.8917108, "lon": 13.4863561}, {"type": "node", "id": 2171714122, "lat": 48.8919081, "lon": 13.4857846}, {"type": "node", "id": 2171995284, "lat": 48.9272486, "lon": 13.4705479}, {"type": "node", "id": 2171995285, "lat": 48.9272501, "lon": 13.4704855}, {"type": "node", "id": 2171995290, "lat": 48.9273007, "lon": 13.4705509}, {"type": "node", "id": 2202965086, "lat": 48.8977706, "lon": 13.4876485, "tags": {"tourism": "viewpoint"}}, {"type": "node", "id": 2268278345, "lat": 48.8515811, "lon": 13.4582633, "tags": {"ele": "875", "name": "Steinberg", "natural": "peak", "summit:cross": "no", "wikidata": "Q31519219"}}, {"type": "node", "id": 2296825872, "lat": 48.9165185, "lon": 13.4120833, "tags": {"information": "board", "name": "ehemaliger Triftkanal", "tourism": "information"}}, {"type": "node", "id": 2307614371, "lat": 48.8915606, "lon": 13.4842066, "tags": {"name": "Baumwipfelpfad", "name:cs": "Stezka korunami strom\u016f (Baumwipfelpfad)", "tourism": "viewpoint", "website": "https://www.baumwipfelpfade.de/bayerischer-wald/", "wheelchair": "yes", "wheelchair:description": "F\u00fcr Rollstuhlfahrer ist es wirklich m\u00f6glich. am besten mit einer Begleitperson, ganz nach oben zu kommen. Die Aussicht ist grandions."}}, {"type": "node", "id": 2313042048, "lat": 48.9043994, "lon": 13.4119838, "tags": {"information": "guidepost", "name": "59", "tourism": "information"}}, {"type": "node", "id": 2313042059, "lat": 48.9033128, "lon": 13.4140618, "tags": {"board_type": "history", "description": "Mehrere Vertiefungen im Boden sind Reste von Wolfsgruben, urspr\u00fcnglich 3\u20134m tiefe Gruben zum Fang von W\u00f6lfen, die mit Zweigen abgedeckt und einer Ente als K\u00f6der versehen waren. (Tafel 20 des Themenwanderwegs Sankt Oswald - Riedlh\u00fctte)", "information": "board", "name": "20 - Wolfsgrube", "ref": "Themenwanderweg 20", "tourism": "information"}}, {"type": "node", "id": 2313042204, "lat": 48.9006757, "lon": 13.4277821, "tags": {"information": "hikingmap", "name": "Winterweg/Loipenkarte", "tourism": "information"}}, {"type": "node", "id": 2313042218, "lat": 48.9045334, "lon": 13.4119463, "tags": {"board_type": "history", "description": "Der Flurname Taferlau kommt von der hier am Baum angebrachten (nicht mehr vorhandenen) Votivtafel, die an die Rettung einer alten Frau vor einem B\u00e4ren durch Anrufung Mariens erinnert. (Tafel 19 des Themenwanderwegs Sankt Oswald - Riedlh\u00fctte)", "information": "board", "name": "19 - Der Taferlbaum", "ref": "Themenwanderweg 19", "tourism": "information"}}, {"type": "node", "id": 2313051272, "lat": 48.9076956, "lon": 13.4043012, "tags": {"guidepost": "hiking", "information": "guidepost", "tourism": "information"}}, {"type": "node", "id": 2313051273, "lat": 48.9021955, "lon": 13.4140813, "tags": {"information": "history", "name": "Infotafel", "tourism": "information"}}, {"type": "node", "id": 2313057535, "lat": 48.9204055, "lon": 13.4220099, "tags": {"name": "Kerngebiet", "tourism": "information"}}, {"type": "node", "id": 2313079049, "lat": 48.907614, "lon": 13.4021145, "tags": {"guidepost": "hiking", "information": "guidepost", "tourism": "information"}}, {"type": "node", "id": 2313111981, "lat": 48.9073373, "lon": 13.4041233, "tags": {"amenity": "watering_place", "description": "Rekonstruktion einer Anlage zum Waschen von Gold. Hier wurden aus Goldseife (goldhaltiger Sand und Kies), die in der N\u00e4he vorkommen, und viel Wasser Gold gewonnen.", "historic": "industrial", "name": "Goldwaschplatz", "tourism": "attraction"}}, {"type": "node", "id": 2319952365, "lat": 48.8861801, "lon": 13.5342282, "tags": {"name": "Kerngebiet", "tourism": "information"}}, {"type": "node", "id": 2319961623, "lat": 48.8863915, "lon": 13.5289898, "tags": {"hiking": "yes", "information": "guidepost", "tourism": "information"}}, {"type": "node", "id": 2319961629, "lat": 48.8873926, "lon": 13.5338695, "tags": {"hiking": "yes", "information": "guidepost", "tourism": "information"}}, {"type": "node", "id": 2339214314, "lat": 48.9238453, "lon": 13.4438208, "tags": {"information": "guidepost", "tourism": "information"}}, {"type": "node", "id": 2339217910, "lat": 48.9250158, "lon": 13.4318173}, {"type": "node", "id": 2339217912, "lat": 48.9250599, "lon": 13.4317154}, {"type": "node", "id": 2339217914, "lat": 48.9250177, "lon": 13.4317135}, {"type": "node", "id": 2339217917, "lat": 48.9250579, "lon": 13.4318192}, {"type": "node", "id": 2339218109, "lat": 48.9231498, "lon": 13.4433755, "tags": {"information": "guidepost", "tourism": "information"}}, {"type": "node", "id": 2340124715, "lat": 48.9188599, "lon": 13.4276705, "tags": {"information": "guidepost", "tourism": "information"}}, {"type": "node", "id": 2341553574, "lat": 48.9181176, "lon": 13.4280491, "tags": {"amenity": "shelter", "description": "Wasserh\u00e4usl mit Unterstand", "shelter_type": "weather_shelter"}}, {"type": "node", "id": 2341553784, "lat": 48.9120102, "lon": 13.4301186, "tags": {"information": "guidepost", "tourism": "information"}}, {"type": "node", "id": 2341643982, "lat": 48.924728, "lon": 13.4279654, "tags": {"information": "guidepost", "name": "Wegweiser", "tourism": "information"}}, {"type": "node", "id": 2364695531, "lat": 48.9507072, "lon": 13.5508657, "tags": {"information": "guidepost", "name": "Hinweis:Kerngebiet", "tourism": "information"}}, {"type": "node", "id": 2365609914, "lat": 48.8179057, "lon": 13.5820372, "tags": {"tourism": "information"}}, {"type": "node", "id": 2367145967, "lat": 48.8911242, "lon": 13.4829942}, {"type": "node", "id": 2367145968, "lat": 48.8912413, "lon": 13.4829362}, {"type": "node", "id": 2367145971, "lat": 48.89188, "lon": 13.4859525}, {"type": "node", "id": 2367145972, "lat": 48.8919149, "lon": 13.4854692}, {"type": "node", "id": 2383961056, "lat": 48.9064235, "lon": 13.4728399, "tags": {"tourism": "viewpoint"}}, {"type": "node", "id": 2383983283, "lat": 48.894484, "lon": 13.4851329, "tags": {"information": "guidepost", "tourism": "information"}}, {"type": "node", "id": 2383983285, "lat": 48.8970444, "lon": 13.4860746, "tags": {"information": "guidepost", "tourism": "information"}}, {"type": "node", "id": 2383983295, "lat": 48.8985797, "lon": 13.4840638, "tags": {"information": "guidepost", "tourism": "information"}}, {"type": "node", "id": 2383983296, "lat": 48.8986842, "lon": 13.4843247, "tags": {"information": "guidepost", "tourism": "information"}}, {"type": "node", "id": 2383983298, "lat": 48.8993828, "lon": 13.4856292, "tags": {"information": "guidepost", "tourism": "information"}}, {"type": "node", "id": 2383983303, "lat": 48.9007842, "lon": 13.4875955, "tags": {"information": "guidepost", "tourism": "information"}}, {"type": "node", "id": 2383983312, "lat": 48.9023861, "lon": 13.4824425, "tags": {"information": "guidepost", "tourism": "information"}}, {"type": "node", "id": 2383983321, "lat": 48.9032386, "lon": 13.473591, "tags": {"access": "yes", "barrier": "gate", "maxwidth:physical": "1"}}, {"type": "node", "id": 2383983323, "lat": 48.9032636, "lon": 13.4735706, "tags": {"access": "yes", "barrier": "gate", "maxwidth:physical": "1", "source:maxwidth:physical": "ARCore"}}, {"type": "node", "id": 2383983328, "lat": 48.9040051, "lon": 13.473004, "tags": {"information": "guidepost", "tourism": "information"}}, {"type": "node", "id": 2383983329, "lat": 48.9041042, "lon": 13.471352, "tags": {"description": "Tier-Freigel\u00e4nde", "hiking": "yes", "information": "map", "map_size": "site", "map_type": "scheme", "tourism": "information"}}, {"type": "node", "id": 2383983345, "lat": 48.906017, "lon": 13.4727495, "tags": {"information": "guidepost", "tourism": "information"}}, {"type": "node", "id": 2383999626, "lat": 48.9041123, "lon": 13.4712531, "tags": {"information": "board", "name": "Treffpunkt (F\u00fchrungen)", "name:cs": "Za\u010d\u00e1tek prohl\u00eddky s pr\u016fvodcem", "tourism": "information"}}, {"type": "node", "id": 2384030299, "lat": 48.9028921, "lon": 13.4826621}, {"type": "node", "id": 2384030300, "lat": 48.9030081, "lon": 13.4825275}, {"type": "node", "id": 2384030302, "lat": 48.9030272, "lon": 13.4825711}, {"type": "node", "id": 2384030303, "lat": 48.9030818, "lon": 13.4823247}, {"type": "node", "id": 2415950553, "lat": 48.940182, "lon": 13.5299367, "tags": {"tourism": "viewpoint"}}, {"type": "node", "id": 2415994967, "lat": 48.9437203, "lon": 13.5430284, "tags": {"information": "guidepost", "name": "Radweg Nr 90 (Finsterau)", "tourism": "information"}}, {"type": "node", "id": 2415994968, "lat": 48.9437707, "lon": 13.5428756, "tags": {"information": "board", "name": "Radverbot", "tourism": "information"}}, {"type": "node", "id": 2415994969, "lat": 48.9436569, "lon": 13.5428005, "tags": {"information": "guidepost", "name": "Wegweiser (Finsterauer Lusensteig)", "tourism": "information"}}, {"type": "node", "id": 2416973961, "lat": 48.94348, "lon": 13.5424664, "tags": {"information": "guidepost", "name": "Wegweiser", "tourism": "information"}}, {"type": "node", "id": 2432826268, "lat": 48.8905411, "lon": 13.4852497, "tags": {"board_type": "nature", "check_date": "2022-09-29", "information": "board", "tourism": "information"}}, {"type": "node", "id": 2515708857, "lat": 48.9258696, "lon": 13.4660158, "tags": {"fixme": "was ist NP Info?", "name": "NP-Info", "tourism": "information"}}, {"type": "node", "id": 2515719366, "lat": 48.9479852, "lon": 13.5079419, "tags": {"information": "board", "name": "Grenzsteig ganzj\u00e4hrig gesperrt", "tourism": "information"}}, {"type": "node", "id": 2522085017, "lat": 48.7526613, "lon": 13.4032746, "tags": {"man_made": "watermill", "name": "Wasserrad (Hammerschmiede)", "tourism": "attraction"}}, {"type": "node", "id": 2546748370, "lat": 48.8906977, "lon": 13.4847784}, {"type": "node", "id": 2546748373, "lat": 48.8907228, "lon": 13.4845823}, {"type": "node", "id": 2546748375, "lat": 48.890776, "lon": 13.4849407}, {"type": "node", "id": 2546748377, "lat": 48.8908219, "lon": 13.4844805}, {"type": "node", "id": 2546748379, "lat": 48.8908955, "lon": 13.4849674}, {"type": "node", "id": 2546748381, "lat": 48.8909527, "lon": 13.4845201}, {"type": "node", "id": 2546748383, "lat": 48.8909938, "lon": 13.4848648}, {"type": "node", "id": 2546748385, "lat": 48.8910194, "lon": 13.484678}, {"type": "node", "id": 2600210086, "lat": 48.8947957, "lon": 13.5627655, "tags": {"information": "board", "tourism": "information"}}, {"type": "node", "id": 2634313727, "lat": 48.842768, "lon": 13.4459261, "tags": {"information": "yes", "name": "Modellflugplatz", "tourism": "information"}}, {"type": "node", "id": 2634319120, "lat": 48.8449016, "lon": 13.4466393, "tags": {"information": "guidepost", "tourism": "information"}}, {"type": "node", "id": 2634343901, "lat": 48.8395136, "lon": 13.4518058, "tags": {"description": "1,9 km Geistl.Stein-Themenwanderweg", "information": "guidepost", "tourism": "information"}}, {"type": "node", "id": 2634399924, "lat": 48.8333291, "lon": 13.4585984, "tags": {"information": "history", "name": "Historische Grenzsteininfo", "tourism": "information"}}, {"type": "node", "id": 2634401191, "lat": 48.8332822, "lon": 13.4583901, "tags": {"information": "board", "name": "Pflock (5)", "note": "2 Historische Grenzsteine am Thomasbach", "tourism": "information"}}, {"type": "node", "id": 2634536646, "lat": 48.847472, "lon": 13.4639988, "tags": {"tourism": "viewpoint"}}, {"type": "node", "id": 2635703401, "lat": 48.826372, "lon": 13.4499631, "tags": {"information": "board", "name": "Pflock 13", "tourism": "information"}}, {"type": "node", "id": 2635706259, "lat": 48.8255657, "lon": 13.4521164, "tags": {"description": "Wegweiser", "information": "guidepost", "tourism": "information"}}, {"type": "node", "id": 2635707243, "lat": 48.8255092, "lon": 13.4526328, "tags": {"description": "Wegweiser", "information": "guidepost", "tourism": "information"}}, {"type": "node", "id": 2635709711, "lat": 48.8274075, "lon": 13.456878, "tags": {"information": "board", "name": "Pflock 11", "note": "Tollkirschen & Holunder", "tourism": "information"}}, {"type": "node", "id": 2640693373, "lat": 48.8330282, "lon": 13.4576612, "tags": {"name": "Pflock 6", "tourism": "information"}}, {"type": "node", "id": 2640756882, "lat": 48.8415048, "lon": 13.4445318, "tags": {"information": "history", "name": "Historische Grenzsteine - 1691/92", "tourism": "information"}}, {"type": "node", "id": 2640761492, "lat": 48.8281982, "lon": 13.4577657, "tags": {"name": "Kleiner Geistlicher Stein", "natural": "peak"}}, {"type": "node", "id": 2640766437, "lat": 48.8377632, "lon": 13.4538134, "tags": {"description": "Blick nach H\u00f6tzelsberg", "tourism": "viewpoint"}}, {"type": "node", "id": 2640790121, "lat": 48.8389875, "lon": 13.4517897, "tags": {"name": "Pflock 7", "note": "Quarzh\u00f6hle", "tourism": "information"}}, {"type": "node", "id": 2640791237, "lat": 48.8293247, "lon": 13.4559981, "tags": {"description": "Zum Ringelaier-Schmalzdobl", "tourism": "viewpoint"}}, {"type": "node", "id": 2640814723, "lat": 48.8476832, "lon": 13.4498643, "tags": {"information": "board", "name": "Wanderzeichen-Wegweiser", "tourism": "information"}}, {"type": "node", "id": 2640816768, "lat": 48.8488238, "lon": 13.4487138, "tags": {"information": "map", "name": "Wanderkarte", "tourism": "information"}}, {"type": "node", "id": 2644153977, "lat": 48.8599565, "lon": 13.4536957, "tags": {"information": "guidepost", "name": "Winterwanderweg", "tourism": "information"}}, {"type": "node", "id": 2644181126, "lat": 48.8637443, "lon": 13.4666413, "tags": {"tourism": "information"}}, {"type": "node", "id": 2644189467, "lat": 48.8575049, "lon": 13.4658902, "tags": {"name": "Wasserschutzgebiet", "tourism": "information"}}, {"type": "node", "id": 2644189470, "lat": 48.8573607, "lon": 13.4662137, "tags": {"name": "Wasserschutzgebiet", "tourism": "information"}}, {"type": "node", "id": 2748300213, "lat": 48.9463947, "lon": 13.5664584, "tags": {"information": "guidepost", "tourism": "information"}}, {"type": "node", "id": 2752192559, "lat": 48.7857049, "lon": 13.4009005, "tags": {"information": "guidepost", "tourism": "information"}}, {"type": "node", "id": 2753953924, "lat": 48.7718497, "lon": 13.4006611, "tags": {"check_date": "2022-10-26", "information": "board", "name": "Natur ist aller Meister... (J.W.v.Goethe)", "tourism": "information"}}, {"type": "node", "id": 2753986281, "lat": 48.774451, "lon": 13.4018464, "tags": {"hiking": "yes", "information": "guidepost", "tourism": "information"}}, {"type": "node", "id": 2754033414, "lat": 48.7818696, "lon": 13.4041959, "tags": {"information": "guidepost", "name": "Ilzwanderweg", "tourism": "information"}}, {"type": "node", "id": 2754049271, "lat": 48.7863938, "lon": 13.4011844, "tags": {"information": "guidepost", "name": "Ilzwanderweg", "tourism": "information"}}, {"type": "node", "id": 2754175207, "lat": 48.7834226, "lon": 13.4045846, "tags": {"information": "guidepost", "name": "Ilzwanderweg", "tourism": "information"}}, {"type": "node", "id": 2754241449, "lat": 48.7574558, "lon": 13.4032712, "tags": {"information": "guidepost", "tourism": "information"}}, {"type": "node", "id": 2754241636, "lat": 48.7574209, "lon": 13.4032005, "tags": {"information": "guidepost", "tourism": "information"}}, {"type": "node", "id": 2754470087, "lat": 48.7626106, "lon": 13.4010119, "tags": {"information": "board", "name": "Der Ilzsteg", "tourism": "information"}}, {"type": "node", "id": 2754492609, "lat": 48.7628768, "lon": 13.4009474, "tags": {"name": "Die\u00dfensteinerm\u00fchle", "tourism": "information"}}, {"type": "node", "id": 2767004287, "lat": 48.9413688, "lon": 13.5934998, "tags": {"information": "guidepost", "name": "Kirchensteig", "tourism": "information"}}, {"type": "node", "id": 2767006344, "lat": 48.941954, "lon": 13.594167, "tags": {"information": "guidepost", "tourism": "information"}}, {"type": "node", "id": 2767009547, "lat": 48.9450594, "lon": 13.5975631, "tags": {"information": "guidepost", "tourism": "information"}}, {"type": "node", "id": 2767009548, "lat": 48.9450217, "lon": 13.5995949, "tags": {"information": "guidepost", "tourism": "information"}}, {"type": "node", "id": 2767095635, "lat": 48.9457556, "lon": 13.5982223, "tags": {"name": "Streuberg", "tourism": "information"}}, {"type": "node", "id": 2767097735, "lat": 48.945669, "lon": 13.5984501, "tags": {"name": "Brenntmais", "tourism": "information"}}, {"type": "node", "id": 2767125874, "lat": 48.9407892, "lon": 13.5955953, "tags": {"information": "guidepost", "tourism": "information"}}, {"type": "node", "id": 2767149223, "lat": 48.9395821, "lon": 13.5929164, "tags": {"board_type": "nature", "information": "board", "name": "Wacholderheide", "tourism": "information"}}, {"type": "node", "id": 2767149224, "lat": 48.9394833, "lon": 13.5929429, "tags": {"information": "guidepost", "tourism": "information"}}, {"type": "node", "id": 2767177213, "lat": 48.9401613, "lon": 13.5951462, "tags": {"information": "board", "name": "Kirchensteig", "tourism": "information"}}, {"type": "node", "id": 2767187232, "lat": 48.9401771, "lon": 13.595152, "tags": {"amenity": "shelter", "name": "F\u00fcrstenhut- Denkmal", "shelter_type": "weather_shelter"}}, {"type": "node", "id": 2767190245, "lat": 48.9371596, "lon": 13.584538, "tags": {"information": "guidepost", "tourism": "information"}}, {"type": "node", "id": 2767191442, "lat": 48.9377255, "lon": 13.5847491, "tags": {"information": "guidepost", "tourism": "information"}}, {"type": "node", "id": 2767232819, "lat": 48.9365246, "lon": 13.5906679, "tags": {"information": "board", "name": "Kuhtrieb", "tourism": "information"}}, {"type": "node", "id": 2767246285, "lat": 48.9369327, "lon": 13.5874167, "tags": {"information": "guidepost", "tourism": "information"}}, {"type": "node", "id": 2784142015, "lat": 48.8056218, "lon": 13.560478, "tags": {"information": "board", "tourism": "information"}}, {"type": "node", "id": 2784142043, "lat": 48.8064886, "lon": 13.5602758, "tags": {"information": "board", "tourism": "information"}}, {"type": "node", "id": 2868976713, "lat": 48.8490316, "lon": 13.5277105, "tags": {"tourism": "viewpoint"}}, {"type": "node", "id": 2869006327, "lat": 48.8688687, "lon": 13.4593773, "tags": {"information": "board", "tourism": "information"}}, {"type": "node", "id": 2917409855, "lat": 48.9006829, "lon": 13.4278641, "tags": {"information": "guidepost", "tourism": "information"}}, {"type": "node", "id": 2917421418, "lat": 48.9048765, "lon": 13.4120486, "tags": {"information": "guidepost", "name": "58", "tourism": "information"}}, {"type": "node", "id": 2917461891, "lat": 48.9049478, "lon": 13.4307558, "tags": {"information": "guidepost", "tourism": "information"}}, {"type": "node", "id": 2917461892, "lat": 48.9058187, "lon": 13.433835, "tags": {"information": "guidepost", "tourism": "information"}}, {"type": "node", "id": 2918256084, "lat": 48.9110615, "lon": 13.4304626, "tags": {"information": "guidepost", "tourism": "information"}}, {"type": "node", "id": 2919932384, "lat": 48.9236038, "lon": 13.4152318, "tags": {"bicycle": "yes", "hiking": "yes", "information": "guidepost", "tourism": "information"}}, {"type": "node", "id": 2989547861, "lat": 48.9276293, "lon": 13.4708441, "tags": {"description": "Nationalpark Karte", "hiking": "yes", "information": "map", "tourism": "information"}}, {"type": "node", "id": 2989556018, "lat": 48.9306615, "lon": 13.4731613, "tags": {"information": "guidepost", "tourism": "information"}}, {"type": "node", "id": 2989558531, "lat": 48.9296151, "lon": 13.4718945, "tags": {"information": "guidepost", "tourism": "information"}}, {"type": "node", "id": 2989583324, "lat": 48.9249508, "lon": 13.4696878, "tags": {"information": "guidepost", "tourism": "information"}}, {"type": "node", "id": 2989595883, "lat": 48.9296112, "lon": 13.4799286, "tags": {"information": "guidepost", "name": "Einstieg-H\u00f6henloipe", "tourism": "information"}}, {"type": "node", "id": 2989721475, "lat": 48.9268886, "lon": 13.4751667, "tags": {"natural": "peak"}}, {"type": "node", "id": 2996250696, "lat": 48.9275209, "lon": 13.5227264, "tags": {"ele": "1257", "natural": "peak"}}, {"type": "node", "id": 3016218477, "lat": 48.942703, "lon": 13.5153265, "tags": {"information": "guidepost", "name": "Soldanelle - Pfosten", "tourism": "information"}}, {"type": "node", "id": 3016218478, "lat": 48.9424957, "lon": 13.5160591, "tags": {"information": "guidepost", "name": "Soldanelle - Pfosten", "tourism": "information"}}, {"type": "node", "id": 3017471353, "lat": 48.9331227, "lon": 13.4876577, "tags": {"check_date": "2025-12-27", "information": "board", "name": "Die \" Guldenstra\u00df\" & das \"Obere Waldhaus\"", "tourism": "information"}}, {"type": "node", "id": 3118301724, "lat": 48.8137908, "lon": 13.4305447}, {"type": "node", "id": 3118301829, "lat": 48.8138057, "lon": 13.4305102}, {"type": "node", "id": 3118301830, "lat": 48.8138107, "lon": 13.4305645}, {"type": "node", "id": 3118301834, "lat": 48.8138256, "lon": 13.43053}, {"type": "node", "id": 3165345432, "lat": 48.9416124, "lon": 13.5710406}, {"type": "node", "id": 3165345433, "lat": 48.9416342, "lon": 13.5711074}, {"type": "node", "id": 3165345434, "lat": 48.9416049, "lon": 13.5711296}, {"type": "node", "id": 3165347867, "lat": 48.9416133, "lon": 13.5710781, "tags": {"check_date": "2021-11-01", "information": "map", "name": "Wistlberg", "tourism": "information"}}, {"type": "node", "id": 3221336042, "lat": 48.941079, "lon": 13.5901552, "tags": {"information": "guidepost", "tourism": "information"}}, {"type": "node", "id": 3221386301, "lat": 48.8947566, "lon": 13.4774463, "tags": {"information": "guidepost", "name": "Parkplatz Tad\u00e4us (P5)", "tourism": "information"}}, {"type": "node", "id": 3223927985, "lat": 48.9134201, "lon": 13.4615742, "tags": {"information": "guidepost", "name": "Parkpl.Sch\u00f6nau 5m", "tourism": "information"}}, {"type": "node", "id": 3223933345, "lat": 48.909402, "lon": 13.4721774, "tags": {"information": "guidepost", "tourism": "information"}}, {"type": "node", "id": 3223933591, "lat": 48.908574, "lon": 13.4684351, "tags": {"information": "guidepost", "tourism": "information"}}, {"type": "node", "id": 3223934678, "lat": 48.9116012, "lon": 13.4665576, "tags": {"description": "1/4h Altsch\u00f6nau", "information": "guidepost", "tourism": "information"}}, {"type": "node", "id": 3223973626, "lat": 48.9034295, "lon": 13.4635368, "tags": {"information": "guidepost", "tourism": "information"}}, {"type": "node", "id": 3223986490, "lat": 48.9074053, "lon": 13.474085, "tags": {"board_type": "wildlife", "information": "board", "name": "Otter", "name:cs": "Vydry", "tourism": "information"}}, {"type": "node", "id": 3223991836, "lat": 48.9095836, "lon": 13.4670092, "tags": {"board_type": "history", "information": "board", "name": "Knotenbachklause", "tourism": "information"}}, {"type": "node", "id": 3224001628, "lat": 48.9036104, "lon": 13.4685029, "tags": {"information": "guidepost", "tourism": "information"}}, {"type": "node", "id": 3224006256, "lat": 48.9034418, "lon": 13.465927, "tags": {"information": "guidepost", "tourism": "information"}}, {"type": "node", "id": 3224021221, "lat": 48.9047413, "lon": 13.4702518, "tags": {"information": "guidepost", "note": "19", "tourism": "information"}}, {"type": "node", "id": 3224021222, "lat": 48.9052704, "lon": 13.4699754, "tags": {"information": "guidepost", "tourism": "information"}}, {"type": "node", "id": 3224022768, "lat": 48.904116, "lon": 13.4690078, "tags": {"direction_east": "Toilette 300 m", "information": "guidepost", "tourism": "information"}}, {"type": "node", "id": 3224041141, "lat": 48.9091566, "lon": 13.4494146, "tags": {"information": "guidepost", "tourism": "information"}}, {"type": "node", "id": 3224041557, "lat": 48.9035397, "lon": 13.4650895, "tags": {"information": "guidepost", "tourism": "information"}}, {"type": "node", "id": 3224043245, "lat": 48.9056095, "lon": 13.4536847, "tags": {"information": "guidepost", "tourism": "information"}}, {"type": "node", "id": 3224044348, "lat": 48.906759, "lon": 13.4503909, "tags": {"information": "guidepost", "tourism": "information"}}, {"type": "node", "id": 3224050246, "lat": 48.9064487, "lon": 13.4526655, "tags": {"information": "guidepost", "name": "Knottenbachklause / Kl. Au", "tourism": "information"}}, {"type": "node", "id": 3224663085, "lat": 48.9034692, "lon": 13.4680084, "tags": {"information": "guidepost", "tourism": "information"}}, {"type": "node", "id": 3224663091, "lat": 48.9034393, "lon": 13.4659083, "tags": {"information": "board", "name": "B\u00e4renpfad", "tourism": "information"}}, {"type": "node", "id": 3224675988, "lat": 48.9104488, "lon": 13.4581916, "tags": {"description": "Blick nach Altsch\u00f6nau", "tourism": "viewpoint"}}, {"type": "node", "id": 3224681816, "lat": 48.9032735, "lon": 13.4611027, "tags": {"description": "Blick n. Altsch\u00f6nau", "tourism": "viewpoint"}}, {"type": "node", "id": 3224688432, "lat": 48.9051007, "lon": 13.458152, "tags": {"information": "guidepost", "name": "zur Orstmitte-Altsch\u00f6nau", "tourism": "information"}}, {"type": "node", "id": 3224696572, "lat": 48.9056412, "lon": 13.4688574, "tags": {"information": "guidepost", "tourism": "information"}}, {"type": "node", "id": 3224700079, "lat": 48.9121154, "lon": 13.4608097, "tags": {"information": "guidepost", "name": "Kl. Au - Tierfreigel\u00e4nde", "tourism": "information"}}, {"type": "node", "id": 3224706432, "lat": 48.9101785, "lon": 13.4503445, "tags": {"information": "board", "name": "Hochmoorkomplex - Kleine Au", "tourism": "information"}}, {"type": "node", "id": 3226013924, "lat": 48.9059787, "lon": 13.4734244, "tags": {"information": "guidepost", "tourism": "information"}}, {"type": "node", "id": 3226017136, "lat": 48.9072639, "lon": 13.4742264, "tags": {"information": "guidepost", "tourism": "information"}}, {"type": "node", "id": 3226021381, "lat": 48.9084645, "lon": 13.4720887, "tags": {"information": "guidepost", "tourism": "information"}}, {"type": "node", "id": 3226039974, "lat": 48.8955814, "lon": 13.4234516}, {"type": "node", "id": 3226039978, "lat": 48.8955515, "lon": 13.4234772}, {"type": "node", "id": 3226039980, "lat": 48.8955842, "lon": 13.4234171}, {"type": "node", "id": 3226039983, "lat": 48.8955568, "lon": 13.4234119}, {"type": "node", "id": 3226039985, "lat": 48.8955788, "lon": 13.4234824}, {"type": "node", "id": 3234878726, "lat": 48.9083382, "lon": 13.4664811, "tags": {"information": "guidepost", "tourism": "information"}}, {"type": "node", "id": 3235357476, "lat": 48.9297107, "lon": 13.5776462}, {"type": "node", "id": 3235357477, "lat": 48.9297173, "lon": 13.577772}, {"type": "node", "id": 3235357485, "lat": 48.9297674, "lon": 13.5776393}, {"type": "node", "id": 3235357487, "lat": 48.929774, "lon": 13.5777651}, {"type": "node", "id": 3243152978, "lat": 48.8946612, "lon": 13.415099, "tags": {"tourism": "information"}}, {"type": "node", "id": 3243152983, "lat": 48.8778769, "lon": 13.4225779, "tags": {"board_type": "history", "information": "board", "name": "Gulden Strass", "tourism": "information"}}, {"type": "node", "id": 3244679652, "lat": 48.8549302, "lon": 13.4034856, "tags": {"board_type": "sport", "information": "board", "name": "Infopoint Wander- und Radwege", "operator": "Stadt Grafenau", "tourism": "information"}}, {"type": "node", "id": 3247691119, "lat": 48.9230843, "lon": 13.4574849, "tags": {"information": "guidepost", "tourism": "information"}}, {"type": "node", "id": 3247697603, "lat": 48.926874, "lon": 13.4571906, "tags": {"information": "guidepost", "name": "Steinfelsenh\u00e4ng / Waldh\u00e4user", "tourism": "information"}}, {"type": "node", "id": 3247745628, "lat": 48.92755, "lon": 13.4612389, "tags": {"information": "guidepost", "tourism": "information"}}, {"type": "node", "id": 3247754659, "lat": 48.9275097, "lon": 13.4617751, "tags": {"information": "guidepost", "name": "Goldener Steig", "tourism": "information"}}, {"type": "node", "id": 3247759262, "lat": 48.9275171, "lon": 13.4618468, "tags": {"information": "map", "tourism": "information"}}, {"type": "node", "id": 3247759594, "lat": 48.9275151, "lon": 13.4618707, "tags": {"information": "board", "name": "Auf der Spur des wei\u00dfen Goldes", "tourism": "information"}}, {"type": "node", "id": 3247764569, "lat": 48.9252084, "lon": 13.465093, "tags": {"information": "guidepost", "name": "Markierungspfosten", "tourism": "information"}}, {"type": "node", "id": 3247893431, "lat": 48.9270262, "lon": 13.4649021, "tags": {"information": "guidepost", "name": "Fredenbr\u00fccke /Martinsklause/Lusen/Graups\u00e4ge", "tourism": "information"}}, {"type": "node", "id": 3247906698, "lat": 48.925888, "lon": 13.4658245, "tags": {"hiking": "yes", "information": "guidepost", "name": "Herbergsweg", "tourism": "information"}}, {"type": "node", "id": 3247910689, "lat": 48.92626, "lon": 13.4653963, "tags": {"information": "guidepost", "name": "Schneesportschule", "tourism": "information"}}, {"type": "node", "id": 3247913882, "lat": 48.9262407, "lon": 13.4653654, "tags": {"information": "guidepost", "name": "Ski & Snowboard Einsteigerlift", "tourism": "information"}}, {"type": "node", "id": 3247925583, "lat": 48.9257773, "lon": 13.4659006, "tags": {"hiking": "yes", "information": "guidepost", "name": "Wanderwegweiser", "tourism": "information"}}, {"type": "node", "id": 3247940598, "lat": 48.9198558, "lon": 13.4694437, "tags": {"information": "guidepost", "name": "Waldh\u00e4user 1/4 h / NP Lusen Tierfreigel\u00e4nde / Waldh\u00e4user \u00fcber Steinfelsenh\u00e4ng", "tourism": "information"}}, {"type": "node", "id": 3247973661, "lat": 48.9156601, "lon": 13.47097, "tags": {"information": "guidepost", "name": "Altsch\u00f6nau / Waldh\u00e4user", "tourism": "information"}}, {"type": "node", "id": 3319995131, "lat": 48.7648324, "lon": 13.5905756}, {"type": "node", "id": 3319995132, "lat": 48.7648463, "lon": 13.5905499}, {"type": "node", "id": 3319995133, "lat": 48.7648644, "lon": 13.5906156}, {"type": "node", "id": 3319995134, "lat": 48.7648784, "lon": 13.5905898}, {"type": "node", "id": 3329668401, "lat": 48.9179382, "lon": 13.4707852, "tags": {"name": "Telefonstra\u00dfe", "tourism": "attraction"}}, {"type": "node", "id": 3362076413, "lat": 48.9038814, "lon": 13.4700518, "tags": {"direction_east": "Tier-Freigel\u00e4nde B\u00e4r 1/4 Std.;Rundweg Rehbock 1 1/2 Std. (Tier-Freigel\u00e4nde);Treffpunkt F\u00fchrungen;Nationalparkzentrum Lusen;Toiletten 200 m", "direction_west": "Grafenau;Altsch\u00f6nau;Rundweg Rehbock 1 1/2 Std. (Kleine Au)", "hiking": "yes", "information": "guidepost", "tourism": "information"}}, {"type": "node", "id": 3362101707, "lat": 48.9040103, "lon": 13.4713094, "tags": {"direction_east": "Tier-Freigel\u00e4nde, B\u00e4r;Rundweg Rehbock;Toiletten 150 m;Nationalparkzentrum Lusen", "direction_northwest": "Igelbus-Haltestelle", "direction_west": "Grafenau;Altsch\u00f6nau;Parkplatz Altsch\u00f6nau", "hiking": "yes", "information": "guidepost", "tourism": "information"}}, {"type": "node", "id": 3362959081, "lat": 48.8926224, "lon": 13.489443, "tags": {"check_date": "2021-10-31", "description": "Tier-Freigel\u00e4nde", "hiking": "yes", "information": "map", "map_size": "site", "map_type": "scheme", "tourism": "information"}}, {"type": "node", "id": 3362959084, "lat": 48.8942624, "lon": 13.4865967, "tags": {"information": "guidepost", "tourism": "information"}}, {"type": "node", "id": 3362959087, "lat": 48.8944836, "lon": 13.4847904, "tags": {"information": "guidepost", "tourism": "information"}}, {"type": "node", "id": 3362959089, "lat": 48.8945729, "lon": 13.4850323, "tags": {"board_type": "nature", "check_date": "2023-04-11", "description": "Platz f\u00fcr Tiere, Pflanzen und Pilze", "information": "board", "tourism": "information"}}, {"type": "node", "id": 3362959090, "lat": 48.8954258, "lon": 13.483343, "tags": {"information": "guidepost", "tourism": "information"}}, {"type": "node", "id": 3362959092, "lat": 48.8960542, "lon": 13.4820808, "tags": {"information": "guidepost", "tourism": "information"}}, {"type": "node", "id": 3362960098, "lat": 48.8979045, "lon": 13.4832153, "tags": {"information": "guidepost", "tourism": "information"}}, {"type": "node", "id": 3362960105, "lat": 48.8994946, "lon": 13.4832167, "tags": {"information": "guidepost", "tourism": "information"}}, {"type": "node", "id": 3362960109, "lat": 48.901625, "lon": 13.4811556, "tags": {"information": "guidepost", "tourism": "information"}}, {"type": "node", "id": 3362960111, "lat": 48.9016504, "lon": 13.4811396, "tags": {"description": "Tier-Freigel\u00e4nde", "hiking": "yes", "information": "map", "map_size": "site", "map_type": "scheme", "tourism": "information"}}, {"type": "node", "id": 3362960121, "lat": 48.9027546, "lon": 13.4781783, "tags": {"check_date": "2021-10-31", "description": "Tier-Freigel\u00e4nde", "hiking": "yes", "information": "map", "map_size": "site", "map_type": "scheme", "tourism": "information"}}, {"type": "node", "id": 3362960122, "lat": 48.9027954, "lon": 13.4779141, "tags": {"information": "guidepost", "tourism": "information"}}, {"type": "node", "id": 3362963675, "lat": 48.8979318, "lon": 13.4910795, "tags": {"information": "guidepost", "tourism": "information"}}, {"type": "node", "id": 3370296585, "lat": 48.8645965, "lon": 13.4007879, "tags": {"name": "Schwaimberg", "natural": "peak", "note": "ungef\u00e4hre Lage, bitte um Korrektur"}}, {"type": "node", "id": 3379569818, "lat": 48.9036364, "lon": 13.4687463, "tags": {"information": "map", "map_size": "site", "map_type": "scheme", "tourism": "information"}}, {"type": "node", "id": 3379595714, "lat": 48.9026804, "lon": 13.4776466, "tags": {"board_type": "wildlife", "information": "board", "name": "Braunb\u00e4r", "name:cs": "Medv\u011bd hn\u011bd\u00fd", "tourism": "information"}}, {"type": "node", "id": 3379605051, "lat": 48.9057642, "lon": 13.4747624, "tags": {"information": "guidepost", "tourism": "information"}}, {"type": "node", "id": 3379609896, "lat": 48.9051893, "lon": 13.4725388, "tags": {"information": "guidepost", "tourism": "information"}}, {"type": "node", "id": 3393626639, "lat": 48.7607965, "lon": 13.4732741, "tags": {"information": "guidepost", "name": "Richtungsweiser Nr.3", "tourism": "information"}}, {"type": "node", "id": 3393627763, "lat": 48.762219, "lon": 13.4758779, "tags": {"information": "guidepost", "name": "Richtungswegweiser Nr.3", "tourism": "information"}}, {"type": "node", "id": 3393704702, "lat": 48.7542138, "lon": 13.4657657, "tags": {"information": "guidepost", "ref": "Via Nova", "tourism": "information"}}, {"type": "node", "id": 3393706955, "lat": 48.7598694, "lon": 13.4693714, "tags": {"information": "guidepost", "name": "3", "tourism": "information"}}, {"type": "node", "id": 3393709801, "lat": 48.7592912, "lon": 13.4685209, "tags": {"information": "guidepost", "name": "Via Nova", "tourism": "information"}}, {"type": "node", "id": 3393709802, "lat": 48.7592825, "lon": 13.4683928, "tags": {"information": "guidepost", "name": "Heiblm\u00fchle", "tourism": "information"}}, {"type": "node", "id": 3393714706, "lat": 48.7601723, "lon": 13.4696365, "tags": {"information": "guidepost", "name": "3", "tourism": "information"}}, {"type": "node", "id": 3393715075, "lat": 48.7619124, "lon": 13.4692146, "tags": {"information": "guidepost", "name": "Via Nova", "tourism": "information"}}, {"type": "node", "id": 3393722127, "lat": 48.7641939, "lon": 13.4661313, "tags": {"information": "guidepost", "name": "Via Nova", "tourism": "information"}}, {"type": "node", "id": 3393733493, "lat": 48.7665228, "lon": 13.4649597, "tags": {"information": "guidepost", "name": "Via Nova", "tourism": "information"}}, {"type": "node", "id": 3393733496, "lat": 48.7672135, "lon": 13.4649488, "tags": {"information": "guidepost", "name": "Via Nova", "tourism": "information"}}, {"type": "node", "id": 3393737589, "lat": 48.759433, "lon": 13.4702, "tags": {"information": "guidepost", "name": "M\u00fchlenweg", "tourism": "information"}}, {"type": "node", "id": 3393763242, "lat": 48.7639675, "lon": 13.4714935, "tags": {"information": "guidepost", "name": "Nr.3 Richtungsweiser", "tourism": "information"}}, {"type": "node", "id": 3407181694, "lat": 48.9136038, "lon": 13.5220401, "tags": {"information": "board", "name": "Wasserschutzgebiet", "tourism": "information"}}, {"type": "node", "id": 3500059851, "lat": 48.8815919, "lon": 13.5218721, "tags": {"information": "guidepost", "name": "Nationalparkradweg", "tourism": "information"}}, {"type": "node", "id": 3501099775, "lat": 48.9325102, "lon": 13.5966676, "tags": {"name": "Meldepunkt 3", "tourism": "information"}}, {"type": "node", "id": 3501159107, "lat": 48.8905098, "lon": 13.5718164, "tags": {"information": "map", "name": "NP Karte - Sandriegel", "tourism": "information"}}, {"type": "node", "id": 3501160619, "lat": 48.8909762, "lon": 13.5715989, "tags": {"information": "guidepost", "tourism": "information"}}, {"type": "node", "id": 3501164715, "lat": 48.8870297, "lon": 13.5783104}, {"type": "node", "id": 3501164716, "lat": 48.8870156, "lon": 13.5782186}, {"type": "node", "id": 3501164717, "lat": 48.8869941, "lon": 13.578321}, {"type": "node", "id": 3501164718, "lat": 48.8869847, "lon": 13.5782285}, {"type": "node", "id": 3501164719, "lat": 48.8869715, "lon": 13.5782828}, {"type": "node", "id": 3501164720, "lat": 48.8870404, "lon": 13.5782593}, {"type": "node", "id": 3501301045, "lat": 48.9122996, "lon": 13.5873864, "tags": {"information": "guidepost", "name": "Wegweiser Rundweg", "tourism": "information"}}, {"type": "node", "id": 3524081031, "lat": 48.8386832, "lon": 13.5581115}, {"type": "node", "id": 3524081032, "lat": 48.8386882, "lon": 13.5581535}, {"type": "node", "id": 3524081033, "lat": 48.8386516, "lon": 13.5581636}, {"type": "node", "id": 3524081034, "lat": 48.8386466, "lon": 13.5581216}, {"type": "node", "id": 3533204391, "lat": 48.9064779, "lon": 13.4013617, "tags": {"information": "guidepost", "name": "Fu\u00dfweg - NP", "tourism": "information"}}, {"type": "node", "id": 3533205477, "lat": 48.9073248, "lon": 13.4010375, "tags": {"guidepost": "hiking", "information": "guidepost", "tourism": "information"}}, {"type": "node", "id": 3533345766, "lat": 48.9190846, "lon": 13.4030451, "tags": {"hiking": "yes", "information": "map", "map_type": "topo", "name": "Hochmoor - Gr. Filz & Klosterfilz", "tourism": "information"}}, {"type": "node", "id": 3536743675, "lat": 48.9071646, "lon": 13.4035085, "tags": {"board_type": "history", "description": "Aschenbrenner sammelten Holz, das in Erdl\u00f6chern verbrannt wurde. Aus der Asche wurde Pottasche gewonnen. F\u00fcr die Produktion von 1kg Pottasche zur Glasherstellung wurde 1000kg Holz ben\u00f6tigt. (Tafel 13 des Themenwanderwegs Sankt Oswald - Riedlh\u00fctte)", "information": "board", "name": "13 - Aschenbrenner", "ref": "Themenwanderweg 13", "tourism": "information"}}, {"type": "node", "id": 3659474969, "lat": 48.9075794, "lon": 13.4042046, "tags": {"board_type": "history", "description": "Fr\u00fchere Abbaustellen von goldhaltigen Sedimenten (Gr\u00fcbenfelder) bestehen aus Schutthaufen von goldfreien Deckschichten und Gr\u00e4ben, in denen sich Goldseifen befanden (Tafel 17 des Themenwanderwegs Sankt Oswald - Riedlh\u00fctte)", "information": "board", "name": "17 - Gr\u00fcbenfelder", "ref": "Themenwanderweg 17", "tourism": "information"}}, {"type": "node", "id": 3677888100, "lat": 48.9376285, "lon": 13.4539441, "tags": {"information": "board", "tourism": "information"}}, {"type": "node", "id": 3706196943, "lat": 48.9489469, "lon": 13.4071265, "tags": {"information": "map", "map_size": "region", "note": "NP-Karte - Gr\u00fcbenbr\u00fccke", "tourism": "information"}}, {"type": "node", "id": 3706201940, "lat": 48.9433173, "lon": 13.402322, "tags": {"access": "yes", "board_type": "history", "historic": "ruins", "historic:civilization": "modern", "information": "nature", "name": "Ehemal. Glash\u00fcttenstandort Neuh\u00fcttenwiese", "ruins": "yes", "tourism": "information"}}, {"type": "node", "id": 3706795926, "lat": 48.774038, "lon": 13.4089095, "tags": {"information": "guidepost", "tourism": "information"}}, {"type": "node", "id": 3708206925, "lat": 48.938614, "lon": 13.4834385, "tags": {"hiking": "yes", "information": "guidepost", "tourism": "information"}}, {"type": "node", "id": 3708524027, "lat": 48.9385481, "lon": 13.4763241, "tags": {"hiking": "yes", "information": "guidepost", "tourism": "information"}}, {"type": "node", "id": 3721908793, "lat": 48.9386461, "lon": 13.4008495, "tags": {"ele": "853", "name": "Siebenr\u00fccken", "natural": "peak", "wikidata": "Q31318480"}}, {"type": "node", "id": 3721910049, "lat": 48.9401086, "lon": 13.404856, "tags": {"description": "Blick zum B\u00e4renlochriegel (Grenzkamm)", "tourism": "viewpoint"}}, {"type": "node", "id": 3730955167, "lat": 48.9425285, "lon": 13.5852087, "tags": {"information": "guidepost", "tourism": "information"}}, {"type": "node", "id": 3755600350, "lat": 48.931757, "lon": 13.5402698, "tags": {"information": "guidepost", "name": "Kerngebiet-Pfosten", "tourism": "information"}}, {"type": "node", "id": 3755760226, "lat": 48.9229028, "lon": 13.5189515, "tags": {"name": "Wasserschutzbebiet", "tourism": "information"}}, {"type": "node", "id": 3799164215, "lat": 48.9356976, "lon": 13.4883545}, {"type": "node", "id": 3799164216, "lat": 48.935711, "lon": 13.4883891}, {"type": "node", "id": 3799164217, "lat": 48.9356996, "lon": 13.4884287}, {"type": "node", "id": 3799164218, "lat": 48.9356656, "lon": 13.4884328}, {"type": "node", "id": 3799164219, "lat": 48.9356542, "lon": 13.4883952}, {"type": "node", "id": 3799164220, "lat": 48.9356636, "lon": 13.4883566}, {"type": "node", "id": 3799225463, "lat": 48.9241523, "lon": 13.5260505, "tags": {"alt_name": "Hochgefeichtetstein", "ele": "1260", "name": "Sulzriegel", "natural": "peak", "wikidata": "Q2365129"}}, {"type": "node", "id": 3824371001, "lat": 48.8517171, "lon": 13.538344, "tags": {"amenity": "shelter", "shelter_type": "public_transport"}}, {"type": "node", "id": 3827170455, "lat": 48.9305656, "lon": 13.5524811, "tags": {"information": "map", "map_size": "site", "map_type": "scheme", "tourism": "information"}}, {"type": "node", "id": 3827174761, "lat": 48.9321862, "lon": 13.5647328, "tags": {"information": "guidepost", "tourism": "information"}}, {"type": "node", "id": 3827174762, "lat": 48.9321139, "lon": 13.5519112, "tags": {"information": "guidepost", "tourism": "information"}}, {"type": "node", "id": 3827174763, "lat": 48.9324787, "lon": 13.5566788, "tags": {"information": "guidepost", "tourism": "information"}}, {"type": "node", "id": 3827174764, "lat": 48.9327334, "lon": 13.5570502, "tags": {"information": "guidepost", "tourism": "information"}}, {"type": "node", "id": 3827174785, "lat": 48.9359198, "lon": 13.5646194, "tags": {"information": "guidepost", "tourism": "information"}}, {"type": "node", "id": 3827174786, "lat": 48.9359525, "lon": 13.5635145, "tags": {"information": "map", "map_size": "site", "map_type": "scheme", "name": "Wege durch Natur und Zeit - Freilichtmuseum Finsterau", "tourism": "information"}}, {"type": "node", "id": 3827174792, "lat": 48.9324445, "lon": 13.5567299, "tags": {"information": "board", "name": "Waldschaf \u00b7 \u0160umavsk\u00e1 ovce", "tourism": "information"}}, {"type": "node", "id": 3828050281, "lat": 48.9360232, "lon": 13.5630573, "tags": {"information": "guidepost", "tourism": "information"}}, {"type": "node", "id": 3833081804, "lat": 48.936566, "lon": 13.5645013, "tags": {"information": "guidepost", "tourism": "information"}}, {"type": "node", "id": 3833081805, "lat": 48.9374717, "lon": 13.5663166, "tags": {"information": "guidepost", "name": "Themenweg zum Wistlberg& Jugendheim", "tourism": "information"}}, {"type": "node", "id": 3833081807, "lat": 48.937733, "lon": 13.5641189, "tags": {"information": "guidepost", "tourism": "information"}}, {"type": "node", "id": 3833081809, "lat": 48.9406658, "lon": 13.5651347, "tags": {"information": "guidepost", "tourism": "information"}}, {"type": "node", "id": 3833081812, "lat": 48.9418785, "lon": 13.5658608, "tags": {"information": "guidepost", "tourism": "information"}}, {"type": "node", "id": 3914170497, "lat": 48.9438865, "lon": 13.5816864, "tags": {"information": "board", "tourism": "information"}}, {"type": "node", "id": 3914292767, "lat": 48.9508633, "lon": 13.5820454, "tags": {"information": "guidepost", "tourism": "information"}}, {"type": "node", "id": 3914292768, "lat": 48.9506878, "lon": 13.5820985, "tags": {"name": "Streuberg (Waldgebiet)", "tourism": "information"}}, {"type": "node", "id": 3914292769, "lat": 48.9507951, "lon": 13.5819637, "tags": {"name": "Sandberg (Waldgebiet)", "tourism": "information"}}, {"type": "node", "id": 3916750722, "lat": 48.8907589, "lon": 13.4283225, "tags": {"amenity": "shelter", "bench": "yes", "shelter_type": "public_transport"}}, {"type": "node", "id": 3923168780, "lat": 48.9416523, "lon": 13.5746795}, {"type": "node", "id": 3923168781, "lat": 48.9417072, "lon": 13.574646}, {"type": "node", "id": 3923168782, "lat": 48.9416485, "lon": 13.5746331}, {"type": "node", "id": 3923168784, "lat": 48.9417042, "lon": 13.5746304}, {"type": "node", "id": 3923168786, "lat": 48.9416982, "lon": 13.5746178}, {"type": "node", "id": 3923168787, "lat": 48.9416791, "lon": 13.5746047}, {"type": "node", "id": 3923168788, "lat": 48.9416493, "lon": 13.5746719}, {"type": "node", "id": 3923168791, "lat": 48.9416978, "lon": 13.5746851}, {"type": "node", "id": 3923168798, "lat": 48.9416543, "lon": 13.5746195}, {"type": "node", "id": 3923168799, "lat": 48.9416685, "lon": 13.5746062}, {"type": "node", "id": 3923168803, "lat": 48.9417065, "lon": 13.5746621}, {"type": "node", "id": 3923168806, "lat": 48.9416894, "lon": 13.5746087}, {"type": "node", "id": 3923168808, "lat": 48.9416627, "lon": 13.5746097}, {"type": "node", "id": 3923168809, "lat": 48.9416463, "lon": 13.5746564}, {"type": "node", "id": 3923168810, "lat": 48.94167, "lon": 13.5746968}, {"type": "node", "id": 3923168814, "lat": 48.9416806, "lon": 13.5746975}, {"type": "node", "id": 3923168816, "lat": 48.9417023, "lon": 13.574677}, {"type": "node", "id": 3923168818, "lat": 48.9416889, "lon": 13.574694}, {"type": "node", "id": 3923168821, "lat": 48.9416602, "lon": 13.5746905}, {"type": "node", "id": 3924012572, "lat": 48.9071572, "lon": 13.4038973}, {"type": "node", "id": 3924012573, "lat": 48.9071819, "lon": 13.4039537}, {"type": "node", "id": 3924012574, "lat": 48.907191, "lon": 13.4038631}, {"type": "node", "id": 3924012575, "lat": 48.9072157, "lon": 13.4039194}, {"type": "node", "id": 3926003514, "lat": 48.9081093, "lon": 13.446496, "tags": {"information": "guidepost", "tourism": "information"}}, {"type": "node", "id": 3928222645, "lat": 48.9067435, "lon": 13.4477135, "tags": {"information": "guidepost", "tourism": "information"}}, {"type": "node", "id": 4015373310, "lat": 48.7734513, "lon": 13.4276604}, {"type": "node", "id": 4015373311, "lat": 48.7734616, "lon": 13.4277072}, {"type": "node", "id": 4015373312, "lat": 48.7734364, "lon": 13.42772}, {"type": "node", "id": 4015373313, "lat": 48.7734261, "lon": 13.4276732}, {"type": "node", "id": 4015373314, "lat": 48.7734378, "lon": 13.4278766, "tags": {"information": "guidepost", "name": "Ilzwanderweg Nr.2-Perlesreut", "tourism": "information"}}, {"type": "node", "id": 4015375239, "lat": 48.7746877, "lon": 13.430652, "tags": {"information": "guidepost", "name": "VIA NOVA", "tourism": "information"}}, {"type": "node", "id": 4015376393, "lat": 48.7746149, "lon": 13.4305584, "tags": {"information": "guidepost", "name": "Nr.2", "tourism": "information"}}, {"type": "node", "id": 4015386826, "lat": 48.7777489, "lon": 13.4356381, "tags": {"information": "guidepost", "name": "Via Nova-Pandurensteig-Nr.2", "tourism": "information"}}, {"type": "node", "id": 4015398481, "lat": 48.7792911, "lon": 13.441196, "tags": {"information": "guidepost", "name": "Tittling-Kirchberg", "tourism": "information"}}, {"type": "node", "id": 4015404449, "lat": 48.7791494, "lon": 13.4459048, "tags": {"information": "guidepost", "name": "M\u00fchlenweg-Via Nova", "tourism": "information"}}, {"type": "node", "id": 4015407807, "lat": 48.7773263, "lon": 13.4590216, "tags": {"information": "guidepost", "name": "M\u00fchlenweg-Perlesreut", "tourism": "information"}}, {"type": "node", "id": 4015419074, "lat": 48.7767693, "lon": 13.4615511, "tags": {"information": "guidepost", "name": "Via Nova", "tourism": "information"}}, {"type": "node", "id": 4015424598, "lat": 48.7745635, "lon": 13.4652164, "tags": {"information": "guidepost", "name": "Via Nova & Nr.3", "tourism": "information"}}, {"type": "node", "id": 4015430474, "lat": 48.7735075, "lon": 13.4650741, "tags": {"information": "guidepost", "name": "Nr.3 (Goldsteigzubringer)", "tourism": "information"}}, {"type": "node", "id": 4015440980, "lat": 48.7739318, "lon": 13.4638484, "tags": {"information": "guidepost", "name": "Schrottenbaumm\u00fchle-(Goldsteigzubringer)", "tourism": "information"}}, {"type": "node", "id": 4015509373, "lat": 48.7708457, "lon": 13.4658911, "tags": {"information": "guidepost", "tourism": "information"}}, {"type": "node", "id": 4015528861, "lat": 48.7709573, "lon": 13.4270229, "tags": {"information": "guidepost", "name": "Bubikberg", "tourism": "information"}}, {"type": "node", "id": 4015528868, "lat": 48.7711904, "lon": 13.4265546, "tags": {"tourism": "viewpoint"}}, {"type": "node", "id": 4015528869, "lat": 48.7708964, "lon": 13.4271103, "tags": {"tourism": "viewpoint"}}, {"type": "node", "id": 4015528870, "lat": 48.7709582, "lon": 13.4270591, "tags": {"information": "guidepost", "name": "Nr.2", "tourism": "information"}}, {"type": "node", "id": 4040598769, "lat": 48.8651423, "lon": 13.4109049, "tags": {"information": "guidepost", "name": "Ferienpark", "tourism": "information"}}, {"type": "node", "id": 4040609307, "lat": 48.8646839, "lon": 13.4111189, "tags": {"information": "guidepost", "tourism": "information"}}, {"type": "node", "id": 4040610506, "lat": 48.8630789, "lon": 13.42638, "tags": {"information": "guidepost", "tourism": "information"}}, {"type": "node", "id": 4040610507, "lat": 48.8624602, "lon": 13.424951, "tags": {"check_date": "2024-10-05", "information": "map", "name": "Kleblm\u00fchle", "tourism": "information"}}, {"type": "node", "id": 4040612755, "lat": 48.8625093, "lon": 13.4245834, "tags": {"information": "guidepost", "tourism": "information"}}, {"type": "node", "id": 4040630906, "lat": 48.8627274, "lon": 13.423451, "tags": {"information": "guidepost", "name": "Nr.1+7 & B\u00e4renpfad", "tourism": "information"}}, {"type": "node", "id": 4040632197, "lat": 48.862708, "lon": 13.4201659, "tags": {"information": "guidepost", "name": "1+7", "tourism": "information"}}, {"type": "node", "id": 4040637133, "lat": 48.8649892, "lon": 13.414736, "tags": {"information": "guidepost", "tourism": "information"}}, {"type": "node", "id": 4040637143, "lat": 48.8637276, "lon": 13.4077907, "tags": {"information": "guidepost", "tourism": "information"}}, {"type": "node", "id": 4040645399, "lat": 48.8587039, "lon": 13.4051286, "tags": {"information": "guidepost", "tourism": "information"}}, {"type": "node", "id": 4040645400, "lat": 48.8560878, "lon": 13.4048546, "tags": {"information": "guidepost", "name": "Kleblm\u00fchle", "tourism": "information"}}, {"type": "node", "id": 4040645401, "lat": 48.8559075, "lon": 13.404161, "tags": {"information": "guidepost", "tourism": "information"}}, {"type": "node", "id": 4040683820, "lat": 48.8552518, "lon": 13.4026739, "tags": {"addr:city": "Grafenau", "addr:country": "DE", "addr:housenumber": "1", "addr:postcode": "94481", "addr:street": "Rathausgasse", "description": "Minigolfanlage mit Billiard und Freischach sowie kleinem Imbiss und Biergarten", "name": "Minigolf & mehr", "operator": "Zweckverband Sport und Erholung", "tourism": "attraction", "website": "https://www.grafenau.de/Baereal"}}, {"type": "node", "id": 4073859841, "lat": 48.8485444, "lon": 13.4805937, "tags": {"name": "Info-Pavallion Nationalpark", "tourism": "information"}}, {"type": "node", "id": 4109373889, "lat": 48.8813433, "lon": 13.4254092, "tags": {"information": "guidepost", "name": "Wegweiser", "tourism": "information"}}, {"type": "node", "id": 4109374416, "lat": 48.8841796, "lon": 13.4269195, "tags": {"information": "guidepost", "name": "Wegweiser", "tourism": "information"}}, {"type": "node", "id": 4109466168, "lat": 48.8813187, "lon": 13.4180538, "tags": {"name": "Schutt abladen verboten", "tourism": "information"}}, {"type": "node", "id": 4109556979, "lat": 48.8791541, "lon": 13.4239665, "tags": {"information": "guidepost", "tourism": "information"}}, {"type": "node", "id": 4149822103, "lat": 48.9387033, "lon": 13.4866023, "tags": {"board_type": "nature", "information": "board", "name": "Nat\u00fcrliche Waldentwicklung", "tourism": "information"}}, {"type": "node", "id": 4161584078, "lat": 48.9072002, "lon": 13.4068876, "tags": {"information": "route_marker", "name": "Kerngebiet", "tourism": "information"}}, {"type": "node", "id": 4161584079, "lat": 48.9077293, "lon": 13.4045485, "tags": {"guidepost": "hiking", "information": "route_marker", "name": "Kerngebiet", "tourism": "information"}}, {"type": "node", "id": 4170172885, "lat": 48.8854028, "lon": 13.4214411, "tags": {"information": "guidepost", "name": "3", "tourism": "information"}}, {"type": "node", "id": 4219553796, "lat": 48.9209513, "lon": 13.505701, "tags": {"information": "board", "name": "Infotafel \u00bbSagwasserklause\u00ab", "tourism": "information"}}, {"type": "node", "id": 4219553797, "lat": 48.9250565, "lon": 13.4823562, "tags": {"hiking": "yes", "information": "guidepost", "name": "Markierungspfosten-Wegegebot 15.7.-15.11. begehbar", "tourism": "information"}}, {"type": "node", "id": 4219553798, "lat": 48.9254592, "lon": 13.484853, "tags": {"hiking": "yes", "information": "guidepost", "name": "Markierungspfosten-Wegegebot 15.7.-15.11. begehbar", "tourism": "information"}}, {"type": "node", "id": 4219553805, "lat": 48.9136729, "lon": 13.4964902, "tags": {"information": "guidepost", "name": "Wegegebot", "tourism": "information"}}, {"type": "node", "id": 4241951959, "lat": 48.8846801, "lon": 13.4204122, "tags": {"information": "guidepost", "tourism": "information"}}, {"type": "node", "id": 4241969613, "lat": 48.8808079, "lon": 13.4231681, "tags": {"ele": "715", "natural": "peak"}}, {"type": "node", "id": 4241976918, "lat": 48.8783609, "lon": 13.4157205, "tags": {"information": "board", "name": "Damwild", "tourism": "information"}}, {"type": "node", "id": 4241976919, "lat": 48.8784818, "lon": 13.415175, "tags": {"information": "board", "name": "Damwild", "tourism": "information"}}, {"type": "node", "id": 4241980233, "lat": 48.881299, "lon": 13.411139, "tags": {"information": "guidepost", "tourism": "information"}}, {"type": "node", "id": 4241988830, "lat": 48.8830987, "lon": 13.4229019, "tags": {"information": "route_marker", "name": "7", "tourism": "information"}}, {"type": "node", "id": 4252448250, "lat": 48.8220418, "lon": 13.5679207}, {"type": "node", "id": 4252448251, "lat": 48.822055, "lon": 13.5679563}, {"type": "node", "id": 4252448256, "lat": 48.8220702, "lon": 13.5678965}, {"type": "node", "id": 4252448257, "lat": 48.8220834, "lon": 13.5679321}, {"type": "node", "id": 4255197536, "lat": 48.8184498, "lon": 13.5688944}, {"type": "node", "id": 4255197540, "lat": 48.8184678, "lon": 13.5688714}, {"type": "node", "id": 4255197541, "lat": 48.8184736, "lon": 13.5689372}, {"type": "node", "id": 4255197542, "lat": 48.8184916, "lon": 13.5689142}, {"type": "node", "id": 4259351258, "lat": 48.923991, "lon": 13.4447744, "tags": {"information": "guidepost", "tourism": "information"}}, {"type": "node", "id": 4259422941, "lat": 48.9031579, "lon": 13.4345211, "tags": {"information": "route_marker", "name": "Schmetterling", "tourism": "information"}}, {"type": "node", "id": 4267813405, "lat": 48.8271051, "lon": 13.5832087}, {"type": "node", "id": 4267813406, "lat": 48.8270992, "lon": 13.5832729}, {"type": "node", "id": 4267813407, "lat": 48.8270615, "lon": 13.583265}, {"type": "node", "id": 4267813408, "lat": 48.8270673, "lon": 13.5832008}, {"type": "node", "id": 4344413469, "lat": 48.9335144, "lon": 13.510711, "tags": {"hiking": "yes", "information": "guidepost", "tourism": "information"}}, {"type": "node", "id": 4344849519, "lat": 48.9068397, "lon": 13.5481195, "tags": {"information": "guidepost", "tourism": "information"}}, {"type": "node", "id": 4344849520, "lat": 48.9391907, "lon": 13.5067106, "tags": {"hiking": "yes", "information": "guidepost", "tourism": "information"}}, {"type": "node", "id": 4344995619, "lat": 48.9365659, "lon": 13.5104348, "tags": {"information": "nature", "name": "Infotafel \u00bbBergfichtenwald - ein au\u00dfergew\u00f6hnlicher Lebensraum\u00ab", "tourism": "information"}}, {"type": "node", "id": 4344995622, "lat": 48.9357746, "lon": 13.4882124, "tags": {"hiking": "yes", "information": "guidepost", "tourism": "information"}}, {"type": "node", "id": 4344995623, "lat": 48.9358553, "lon": 13.488273, "tags": {"information": "guidepost", "tourism": "information"}}, {"type": "node", "id": 4344995624, "lat": 48.9364608, "lon": 13.510413, "tags": {"hiking": "yes", "information": "guidepost", "tourism": "information"}}, {"type": "node", "id": 4344995626, "lat": 48.9386857, "lon": 13.4865855, "tags": {"tourism": "viewpoint"}}, {"type": "node", "id": 4344995627, "lat": 48.9386804, "lon": 13.4865751, "tags": {"description": "Nat\u00fcrliche Waldentwicklung", "information": "board", "tourism": "information"}}, {"type": "node", "id": 4344995628, "lat": 48.9454887, "lon": 13.467398, "tags": {"information": "guidepost", "tourism": "information"}}, {"type": "node", "id": 4344995635, "lat": 48.9447785, "lon": 13.4897864, "tags": {"hiking": "yes", "information": "guidepost", "name": "U Modr\u00e9ho Sloupu (CZ/D)", "operator": "cz:K\u010cT", "ref": "SE157", "tourism": "information"}}, {"type": "node", "id": 4345033803, "lat": 48.9173531, "lon": 13.5291863, "tags": {"information": "board", "name": "Infotafel \u00bbGro\u00dfalmeyerschlo\u00df\u00ab", "tourism": "information"}}, {"type": "node", "id": 4345033804, "lat": 48.887273, "lon": 13.5748452, "tags": {"information": "guidepost", "tourism": "information"}}, {"type": "node", "id": 4345033805, "lat": 48.8873179, "lon": 13.5746872, "tags": {"information": "guidepost", "tourism": "information"}}, {"type": "node", "id": 4345033808, "lat": 48.9150216, "lon": 13.539596, "tags": {"information": "guidepost", "tourism": "information"}}, {"type": "node", "id": 4345033809, "lat": 48.9177464, "lon": 13.5294291, "tags": {"information": "guidepost", "tourism": "information"}}, {"type": "node", "id": 4345033810, "lat": 48.9188478, "lon": 13.5264529, "tags": {"hiking": "yes", "information": "guidepost", "tourism": "information"}}, {"type": "node", "id": 4345033811, "lat": 48.9378062, "lon": 13.507338, "tags": {"hiking": "yes", "information": "guidepost", "tourism": "information"}}, {"type": "node", "id": 4403813412, "lat": 48.762566, "lon": 13.4009511, "tags": {"information": "map", "map_type": "hiking", "name": "Wanderkarte", "tourism": "information"}}, {"type": "node", "id": 4403813469, "lat": 48.7625958, "lon": 13.4010158, "tags": {"hiking": "yes", "information": "guidepost", "tourism": "information"}}, {"type": "node", "id": 4403823174, "lat": 48.7569172, "lon": 13.4041103, "tags": {"information": "board", "name": "Ilztal und Dreiburgenland", "tourism": "information"}}, {"type": "node", "id": 4403823175, "lat": 48.756941, "lon": 13.4041089, "tags": {"information": "board", "name": "Obere Ilz", "tourism": "information"}}, {"type": "node", "id": 4403823176, "lat": 48.7574542, "lon": 13.4031413, "tags": {"information": "board", "name": "Obere Ilz", "tourism": "information"}}, {"type": "node", "id": 4403834597, "lat": 48.7521568, "lon": 13.4270349, "tags": {"information": "board", "name": "Obere Ilz - Spezialisten an der Ilz", "tourism": "information"}}, {"type": "node", "id": 4415532088, "lat": 48.8904013, "lon": 13.57207, "tags": {"information": "board", "name": "Rastplatz Sandriegel", "tourism": "information"}}, {"type": "node", "id": 4415542158, "lat": 48.8915635, "lon": 13.5702146, "tags": {"information": "board", "name": "Rastplatz Sandriegel", "tourism": "information"}}, {"type": "node", "id": 4415542160, "lat": 48.8913423, "lon": 13.5701949, "tags": {"information": "guidepost", "name": "Toiletten", "tourism": "information"}}, {"type": "node", "id": 4415545803, "lat": 48.8913122, "lon": 13.5702376, "tags": {"information": "board", "name": "Feuerstellen im Nationalpark- Grillplatz Sandriegel", "tourism": "information"}}, {"type": "node", "id": 4415546048, "lat": 48.8904772, "lon": 13.5718728, "tags": {"information": "guidepost", "name": "Lusen 3,5 h / Tummelplatz 2 1/4 h / Steinbachklause 3/4 h", "tourism": "information"}}, {"type": "node", "id": 4415574696, "lat": 48.9149033, "lon": 13.5600628, "tags": {"information": "guidepost", "name": "Wegpfosten", "tourism": "information"}}, {"type": "node", "id": 4415662852, "lat": 48.9372024, "lon": 13.5531346}, {"type": "node", "id": 4415662853, "lat": 48.9373405, "lon": 13.5532806}, {"type": "node", "id": 4415662854, "lat": 48.9374874, "lon": 13.5533254}, {"type": "node", "id": 4415662863, "lat": 48.9375782, "lon": 13.5530977, "tags": {"information": "board", "name": "Wegenetz", "tourism": "information"}}, {"type": "node", "id": 4415662864, "lat": 48.9372684, "lon": 13.5531587, "tags": {"information": "board", "name": "Eisenbahnschienen", "tourism": "information"}}, {"type": "node", "id": 4415662865, "lat": 48.9372337, "lon": 13.5534189, "tags": {"tourism": "information"}}, {"type": "node", "id": 4415662866, "lat": 48.9372592, "lon": 13.5532369, "tags": {"information": "board", "name": "Wer bremst, verliert - Wandel des Holztransportes", "tourism": "information"}}, {"type": "node", "id": 4415662867, "lat": 48.937374, "lon": 13.5534788, "tags": {"information": "board", "name": "Holztrift", "tourism": "information"}}, {"type": "node", "id": 4518692551, "lat": 48.8741586, "lon": 13.4084206}, {"type": "node", "id": 4518692552, "lat": 48.8741854, "lon": 13.4084481}, {"type": "node", "id": 4545435568, "lat": 48.9376941, "lon": 13.4560711, "tags": {"information": "guidepost", "tourism": "information"}}, {"type": "node", "id": 4621921374, "lat": 48.8083539, "lon": 13.5470112, "tags": {"addr:city": "Freyung", "addr:country": "DE", "addr:housenumber": "10", "addr:postcode": "94078", "addr:street": "Stadtplatz", "contact:email": "touristinfo@freyung.de", "contact:fax": "+49 8551 588290", "contact:phone": "+49 8551 588150", "contact:website": "https://www.freyung.de/de/gastgeber-und-service/touristinfo.html", "information": "office", "name": "Tourist-Info Freyung", "operator": "Stadt Freyung", "tourism": "information"}}, {"type": "node", "id": 4647915362, "lat": 48.8341082, "lon": 13.4154298, "tags": {"amenity": "shelter", "bench": "yes", "kerb": "raised", "shelter_type": "public_transport", "wheelchair": "limited"}}, {"type": "node", "id": 4704220815, "lat": 48.8924503, "lon": 13.4293207, "tags": {"ele": "820", "name": "Hoher Stein", "natural": "peak", "note": "nicht \u00f6ffentlich zug\u00e4nglich!"}}, {"type": "node", "id": 4876560863, "lat": 48.8690666, "lon": 13.4049997, "tags": {"tourism": "viewpoint"}}, {"type": "node", "id": 4921355730, "lat": 48.9362742, "lon": 13.5627602, "tags": {"information": "guidepost", "tourism": "information"}}, {"type": "node", "id": 4921377731, "lat": 48.8984375, "lon": 13.4909014, "tags": {"tourism": "viewpoint"}}, {"type": "node", "id": 4921377732, "lat": 48.8981031, "lon": 13.4908354, "tags": {"tourism": "viewpoint"}}, {"type": "node", "id": 5003453523, "lat": 48.8976609, "lon": 13.4913082, "tags": {"tourism": "viewpoint"}}, {"type": "node", "id": 5003453532, "lat": 48.897593, "lon": 13.4907502}, {"type": "node", "id": 5003453533, "lat": 48.8976009, "lon": 13.4907591}, {"type": "node", "id": 5003453534, "lat": 48.8976066, "lon": 13.4907712}, {"type": "node", "id": 5003453535, "lat": 48.8976095, "lon": 13.4907854}, {"type": "node", "id": 5003453536, "lat": 48.8975638, "lon": 13.4908335}, {"type": "node", "id": 5003453537, "lat": 48.8975555, "lon": 13.4908233}, {"type": "node", "id": 5003453538, "lat": 48.8975499, "lon": 13.4908094}, {"type": "node", "id": 5003453539, "lat": 48.8975478, "lon": 13.4907935}, {"type": "node", "id": 5003453540, "lat": 48.8976093, "lon": 13.4908003}, {"type": "node", "id": 5003453541, "lat": 48.8976061, "lon": 13.4908144}, {"type": "node", "id": 5003453542, "lat": 48.8976002, "lon": 13.4908262}, {"type": "node", "id": 5003453543, "lat": 48.8975922, "lon": 13.4908347}, {"type": "node", "id": 5003453544, "lat": 48.8975828, "lon": 13.4908389}, {"type": "node", "id": 5003453545, "lat": 48.897573, "lon": 13.4908385}, {"type": "node", "id": 5003453546, "lat": 48.8975493, "lon": 13.4907774}, {"type": "node", "id": 5003453547, "lat": 48.8975543, "lon": 13.4907631}, {"type": "node", "id": 5003453548, "lat": 48.8975623, "lon": 13.4907522}, {"type": "node", "id": 5003453549, "lat": 48.8975722, "lon": 13.4907461}, {"type": "node", "id": 5003453550, "lat": 48.8975828, "lon": 13.4907454}, {"type": "node", "id": 5072737283, "lat": 48.8115069, "lon": 13.5006331, "tags": {"information": "map", "map_size": "region", "map_type": "topo", "operator": "Naturpark Bayerischer Wald", "tourism": "information"}}, {"type": "node", "id": 5072738408, "lat": 48.8115075, "lon": 13.5006537, "tags": {"information": "board", "name": "Natur & Mensch in der Buchberger Leite", "tourism": "information"}}, {"type": "node", "id": 5072743735, "lat": 48.8115612, "lon": 13.5008432, "tags": {"access": "permissive", "foot": "official", "information": "board", "name": "Privatweg-Benutzung auf eingene Gefahr", "tourism": "information"}}, {"type": "node", "id": 5072743736, "lat": 48.8117807, "lon": 13.5013295, "tags": {"access": "permissive", "foot": "official", "information": "board", "name": "Privatweg-Benutzung auf eigene Gefahr", "tourism": "information"}}, {"type": "node", "id": 5072746714, "lat": 48.810814, "lon": 13.4992557, "tags": {"information": "guidepost", "operator": "Nr. 3 / 3a / Buchberger Leite Nr.1 / Via Nova", "tourism": "information"}}, {"type": "node", "id": 5072774223, "lat": 48.8131353, "lon": 13.5207491, "tags": {"board_type": "history", "description": "Text auf der Tafel: Augustin Kanzel am 31.Mai 1884 gr\u00fcndete Oberzollkontrolleur Augustin die Waldvereinsek. Freyung", "information": "board", "name": "Augustin Kanzel", "tourism": "information"}}, {"type": "node", "id": 5072774249, "lat": 48.8200291, "lon": 13.5182092, "tags": {"information": "guidepost", "operator": "Buchberger Leite Nr. 3 /Freyung 3,2km/Bierh\u00fctte 3km /Via Nova", "tourism": "information"}}, {"type": "node", "id": 5072786814, "lat": 48.8237566, "lon": 13.5187831, "tags": {"information": "guidepost", "operator": "Karbidwerk  & Freyung / Bierh\u00fctte 2,5km", "tourism": "information"}}, {"type": "node", "id": 5072793041, "lat": 48.8199936, "lon": 13.5182564, "tags": {"information": "guidepost", "name": "Goldsteigzubringer-Leopoldsreut 18,7km /F\u00fcrsteneck 23,3km", "tourism": "information"}}, {"type": "node", "id": 5072798091, "lat": 48.8232617, "lon": 13.5185966, "tags": {"information": "guidepost", "operator": "Ahorn\u00f6d 1km (Nr. 1a)", "tourism": "information"}}, {"type": "node", "id": 5072808233, "lat": 48.8163122, "lon": 13.5173454, "tags": {"direction_north": "Bierh\u00fctte 3.5km; Karbidwerk 2.5km; Via Nova", "guidepost": "hiking", "information": "guidepost", "tourism": "information"}}, {"type": "node", "id": 5072814834, "lat": 48.8158894, "lon": 13.5192213, "tags": {"information": "guidepost", "operator": "Ahorn\u00f6d 1,5km (Nr.1) / Freyung 2,9km", "tourism": "information"}}, {"type": "node", "id": 5072850694, "lat": 48.8096493, "lon": 13.4877792, "tags": {"board_type": "history", "information": "board", "inscription": "diente fr\u00fcher als Arbeitswegverk\u00fcrzung zwischen Ringelei und Carbonwerk erstellt 1952 von Bl\u00f6chl Albert erneuert 1974 von Stolle Josef erneuert 2002 v. Heimatverein Ringelei neu gebaut 2008 Gemeinde Ringelei und Naturpark Bayer. Wald e.v.", "material": "wood", "name": "Ringelaier H\u00e4ngebr\u00fccke", "tourism": "information"}}, {"type": "node", "id": 5072856014, "lat": 48.8111, "lon": 13.4867285, "tags": {"information": "guidepost", "name": "Steinfeldweg Nr.6", "tourism": "information"}}, {"type": "node", "id": 5072875169, "lat": 48.8123373, "lon": 13.4782412, "tags": {"information": "guidepost", "operator": "Buchberger Leite (1)", "tourism": "information"}}, {"type": "node", "id": 5072875170, "lat": 48.8122658, "lon": 13.4782542, "tags": {"information": "board", "name": "Vom Triften auf \"wilden Wassen\"", "tourism": "information"}}, {"type": "node", "id": 5072875174, "lat": 48.8120596, "lon": 13.4735715, "tags": {"information": "guidepost", "name": "Buchberger Leite", "tourism": "information"}}, {"type": "node", "id": 5072887588, "lat": 48.8137395, "lon": 13.4833661, "tags": {"information": "guidepost", "operator": "Steinfeld Nr.6 /Freyung/ Ringelai /Via Nova", "tourism": "information"}}, {"type": "node", "id": 5072925126, "lat": 48.8117538, "lon": 13.4793523, "tags": {"information": "guidepost", "name": "Neureut /Buchberger Leite (1) / Ringelai", "tourism": "information"}}, {"type": "node", "id": 5072925127, "lat": 48.8117738, "lon": 13.4793911, "tags": {"information": "board", "name": "\"Trift\"- Geschichte & Bedeutung", "tourism": "information"}}, {"type": "node", "id": 5072947379, "lat": 48.8109565, "lon": 13.4779375, "tags": {"information": "guidepost", "operator": "Buchberger Leite (1) / Neureut", "tourism": "information"}}, {"type": "node", "id": 5072960276, "lat": 48.8108688, "lon": 13.4739878, "tags": {"information": "guidepost", "operator": "Buchberger Leite (1) / Frauenberg", "tourism": "information"}}, {"type": "node", "id": 5072960277, "lat": 48.8108396, "lon": 13.4776467, "tags": {"information": "guidepost", "operator": "Buchberger Leite (1)", "tourism": "information"}}, {"type": "node", "id": 5072960278, "lat": 48.8108326, "lon": 13.4775989, "tags": {"information": "guidepost", "operator": "Freyunger Stra\u00dfe", "tourism": "information"}}, {"type": "node", "id": 5072984936, "lat": 48.8117448, "lon": 13.4853554, "tags": {"information": "guidepost", "name": "Buchberger Leite (1) / Ringelai", "tourism": "information"}}, {"type": "node", "id": 5073005769, "lat": 48.8083114, "lon": 13.5222458, "tags": {"amenity": "shelter", "bench": "yes", "shelter_type": "public_transport"}}, {"type": "node", "id": 5073382567, "lat": 48.813624, "lon": 13.4838729, "tags": {"information": "guidepost", "operator": "Buchberger Leite (1)", "tourism": "information"}}, {"type": "node", "id": 5073382574, "lat": 48.8130157, "lon": 13.4855841, "tags": {"information": "board", "name": "Via Nova- \" Das Leben sprie\u00dft als Quelle....\"", "tourism": "information"}}, {"type": "node", "id": 5073526803, "lat": 48.8094117, "lon": 13.4884025, "tags": {"information": "board", "name": "Tierwelt der Schluchten", "tourism": "information"}}, {"type": "node", "id": 5073526804, "lat": 48.8092963, "lon": 13.4879096}, {"type": "node", "id": 5073526805, "lat": 48.8092151, "lon": 13.4880435, "tags": {"information": "guidepost", "name": "Ringelai \u00fcber H\u00e4ngebr\u00fccke", "tourism": "information"}}, {"type": "node", "id": 5073526809, "lat": 48.8118445, "lon": 13.5013825, "tags": {"board_type": "nature", "information": "board", "name": "Bote des Erdalterums - Der Pfahl", "tourism": "information"}}, {"type": "node", "id": 5073530153, "lat": 48.8197693, "lon": 13.5076204, "tags": {"information": "route_marker", "name": "(3) Via Nova", "tourism": "information"}}, {"type": "node", "id": 5073530154, "lat": 48.8196012, "lon": 13.5092482, "tags": {"information": "guidepost", "operator": "Nr.3", "tourism": "information"}}, {"type": "node", "id": 5073530163, "lat": 48.8196283, "lon": 13.5101038, "tags": {"information": "route_marker", "name": "Via Nova", "tourism": "information"}}, {"type": "node", "id": 5073530175, "lat": 48.8207299, "lon": 13.5131211, "tags": {"board_type": "nature", "information": "board", "name": "Buchberger Leite", "tourism": "information"}}, {"type": "node", "id": 5073530182, "lat": 48.8203165, "lon": 13.5152378, "tags": {"information": "route_marker", "name": "Via Nova", "tourism": "information"}}, {"type": "node", "id": 5073530186, "lat": 48.8197222, "lon": 13.516541, "tags": {"information": "marker", "name": "Natur auf der Spur", "tourism": "information"}}, {"type": "node", "id": 5073567676, "lat": 48.819328, "lon": 13.5181337, "tags": {"information": "marker", "name": "4-Auf dem Weg vom B\u00f6hmerwald ins Schwarze Meer", "tourism": "information"}}, {"type": "node", "id": 5073567687, "lat": 48.8166934, "lon": 13.517482, "tags": {"information": "board", "name": "Die Kraft des Wassers", "tourism": "information"}}, {"type": "node", "id": 5073567688, "lat": 48.8166226, "lon": 13.5174491, "tags": {"information": "board", "name": "Betreten auf eigene Gefahr", "tourism": "information"}}, {"type": "node", "id": 5073615701, "lat": 48.8092804, "lon": 13.4873608, "tags": {"information": "guidepost", "name": "Buchberger Leite (1)", "tourism": "information"}}, {"type": "node", "id": 5073615705, "lat": 48.810559, "lon": 13.4859878, "tags": {"information": "guidepost", "name": "Ringelai /Buchberger Leite (1)", "tourism": "information"}}, {"type": "node", "id": 5073616425, "lat": 48.8122587, "lon": 13.4808107, "tags": {"information": "guidepost", "name": "Buchberger Leite (1) / Ringelai", "tourism": "information"}}, {"type": "node", "id": 5073616431, "lat": 48.8110027, "lon": 13.4741474, "tags": {"amenity": "shelter", "bench": "yes", "shelter_type": "public_transport"}}, {"type": "node", "id": 5073616456, "lat": 48.8126476, "lon": 13.4835196, "tags": {"information": "route_marker", "tourism": "information"}}, {"type": "node", "id": 5073629061, "lat": 48.8118184, "lon": 13.4796666, "tags": {"board_type": "tourism", "information": "board", "name": "Gro\u00df-Restaurant-Biergarten", "tourism": "information"}}, {"type": "node", "id": 5076976884, "lat": 48.8102235, "lon": 13.4574965, "tags": {"information": "board", "name": "Kr\u00e4utergarten", "tourism": "information"}}, {"type": "node", "id": 5076976890, "lat": 48.8103839, "lon": 13.4574934, "tags": {"information": "board", "name": "Themenwanderweg Ringelai", "tourism": "information"}}, {"type": "node", "id": 5092288708, "lat": 48.897963, "lon": 13.4930454, "tags": {"information": "guidepost", "tourism": "information"}}, {"type": "node", "id": 5092289928, "lat": 48.914705, "lon": 13.5001755, "tags": {"ele": "976", "name": "B\u00e4renkopf", "natural": "peak"}}, {"type": "node", "id": 5092752013, "lat": 48.9235567, "lon": 13.5007109, "tags": {"ele": "1065", "name": "Luchsstein", "natural": "peak", "wikidata": "Q31531479"}}, {"type": "node", "id": 5101617924, "lat": 48.9287194, "lon": 13.4901057, "tags": {"information": "board", "name": "Wasserschutzgebiet", "tourism": "information"}}, {"type": "node", "id": 5140087327, "lat": 48.8957686, "lon": 13.5060947, "tags": {"information": "guidepost", "tourism": "information"}}, {"type": "node", "id": 5140087329, "lat": 48.8951441, "lon": 13.5041239, "tags": {"information": "guidepost", "name": "Am Sagwasser", "tourism": "information"}}, {"type": "node", "id": 5140165638, "lat": 48.8947866, "lon": 13.5055033, "tags": {"information": "route_marker", "tourism": "information"}}, {"type": "node", "id": 5140165764, "lat": 48.8948518, "lon": 13.5055891, "tags": {"information": "guidepost", "tourism": "information"}}, {"type": "node", "id": 5163775734, "lat": 48.9349202, "lon": 13.5134757, "tags": {"information": "guidepost", "operator": "Lusen 3/4 h -Tummelplatz 1/2 h - Sagwassers\u00e4ge 1 1/4 h", "tourism": "information"}}, {"type": "node", "id": 5244792244, "lat": 48.8037771, "lon": 13.5149697}, {"type": "node", "id": 5244792245, "lat": 48.8037792, "lon": 13.5150219}, {"type": "node", "id": 5244792246, "lat": 48.8037553, "lon": 13.5150241}, {"type": "node", "id": 5244792247, "lat": 48.8037532, "lon": 13.514972}, {"type": "node", "id": 5288149631, "lat": 48.80718, "lon": 13.5700542, "tags": {"amenity": "shelter", "bench": "yes", "shelter_type": "public_transport"}}, {"type": "node", "id": 5481027351, "lat": 48.8019993, "lon": 13.4774239, "tags": {"information": "route_marker", "name": "3", "tourism": "information"}}, {"type": "node", "id": 5481027530, "lat": 48.8098444, "lon": 13.4709093, "tags": {"information": "guidepost", "name": "Frauensteinkapelle", "tourism": "information"}}, {"type": "node", "id": 5481093037, "lat": 48.8080143, "lon": 13.475038, "tags": {"information": "route_marker", "name": "3", "tourism": "information"}}, {"type": "node", "id": 5481093041, "lat": 48.8076765, "lon": 13.4747833, "tags": {"information": "route_marker", "name": "3", "tourism": "information"}}, {"type": "node", "id": 5481093055, "lat": 48.8056292, "lon": 13.4749909, "tags": {"information": "route_marker", "name": "3", "tourism": "information"}}, {"type": "node", "id": 5481093057, "lat": 48.8053889, "lon": 13.4752296, "tags": {"information": "route_marker", "name": "3", "tourism": "information"}}, {"type": "node", "id": 5481093061, "lat": 48.8048519, "lon": 13.4758492, "tags": {"information": "route_marker", "name": "3", "tourism": "information"}}, {"type": "node", "id": 5481093062, "lat": 48.8046869, "lon": 13.4760521, "tags": {"information": "guidepost", "tourism": "information"}}, {"type": "node", "id": 5481093066, "lat": 48.804642, "lon": 13.4766537, "tags": {"information": "route_marker", "name": "3", "tourism": "information"}}, {"type": "node", "id": 5481093067, "lat": 48.8046549, "lon": 13.4769982, "tags": {"information": "guidepost", "tourism": "information"}}, {"type": "node", "id": 5481093072, "lat": 48.8035293, "lon": 13.4772193, "tags": {"information": "route_marker", "name": "3", "tourism": "information"}}, {"type": "node", "id": 5481093073, "lat": 48.802819, "lon": 13.4771246, "tags": {"information": "guidepost", "name": "Frauensteinkapelle / Ringelai", "tourism": "information"}}, {"type": "node", "id": 5481093077, "lat": 48.8027741, "lon": 13.4772304, "tags": {"information": "route_marker", "name": "3", "tourism": "information"}}, {"type": "node", "id": 5481093078, "lat": 48.8026448, "lon": 13.4772976, "tags": {"information": "route_marker", "name": "3", "tourism": "information"}}, {"type": "node", "id": 5481093079, "lat": 48.8019857, "lon": 13.4774113, "tags": {"information": "guidepost", "tourism": "information"}}, {"type": "node", "id": 5481093080, "lat": 48.8019331, "lon": 13.4779973, "tags": {"information": "route_marker", "name": "3", "tourism": "information"}}, {"type": "node", "id": 5481093106, "lat": 48.8017055, "lon": 13.4787791, "tags": {"ele": "632", "name": "Frauenstein", "natural": "peak", "wikidata": "Q31566059"}}, {"type": "node", "id": 5481093114, "lat": 48.8017103, "lon": 13.4787473, "tags": {"information": "guidepost", "name": "Ringelai", "tourism": "information"}}, {"type": "node", "id": 5481150282, "lat": 48.7981509, "lon": 13.4745643, "tags": {"information": "guidepost", "name": "Frauensteinkapelle", "tourism": "information"}}, {"type": "node", "id": 5481150295, "lat": 48.8022653, "lon": 13.4742728, "tags": {"information": "route_marker", "name": "3 & Goldsteigzubringer", "tourism": "information"}}, {"type": "node", "id": 5481150297, "lat": 48.8032415, "lon": 13.4744904, "tags": {"information": "route_marker", "name": "3 + Goldsteigzubringer", "tourism": "information"}}, {"type": "node", "id": 5481150298, "lat": 48.803684, "lon": 13.4743804, "tags": {"information": "route_marker", "name": "Goldsteigzubringer", "tourism": "information"}}, {"type": "node", "id": 5481150308, "lat": 48.8046415, "lon": 13.473096, "tags": {"information": "route_marker", "name": "Goldsteigzubringer", "tourism": "information"}}, {"type": "node", "id": 5481150309, "lat": 48.8046793, "lon": 13.4732656, "tags": {"information": "route_marker", "name": "3", "tourism": "information"}}, {"type": "node", "id": 5481150312, "lat": 48.8043914, "lon": 13.4741461, "tags": {"information": "route_marker", "name": "3 + Goldsteigzubringer", "tourism": "information"}}, {"type": "node", "id": 5481150313, "lat": 48.8027895, "lon": 13.4743849, "tags": {"information": "route_marker", "name": "3", "tourism": "information"}}, {"type": "node", "id": 5481150316, "lat": 48.8015082, "lon": 13.4756655, "tags": {"information": "route_marker", "name": "3", "tourism": "information"}}, {"type": "node", "id": 5481150317, "lat": 48.8015904, "lon": 13.475723, "tags": {"information": "route_marker", "name": "3", "tourism": "information"}}, {"type": "node", "id": 5481150318, "lat": 48.8019831, "lon": 13.4763142, "tags": {"information": "route_marker", "name": "3", "tourism": "information"}}, {"type": "node", "id": 5481150319, "lat": 48.8023601, "lon": 13.4764131, "tags": {"information": "route_marker", "name": "3", "tourism": "information"}}, {"type": "node", "id": 5481150640, "lat": 48.8065782, "lon": 13.4720038, "tags": {"information": "guidepost", "name": "Frauensteinkapelle", "tourism": "information"}}, {"type": "node", "id": 5481150644, "lat": 48.8086487, "lon": 13.4738117, "tags": {"information": "guidepost", "name": "Frauensteinkapelle", "tourism": "information"}}, {"type": "node", "id": 5481171788, "lat": 48.8084109, "lon": 13.4710359, "tags": {"information": "guidepost", "name": "Frauenbergkapelle", "tourism": "information"}}, {"type": "node", "id": 5481171789, "lat": 48.8080422, "lon": 13.4714462, "tags": {"information": "guidepost", "name": "Frauenbergkapelle", "tourism": "information"}}, {"type": "node", "id": 5481202861, "lat": 48.8058154, "lon": 13.5049302}, {"type": "node", "id": 5481202862, "lat": 48.8058136, "lon": 13.5049675}, {"type": "node", "id": 5481202863, "lat": 48.8057707, "lon": 13.5049627}, {"type": "node", "id": 5481202864, "lat": 48.8057726, "lon": 13.5049253}, {"type": "node", "id": 5481202865, "lat": 48.8056019, "lon": 13.5010421, "tags": {"information": "guidepost", "tourism": "information"}}, {"type": "node", "id": 5481241623, "lat": 48.8139409, "lon": 13.4997646, "tags": {"information": "guidepost", "name": "Ruine Neuenbuchberg (Stichweg)", "tourism": "information"}}, {"type": "node", "id": 5481241626, "lat": 48.8125107, "lon": 13.5012559, "tags": {"tourism": "information"}}, {"type": "node", "id": 5481241675, "lat": 48.8144401, "lon": 13.4991924, "tags": {"information": "guidepost", "name": "Erasmuskapelle", "tourism": "information"}}, {"type": "node", "id": 5481300886, "lat": 48.8157968, "lon": 13.5192618, "tags": {"information": "board", "name": "Auf eigene Gefahr", "tourism": "information"}}, {"type": "node", "id": 5481300914, "lat": 48.809666, "lon": 13.536014, "tags": {"information": "guidepost", "tourism": "information"}}, {"type": "node", "id": 5481301708, "lat": 48.809097, "lon": 13.5312409, "tags": {"information": "guidepost", "name": "Buchberger Leite", "tourism": "information"}}, {"type": "node", "id": 5481317626, "lat": 48.8089742, "lon": 13.52799, "tags": {"information": "guidepost", "tourism": "information"}}, {"type": "node", "id": 5481322049, "lat": 48.8061905, "lon": 13.5044743, "tags": {"information": "route_marker", "name": "3", "tourism": "information"}}, {"type": "node", "id": 5481334078, "lat": 48.8080285, "lon": 13.5172876, "tags": {"information": "guidepost", "tourism": "information"}}, {"type": "node", "id": 5481334079, "lat": 48.8083699, "lon": 13.517111}, {"type": "node", "id": 5481334080, "lat": 48.8083684, "lon": 13.5171689}, {"type": "node", "id": 5481334081, "lat": 48.8083187, "lon": 13.517166}, {"type": "node", "id": 5481334082, "lat": 48.8083202, "lon": 13.5171081}, {"type": "node", "id": 5481334083, "lat": 48.8088139, "lon": 13.5166917, "tags": {"amenity": "shelter", "shelter_type": "public_transport"}}, {"type": "node", "id": 5481334107, "lat": 48.806048, "lon": 13.5054966, "tags": {"information": "guidepost", "tourism": "information"}}, {"type": "node", "id": 5481894882, "lat": 48.8130949, "lon": 13.5207262, "tags": {"ele": "575", "name": "Augustin Kanzel", "natural": "peak"}}, {"type": "node", "id": 5520746557, "lat": 48.9488916, "lon": 13.5760626, "tags": {"board_type": "nature", "information": "board", "name": "Infotafel Finsterauer Filz", "tourism": "information"}}, {"type": "node", "id": 5574523253, "lat": 48.9372693, "lon": 13.5532617}, {"type": "node", "id": 5859040179, "lat": 48.8915658, "lon": 13.4867818, "tags": {"name": "Fussspuren", "tourism": "attraction", "wheelchair": "no"}}, {"type": "node", "id": 5859040180, "lat": 48.8908166, "lon": 13.4846385, "tags": {"board_type": "geology", "check_date": "2022-09-29", "information": "board", "name": "Rachel und Lusen", "tourism": "information"}}, {"type": "node", "id": 5859040181, "lat": 48.8907959, "lon": 13.4845746, "tags": {"board_type": "plants", "check_date": "2022-09-29", "information": "board", "name": "Erhabene Waldwelten", "tourism": "information"}}, {"type": "node", "id": 5859040182, "lat": 48.8907676, "lon": 13.4845559, "tags": {"board_type": "wildlife", "check_date": "2022-09-29", "information": "board", "name": "Sichere Obhut - Der Nationalpark Bayrischer Wald", "tourism": "information"}}, {"type": "node", "id": 5859040183, "lat": 48.8910521, "lon": 13.483151, "tags": {"board_type": "plants", "check_date": "2023-07-20", "information": "board", "name": "Verpflechtungen - ohne Moos nichts los", "tourism": "information"}}, {"type": "node", "id": 5859040184, "lat": 48.8912337, "lon": 13.4829099, "tags": {"board_type": "plants", "check_date": "2022-09-29", "information": "board", "name": "B\u00e4ume", "tourism": "information"}}, {"type": "node", "id": 5859040285, "lat": 48.8916534, "lon": 13.4835748, "tags": {"board_type": "wildlife", "check_date": "2023-07-20", "information": "board", "name": "Hochwohl geboren", "tourism": "information"}}, {"type": "node", "id": 5859040286, "lat": 48.8918546, "lon": 13.4849686, "tags": {"board_type": "wildlife", "information": "board", "name": "T\u00e4uschen, Tarnen und Verstecken", "tourism": "information"}}, {"type": "node", "id": 5859040287, "lat": 48.8918883, "lon": 13.4852033, "tags": {"name": "Balancierweg", "tourism": "attraction", "wheelchair": "no"}}, {"type": "node", "id": 5859040288, "lat": 48.8917026, "lon": 13.4863486, "tags": {"board_type": "nature", "check_date": "2023-07-20", "information": "board", "name": "Sinneswandel", "tourism": "information"}}, {"type": "node", "id": 5859040291, "lat": 48.8915655, "lon": 13.483359}, {"type": "node", "id": 5859040299, "lat": 48.8917761, "lon": 13.4845725, "tags": {"board_type": "wildlife", "information": "board", "name": "Dem T\u00e4ter auf der Spur", "tourism": "information"}}, {"type": "node", "id": 5859040300, "lat": 48.8918184, "lon": 13.4845644, "tags": {"board_type": "wildlife", "information": "board", "name": "Mit Hammer und Meissel", "tourism": "information"}}, {"type": "node", "id": 5859040301, "lat": 48.8915732, "lon": 13.486783}, {"type": "node", "id": 6477058696, "lat": 48.9261138, "lon": 13.5573473, "tags": {"information": "guidepost", "tourism": "information"}}, {"type": "node", "id": 6477064344, "lat": 48.9372477, "lon": 13.553256, "tags": {"name": "Waldeisenbahn- (Schienenreste)", "tourism": "attraction"}}, {"type": "node", "id": 6477181193, "lat": 48.9273774, "lon": 13.5724923, "tags": {"information": "guidepost", "tourism": "information"}}, {"type": "node", "id": 6477195671, "lat": 48.9401133, "lon": 13.5597344, "tags": {"information": "guidepost", "tourism": "information"}}, {"type": "node", "id": 6477356558, "lat": 48.9373171, "lon": 13.5641795, "tags": {"information": "guidepost", "name": "Themenweg", "tourism": "information"}}, {"type": "node", "id": 6477356580, "lat": 48.9313224, "lon": 13.5750008, "tags": {"information": "guidepost", "tourism": "information"}}, {"type": "node", "id": 6477356581, "lat": 48.9313734, "lon": 13.5750828, "tags": {"information": "guidepost", "tourism": "information"}}, {"type": "node", "id": 6591954273, "lat": 48.8407085, "lon": 13.5257117}, {"type": "node", "id": 6591954274, "lat": 48.8407168, "lon": 13.5257579}, {"type": "node", "id": 6591954275, "lat": 48.8407398, "lon": 13.5257484}, {"type": "node", "id": 6591954276, "lat": 48.8407316, "lon": 13.5257022}, {"type": "node", "id": 6699066869, "lat": 48.7720049, "lon": 13.4152764, "tags": {"description": "Ilztal-Blick", "tourism": "viewpoint"}}, {"type": "node", "id": 6749404575, "lat": 48.8586679, "lon": 13.4416956, "tags": {"information": "guidepost", "name": "Wegweiser", "tourism": "information"}}, {"type": "node", "id": 6749417668, "lat": 48.8554223, "lon": 13.4336948, "tags": {"information": "guidepost", "tourism": "information"}}, {"type": "node", "id": 6854430794, "lat": 48.9386218, "lon": 13.4866874, "tags": {"hiking": "yes", "information": "guidepost", "tourism": "information"}}, {"type": "node", "id": 6856067054, "lat": 48.8212289, "lon": 13.5970573, "tags": {"board_type": "history", "information": "board", "name": "Die zwei Schmieden", "tourism": "information"}}, {"type": "node", "id": 6856067055, "lat": 48.8211839, "lon": 13.5970528, "tags": {"direction_north": "Goldener Steig Hinterschmiding", "direction_south": "Goldener Steig Winkelbrunn;Winterwanderweg Am Biegel", "hiking": "yes", "information": "guidepost", "tourism": "information"}}, {"type": "node", "id": 6856067056, "lat": 48.8220301, "lon": 13.5969955, "tags": {"direction_east": "Goldener Steig Hingerschmiding;Vorderschmidinger Rundweg (3)", "direction_south": "Goldener Steig Winkelbrunn;Kaininger Rundweg;Winterwanderweg Am Biegel", "hiking": "yes", "information": "guidepost", "tourism": "information"}}, {"type": "node", "id": 7016377689, "lat": 48.7626701, "lon": 13.5778728}, {"type": "node", "id": 7016377690, "lat": 48.7626295, "lon": 13.5778737}, {"type": "node", "id": 7016377691, "lat": 48.76263, "lon": 13.5779264}, {"type": "node", "id": 7016377692, "lat": 48.7626706, "lon": 13.5779255}, {"type": "node", "id": 7106868661, "lat": 48.7832424, "lon": 13.4570208, "tags": {"board_type": "history", "information": "board", "name": "Hammerm\u00fchle", "tourism": "information"}}, {"type": "node", "id": 7112991860, "lat": 48.777788, "lon": 13.4498671, "tags": {"information": "board", "name": "Perlesreut", "tourism": "information"}}, {"type": "node", "id": 7126470885, "lat": 48.7887465, "lon": 13.4645927, "tags": {"board_type": "nature", "information": "board", "name": "Totholz im Gew\u00e4sser", "tourism": "information"}}, {"type": "node", "id": 7126470892, "lat": 48.7842401, "lon": 13.4596226, "tags": {"hiking": "yes", "information": "guidepost", "tourism": "information"}}, {"type": "node", "id": 7126470893, "lat": 48.7831311, "lon": 13.4563291, "tags": {"hiking": "yes", "information": "guidepost", "tourism": "information"}}, {"type": "node", "id": 7313088043, "lat": 48.9035074, "lon": 13.5311775, "tags": {"information": "guidepost", "tourism": "information"}}, {"type": "node", "id": 7313088044, "lat": 48.9034716, "lon": 13.5315041, "tags": {"information": "board", "power": "Radverbot", "tourism": "information"}}, {"type": "node", "id": 7431847121, "lat": 48.9415831, "lon": 13.5710627}, {"type": "node", "id": 7692955318, "lat": 48.8329029, "lon": 13.5993282, "tags": {"information": "guidepost", "tourism": "information"}}, {"type": "node", "id": 7693003181, "lat": 48.8348979, "lon": 13.5970485, "tags": {"information": "guidepost", "tourism": "information"}}, {"type": "node", "id": 7693028361, "lat": 48.8315011, "lon": 13.5939445, "tags": {"information": "guidepost", "tourism": "information"}}, {"type": "node", "id": 7783699634, "lat": 48.8514901, "lon": 13.4045166, "tags": {"direction": "NW", "name": "Augenweide", "ref": "8", "tourism": "viewpoint"}}, {"type": "node", "id": 7972230710, "lat": 48.9367145, "lon": 13.5210641, "tags": {"ele": "1279", "name": "Hoher Filzberg", "natural": "peak", "wikidata": "Q1623890", "wikipedia": "en:Hoher Filzberg"}}, {"type": "node", "id": 8043758135, "lat": 48.9110958, "lon": 13.5391915, "tags": {"ele": "1129", "natural": "peak"}}, {"type": "node", "id": 8043758136, "lat": 48.9107125, "lon": 13.5395297, "tags": {"ele": "1125", "natural": "peak"}}, {"type": "node", "id": 8221948059, "lat": 48.8528374, "lon": 13.4014646}, {"type": "node", "id": 8221948060, "lat": 48.8528344, "lon": 13.4014462}, {"type": "node", "id": 8221948061, "lat": 48.8528275, "lon": 13.4014304}, {"type": "node", "id": 8221948062, "lat": 48.8527665, "lon": 13.401488}, {"type": "node", "id": 8221948063, "lat": 48.8527722, "lon": 13.4015033}, {"type": "node", "id": 8221948064, "lat": 48.8527808, "lon": 13.4015152}, {"type": "node", "id": 8221948065, "lat": 48.8528175, "lon": 13.401419}, {"type": "node", "id": 8221948066, "lat": 48.8528056, "lon": 13.4014134}, {"type": "node", "id": 8221948067, "lat": 48.8527931, "lon": 13.4014142}, {"type": "node", "id": 8221948068, "lat": 48.8527815, "lon": 13.4014213, "tags": {"amenity": "bench", "description": "Pavillon mit Sitzgelegenheit"}}, {"type": "node", "id": 8221948069, "lat": 48.8527722, "lon": 13.401434}, {"type": "node", "id": 8221948070, "lat": 48.8527662, "lon": 13.4014506}, {"type": "node", "id": 8221948071, "lat": 48.8527643, "lon": 13.4014693}, {"type": "node", "id": 8221948072, "lat": 48.8527914, "lon": 13.4015224}, {"type": "node", "id": 8221948073, "lat": 48.8528029, "lon": 13.4015242}, {"type": "node", "id": 8221948074, "lat": 48.8528142, "lon": 13.4015205}, {"type": "node", "id": 8221948075, "lat": 48.8528242, "lon": 13.4015116}, {"type": "node", "id": 8221948076, "lat": 48.8528319, "lon": 13.4014983}, {"type": "node", "id": 8221948077, "lat": 48.8528364, "lon": 13.4014821}, {"type": "node", "id": 8286766886, "lat": 48.8529361, "lon": 13.404784}, {"type": "node", "id": 8286766887, "lat": 48.8529476, "lon": 13.4047858}, {"type": "node", "id": 8286766888, "lat": 48.8529589, "lon": 13.4047821}, {"type": "node", "id": 8286766889, "lat": 48.8529689, "lon": 13.4047732}, {"type": "node", "id": 8286766890, "lat": 48.8529766, "lon": 13.4047599}, {"type": "node", "id": 8286766891, "lat": 48.8529811, "lon": 13.4047437}, {"type": "node", "id": 8286766892, "lat": 48.8529821, "lon": 13.4047262}, {"type": "node", "id": 8286766893, "lat": 48.8529791, "lon": 13.4047078}, {"type": "node", "id": 8286766894, "lat": 48.8529722, "lon": 13.404692}, {"type": "node", "id": 8286766895, "lat": 48.8529622, "lon": 13.4046806}, {"type": "node", "id": 8286766896, "lat": 48.8529503, "lon": 13.404675}, {"type": "node", "id": 8286766897, "lat": 48.8529378, "lon": 13.4046758, "tags": {"amenity": "bench", "description": "Pavillon mit Sitzgelegenheit"}}, {"type": "node", "id": 8286766898, "lat": 48.8529262, "lon": 13.4046829}, {"type": "node", "id": 8286766899, "lat": 48.8529169, "lon": 13.4046956}, {"type": "node", "id": 8286766900, "lat": 48.8529109, "lon": 13.4047122}, {"type": "node", "id": 8286766901, "lat": 48.852909, "lon": 13.4047309}, {"type": "node", "id": 8286766902, "lat": 48.8529112, "lon": 13.4047496}, {"type": "node", "id": 8286766903, "lat": 48.8529169, "lon": 13.4047649}, {"type": "node", "id": 8286766904, "lat": 48.8529255, "lon": 13.4047768}, {"type": "node", "id": 8289253739, "lat": 48.8543612, "lon": 13.4023058}, {"type": "node", "id": 8289253740, "lat": 48.8543915, "lon": 13.4023687}, {"type": "node", "id": 8289253741, "lat": 48.8543533, "lon": 13.4024112}, {"type": "node", "id": 8289253742, "lat": 48.854323, "lon": 13.4023483}, {"type": "node", "id": 8289253744, "lat": 48.8543718, "lon": 13.4023277}, {"type": "node", "id": 8435720300, "lat": 48.901996, "lon": 13.583664}, {"type": "node", "id": 8435720301, "lat": 48.9019645, "lon": 13.5836827}, {"type": "node", "id": 8435720302, "lat": 48.901957, "lon": 13.5836535}, {"type": "node", "id": 8435720303, "lat": 48.9019885, "lon": 13.5836348}, {"type": "node", "id": 8450552344, "lat": 48.8384678, "lon": 13.4109361}, {"type": "node", "id": 8450552345, "lat": 48.8384419, "lon": 13.4109634}, {"type": "node", "id": 8450552346, "lat": 48.8384561, "lon": 13.4109944}, {"type": "node", "id": 8450552347, "lat": 48.838482, "lon": 13.4109672}, {"type": "node", "id": 8951951825, "lat": 48.9181573, "lon": 13.5280099, "tags": {"covered": "yes", "information": "map", "tourism": "information"}}, {"type": "node", "id": 8951951826, "lat": 48.918145, "lon": 13.5280288}, {"type": "node", "id": 8951951827, "lat": 48.9181271, "lon": 13.528002}, {"type": "node", "id": 8951951828, "lat": 48.9181495, "lon": 13.5279673}, {"type": "node", "id": 8951953938, "lat": 48.898476, "lon": 13.5465613, "tags": {"covered": "yes", "information": "board", "tourism": "information"}}, {"type": "node", "id": 8951959227, "lat": 48.8984716, "lon": 13.546571}, {"type": "node", "id": 8951959228, "lat": 48.8984782, "lon": 13.5465598}, {"type": "node", "id": 8951959229, "lat": 48.898477, "lon": 13.5465785}, {"type": "node", "id": 8951959230, "lat": 48.8984837, "lon": 13.5465673}, {"type": "node", "id": 8951959231, "lat": 48.8984706, "lon": 13.5465492}, {"type": "node", "id": 9171774080, "lat": 48.8515761, "lon": 13.403994, "tags": {"description": "sch\u00f6ner Aussichtspunkt mit Sitzb\u00e4nken und Granitbrunnen", "image": "www.grafenau.de/baereal", "name": "Augenweide", "tourism": "viewpoint"}}, {"type": "node", "id": 9288013394, "lat": 48.8100314, "lon": 13.4575463, "tags": {"board_type": "plants", "information": "board", "name": "Obstlehrgarten Eckertsreut", "tourism": "information"}}, {"type": "node", "id": 9289181034, "lat": 48.8132404, "lon": 13.472125, "tags": {"information": "board", "tourism": "information"}}, {"type": "node", "id": 9289739191, "lat": 48.8155683, "lon": 13.493109, "tags": {"description": "Herrlicher Blick auf Ringelai", "direction": "180", "tourism": "viewpoint"}}, {"type": "node", "id": 9291770193, "lat": 48.8169847, "lon": 13.5047321, "tags": {"description": "Blick bis auf Freyung \u00fcber die ganze Schlucht. An dieser Stelle bestimmt 200m Abgrund", "direction": "180", "tourism": "viewpoint"}}, {"type": "node", "id": 9292154641, "lat": 48.849246, "lon": 13.4487164}, {"type": "node", "id": 9292154642, "lat": 48.8492107, "lon": 13.448765}, {"type": "node", "id": 9292154643, "lat": 48.8491921, "lon": 13.4487338}, {"type": "node", "id": 9292154644, "lat": 48.8492274, "lon": 13.4486852}, {"type": "node", "id": 9415267078, "lat": 48.8741763, "lon": 13.4084683}, {"type": "node", "id": 9415267079, "lat": 48.8741495, "lon": 13.4084406}, {"type": "node", "id": 9689393393, "lat": 48.8950262, "lon": 13.420062, "tags": {"direction": "S", "tourism": "viewpoint"}}, {"type": "node", "id": 9707042177, "lat": 48.8331565, "lon": 13.5036221, "tags": {"direction": "150-280", "tourism": "viewpoint"}}, {"type": "node", "id": 9782334267, "lat": 48.821466, "lon": 13.466353, "tags": {"hiking": "yes", "information": "guidepost", "tourism": "information"}}, {"type": "node", "id": 9783591669, "lat": 48.8105173, "lon": 13.4574409}, {"type": "node", "id": 9783591670, "lat": 48.8105017, "lon": 13.4573958}, {"type": "node", "id": 9783591671, "lat": 48.8104681, "lon": 13.4573937}, {"type": "node", "id": 9783591672, "lat": 48.8104501, "lon": 13.4574368}, {"type": "node", "id": 9783591673, "lat": 48.8104657, "lon": 13.457482}, {"type": "node", "id": 9783591674, "lat": 48.8104993, "lon": 13.4574841}, {"type": "node", "id": 9783591677, "lat": 48.8104561, "lon": 13.4575469, "tags": {"information": "map", "map_size": "region", "map_type": "hiking", "tourism": "information"}}, {"type": "node", "id": 9787526342, "lat": 48.7906934, "lon": 13.5381268, "tags": {"amenity": "shelter", "bench": "yes", "kerb": "raised", "shelter_type": "public_transport", "wheelchair": "limited"}}, {"type": "node", "id": 9814267407, "lat": 48.7841219, "lon": 13.5809274}, {"type": "node", "id": 9814267408, "lat": 48.7841261, "lon": 13.5809719}, {"type": "node", "id": 9814267409, "lat": 48.7841492, "lon": 13.5809668}, {"type": "node", "id": 9814267410, "lat": 48.784145, "lon": 13.5809223, "tags": {"highway": "emergency_access_point", "ref": "FRG-2125"}}, {"type": "node", "id": 9817507810, "lat": 48.7955831, "lon": 13.411198, "tags": {"amenity": "shelter", "bench": "yes", "kerb": "raised", "shelter_type": "public_transport", "wheelchair": "no"}}, {"type": "node", "id": 9825475989, "lat": 48.8323045, "lon": 13.58515, "tags": {"amenity": "shelter", "kerb": "raised", "kerb:height": "0.18", "shelter_type": "public_transport", "wheelchair": "no"}}, {"type": "node", "id": 9828515904, "lat": 48.9075906, "lon": 13.4042106, "tags": {"board_type": "history", "description": "Flurnamen leiten sich oft von Tierarten ab, die dort h\u00e4ufig waren; Beispiel \"Hahnenfalz\" im Klosterfilz, der sich von Birk- und Auerh\u00fchnern, die dort vom Herzog gejagt wurden, ableitet. (Tafel 18 des Themenwanderwegs Sankt Oswald - Riedlh\u00fctte)", "information": "board", "name": "18 - Flurnamen", "ref": "Themenwanderweg 18", "tourism": "information"}}, {"type": "node", "id": 9828515905, "lat": 48.907177, "lon": 13.4039181, "tags": {"board_type": "history", "description": "Erkl\u00e4rung der historischen Goldgewinnung: erl\u00e4uterte Abbildungen von Agricola (1556); Gold und andere Minerale in Sedimenten; Methodik des Goldwaschens (Tafeln 14-16 des Themenwanderwegs Sankt Oswald - Riedlh\u00fctte)", "information": "board", "name": "14/15/16 - Goldgewinnung", "ref": "Themenwanderweg 14-16", "tourism": "information"}}, {"type": "node", "id": 9833327118, "lat": 48.764125, "lon": 13.4299231}, {"type": "node", "id": 9833327119, "lat": 48.7641162, "lon": 13.4299448}, {"type": "node", "id": 9833327120, "lat": 48.7640931, "lon": 13.429923}, {"type": "node", "id": 9833327121, "lat": 48.7641019, "lon": 13.4299013}, {"type": "node", "id": 9850609141, "lat": 48.7913498, "lon": 13.5066453}, {"type": "node", "id": 9850609142, "lat": 48.7913437, "lon": 13.5066798}, {"type": "node", "id": 9850609143, "lat": 48.791322, "lon": 13.5066709}, {"type": "node", "id": 9850609144, "lat": 48.7913281, "lon": 13.5066365}, {"type": "node", "id": 9858267989, "lat": 48.7776855, "lon": 13.4707895}, {"type": "node", "id": 9858267990, "lat": 48.7776894, "lon": 13.4707538}, {"type": "node", "id": 9858267991, "lat": 48.7777215, "lon": 13.4707618}, {"type": "node", "id": 9858267992, "lat": 48.7777176, "lon": 13.4707975}, {"type": "node", "id": 9867801502, "lat": 48.7877401, "lon": 13.4963125, "tags": {"amenity": "shelter", "bench": "yes", "shelter_type": "public_transport"}}, {"type": "node", "id": 9906979096, "lat": 48.8108566, "lon": 13.5345904, "tags": {"information": "guidepost", "tourism": "information"}}, {"type": "node", "id": 9906998250, "lat": 48.8108565, "lon": 13.5346021, "tags": {"information": "map", "map_size": "region", "tourism": "information"}}, {"type": "node", "id": 9907059690, "lat": 48.8092792, "lon": 13.5382585, "tags": {"hiking": "yes", "information": "guidepost", "tourism": "information"}}, {"type": "node", "id": 9907062635, "lat": 48.8085272, "lon": 13.54359, "tags": {"hiking": "yes", "information": "guidepost", "tourism": "information"}}, {"type": "node", "id": 9907064478, "lat": 48.8098842, "lon": 13.5399837, "tags": {"information": "guidepost", "tourism": "information"}}, {"type": "node", "id": 9907064869, "lat": 48.8087671, "lon": 13.5420908, "tags": {"hiking": "yes", "information": "guidepost", "tourism": "information"}}, {"type": "node", "id": 9907074465, "lat": 48.8080588, "lon": 13.546377, "tags": {"information": "guidepost", "tourism": "information"}}, {"type": "node", "id": 9907075713, "lat": 48.8096312, "lon": 13.5412675, "tags": {"information": "guidepost", "tourism": "information"}}, {"type": "node", "id": 9907085809, "lat": 48.8088917, "lon": 13.5421379, "tags": {"board_type": "nature", "information": "board", "name": "Fischaufstiegshilfen", "tourism": "information"}}, {"type": "node", "id": 9907101036, "lat": 48.8128184, "lon": 13.5280631, "tags": {"hiking": "yes", "information": "guidepost", "tourism": "information"}}, {"type": "node", "id": 9907102733, "lat": 48.8129792, "lon": 13.5303329, "tags": {"board_type": "nature", "information": "board", "name": "Natur und Mensch in der Buchberger Leite", "tourism": "information"}}, {"type": "node", "id": 9907395219, "lat": 48.8125604, "lon": 13.4825629, "tags": {"hiking": "yes", "information": "guidepost", "tourism": "information"}}, {"type": "node", "id": 9907409085, "lat": 48.7985526, "lon": 13.4841062, "tags": {"bicycle": "yes", "hiking": "yes", "information": "guidepost", "tourism": "information"}}, {"type": "node", "id": 9907415685, "lat": 48.8102128, "lon": 13.4802398, "tags": {"bicycle": "yes", "information": "guidepost", "tourism": "information"}}, {"type": "node", "id": 9907446717, "lat": 48.7972227, "lon": 13.4862301, "tags": {"bicycle": "yes", "hiking": "yes", "information": "guidepost", "tourism": "information"}}, {"type": "node", "id": 9907602180, "lat": 48.8059116, "lon": 13.5001771, "tags": {"bicycle": "yes", "information": "guidepost", "tourism": "information"}}, {"type": "node", "id": 9907602207, "lat": 48.8060145, "lon": 13.5056053, "tags": {"bicycle": "yes", "information": "guidepost", "tourism": "information"}}, {"type": "node", "id": 9907626239, "lat": 48.8058596, "lon": 13.4998227, "tags": {"bicycle": "yes", "hiking": "yes", "information": "guidepost", "tourism": "information"}}, {"type": "node", "id": 9907627147, "lat": 48.8059653, "lon": 13.5000346, "tags": {"bicycle": "yes", "information": "guidepost", "tourism": "information"}}, {"type": "node", "id": 9907644237, "lat": 48.8058249, "lon": 13.5106069, "tags": {"information": "guidepost", "tourism": "information"}}, {"type": "node", "id": 9907653087, "lat": 48.8033819, "lon": 13.5147753, "tags": {"information": "guidepost", "tourism": "information"}}, {"type": "node", "id": 9907667519, "lat": 48.8036816, "lon": 13.5147462, "tags": {"bicycle": "yes", "hiking": "yes", "information": "guidepost", "tourism": "information"}}, {"type": "node", "id": 9907669508, "lat": 48.8036423, "lon": 13.5149071, "tags": {"board_type": "nature", "information": "board", "name": "Der Natur auf der Spur", "tourism": "information"}}, {"type": "node", "id": 9907670726, "lat": 48.8036333, "lon": 13.5149369, "tags": {"information": "map", "map_size": "region", "map_type": "hiking", "tourism": "information"}}, {"type": "node", "id": 9907706792, "lat": 48.7991524, "lon": 13.5298511, "tags": {"board_type": "nature", "information": "board", "name": "Landschaftspflege sch\u00fctzt Lebensraum", "tourism": "information"}}, {"type": "node", "id": 9907707204, "lat": 48.7994959, "lon": 13.5268098, "tags": {"hiking": "yes", "information": "guidepost", "tourism": "information"}}, {"type": "node", "id": 9907715211, "lat": 48.7987237, "lon": 13.5307509, "tags": {"board_type": "nature", "information": "board", "name": "Wasser ist Leben - Quellen", "tourism": "information"}}, {"type": "node", "id": 9907717020, "lat": 48.7991914, "lon": 13.52986, "tags": {"information": "guidepost", "tourism": "information"}}, {"type": "node", "id": 9907717021, "lat": 48.799143, "lon": 13.5298519, "tags": {"board_type": "nature", "information": "board", "name": "Lausche der Bergm\u00e4hwiese!", "tourism": "information"}}, {"type": "node", "id": 9907721489, "lat": 48.7991953, "lon": 13.5299125, "tags": {"hiking": "yes", "information": "guidepost", "tourism": "information"}}, {"type": "node", "id": 9907724628, "lat": 48.7987056, "lon": 13.5306559, "tags": {"board_type": "nature", "information": "board", "name": "Herzlich Willkommen", "tourism": "information"}}, {"type": "node", "id": 9907726137, "lat": 48.7996235, "lon": 13.5288217, "tags": {"board_type": "nature", "information": "board", "name": "Grasfrosch & Co.: Leben am Wasser", "tourism": "information"}}, {"type": "node", "id": 9907728886, "lat": 48.7984405, "lon": 13.534481, "tags": {"information": "guidepost", "tourism": "information"}}, {"type": "node", "id": 9907734925, "lat": 48.7974075, "lon": 13.5345875, "tags": {"hiking": "yes", "information": "guidepost", "tourism": "information"}}, {"type": "node", "id": 9907735462, "lat": 48.7983714, "lon": 13.5344984, "tags": {"information": "guidepost", "tourism": "information"}}, {"type": "node", "id": 9907745428, "lat": 48.7987955, "lon": 13.5308809, "tags": {"board_type": "nature", "information": "board", "name": "Wasserwerk Wald", "tourism": "information"}}, {"type": "node", "id": 9907764848, "lat": 48.7953413, "lon": 13.5394948, "tags": {"hiking": "yes", "information": "guidepost", "tourism": "information"}}, {"type": "node", "id": 9907771503, "lat": 48.7953709, "lon": 13.5393006, "tags": {"board_type": "nature", "information": "board", "name": "Der Natur auf der Spur", "tourism": "information"}}, {"type": "node", "id": 9907946357, "lat": 48.7988856, "lon": 13.5428209, "tags": {"information": "map", "map_size": "region", "tourism": "information"}}, {"type": "node", "id": 9907954168, "lat": 48.8004409, "lon": 13.5436516, "tags": {"hiking": "yes", "information": "guidepost", "tourism": "information"}}, {"type": "node", "id": 9917896106, "lat": 48.8718288, "lon": 13.4714764, "tags": {"amenity": "shelter", "bench": "yes", "shelter_type": "public_transport", "surface": "unpaved", "wheelchair": "no"}}, {"type": "node", "id": 9917896107, "lat": 48.8720329, "lon": 13.4712745, "tags": {"amenity": "shelter", "bench": "yes", "shelter_type": "public_transport"}}, {"type": "node", "id": 9926944176, "lat": 48.8494198, "lon": 13.4712963}, {"type": "node", "id": 9926944177, "lat": 48.8493833, "lon": 13.4712949}, {"type": "node", "id": 9926944178, "lat": 48.849384, "lon": 13.4712559}, {"type": "node", "id": 9926944179, "lat": 48.8494204, "lon": 13.4712572}, {"type": "node", "id": 9926984141, "lat": 48.8671151, "lon": 13.5098582}, {"type": "node", "id": 9926984142, "lat": 48.8670957, "lon": 13.5098379}, {"type": "node", "id": 9926984143, "lat": 48.8670848, "lon": 13.509862}, {"type": "node", "id": 9926984144, "lat": 48.8671042, "lon": 13.5098823}, {"type": "node", "id": 9992312472, "lat": 48.8906324, "lon": 13.4847114}, {"type": "node", "id": 9992312473, "lat": 48.8907751, "lon": 13.4844714}, {"type": "node", "id": 9992312474, "lat": 48.8908862, "lon": 13.4842114}, {"type": "node", "id": 9992312475, "lat": 48.8909072, "lon": 13.4837633}, {"type": "node", "id": 9992312476, "lat": 48.8909007, "lon": 13.4835753}, {"type": "node", "id": 9992312477, "lat": 48.8909039, "lon": 13.4835253}, {"type": "node", "id": 9992312478, "lat": 48.8909204, "lon": 13.4834783}, {"type": "node", "id": 9992312479, "lat": 48.8909539, "lon": 13.4834032}, {"type": "node", "id": 9992312480, "lat": 48.8917095, "lon": 13.4838023}, {"type": "node", "id": 9992312481, "lat": 48.8919054, "lon": 13.4852245}, {"type": "node", "id": 9992312482, "lat": 48.8916457, "lon": 13.4864527}, {"type": "node", "id": 9992312483, "lat": 48.8915832, "lon": 13.4866367}, {"type": "node", "id": 9992312484, "lat": 48.8915984, "lon": 13.4870388}, {"type": "node", "id": 9992312485, "lat": 48.8915911, "lon": 13.4872248}, {"type": "node", "id": 9992312486, "lat": 48.8915418, "lon": 13.4873028}, {"type": "node", "id": 10029919675, "lat": 48.888936, "lon": 13.5394329, "tags": {"hiking": "yes", "information": "guidepost", "tourism": "information"}}, {"type": "node", "id": 10029919676, "lat": 48.8894156, "lon": 13.5366056, "tags": {"hiking": "yes", "information": "guidepost", "tourism": "information"}}, {"type": "node", "id": 10029919677, "lat": 48.888434, "lon": 13.5364164, "tags": {"hiking": "yes", "information": "guidepost", "tourism": "information"}}, {"type": "node", "id": 10029919678, "lat": 48.8873213, "lon": 13.5318968, "tags": {"hiking": "yes", "information": "guidepost", "tourism": "information"}}, {"type": "node", "id": 10029919679, "lat": 48.8873824, "lon": 13.5307171, "tags": {"hiking": "yes", "information": "guidepost", "tourism": "information"}}, {"type": "node", "id": 10029919681, "lat": 48.8855007, "lon": 13.5236006, "tags": {"hiking": "yes", "information": "guidepost", "tourism": "information"}}, {"type": "node", "id": 10029919682, "lat": 48.8835429, "lon": 13.5236198, "tags": {"hiking": "yes", "information": "guidepost", "tourism": "information"}}, {"type": "node", "id": 10029919683, "lat": 48.8802402, "lon": 13.5281435, "tags": {"hiking": "yes", "information": "guidepost", "tourism": "information"}}, {"type": "node", "id": 10029919684, "lat": 48.8800909, "lon": 13.5294803, "tags": {"hiking": "yes", "information": "guidepost", "tourism": "information"}}, {"type": "node", "id": 10029919687, "lat": 48.8798676, "lon": 13.5293729, "tags": {"bicycle": "yes", "information": "guidepost", "tourism": "information"}}, {"type": "node", "id": 10072747940, "lat": 48.8866776, "lon": 13.5836841}, {"type": "node", "id": 10072747941, "lat": 48.8866758, "lon": 13.5837152}, {"type": "node", "id": 10072747942, "lat": 48.8867039, "lon": 13.5837189}, {"type": "node", "id": 10072747943, "lat": 48.8867057, "lon": 13.5836878}, {"type": "node", "id": 10130924321, "lat": 48.8496961, "lon": 13.4335126}, {"type": "node", "id": 10130924322, "lat": 48.849697, "lon": 13.4335763}, {"type": "node", "id": 10130924323, "lat": 48.849719, "lon": 13.4335756}, {"type": "node", "id": 10130924324, "lat": 48.8497181, "lon": 13.4335119}, {"type": "node", "id": 10169195112, "lat": 48.9221366, "lon": 13.4106769, "tags": {"information": "map", "tourism": "information"}}, {"type": "node", "id": 10309916248, "lat": 48.8679819, "lon": 13.4031969, "tags": {"information": "guidepost", "name": "41", "ref": "41", "tourism": "information"}}, {"type": "node", "id": 10309916249, "lat": 48.8680003, "lon": 13.4038373, "tags": {"information": "guidepost", "name": "184", "ref": "184", "tourism": "information"}}, {"type": "node", "id": 10309916250, "lat": 48.8687907, "lon": 13.404587, "tags": {"information": "guidepost", "name": "42", "ref": "42", "tourism": "information"}}, {"type": "node", "id": 10309916253, "lat": 48.8691598, "lon": 13.4088017, "tags": {"information": "guidepost", "name": "44", "ref": "44", "tourism": "information"}}, {"type": "node", "id": 10309916254, "lat": 48.8691139, "lon": 13.4117496, "tags": {"information": "guidepost", "name": "45", "ref": "45", "tourism": "information"}}, {"type": "node", "id": 10309916257, "lat": 48.8705873, "lon": 13.4152261, "tags": {"information": "guidepost", "name": "46", "ref": "46", "tourism": "information"}}, {"type": "node", "id": 10309918101, "lat": 48.8865042, "lon": 13.4223887, "tags": {"information": "guidepost", "tourism": "information"}}, {"type": "node", "id": 10309937590, "lat": 48.8776753, "lon": 13.4226567, "tags": {"information": "guidepost", "tourism": "information"}}, {"type": "node", "id": 10649806212, "lat": 48.7827972, "lon": 13.4385367}, {"type": "node", "id": 10649806213, "lat": 48.7827973, "lon": 13.4385461}, {"type": "node", "id": 10649806214, "lat": 48.7827953, "lon": 13.438555}, {"type": "node", "id": 10649806215, "lat": 48.7827642, "lon": 13.4385578}, {"type": "node", "id": 10649806216, "lat": 48.7827616, "lon": 13.4385497}, {"type": "node", "id": 10649806217, "lat": 48.7827609, "lon": 13.4385408}, {"type": "node", "id": 10649806218, "lat": 48.7827621, "lon": 13.438532}, {"type": "node", "id": 10649806219, "lat": 48.7827915, "lon": 13.4385624}, {"type": "node", "id": 10649806220, "lat": 48.7827863, "lon": 13.4385674}, {"type": "node", "id": 10649806221, "lat": 48.7827803, "lon": 13.4385695}, {"type": "node", "id": 10649806222, "lat": 48.7827741, "lon": 13.4385685}, {"type": "node", "id": 10649806223, "lat": 48.7827686, "lon": 13.4385644}, {"type": "node", "id": 10649806224, "lat": 48.782765, "lon": 13.4385242}, {"type": "node", "id": 10649806225, "lat": 48.7827695, "lon": 13.4385183}, {"type": "node", "id": 10649806226, "lat": 48.7827749, "lon": 13.4385148}, {"type": "node", "id": 10649806227, "lat": 48.7827808, "lon": 13.4385141}, {"type": "node", "id": 10649806228, "lat": 48.7827865, "lon": 13.4385163}, {"type": "node", "id": 10649806229, "lat": 48.7827915, "lon": 13.4385212}, {"type": "node", "id": 10649806230, "lat": 48.7827952, "lon": 13.4385283}, {"type": "node", "id": 10863649358, "lat": 48.8544069, "lon": 13.4011931, "tags": {"name": "Duftorgel", "tourism": "attraction"}}, {"type": "node", "id": 10863649397, "lat": 48.854302, "lon": 13.400772, "tags": {"name": "Xylophon", "tourism": "attraction"}}, {"type": "node", "id": 10863649399, "lat": 48.8541694, "lon": 13.4007183, "tags": {"description": "Keine Dekosteine mitnehmen", "information": "board", "tourism": "information"}}, {"type": "node", "id": 10863649400, "lat": 48.8541198, "lon": 13.4005457, "tags": {"information": "board", "tourism": "information"}}, {"type": "node", "id": 10863649401, "lat": 48.8541728, "lon": 13.4005446, "tags": {"information": "board", "tourism": "information"}}, {"type": "node", "id": 10863649402, "lat": 48.8542266, "lon": 13.4005632, "tags": {"information": "board", "tourism": "information"}}, {"type": "node", "id": 10863781890, "lat": 48.8795516, "lon": 13.4408445, "tags": {"information": "guidepost", "tourism": "information"}}, {"type": "node", "id": 10863782232, "lat": 48.8799991, "lon": 13.4508771, "tags": {"information": "map", "tourism": "information"}}, {"type": "node", "id": 10863782233, "lat": 48.8796327, "lon": 13.4506869, "tags": {"information": "guidepost", "tourism": "information"}}, {"type": "node", "id": 10863782234, "lat": 48.8794301, "lon": 13.4459288, "tags": {"tourism": "information"}}, {"type": "node", "id": 10863782268, "lat": 48.8796136, "lon": 13.4441695, "tags": {"information": "board", "tourism": "information"}}, {"type": "node", "id": 10863782289, "lat": 48.8801775, "lon": 13.4511894, "tags": {"name": "View to Baumwipfel-Ei", "tourism": "viewpoint"}}, {"type": "node", "id": 10863782290, "lat": 48.8883323, "lon": 13.4595688, "tags": {"information": "guidepost", "tourism": "information"}}, {"type": "node", "id": 10863782295, "lat": 48.8880217, "lon": 13.4611056, "tags": {"information": "board", "tourism": "information"}}, {"type": "node", "id": 10863782333, "lat": 48.8873378, "lon": 13.4792902, "tags": {"name": "S\u00e4ge-Test", "tourism": "attraction", "wheelchair": "yes"}}, {"type": "node", "id": 10863782347, "lat": 48.8873777, "lon": 13.4796371, "tags": {"information": "guidepost", "tourism": "information"}}, {"type": "node", "id": 10863782348, "lat": 48.8868987, "lon": 13.478105, "tags": {"tourism": "attraction"}}, {"type": "node", "id": 10863782395, "lat": 48.8876959, "lon": 13.4796127}, {"type": "node", "id": 10863782396, "lat": 48.8876542, "lon": 13.4796111}, {"type": "node", "id": 10863782397, "lat": 48.8876533, "lon": 13.4796661}, {"type": "node", "id": 10863782398, "lat": 48.8876951, "lon": 13.4796676}, {"type": "node", "id": 10863782399, "lat": 48.8881926, "lon": 13.4811267, "tags": {"board_type": "history", "information": "board", "tourism": "information"}}, {"type": "node", "id": 10863782408, "lat": 48.8904121, "lon": 13.4837791, "tags": {"information": "map", "tourism": "information"}}, {"type": "node", "id": 10863782410, "lat": 48.8913592, "lon": 13.4832547, "tags": {"information": "board", "tourism": "information"}}, {"type": "node", "id": 10863782411, "lat": 48.8914152, "lon": 13.4833966, "tags": {"information": "board", "tourism": "information"}}, {"type": "node", "id": 10863782416, "lat": 48.8901826, "lon": 13.486434, "tags": {"entrance": "yes"}}, {"type": "node", "id": 10863782418, "lat": 48.890393, "lon": 13.4870169, "tags": {"name": "Italian Partnership", "tourism": "attraction"}}, {"type": "node", "id": 10863782444, "lat": 48.8975945, "lon": 13.4908218, "tags": {"information": "board", "tourism": "information"}}, {"type": "node", "id": 10865929470, "lat": 48.8747804, "lon": 13.4280972, "tags": {"information": "board", "tourism": "information"}}, {"type": "node", "id": 11026087563, "lat": 48.8901791, "lon": 13.4864449, "tags": {"information": "route_marker", "operator": "Bayern Entdecker", "tourism": "information"}}, {"type": "node", "id": 11061513575, "lat": 48.9067876, "lon": 13.4706547, "tags": {"tourism": "viewpoint"}}, {"type": "node", "id": 11067065438, "lat": 48.9305397, "lon": 13.4905822, "tags": {"hiking": "yes", "information": "guidepost", "tourism": "information"}}, {"type": "node", "id": 11067065439, "lat": 48.9302637, "lon": 13.4631698, "tags": {"bicycle": "yes", "hiking": "yes", "information": "guidepost", "tourism": "information"}}, {"type": "node", "id": 11067065440, "lat": 48.9299077, "lon": 13.4918371, "tags": {"hiking": "yes", "information": "guidepost", "tourism": "information"}}, {"type": "node", "id": 11067570699, "lat": 48.9373163, "lon": 13.4739406, "tags": {"hiking": "yes", "information": "guidepost", "tourism": "information"}}, {"type": "node", "id": 11067570700, "lat": 48.9378238, "lon": 13.4743295, "tags": {"bicycle": "no", "hiking": "yes", "information": "guidepost", "tourism": "information"}}, {"type": "node", "id": 11067570703, "lat": 48.9298302, "lon": 13.4632444, "tags": {"information": "map", "map_size": "region", "map_type": "topo", "ski": "yes", "tourism": "information"}}, {"type": "node", "id": 11067573805, "lat": 48.9296816, "lon": 13.4634215, "tags": {"bicycle": "yes", "hiking": "yes", "information": "guidepost", "tourism": "information"}}, {"type": "node", "id": 11067573807, "lat": 48.9293584, "lon": 13.4635783, "tags": {"information": "map", "map_size": "site", "map_type": "scheme", "name": "Bergdorf Waldh\u00e4user", "tourism": "information"}}, {"type": "node", "id": 11069908118, "lat": 48.9261013, "lon": 13.4785068, "tags": {"hiking": "yes", "information": "guidepost", "tourism": "information"}}, {"type": "node", "id": 11069908120, "lat": 48.9302811, "lon": 13.4912369, "tags": {"bicycle": "yes", "hiking": "yes", "information": "guidepost", "tourism": "information"}}, {"type": "node", "id": 11069908122, "lat": 48.9356785, "lon": 13.4884235, "tags": {"board_type": "wildlife", "information": "board", "name": "Das Auerhuhn", "tourism": "information"}}, {"type": "node", "id": 11069908123, "lat": 48.9356883, "lon": 13.4884168, "tags": {"board_type": "nature", "information": "board", "tourism": "information"}}, {"type": "node", "id": 11069908124, "lat": 48.9356947, "lon": 13.4884106, "tags": {"bicycle": "yes", "hiking": "yes", "information": "map", "map_size": "region", "map_type": "scheme", "tourism": "information"}}, {"type": "node", "id": 11503932212, "lat": 48.8412029, "lon": 13.5661876}, {"type": "node", "id": 11503932213, "lat": 48.8412234, "lon": 13.5662271}, {"type": "node", "id": 11503932214, "lat": 48.8412404, "lon": 13.5662068}, {"type": "node", "id": 11503932215, "lat": 48.8412199, "lon": 13.5661672}, {"type": "node", "id": 11739157910, "lat": 48.8222364, "lon": 13.5942954}, {"type": "node", "id": 11739157911, "lat": 48.8222311, "lon": 13.5943235}, {"type": "node", "id": 11739157912, "lat": 48.8222579, "lon": 13.5943352}, {"type": "node", "id": 11739157913, "lat": 48.8222632, "lon": 13.594307}, {"type": "node", "id": 11741698905, "lat": 48.8233918, "lon": 13.5437364}, {"type": "node", "id": 11741698906, "lat": 48.8233671, "lon": 13.5437726}, {"type": "node", "id": 11741698907, "lat": 48.8233519, "lon": 13.5437487}, {"type": "node", "id": 11741698908, "lat": 48.8233766, "lon": 13.5437125}, {"type": "node", "id": 11753127446, "lat": 48.9166426, "lon": 13.5781087}, {"type": "node", "id": 11753127447, "lat": 48.9166081, "lon": 13.5781055}, {"type": "node", "id": 11753127448, "lat": 48.9166094, "lon": 13.5780738}, {"type": "node", "id": 11753127449, "lat": 48.9166438, "lon": 13.5780769}, {"type": "node", "id": 11868085645, "lat": 48.9488462, "lon": 13.57619, "tags": {"information": "guidepost", "tourism": "information"}}, {"type": "node", "id": 12077914020, "lat": 48.75885, "lon": 13.420358, "tags": {"information": "guidepost", "name": "Wegweiser", "tourism": "information"}}, {"type": "node", "id": 12077915726, "lat": 48.7588891, "lon": 13.4200744, "tags": {"information": "guidepost", "name": "Wegweiser", "tourism": "information"}}, {"type": "node", "id": 12106778965, "lat": 48.9321818, "lon": 13.5647493, "tags": {"board_type": "nature", "information": "board", "name": "Oortsche Wolke", "tourism": "information"}}, {"type": "node", "id": 12106778966, "lat": 48.9321695, "lon": 13.5638399, "tags": {"board_type": "nature", "information": "board", "name": "F\u00fcr den Fortschritt", "name:cs": "Vzh\u016fru k sv\u0115tl\u00fdm z\u00edt\u0159k\u016fm", "tourism": "information"}}, {"type": "node", "id": 12106778967, "lat": 48.9324738, "lon": 13.5567415, "tags": {"board_type": "nature", "information": "board", "name": "Der Kuiperg\u00fcrtel", "tourism": "information"}}, {"type": "node", "id": 12106778968, "lat": 48.9394745, "lon": 13.558668, "tags": {"board_type": "nature", "information": "board", "name": "Bergbach", "tourism": "information"}}, {"type": "node", "id": 12108783577, "lat": 48.8964518, "lon": 13.4814021, "tags": {"tourism": "viewpoint"}}, {"type": "node", "id": 12108783581, "lat": 48.8900694, "lon": 13.4856165, "tags": {"information": "guidepost", "tourism": "information"}}, {"type": "node", "id": 12108783587, "lat": 48.890397, "lon": 13.4836686, "tags": {"board_type": "history", "information": "board", "tourism": "information"}}, {"type": "node", "id": 12108783588, "lat": 48.8901942, "lon": 13.4835707, "tags": {"board_type": "history", "information": "board", "tourism": "information"}}, {"type": "node", "id": 12108783589, "lat": 48.8887965, "lon": 13.4823409, "tags": {"board_type": "history", "information": "board", "tourism": "information"}}, {"type": "node", "id": 12108783590, "lat": 48.8884464, "lon": 13.4818554, "tags": {"board_type": "history", "information": "board", "name": "Der Wald als Nahrungsquelle", "tourism": "information"}}, {"type": "node", "id": 12108783591, "lat": 48.8876687, "lon": 13.4796748, "tags": {"board_type": "history", "information": "board", "name": "Eintritt ins Berufsleben", "tourism": "information"}}, {"type": "node", "id": 12108783592, "lat": 48.8873649, "lon": 13.4793348, "tags": {"board_type": "history", "information": "board", "tourism": "information"}}, {"type": "node", "id": 12108783594, "lat": 48.8874121, "lon": 13.4781097, "tags": {"board_type": "history", "information": "board", "name": "Feste Feiern", "tourism": "information"}}, {"type": "node", "id": 12108783598, "lat": 48.8868221, "lon": 13.4777436, "tags": {"hiking": "yes", "information": "map", "map_size": "region", "map_type": "topo", "name": "Grenzenlos Wandern", "tourism": "information"}}, {"type": "node", "id": 12108783599, "lat": 48.8866837, "lon": 13.4777717, "tags": {"board_type": "history", "information": "board", "name": "Tod und Gefahren im Wald", "tourism": "information"}}, {"type": "node", "id": 12114552425, "lat": 48.804154, "lon": 13.5461595, "tags": {"tourism": "viewpoint"}}, {"type": "node", "id": 12116439738, "lat": 48.9166111, "lon": 13.5781058, "tags": {"highway": "emergency_access_point", "ref": "FRG-2123"}}, {"type": "node", "id": 12116459495, "lat": 48.9019672, "lon": 13.5836811, "tags": {"highway": "emergency_access_point", "ref": "FRG-2004"}}, {"type": "node", "id": 12117059317, "lat": 48.844585, "lon": 13.5678409}, {"type": "node", "id": 12117059318, "lat": 48.8445922, "lon": 13.5678318}, {"type": "node", "id": 12117059319, "lat": 48.8445826, "lon": 13.5678142}, {"type": "node", "id": 12117059320, "lat": 48.8445754, "lon": 13.5678233}, {"type": "node", "id": 12117059321, "lat": 48.8445774, "lon": 13.5678268, "tags": {"highway": "emergency_access_point", "ref": "FRG-2007"}}, {"type": "node", "id": 12134391390, "lat": 48.8671109, "lon": 13.5098538, "tags": {"highway": "emergency_access_point", "ref": "FRG-2013"}}, {"type": "node", "id": 12137078454, "lat": 48.8384623, "lon": 13.4109419, "tags": {"highway": "emergency_access_point", "ref": "FRG-2139"}}, {"type": "node", "id": 12145627653, "lat": 48.8846955, "lon": 13.4785022, "tags": {"information": "map", "tourism": "information"}}, {"type": "node", "id": 12149449842, "lat": 48.8909205, "lon": 13.4278811, "tags": {"information": "map", "tourism": "information"}}, {"type": "node", "id": 12150001983, "lat": 48.8899827, "lon": 13.4845401, "tags": {"board_type": "nature", "information": "board", "name": "Leben auf nassem Grund", "tourism": "information"}}, {"type": "node", "id": 12150036101, "lat": 48.8903561, "lon": 13.4837027, "tags": {"board_type": "history", "information": "board", "tourism": "information"}}, {"type": "node", "id": 12151056702, "lat": 48.8873522, "lon": 13.4794277, "tags": {"board_type": "history", "information": "board", "tourism": "information"}}, {"type": "node", "id": 12212602902, "lat": 48.8872939, "lon": 13.5285875, "tags": {"hiking": "yes", "information": "guidepost", "tourism": "information"}}, {"type": "node", "id": 12356365668, "lat": 48.9355113, "lon": 13.4084916, "tags": {"name": "Wasserriegel", "natural": "peak"}}, {"type": "node", "id": 12361475819, "lat": 48.937231, "lon": 13.4463858, "tags": {"ele": "935", "name": "Hirschkopf", "natural": "peak", "wikidata": "Q31540284"}}, {"type": "node", "id": 12361475820, "lat": 48.9349898, "lon": 13.4387684, "tags": {"ele": "903", "name": "Rotenberg", "natural": "peak"}}, {"type": "node", "id": 12361475822, "lat": 48.937823, "lon": 13.4216666, "tags": {"ele": "835", "name": "Taferlruck", "natural": "peak"}}, {"type": "node", "id": 12361475823, "lat": 48.9311274, "lon": 13.4306574, "tags": {"ele": "883", "name": "Gugl\u00f6der Riegel", "natural": "peak"}}, {"type": "node", "id": 12368389984, "lat": 48.8900743, "lon": 13.4620714, "tags": {"ele": "708", "name": "Ochsenberg", "natural": "peak"}}, {"type": "node", "id": 12368389985, "lat": 48.8964509, "lon": 13.4641742, "tags": {"ele": "739", "name": "Teufelsberg", "natural": "peak"}}, {"type": "node", "id": 12368389986, "lat": 48.9026998, "lon": 13.4537244, "tags": {"ele": "733", "name": "Knottenruck", "natural": "peak"}}, {"type": "node", "id": 12405793166, "lat": 48.9024882, "lon": 13.4993863, "tags": {"ele": "920", "name": "Rindelberg", "natural": "peak", "wikidata": "Q31525875"}}, {"type": "node", "id": 12405793167, "lat": 48.8930087, "lon": 13.4941506, "tags": {"ele": "821", "name": "Mitterberg", "natural": "peak"}}, {"type": "node", "id": 12405793173, "lat": 48.8666345, "lon": 13.5028571, "tags": {"ele": "832", "name": "Pla\u00dflberg", "natural": "peak"}}, {"type": "node", "id": 12405793175, "lat": 48.8725201, "lon": 13.4925413, "tags": {"ele": "785", "name": "Leitenberg", "natural": "peak"}}, {"type": "node", "id": 12405793176, "lat": 48.8781017, "lon": 13.4866297, "tags": {"ele": "842", "name": "Katzberg", "natural": "peak"}}, {"type": "node", "id": 12405796209, "lat": 48.8982495, "lon": 13.4914309, "tags": {"ele": "854", "name": "H\u00f6hlenstein", "natural": "peak"}}, {"type": "node", "id": 12416121573, "lat": 48.9489216, "lon": 13.5866654, "tags": {"ele": "1034", "name": "Streuberg", "natural": "peak", "wikidata": "Q31518259"}}, {"type": "node", "id": 12422308500, "lat": 48.9215546, "lon": 13.5348129, "tags": {"ele": "1135", "name": "Neuwelterriegel", "natural": "peak"}}, {"type": "node", "id": 12426918195, "lat": 48.8729153, "lon": 13.5637593, "tags": {"ele": "790", "name": "Kleiner Spatberg", "natural": "peak"}}, {"type": "node", "id": 12426918196, "lat": 48.8873936, "lon": 13.5535455, "tags": {"ele": "916", "name": "Seeberg", "natural": "peak"}}, {"type": "node", "id": 12426918197, "lat": 48.873494, "lon": 13.5489321, "tags": {"ele": "778", "name": "Ochsenberg", "natural": "peak"}}, {"type": "node", "id": 12438618628, "lat": 48.9066984, "lon": 13.5502088, "tags": {"ele": "965", "name": "K\u00fchh\u00fcttenberg", "natural": "peak", "wikidata": "Q31532780"}}, {"type": "node", "id": 12952757237, "lat": 48.9162784, "lon": 13.4115869, "tags": {"backrest": "yes", "bench": "yes", "colour": "brown", "direction": "180-90", "name": "Aussichtsplattform 4x6 m", "seats": "4", "tourism": "viewpoint"}}, {"type": "node", "id": 13057931876, "lat": 48.8165073, "lon": 13.5984066, "tags": {"name": "Aussichtspunkt Kronetfeld", "tourism": "viewpoint"}}, {"type": "node", "id": 13064249217, "lat": 48.7904299, "lon": 13.5361778, "tags": {"tourism": "viewpoint"}}, {"type": "node", "id": 13065413901, "lat": 48.8969417, "lon": 13.5858504, "tags": {"ele": "947", "name": "Fuchsberg", "natural": "peak"}}, {"type": "node", "id": 13069471251, "lat": 48.8360583, "lon": 13.5519505, "tags": {"tourism": "viewpoint"}}, {"type": "node", "id": 13069471258, "lat": 48.8490304, "lon": 13.5754026, "tags": {"ele": "791", "name": "Rendlberg", "natural": "peak"}}, {"type": "node", "id": 13069471259, "lat": 48.85335, "lon": 13.5734533, "tags": {"ele": "776", "name": "Gei\u00dfberg", "natural": "peak"}}, {"type": "node", "id": 13072652723, "lat": 48.951636, "lon": 13.5757006, "tags": {"ele": "1082", "name": "Sandberg", "natural": "peak"}}, {"type": "node", "id": 13093984428, "lat": 48.9279031, "lon": 13.470808, "tags": {"board_type": "peaks", "information": "board", "tourism": "information"}}, {"type": "node", "id": 13116955198, "lat": 48.7752067, "lon": 13.5844545, "tags": {"ele": "695", "name": "Plattenberg", "natural": "peak"}}, {"type": "node", "id": 13116955199, "lat": 48.7846112, "lon": 13.5865816, "tags": {"ele": "719", "name": "Gemeindeberg", "natural": "peak"}}, {"type": "node", "id": 13116975602, "lat": 48.7935764, "lon": 13.5986154, "tags": {"ele": "833", "name": "Gei\u00dfberg", "natural": "peak"}}, {"type": "node", "id": 13116975603, "lat": 48.7951218, "lon": 13.5858381, "tags": {"ele": "756", "name": "K\u00fchberg", "natural": "peak"}}, {"type": "node", "id": 13116975604, "lat": 48.7986228, "lon": 13.5818837, "tags": {"ele": "832", "name": "Ochsenberg", "natural": "peak"}}, {"type": "node", "id": 13136988100, "lat": 48.8216286, "lon": 13.5605582, "tags": {"ele": "709", "name": "H\u00f6llenberg", "natural": "peak"}}, {"type": "node", "id": 13170541919, "lat": 48.8409418, "lon": 13.5252562, "tags": {"information": "map", "tourism": "information"}}, {"type": "node", "id": 13323903010, "lat": 48.8894878, "lon": 13.4859988, "tags": {"information": "guidepost", "tourism": "information"}}, {"type": "node", "id": 13323918983, "lat": 48.8896618, "lon": 13.4851162, "tags": {"board_type": "plants", "information": "board", "name": "\u00dcberaschend vielf\u00e4ltig", "tourism": "information"}}, {"type": "node", "id": 13323924355, "lat": 48.889379, "lon": 13.4858599, "tags": {"board_type": "plants", "information": "board", "name": "Feind oder ...?", "tourism": "information"}}, {"type": "node", "id": 13323955921, "lat": 48.8894132, "lon": 13.4859084, "tags": {"board_type": "plants", "information": "board", "name": "... oder Freund?", "tourism": "information"}}, {"type": "way", "id": 26960932, "nodes": [295434506, 295434717, 295434508, 295434509, 295434716, 295434510, 295434506], "tags": {"attraction": "animal", "barrier": "fence", "leisure": "wildlife_hide", "name": "Uhu", "name:cs": "v\u00fdr", "tourism": "attraction", "wheelchair": "yes"}}, {"type": "way", "id": 35077559, "nodes": [411496791, 411496792, 411496793, 2086893169, 2086893168, 411496794, 411496791], "tags": {"amenity": "restaurant", "beds": "21", "biergarten": "yes", "building": "detached", "cuisine": "regional", "email": "info@lusenschutzhaus.com", "name": "Lusenschutzhaus", "opening_hours": "Apr 01-Nov 30: Mo-Su 10:00-18:00; Dec-Feb: Fr-Su 10:00-17:00", "operator": "Bayerischer Wald - Verein", "phone": "+49 8553 1212; +49 1514 0712916", "rooms": "5", "tourism": "alpine_hut", "website": "https://lusenschutzhaus.com/", "wikimedia_commons": "Category:Lusenschutzhaus"}}, {"type": "way", "id": 49132075, "nodes": [623041041, 5073526804, 623041042], "tags": {"bicycle": "no", "bridge": "yes", "bridge:structure": "simple-suspension", "highway": "path", "layer": "1", "name": "H\u00e4ngebr\u00fccke", "sac_scale": "hiking", "surface": "metal", "tourism": "attraction", "width": "1"}}, {"type": "way", "id": 68506504, "nodes": [4415662854, 4415662853, 5574523253, 4415662852, 823790826, 823790834], "tags": {"railway": "disused", "tourism": "attraction"}}, {"type": "way", "id": 109387604, "nodes": [1252396966, 1252397150, 1252396859, 1252397053, 1252397102, 1252397290, 1252397064, 1252397252, 1252397301, 1252396878, 1252397198, 1252397391, 1252397440, 10863782416, 1252397015, 1252397402, 1252396977, 1252397026, 1252397209, 1252396927, 1252397113, 1252397161, 2169735666, 1252397349, 1252396885, 1252397071, 1252396966], "tags": {"addr:city": "Neusch\u00f6nau", "addr:country": "DE", "addr:housenumber": "35", "addr:postcode": "94556", "addr:street": "B\u00f6hmstra\u00dfe", "building": "yes", "email": "heh@npv-bw.bayern.de", "fax": "+49 8558 961522", "fee": "no", "information": "office", "name": "Hans-Eisenmann-Haus", "opening_hours": "Mo-Su 09:00-17:00; May 1-Nov 8 Mo-Su 09:00-18:00; Nov 9-Dec 25 closed", "phone": "+49 8558 96150", "phone:shop": "+49 8558 973404", "shop": "gift", "toilets": "yes", "tourism": "information", "wikimedia_commons": "Category:Hans-Eisenmann-Haus"}}, {"type": "way", "id": 128055348, "nodes": [1415964946, 2546748383, 1415964942, 2546748379, 1415964908, 2546748375, 1415964882, 2546748370, 1415964875, 2546748373, 1415964889, 2546748377, 1415964926, 2546748381, 1415964944, 2546748385, 1415964946], "tags": {"building": "yes", "height": "44", "name": "Aussichtsturm Waldwipfelpfad", "tourism": "attraction", "wheelchair": "yes"}}, {"type": "way", "id": 175022232, "nodes": [1856769314, 1856769309, 1856769317, 1856769315, 2383983321, 2383983323, 1856769314], "tags": {"amenity": "shelter", "building": "yes"}}, {"type": "way", "id": 207077171, "nodes": [1373011618, 2171995290, 2171995284, 2171995285, 1373011618], "tags": {"addr:city": "Neusch\u00f6nau", "addr:housenumber": "43", "addr:postcode": "94556", "addr:street": "Lusenstra\u00dfe", "amenity": "shelter", "building": "yes", "building:levels": "1", "roof:levels": "0", "roof:shape": "gabled", "shelter_type": "picnic_shelter"}}, {"type": "way", "id": 225098568, "nodes": [2339217912, 2339217914, 2339217910, 2339217917, 2339217912], "tags": {"amenity": "shelter", "building": "yes", "name": "Wasserh\u00e4usel", "shelter_type": "weather_shelter"}}, {"type": "way", "id": 228068229, "nodes": [604961858, 9992312486, 9992312485, 604961855, 9992312484, 2171714120, 5859040301, 9992312483, 604961856, 9992312482, 2171714121, 604961857, 2367145971, 2171714122, 2367145972, 9992312481, 604961848, 604961849, 1999304250, 604961818, 9992312480, 604961819, 5859040291, 604961820, 1372892937, 2367145968, 604961821, 2367145967, 604961814, 9992312479, 9992312478, 9992312477, 9992312476, 925482828, 9992312475, 9992312474, 604961816, 9992312473, 604961822, 9992312472, 604961823, 604961813, 1372892935], "tags": {"area": "no", "bicycle": "no", "bridge": "yes", "covered": "no", "fee": "yes", "highway": "footway", "layer": "1", "lit": "no", "name": "Baumwipfelpfad", "opening_hours": "Jan-Mar Mo-Su 09:30-16:00; Apr-Apr Mo-Su 09:30-18:00; May-Sep Mo-Su 09:30-19:00; Oct-Oct Mo-Su 09:30-18:00; Nov-Dec Mo-Su 09:30-16:00, 2019 Nov 18-2019 Nov 29 closed, 2019 Dec 24-2019 Dec 24 closed", "stroller": "yes", "surface": "wood", "tourism": "attraction", "website": "https://www.baumwipfelpfade.de/bayerischer-wald/", "wheelchair": "yes", "width": "2"}}, {"type": "way", "id": 229862169, "nodes": [2384030303, 412264596, 295438329, 2384030302, 295437951, 412274872, 2384030299, 2384030300, 2384030303], "tags": {"amenity": "shelter", "building": "yes"}}, {"type": "way", "id": 306823879, "nodes": [3118301829, 3118301834, 3118301830, 3118301724, 3118301829], "tags": {"amenity": "shelter"}}, {"type": "way", "id": 311009329, "nodes": [3165345432, 3165345433, 3165345434, 7431847121, 3165345432], "tags": {"amenity": "shelter", "bench": "yes", "shelter_type": "weather_shelter"}}, {"type": "way", "id": 316480504, "nodes": [3226039980, 3226039974, 3226039985, 3226039978, 3226039983, 3226039980], "tags": {"amenity": "shelter", "bench": "yes", "building": "yes", "kerb": "raised", "kerb:height": "0.14", "shelter_type": "public_transport", "wheelchair": "no"}}, {"type": "way", "id": 317296469, "nodes": [3235357476, 3235357485, 3235357487, 3235357477, 3235357476], "tags": {"amenity": "shelter", "bench": "yes", "building": "yes", "name": "Maxh\u00fctte", "opening_hours": "Mo-Su 08:00-22:00", "shelter_type": "weather_shelter"}}, {"type": "way", "id": 325329671, "nodes": [3319995133, 3319995131, 3319995132, 3319995134, 3319995133], "tags": {"amenity": "shelter", "bench": "yes", "building": "yes", "shelter_type": "public_transport"}}, {"type": "way", "id": 343241409, "nodes": [3501164716, 3501164718, 3501164719, 3501164717, 3501164715, 3501164720, 3501164716], "tags": {"building": "yes", "information": "board", "tourism": "information"}}, {"type": "way", "id": 345758976, "nodes": [3524081031, 3524081032, 3524081033, 3524081034, 3524081031], "tags": {"amenity": "shelter", "building": "yes", "shelter_type": "public_transport"}}, {"type": "way", "id": 376506233, "nodes": [3799164215, 3799164216, 3799164217, 3799164218, 3799164219, 3799164220, 3799164215], "tags": {"access": "yes", "amenity": "shelter", "bench": "yes", "building": "yes", "description": "Ein Unterstand mit Informationstafel und einer kleinen Sitzbank. Im Notfall k\u00f6nnte hier eine Person \u00fcbernachten, dies ist im Nationalpark aber verboten!", "ele": "1180", "lockable": "no", "locked": "no", "name": "Pavillon B\u00f6hmweg", "picnic_table": "no", "shelter_type": "weather_shelter", "sleeping": "no", "surface": "concrete", "table": "no"}}, {"type": "way", "id": 389155681, "nodes": [3923168784, 3923168781, 3923168803, 3923168816, 3923168791, 3923168818, 3923168814, 3923168810, 3923168821, 3923168780, 3923168788, 3923168809, 3923168782, 3923168798, 3923168808, 3923168799, 3923168787, 3923168806, 3923168786, 3923168784], "tags": {"addr:city": "Mauth", "addr:housenumber": "13", "addr:postcode": "94151", "addr:street": "Filzweg", "amenity": "shelter", "building": "yes", "shelter_type": "weather_shelter"}}, {"type": "way", "id": 389246474, "nodes": [3924012574, 3924012575, 3924012573, 3924012572, 3924012574], "tags": {"amenity": "shelter", "building": "hut", "shelter_type": "weather_shelter"}}, {"type": "way", "id": 398803190, "nodes": [4015373310, 4015373311, 4015373312, 4015373313, 4015373310], "tags": {"amenity": "shelter", "bench": "yes", "kerb": "raised", "shelter_type": "public_transport", "wheelchair": "no"}}, {"type": "way", "id": 425928991, "nodes": [4252448256, 4252448257, 4252448251, 4252448250, 4252448256], "tags": {"amenity": "shelter", "building": "yes", "shelter_type": "public_transport"}}, {"type": "way", "id": 426210244, "nodes": [4255197542, 4255197541, 4255197536, 4255197540, 4255197542], "tags": {"amenity": "shelter", "building": "yes", "shelter_type": "public_transport"}}, {"type": "way", "id": 427580194, "nodes": [4267813405, 4267813406, 4267813407, 4267813408, 4267813405], "tags": {"amenity": "shelter", "building": "yes", "kerb": "raised", "kerb:height": "0.09", "shelter_type": "public_transport", "wheelchair": "no"}}, {"type": "way", "id": 455470399, "nodes": [4518692551, 9415267079, 9415267078, 4518692552, 4518692551], "tags": {"amenity": "shelter", "shelter_type": "public_transport"}}, {"type": "way", "id": 511533059, "nodes": [5003453546, 5003453547, 5003453548, 5003453549, 5003453550, 5003453532, 5003453533, 5003453534, 5003453535, 5003453540, 5003453541, 5003453542, 5003453543, 5003453544, 5003453545, 5003453536, 5003453537, 5003453538, 5003453539, 5003453546], "tags": {"amenity": "shelter", "shelter_type": "pavilion"}}, {"type": "way", "id": 542484667, "nodes": [5244792244, 5244792245, 5244792246, 5244792247, 5244792244], "tags": {"amenity": "shelter", "building": "yes", "shelter_type": "public_transport"}}, {"type": "way", "id": 570067131, "nodes": [5481202861, 5481202862, 5481202863, 5481202864, 5481202861], "tags": {"amenity": "shelter", "shelter_type": "public_transport"}}, {"type": "way", "id": 570079799, "nodes": [5481334079, 5481334080, 5481334081, 5481334082, 5481334079], "tags": {"amenity": "shelter", "bench": "yes", "bin": "yes"}}, {"type": "way", "id": 701936445, "nodes": [6591954276, 6591954275, 6591954274, 6591954273, 6591954276], "tags": {"amenity": "shelter", "building": "yes", "shelter_type": "public_transport"}}, {"type": "way", "id": 750375711, "nodes": [7016377692, 7016377691, 7016377690, 7016377689, 7016377692], "tags": {"amenity": "shelter", "bench": "yes", "building": "yes", "shelter_type": "public_transport"}}, {"type": "way", "id": 884081178, "nodes": [8221948072, 8221948073, 8221948074, 8221948075, 8221948076, 8221948077, 8221948059, 8221948060, 8221948061, 8221948065, 8221948066, 8221948067, 8221948068, 8221948069, 8221948070, 8221948071, 8221948062, 8221948063, 8221948064, 8221948072], "tags": {"amenity": "shelter", "building": "yes"}}, {"type": "way", "id": 891566912, "nodes": [8286766886, 8286766887, 8286766888, 8286766889, 8286766890, 8286766891, 8286766892, 8286766893, 8286766894, 8286766895, 8286766896, 8286766897, 8286766898, 8286766899, 8286766900, 8286766901, 8286766902, 8286766903, 8286766904, 8286766886], "tags": {"amenity": "shelter", "building": "yes"}}, {"type": "way", "id": 891861821, "nodes": [8289253739, 8289253744, 8289253740, 8289253741, 8289253742, 8289253739], "tags": {"amenity": "shelter", "building": "yes"}}, {"type": "way", "id": 908502031, "nodes": [8435720303, 8435720300, 12116459495, 8435720301, 8435720302, 8435720303], "tags": {"amenity": "shelter", "bench": "yes", "building": "yes", "material": "wood", "shelter_type": "public_transport"}}, {"type": "way", "id": 910130802, "nodes": [8450552347, 8450552346, 8450552345, 12137078454, 8450552344, 8450552347], "tags": {"amenity": "shelter"}}, {"type": "way", "id": 967626706, "nodes": [411840616, 8951951828, 8951951827, 8951951826, 8951951825, 411840616], "tags": {"access": "yes", "amenity": "shelter", "bench": "yes", "building": "yes", "description": "Ein Unterstand und einer umlaufenden Bank. An einer Seite ist eine Informationstafel angebracht. W\u00e4re f\u00fcr eine \u00dcbernachtung mit mit Isomatte geeignet, dies ist aber im Nationalpark verboten!", "lockable": "no", "locked": "no", "name": "Schutzh\u00fctte Tummelplatz", "picnic_table": "no", "shelter_type": "weather_shelter", "sleeping": "no", "surface": "dirt", "table": "no"}}, {"type": "way", "id": 967627885, "nodes": [410947436, 8951959231, 8951959228, 8951959230, 8951959229, 8951959227, 410947436], "tags": {"amenity": "shelter", "building": "yes", "name": "Steinbachklause", "shelter_type": "weather_shelter"}}, {"type": "way", "id": 1007215098, "nodes": [9292154644, 9292154641, 9292154642, 9292154643, 9292154644], "tags": {"amenity": "shelter", "building": "yes", "shelter_type": "public_transport"}}, {"type": "way", "id": 1065289846, "nodes": [9783591669, 9783591670, 9783591671, 9783591672, 9783591673, 9783591674, 9783591669], "tags": {"amenity": "shelter", "bench": "yes", "shelter_type": "picnic_shelter", "tourism": "picnic_site"}}, {"type": "way", "id": 1069206747, "nodes": [9814267410, 9814267409, 9814267408, 9814267407, 9814267410], "tags": {"amenity": "shelter", "shelter_type": "public_transport", "wheelchair": "no"}}, {"type": "way", "id": 1071589427, "nodes": [9833327121, 9833327120, 9833327119, 9833327118, 9833327121], "tags": {"amenity": "shelter", "kerb": "raised", "shelter_type": "public_transport", "wheelchair": "no"}}, {"type": "way", "id": 1073889547, "nodes": [9850609144, 9850609143, 9850609142, 9850609141, 9850609144], "tags": {"amenity": "shelter", "shelter_type": "public_transport", "wheelchair": "no"}}, {"type": "way", "id": 1074830661, "nodes": [9858267992, 9858267991, 9858267990, 9858267989, 9858267992], "tags": {"amenity": "shelter", "shelter_type": "public_transport", "wheelchair": "no"}}, {"type": "way", "id": 1083199777, "nodes": [9926944179, 9926944178, 9926944177, 9926944176, 9926944179], "tags": {"amenity": "shelter", "kerb": "raised", "kerb:height": "0.12", "shelter_type": "public_transport", "wheelchair": "no"}}, {"type": "way", "id": 1083204913, "nodes": [9926984144, 9926984143, 9926984142, 12134391390, 9926984141, 9926984144], "tags": {"amenity": "shelter", "kerb": "raised", "kerb:height": "0.15", "shelter_type": "public_transport", "wheelchair": "no"}}, {"type": "way", "id": 1100591990, "nodes": [10072747943, 10072747942, 10072747941, 10072747940, 10072747943], "tags": {"amenity": "shelter", "building": "yes", "shelter_type": "public_transport"}}, {"type": "way", "id": 1107168331, "nodes": [10130924324, 10130924323, 10130924322, 10130924321, 10130924324], "tags": {"amenity": "shelter", "shelter_type": "public_transport"}}, {"type": "way", "id": 1144086859, "nodes": [10649806224, 10649806225, 10649806226, 10649806227, 10649806228, 10649806229, 10649806230, 10649806212, 10649806213, 10649806214, 10649806219, 10649806220, 10649806221, 10649806222, 10649806223, 10649806215, 10649806216, 10649806217, 10649806218, 10649806224], "tags": {"amenity": "shelter", "bench": "no", "building": "yes", "name": "Wetterpilz", "shelter_type": "wetterpilz", "website": "https://www.wetterpilze.de/Perlesreut.shtml"}}, {"type": "way", "id": 1168149261, "nodes": [10863782395, 10863782396, 10863782397, 10863782398, 10863782395], "tags": {"building": "yes", "tourism": "attraction"}}, {"type": "way", "id": 1238392974, "nodes": [11503932215, 11503932214, 11503932213, 11503932212, 11503932215], "tags": {"amenity": "shelter", "building": "yes", "shelter_type": "public_transport"}}, {"type": "way", "id": 1263506797, "nodes": [11739157913, 11739157912, 11739157911, 11739157910, 11739157913], "tags": {"amenity": "shelter", "building": "yes", "shelter_type": "public_transport"}}, {"type": "way", "id": 1263802093, "nodes": [11741698908, 11741698905, 11741698906, 11741698907, 11741698908], "tags": {"amenity": "shelter", "building": "yes", "shelter_type": "public_transport"}}, {"type": "way", "id": 1265191779, "nodes": [11753127449, 11753127446, 12116439738, 11753127447, 11753127448, 11753127449], "tags": {"amenity": "shelter", "building": "yes", "material": "wood", "shelter_type": "public_transport"}}, {"type": "way", "id": 1308460023, "nodes": [12117059321, 12117059320, 12117059319, 12117059318, 12117059317, 12117059321], "tags": {"amenity": "shelter"}}]}