{"version": 0.6, "generator": "Overpass API 0.7.62.8 e802775f", "osm3s": {"timestamp_osm_base": "2026-01-04T12:14:30Z", "copyright": "The data included in this document is from www.openstreetmap.org. The data is made available under ODbL."}, "elements": [{"type": "node", "id": 32522559, "lat": 48.92391, "lon": 14.4491282, "tags": {"name": "V\u010deln\u00e1", "name:cs": "V\u010deln\u00e1", "name:de": "Bienendorf", "operator": "cz:S\u017dDC", "public_transport": "station", "railway": "station", "railway:ref": "753525", "uic_ref": "5475352", "wheelchair": "yes", "wikidata": "Q19401574"}}, {"type": "node", "id": 32522591, "lat": 48.9270273, "lon": 14.4440054, "tags": {"name": "Bor\u0161ov nad Vltavou", "name:cs": "Bor\u0161ov nad Vltavou", "name:de": "Payerschau", "operator": "cz:S\u017dDC", "public_transport": "station", "railway": "station", "railway:ref": "760926", "short_name": "Bor\u0161ov n. Vlt.", "uic_ref": "5476092", "wheelchair": "limited", "wikidata": "Q15886728"}}, {"type": "node", "id": 206123876, "lat": 48.6810408, "lon": 14.4442286, "tags": {"name": "P\u0161enice", "operator": "cz:S\u017dDC", "railway": "halt", "railway:ref": "752428", "uic_ref": "5475242", "wikidata": "Q19401313"}}, {"type": "node", "id": 206126572, "lat": 48.8362561, "lon": 14.4531082, "tags": {"name": "Vele\u0161\u00edn m\u011bsto", "operator": "cz:S\u017dDC", "railway": "halt", "railway:ref": "753020", "uic_ref": "5475302", "wikidata": "Q18430777"}}, {"type": "node", "id": 206127019, "lat": 48.891149, "lon": 14.4489265, "tags": {"name": "Kamenn\u00fd \u00dajezd u \u010cesk\u00fdch Bud\u011bjovic", "operator": "cz:S\u017dDC", "public_transport": "station", "railway": "station", "railway:ref": "753327", "uic_ref": "5475332", "wikidata": "Q18425993"}}, {"type": "node", "id": 227231827, "lat": 48.8641493, "lon": 14.3509237, "tags": {"name": "Ple\u0161ovice", "operator": "cz:S\u017dDC", "railway": "halt", "railway:ref": "760322", "wikidata": "Q19401255"}}, {"type": "node", "id": 227232102, "lat": 48.8291176, "lon": 14.3413054, "tags": {"name": "P\u0159\u00edse\u010dn\u00e1", "operator": "cz:S\u017dDC", "railway": "halt", "railway:ref": "760124", "wikidata": "Q66888407"}}, {"type": "node", "id": 227268694, "lat": 48.9022842, "lon": 14.8828247, "tags": {"name": "Suchdol nad Lu\u017enic\u00ed", "old_name:de": "Suchenthal", "operator": "Spr\u00e1va \u017eeleznic", "public_transport": "station", "railway": "station", "wikidata": "Q15887096"}}, {"type": "node", "id": 227268716, "lat": 48.892215, "lon": 14.8803398, "tags": {"name": "Suchdol nad Lu\u017enic\u00ed zast\u00e1vka", "name:de": "Suchenthal Haltestelle", "operator": "cz:S\u017dDC", "railway": "halt", "railway:ref": "736728", "wikidata": "Q19401489"}}, {"type": "node", "id": 227268768, "lat": 48.8550125, "lon": 14.8974267, "tags": {"name": "Dvory nad Lu\u017enic\u00ed", "railway": "halt", "wikidata": "Q19400603"}}, {"type": "node", "id": 227269094, "lat": 48.9212095, "lon": 14.5295581, "tags": {"air_conditioning": "no", "internet_access": "no", "name": "Nov\u00e1 Ves u \u010cesk\u00fdch Bud\u011bjovic", "operator": "cz:S\u017dDC", "public_transport": "station", "railway": "station", "source": "local knowledge", "wheelchair": "limited", "wikidata": "Q56325045"}}, {"type": "node", "id": 227269315, "lat": 48.9026871, "lon": 14.5872932, "tags": {"name": "Trocnov", "name:de": "Zalluschi", "old_name": "Z\u00e1lu\u017e\u00ed", "railway": "halt", "wikidata": "Q19401536", "wikimedia_commons": "File:Trocnov, n\u00e1dra\u017en\u00ed budova.jpg"}}, {"type": "node", "id": 227269551, "lat": 48.8780099, "lon": 14.7033417, "tags": {"name": "J\u00edlovice", "public_transport": "station", "railway": "station", "wikidata": "Q15886848"}}, {"type": "node", "id": 244586491, "lat": 48.8700426, "lon": 14.4195611, "tags": {"name": "Chlumec u \u010cesk\u00fdch Bud\u011bjovic", "operator": "cz:S\u017dDC", "railway": "halt", "railway:ref": "753228", "wikidata": "Q56325017"}}, {"type": "node", "id": 265446962, "lat": 48.6190692, "lon": 14.3491496, "tags": {"name": "Herbertov", "operator": "cz:S\u017dDC", "railway": "halt", "railway:position": "8.4", "railway:ref": "747527", "uic_ref": "5474752", "wikidata": "Q19400677"}}, {"type": "node", "id": 329758041, "lat": 48.9173197, "lon": 14.3572743, "tags": {"name": "Vr\u00e1b\u010de", "operator": "cz:S\u017dDC", "railway": "halt", "railway:ref": "760728", "wikidata": "Q18817258"}}, {"type": "node", "id": 434703217, "lat": 48.8833391, "lon": 14.3486394, "tags": {"name": "T\u0159\u00edsov", "operator": "cz:S\u017dDC", "railway": "halt", "railway:ref": "760421", "wikidata": "Q19401535"}}, {"type": "node", "id": 435767956, "lat": 48.8504082, "lon": 14.3514248, "tags": {"name": "Zlat\u00e1 Koruna", "name:de": "Goldenkron", "operator": "cz:S\u017dDC", "public_transport": "station", "railway": "station", "railway:ref": "760223", "wikidata": "Q15887171"}}, {"type": "node", "id": 444629957, "lat": 48.6017966, "lon": 14.42194, "tags": {"name": "Horn\u00ed Dvo\u0159i\u0161t\u011b", "name:de": "Oberhaid", "operator": "cz:S\u017dDC", "public_transport": "station", "railway": "station", "railway:position": "62.5", "railway:position:exact": "62.462", "railway:ref": "752220", "railway:ref:\u00d6BB": "Hdv", "uic_ref": "5475222", "wikidata": "Q18430535"}}, {"type": "node", "id": 470820895, "lat": 48.6263864, "lon": 14.3628856, "tags": {"name": "Ro\u017emberk nad Vltavou", "operator": "cz:S\u017dDC", "public_transport": "station", "railway": "station", "railway:position": "7.0", "railway:ref": "747428", "uic_ref": "5474742", "wikidata": "Q18180497"}}, {"type": "node", "id": 471797858, "lat": 48.7885787, "lon": 14.4730061, "tags": {"name": "V\u00fdhe\u0148", "operator": "cz:S\u017dDC", "railway": "halt", "railway:ref": "752824", "wikidata": "Q66888450"}}, {"type": "node", "id": 471798031, "lat": 48.8516913, "lon": 14.4477084, "tags": {"name": "Holkov", "operator": "cz:S\u017dDC", "public_transport": "station", "railway": "station", "railway:ref": "753129", "uic_ref": "5475312", "wikidata": "Q19400689"}}, {"type": "node", "id": 585355903, "lat": 48.7225423, "lon": 14.9047927, "tags": {"name": "Alt Weitra", "public_transport": "station", "railway": "station", "railway:ref": "Gm K1", "uic_ref": "8100643"}}, {"type": "node", "id": 585356223, "lat": 48.7501577, "lon": 14.9465959, "tags": {"name": "Dietmanns", "note": "f\u00fcr Z\u00fcge Richtung Gro\u00dfgerungs, siehe https://www.openstreetmap.org/note/2662424", "railway": "halt", "railway:ref": "Gm H2"}}, {"type": "node", "id": 704389592, "lat": 48.6402895, "lon": 14.8421329, "tags": {"name": "Steinbach-Bad Gro\u00dfpertholz", "railway": "station", "railway:ref": "Sgp", "uic_ref": "8101508"}}, {"type": "node", "id": 718153251, "lat": 48.7890071, "lon": 14.7830469}, {"type": "node", "id": 718153253, "lat": 48.7890774, "lon": 14.7830488}, {"type": "node", "id": 767519491, "lat": 48.8960516, "lon": 14.6754281, "tags": {"name": "Hlubok\u00e1 u Borovan", "name:de": "Hluboka", "railway": "halt", "wikidata": "Q19400682"}}, {"type": "node", "id": 776036987, "lat": 48.6633466, "lon": 14.8413946, "tags": {"name": "St. Martin bei Weitra", "railway": "halt", "railway:ref": "Wra K1", "uic_ref": "8101562"}}, {"type": "node", "id": 776039824, "lat": 48.7004692, "lon": 14.9015511, "tags": {"name": "Weitra", "public_transport": "station", "railway": "station", "railway:ref": "Wra", "uic_ref": "8101808", "wheelchair": "no"}}, {"type": "node", "id": 811289806, "lat": 48.7751404, "lon": 14.4688272, "tags": {"name": "Kaplice", "operator": "cz:S\u017dDC", "public_transport": "station", "railway": "station", "railway:ref": "752725", "uic_ref": "5475272", "wheelchair": "yes", "wikidata": "Q18430693"}}, {"type": "node", "id": 836531857, "lat": 48.7021486, "lon": 14.4322731, "tags": {"name": "Bujanov", "name:cs": "Bujanov", "name:de": "Angern", "operator": "cz:S\u017dDC", "railway": "halt", "railway:ref": "752527", "request_stop": "yes", "uic_ref": "5475252", "wikidata": "Q18423596"}}, {"type": "node", "id": 877364324, "lat": 48.8731118, "lon": 14.8796103, "tags": {"name": "Hrdlo\u0159ezy", "railway": "halt", "wikidata": "Q19400716"}}, {"type": "node", "id": 877484994, "lat": 48.8228951, "lon": 14.8090672, "tags": {"name": "Nov\u00e9 Hrady", "public_transport": "station", "railway": "station", "wikidata": "Q15886954"}}, {"type": "node", "id": 877484999, "lat": 48.8458552, "lon": 14.755459, "tags": {"name": "Pet\u0159\u00edkov", "railway": "halt", "wikidata": "Q19401231"}}, {"type": "node", "id": 877485001, "lat": 48.7964209, "lon": 14.8655533, "tags": {"name": "Vy\u0161n\u00e9", "railway": "halt", "wikidata": "Q19401613"}}, {"type": "node", "id": 877807299, "lat": 48.9009171, "lon": 14.6115628, "tags": {"name": "Radostice u Trocnova", "railway": "halt", "wikidata": "Q19401324"}}, {"type": "node", "id": 959813984, "lat": 48.9265915, "lon": 14.3659208, "tags": {"name": "Hradce", "operator": "cz:S\u017dDC", "railway": "halt", "railway:ref": "760736", "wikidata": "Q19400713"}}, {"type": "node", "id": 1310693969, "lat": 48.7371325, "lon": 14.4932829}, {"type": "node", "id": 1310699442, "lat": 48.7371304, "lon": 14.4933754}, {"type": "node", "id": 1310701271, "lat": 48.7372302, "lon": 14.4932462}, {"type": "node", "id": 1310705393, "lat": 48.7371417, "lon": 14.4934449}, {"type": "node", "id": 1361056232, "lat": 48.8923595, "lon": 14.8779914}, {"type": "node", "id": 1361056236, "lat": 48.8925673, "lon": 14.8774319}, {"type": "node", "id": 1361056237, "lat": 48.8923263, "lon": 14.8779561}, {"type": "node", "id": 1361056240, "lat": 48.8926005, "lon": 14.8774672}, {"type": "node", "id": 2422500801, "lat": 48.8914177, "lon": 14.642065, "tags": {"name": "Borovany", "operator": "cz:S\u017dDC", "public_transport": "station", "railway": "station", "railway:ref": "741629", "source": "survey", "wikidata": "Q15886723"}}, {"type": "node", "id": 3439662120, "lat": 48.9267241, "lon": 14.4060128, "tags": {"name": "\u010cern\u00fd Dub", "operator": "cz:S\u017dDC", "railway": "halt", "railway:ref": "760827", "wikidata": "Q19400496"}}, {"type": "node", "id": 3493042832, "lat": 48.819896, "lon": 14.4366429, "tags": {"name": "Vele\u0161\u00edn", "operator": "cz:S\u017dDC", "public_transport": "station", "railway": "station", "railway:ref": "752923", "uic_ref": "5475292", "wikidata": "Q18430775"}}, {"type": "node", "id": 4616899143, "lat": 48.6495664, "lon": 14.4316793, "tags": {"name": "Rybn\u00edk", "name:cs": "Rybn\u00edk", "name:de": "Zartlesdorf", "operator": "cz:S\u017dDC", "public_transport": "station", "railway": "station", "railway:ref": "752329", "uic_ref": "5475232", "wheelchair": "yes", "wikidata": "Q19401358"}}, {"type": "node", "id": 5653051224, "lat": 48.7251811, "lon": 14.447539, "tags": {"name": "Omlenice", "operator": "cz:S\u017dDC", "public_transport": "station", "railway": "station", "railway:ref": "752626", "uic_ref": "5475262", "wikidata": "Q18432942"}}, {"type": "node", "id": 5667509959, "lat": 48.8118766, "lon": 14.9228467, "tags": {"name": "Nov\u00e1 Ves nad Lu\u017enic\u00ed", "operator": "cz:S\u017dDC", "public_transport": "station", "railway": "station", "railway:ref": "736421", "train": "yes", "wikidata": "Q15886949"}}, {"type": "node", "id": 5667509960, "lat": 48.7693855, "lon": 14.9576021, "tags": {"alt_name:de": "Gm\u00fcnd-Bahnhof", "ele": "490", "name": "\u010cesk\u00e9 Velenice", "name:cs": "\u010cesk\u00e9 Velenice", "name:de": "Tschechisch-Gm\u00fcnd", "old_name:de": "Unterwielands", "operator": "cz:S\u017dDC", "public_transport": "station", "railway": "station", "railway:ref": "736322", "railway:ref:\u00d6BB": "Cv", "start_date": "1869-11-01", "train": "yes", "uic_name": "Ceske Velenice", "uic_ref": "5473632", "wikidata": "Q15887192", "wikipedia": "cs:\u010cesk\u00e9 Velenice (n\u00e1dra\u017e\u00ed)"}}, {"type": "node", "id": 7660652878, "lat": 48.7374744, "lon": 14.4944971}, {"type": "node", "id": 7660652879, "lat": 48.7373654, "lon": 14.4937557}, {"type": "node", "id": 7660652880, "lat": 48.7373343, "lon": 14.4935682}, {"type": "node", "id": 8693996458, "lat": 48.7375081, "lon": 14.4948762}, {"type": "node", "id": 8693996461, "lat": 48.7373163, "lon": 14.4947265}, {"type": "node", "id": 8693996463, "lat": 48.7371177, "lon": 14.4937345}, {"type": "node", "id": 8693996464, "lat": 48.7372862, "lon": 14.4946662}, {"type": "node", "id": 8852512250, "lat": 48.7503935, "lon": 14.9470968, "tags": {"name": "Dietmanns", "note": "f\u00fcr Z\u00fcge Richtung Gm\u00fcnd, siehe https://www.openstreetmap.org/note/2662425", "railway": "halt"}}, {"type": "node", "id": 10774359413, "lat": 48.7891592, "lon": 14.7830316}, {"type": "node", "id": 10774359414, "lat": 48.7891641, "lon": 14.7832372}, {"type": "node", "id": 10774359428, "lat": 48.7890116, "lon": 14.7824902}, {"type": "node", "id": 10774359429, "lat": 48.7889177, "lon": 14.7824844}, {"type": "node", "id": 10774359430, "lat": 48.78889, "lon": 14.7831198}, {"type": "node", "id": 10774359431, "lat": 48.7889631, "lon": 14.7831256}, {"type": "node", "id": 10774359432, "lat": 48.78896, "lon": 14.7832109}, {"type": "node", "id": 10774359433, "lat": 48.788987, "lon": 14.7832751}, {"type": "node", "id": 10774359434, "lat": 48.7890162, "lon": 14.7832961}, {"type": "node", "id": 10774359435, "lat": 48.7890878, "lon": 14.7832973}, {"type": "node", "id": 10774359436, "lat": 48.7889946, "lon": 14.7830158}, {"type": "node", "id": 10774361768, "lat": 48.7607738, "lon": 14.7331353}, {"type": "node", "id": 10774361769, "lat": 48.7610342, "lon": 14.7329849}, {"type": "node", "id": 10774361770, "lat": 48.7611075, "lon": 14.7330225}, {"type": "node", "id": 10774361771, "lat": 48.7612089, "lon": 14.7333645}, {"type": "node", "id": 10774361772, "lat": 48.7612348, "lon": 14.733503}, {"type": "node", "id": 10774361773, "lat": 48.7611916, "lon": 14.733563}, {"type": "node", "id": 10774361774, "lat": 48.7609847, "lon": 14.733701}, {"type": "node", "id": 10774361775, "lat": 48.7609417, "lon": 14.7337265}, {"type": "node", "id": 10785286657, "lat": 48.7372171, "lon": 14.4935346}, {"type": "node", "id": 10785286658, "lat": 48.7371964, "lon": 14.4934636}, {"type": "node", "id": 10785286659, "lat": 48.737282, "lon": 14.4932258}, {"type": "node", "id": 13227177439, "lat": 48.737329, "lon": 14.494768}, {"type": "node", "id": 13227177447, "lat": 48.7373608, "lon": 14.4947872}, {"type": "node", "id": 13227177478, "lat": 48.7374851, "lon": 14.4945323}, {"type": "node", "id": 13227177479, "lat": 48.7374931, "lon": 14.4945607}, {"type": "node", "id": 13227177480, "lat": 48.7375018, "lon": 14.4946235}, {"type": "node", "id": 13227177489, "lat": 48.7375249, "lon": 14.4947476}, {"type": "node", "id": 13227177490, "lat": 48.7375514, "lon": 14.4948991}, {"type": "way", "id": 121639285, "nodes": [1361056236, 1361056240, 1361056232, 1361056237, 1361056236], "tags": {"addr:housename": "Autobusov\u00e9 n\u00e1dra\u017e\u00ed Suchdol nad Lu\u017enic\u00ed", "amenity": "bus_station", "bus": "yes", "name": "Autobusov\u00e9 n\u00e1dra\u017e\u00ed Suchdol nad Lu\u017enic\u00ed", "public_transport": "station"}}, {"type": "way", "id": 1158563694, "nodes": [10774359428, 10774359429, 10774359430, 10774359431, 10774359432, 10774359433, 10774359434, 10774359435, 10774359414, 10774359413, 718153253, 718153251, 10774359436, 10774359428], "tags": {"amenity": "bus_station", "bus": "yes", "name": "Nov\u00e9 Hrady, aut. n\u00e1dr.", "operator": "GW BUS", "public_transport": "station"}}, {"type": "way", "id": 1158564432, "nodes": [10774361768, 10774361769, 10774361770, 10774361771, 10774361772, 10774361773, 10774361774, 10774361775, 10774361768], "tags": {"amenity": "bus_station", "bus": "yes", "name": "Horn\u00ed Stropnice", "operator": "GW BUS", "public_transport": "station"}}, {"type": "way", "id": 1159751655, "nodes": [7660652880, 7660652879, 7660652878, 13227177478, 13227177479, 13227177480, 13227177489, 13227177490, 8693996458, 13227177447, 13227177439, 8693996461, 8693996464, 8693996463, 10785286657, 10785286658, 1310705393, 1310699442, 1310693969, 1310701271, 10785286659, 7660652880], "tags": {"amenity": "bus_station", "bus": "yes", "name": "Kaplice, aut. n\u00e1dr.", "public_transport": "station"}}]}