{"version": 0.6, "generator": "Overpass API 0.7.62.8 e802775f", "osm3s": {"timestamp_osm_base": "2026-01-05T15:39:11Z", "copyright": "The data included in this document is from www.openstreetmap.org. The data is made available under ODbL."}, "elements": [{"type": "node", "id": 248556441, "lat": 49.4213128, "lon": 12.909141, "tags": {"ele": "570", "hiking": "yes", "information": "guidepost", "name": "Vav\u0159ine\u010dek odbo\u010dka", "operator": "cz:K\u010cT", "ref": "DO218", "tourism": "information"}}, {"type": "node", "id": 256915709, "lat": 49.4045856, "lon": 12.8606885, "tags": {"ele": "466", "hiking": "yes", "information": "guidepost", "name": "Babylon (koupali\u0161t\u011b)", "operator": "cz:K\u010cT", "ref": "DO050", "tourism": "information"}}, {"type": "node", "id": 257612719, "lat": 49.3993338, "lon": 12.8667752, "tags": {"ele": "475", "hiking": "yes", "information": "guidepost", "name": "Babylon (Hotel Praha)", "operator": "cz:K\u010cT", "ref": "DO049", "tourism": "information"}}, {"type": "node", "id": 257753086, "lat": 49.3851081, "lon": 12.9276116, "tags": {"created_by": "JOSM", "tourism": "viewpoint"}}, {"type": "node", "id": 259232045, "lat": 49.4121378, "lon": 12.8045038, "tags": {"tourism": "viewpoint"}}, {"type": "node", "id": 260811034, "lat": 49.4127018, "lon": 12.9017822, "tags": {"ele": "575", "hiking": "yes", "information": "guidepost", "name": "B\u00fdv. h\u00e1j. Dmout", "operator": "cz:K\u010cT", "ref": "DO047", "tourism": "information"}}, {"type": "node", "id": 280531213, "lat": 49.4311929, "lon": 12.8622075, "tags": {"name": "Hr\u00e1dek", "tourism": "viewpoint"}}, {"type": "node", "id": 746869729, "lat": 49.4356716, "lon": 12.8150759, "tags": {"ele": "500", "hiking": "yes", "information": "guidepost", "name": "Klen\u010d\u00ed pod \u010cerchovem (n\u00e1m\u011bst\u00ed)", "official_name": "Klen\u010d\u00ed p. \u010cerchovem (n\u00e1m.)", "operator": "cz:K\u010cT", "ref": "DO088", "tourism": "information"}}, {"type": "node", "id": 746869836, "lat": 49.4336767, "lon": 12.8120144, "tags": {"ele": "540", "hiking": "yes", "information": "guidepost", "name": "Klen\u010d\u00ed pod \u010cerchovem (rozcest\u00ed)", "official_name": "Klen\u010d\u00ed p. \u010cerchovem (rozc.)", "operator": "cz:K\u010cT", "ref": "DO089", "tourism": "information"}}, {"type": "node", "id": 747467938, "lat": 49.4401363, "lon": 12.9275742, "tags": {"ele": "430", "hiking": "yes", "information": "guidepost", "name": "Doma\u017elice (n\u00e1m\u011bst\u00ed)", "official_name": "Doma\u017elice (n\u00e1m.)", "operator": "cz:K\u010cT", "ref": "DO017", "tourism": "information"}}, {"type": "node", "id": 747467944, "lat": 49.4390033, "lon": 12.9383309, "tags": {"ele": "420", "hiking": "yes", "information": "guidepost", "name": "Doma\u017elice, U Svat\u00fdch", "operator": "cz:K\u010cT", "ref": "DO016", "tourism": "information"}}, {"type": "node", "id": 747467982, "lat": 49.428418, "lon": 12.9727896, "tags": {"ele": "430", "hiking": "yes", "information": "guidepost", "name": "Bo\u0159ice", "operator": "cz:K\u010cT", "ref": "DO014", "tourism": "information"}}, {"type": "node", "id": 747467994, "lat": 49.4539002, "lon": 12.9556973, "tags": {"ele": "440", "hiking": "yes", "information": "guidepost", "name": "Chrastavice", "operator": "cz:K\u010cT", "ref": "DO085", "tourism": "information"}}, {"type": "node", "id": 747468027, "lat": 49.4357162, "lon": 12.9248111, "tags": {"ele": "430", "hiking": "yes", "information": "guidepost", "name": "Doma\u017elice zast. (\u017est)", "operator": "cz:K\u010cT", "ref": "DO219", "tourism": "information"}}, {"type": "node", "id": 974089984, "lat": 49.3550309, "lon": 12.805959, "tags": {"ele": "540", "hiking": "yes", "information": "guidepost", "name": "Byst\u0159ice", "name:cs": "Byst\u0159ice", "name:de": "Fichtenbach", "operator": "cz:K\u010cT", "ref": "DO207", "tourism": "information"}}, {"type": "node", "id": 974090114, "lat": 49.3708864, "lon": 12.8487438, "tags": {"ele": "491", "hiking": "yes", "information": "guidepost", "name": "Rozc. pod \u010ceskou Kubic\u00ed", "operator": "cz:K\u010cT", "ref": "0225/8,5;DO055", "tourism": "information"}}, {"type": "node", "id": 974090235, "lat": 49.3673297, "lon": 12.820811, "tags": {"ele": "730", "hiking": "yes", "information": "guidepost", "inscription": "H\u00e1hova stezka vede na \u010cerchov. Siln\u00fd pram. pitn\u00e9 vody, alt\u00e1n obnoven r.1990", "name": "\u010cesk\u00e1 stud\u00e1nka", "operator": "cz:K\u010cT", "ref": "DO255", "tourism": "information"}}, {"type": "node", "id": 974090308, "lat": 49.3751436, "lon": 12.8268688, "tags": {"ele": "642", "hiking": "yes", "information": "guidepost", "name": "Zelen\u00e1 ch\u00fd\u0161e", "operator": "cz:K\u010cT", "ref": "0225/6,5;6698/0;DO054", "tourism": "information"}}, {"type": "node", "id": 975073284, "lat": 49.4470393, "lon": 12.8604017, "tags": {"ele": "450", "hiking": "yes", "information": "guidepost", "name": "Dobr\u00e1 Voda", "operator": "cz:K\u010cT", "ref": "DO086", "tourism": "information"}}, {"type": "node", "id": 975073321, "lat": 49.5353793, "lon": 12.9383554, "tags": {"tourism": "viewpoint"}}, {"type": "node", "id": 975073409, "lat": 49.3889583, "lon": 12.8434033, "tags": {"ele": "560", "hiking": "yes", "information": "guidepost", "name": "Sokolova vyhl\u00eddka", "operator": "cz:K\u010cT", "ref": "DO189", "tourism": "information"}}, {"type": "node", "id": 1232654532, "lat": 49.3690929, "lon": 12.815126, "tags": {"board_type": "wildlife", "information": "board", "tourism": "information"}}, {"type": "node", "id": 1232654744, "lat": 49.3520282, "lon": 12.8383609, "tags": {"ele": "523", "hiking": "yes", "information": "guidepost", "name": "Nad Folmavou", "operator": "cz:K\u010cT", "ref": "DO109", "tourism": "information"}}, {"type": "node", "id": 1259931836, "lat": 49.3987601, "lon": 12.8318432, "tags": {"ele": "500", "hiking": "yes", "information": "guidepost", "inscription": "Kapli\u010dka sv. Prokopa,neobvykl\u00e1 stavba z r.1909. Pam\u011btn\u00ed deska J.F.Hru\u0161ky.", "name": "Pec pod \u010cerchovem", "operator": "cz:K\u010cT", "ref": "DO186", "tourism": "information"}}, {"type": "node", "id": 1364279560, "lat": 49.3594788, "lon": 12.8933342, "tags": {"ele": "515", "hiking": "yes", "information": "guidepost", "name": "Star\u00fd Sp\u00e1lenec", "operator": "cz:K\u010cT", "ref": "DO216", "tourism": "information"}}, {"type": "node", "id": 1364280268, "lat": 49.369531, "lon": 12.8592845, "tags": {"ele": "550", "hiking": "yes", "information": "guidepost", "name": "\u010cesk\u00e1 Kubice (\u0161kola)", "operator": "cz:K\u010cT", "ref": "DO056", "source": "survey", "tourism": "information"}}, {"type": "node", "id": 1364280269, "lat": 49.3711019, "lon": 12.8652731, "tags": {"ele": "525", "hiking": "yes", "information": "guidepost", "name": "\u010cesk\u00e1 Kubice (k \u017est)", "operator": "cz:K\u010cT", "ref": "DO057", "tourism": "information"}}, {"type": "node", "id": 1368206884, "lat": 49.5291721, "lon": 12.9417471}, {"type": "node", "id": 1368207028, "lat": 49.5292569, "lon": 12.9417288}, {"type": "node", "id": 1368207087, "lat": 49.5292863, "lon": 12.9420549}, {"type": "node", "id": 1368207096, "lat": 49.5292963, "lon": 12.9425615}, {"type": "node", "id": 1368207105, "lat": 49.5292963, "lon": 12.9418764}, {"type": "node", "id": 1368207127, "lat": 49.5293069, "lon": 12.9420495}, {"type": "node", "id": 1368207136, "lat": 49.5293171, "lon": 12.9426668}, {"type": "node", "id": 1368207219, "lat": 49.5293989, "lon": 12.9426345}, {"type": "node", "id": 1368207236, "lat": 49.5293933, "lon": 12.9416147}, {"type": "node", "id": 1368207255, "lat": 49.5294167, "lon": 12.9427261}, {"type": "node", "id": 1368207267, "lat": 49.5294278, "lon": 12.9420983}, {"type": "node", "id": 1368207275, "lat": 49.5294168, "lon": 12.9416866}, {"type": "node", "id": 1368207307, "lat": 49.5294491, "lon": 12.9428659}, {"type": "node", "id": 1368207312, "lat": 49.5294437, "lon": 12.9427146}, {"type": "node", "id": 1368207329, "lat": 49.5294633, "lon": 12.9429369}, {"type": "node", "id": 1368207346, "lat": 49.5294707, "lon": 12.9428562}, {"type": "node", "id": 1368207408, "lat": 49.5294999, "lon": 12.9414814}, {"type": "node", "id": 1368207426, "lat": 49.5295264, "lon": 12.9426793}, {"type": "node", "id": 1368207445, "lat": 49.5295332, "lon": 12.9420822}, {"type": "node", "id": 1368207447, "lat": 49.529544, "lon": 12.9421717}, {"type": "node", "id": 1368207470, "lat": 49.5295389, "lon": 12.9415188}, {"type": "node", "id": 1368207472, "lat": 49.5295451, "lon": 12.9415799}, {"type": "node", "id": 1368207601, "lat": 49.5296329, "lon": 12.9421557}, {"type": "node", "id": 1368207761, "lat": 49.5297398, "lon": 12.9424315}, {"type": "node", "id": 1368207777, "lat": 49.5297378, "lon": 12.9420391}, {"type": "node", "id": 1368207808, "lat": 49.5297586, "lon": 12.9425656}, {"type": "node", "id": 1368207810, "lat": 49.5297708, "lon": 12.9416277}, {"type": "node", "id": 1368207828, "lat": 49.5297757, "lon": 12.9415402}, {"type": "node", "id": 1368207854, "lat": 49.5297861, "lon": 12.9424151}, {"type": "node", "id": 1368207868, "lat": 49.5298177, "lon": 12.9416297}, {"type": "node", "id": 1368207877, "lat": 49.5298221, "lon": 12.9415052}, {"type": "node", "id": 1368207889, "lat": 49.5298342, "lon": 12.9418058}, {"type": "node", "id": 1368207897, "lat": 49.5298591, "lon": 12.9418235}, {"type": "node", "id": 1368207910, "lat": 49.5298535, "lon": 12.9417045}, {"type": "node", "id": 1368207939, "lat": 49.529891, "lon": 12.9417015}, {"type": "node", "id": 1368207956, "lat": 49.5298852, "lon": 12.9426941}, {"type": "node", "id": 1368207978, "lat": 49.5298958, "lon": 12.9418197}, {"type": "node", "id": 1368207981, "lat": 49.5299159, "lon": 12.942727}, {"type": "node", "id": 1368208005, "lat": 49.529942, "lon": 12.9428834}, {"type": "node", "id": 1368208011, "lat": 49.5299576, "lon": 12.9429111}, {"type": "node", "id": 1368208043, "lat": 49.5299702, "lon": 12.9429309}, {"type": "node", "id": 1368208059, "lat": 49.5299753, "lon": 12.9428517}, {"type": "node", "id": 1368208080, "lat": 49.5299874, "lon": 12.9428505}, {"type": "node", "id": 1368208106, "lat": 49.5299906, "lon": 12.9429341}, {"type": "node", "id": 1368208126, "lat": 49.5300081, "lon": 12.9428739}, {"type": "node", "id": 1368208131, "lat": 49.5300097, "lon": 12.942903}, {"type": "node", "id": 1469910368, "lat": 49.3779436, "lon": 12.9854389, "tags": {"ele": "500", "hiking": "yes", "information": "guidepost", "name": "B\u011blohrad", "operator": "cz:K\u010cT", "ref": "DO064", "source": "survey", "tourism": "information"}}, {"type": "node", "id": 1469910369, "lat": 49.3658388, "lon": 12.9910361, "tags": {"ele": "528", "hiking": "yes", "information": "guidepost", "name": "B\u011blohradsk\u00fd les", "operator": "cz:K\u010cT", "ref": "DO146", "source": "survey", "tourism": "information"}}, {"type": "node", "id": 1469910371, "lat": 49.4179545, "lon": 12.8299237, "tags": {"ele": "500", "hiking": "yes", "information": "guidepost", "name": "Chodov", "operator": "cz:K\u010cT", "ref": "DO023", "tourism": "information"}}, {"type": "node", "id": 1469910436, "lat": 49.373299, "lon": 12.9542654, "tags": {"ele": "470", "hiking": "yes", "information": "guidepost", "name": "Ml\u00fdne\u010dek", "operator": "cz:K\u010cT", "ref": "DO062", "source": "survey", "tourism": "information"}}, {"type": "node", "id": 1469910445, "lat": 49.3985485, "lon": 12.8364241, "tags": {"ele": "491", "hiking": "yes", "information": "guidepost", "inscription": "Obec v \u010derchovsk\u00e9m lese. N\u00e1zev podle vysok\u00e9 pece na zpracov\u00e1n\u00ed \u017eel. rudy", "name": "Pec p.\u010cerchovem (u lesa)", "operator": "cz:K\u010cT", "ref": "DO187", "source": "survey", "tourism": "information"}}, {"type": "node", "id": 1469910478, "lat": 49.3626277, "lon": 12.992216, "tags": {"ele": "500", "hiking": "yes", "information": "guidepost", "name": "Stud\u00e1nky", "operator": "cz:K\u010cT", "ref": "DO065", "source": "survey", "tourism": "information"}}, {"type": "node", "id": 1469910501, "lat": 49.3739942, "lon": 12.9679885, "tags": {"ele": "465", "hiking": "yes", "information": "guidepost", "name": "U \u0160t\u00edtovek (rozc.)", "official_name": "U \u0160t\u00edtovek (rozc.)", "operator": "cz:K\u010cT", "ref": "DO063", "source": "survey", "tourism": "information"}}, {"type": "node", "id": 1469911844, "lat": 49.3799518, "lon": 12.9003622, "tags": {"ele": "598", "hiking": "yes", "information": "guidepost", "name": "\u0160nory (rozc.)", "operator": "cz:K\u010cT", "ref": "DO060", "source": "survey", "tourism": "information"}}, {"type": "node", "id": 1781661155, "lat": 49.5301123, "lon": 12.9444675, "tags": {"information": "office", "name": "Informa\u010dn\u00ed centrum Hor\u0161ovsk\u00fd T\u00fdn", "tourism": "information"}}, {"type": "node", "id": 1894592717, "lat": 49.4309849, "lon": 12.8614765, "tags": {"ele": "591", "name": "Hr\u00e1dek", "name:cs": "Hr\u00e1dek", "name:de": "Spitzberg", "natural": "peak", "source": "\u010c\u00daZK", "wikidata": "Q23822142"}}, {"type": "node", "id": 2041762772, "lat": 49.408296, "lon": 12.9934256}, {"type": "node", "id": 2359332971, "lat": 49.5293483, "lon": 12.938169, "tags": {"ele": "375", "hiking": "yes", "information": "guidepost", "name": "Hor\u0161ovsk\u00fd T\u00fdn (z\u00e1mek)", "operator": "cz:K\u010cT", "ref": "DO245", "tourism": "information"}}, {"type": "node", "id": 2470366642, "lat": 49.5212662, "lon": 12.9604702, "tags": {"man_made": "tower", "name": "rozhledna \u0160ibeni\u010dn\u00ed vrch", "source": "survey;uhul:ortofoto", "tourism": "viewpoint", "tower:type": "observation", "wikidata": "Q10535045", "wikipedia": "cs:\u0160ibeni\u010dn\u00ed vrch (rozhledna)"}}, {"type": "node", "id": 2516661465, "lat": 49.3927626, "lon": 12.8028228}, {"type": "node", "id": 2516661466, "lat": 49.3927649, "lon": 12.8027968}, {"type": "node", "id": 2516661470, "lat": 49.3927722, "lon": 12.8028422}, {"type": "node", "id": 2516661471, "lat": 49.3927785, "lon": 12.8027819}, {"type": "node", "id": 2516661475, "lat": 49.3927884, "lon": 12.8028461}, {"type": "node", "id": 2516661477, "lat": 49.3927938, "lon": 12.8027862}, {"type": "node", "id": 2516661487, "lat": 49.3928013, "lon": 12.8028311}, {"type": "node", "id": 2516661490, "lat": 49.3928043, "lon": 12.8028067}, {"type": "node", "id": 2609471864, "lat": 49.5247972, "lon": 12.9370372, "tags": {"ele": "375", "hiking": "yes", "information": "guidepost", "name": "Hor\u0161ovsk\u00fd T\u00fdn (vlak)", "official_name": "Hor\u0161ovsk\u00fd T\u00fdn (\u017dST)", "operator": "cz:K\u010cT", "ref": "DO166", "tourism": "information"}}, {"type": "node", "id": 2610747436, "lat": 49.5388161, "lon": 12.9361906, "tags": {"amenity": "shelter", "source": "survey"}}, {"type": "node", "id": 2992783374, "lat": 49.4591859, "lon": 12.8285028, "tags": {"name": "Post\u0159ekovsk\u00e9 rybn\u00edky", "tourism": "information"}}, {"type": "node", "id": 3199797465, "lat": 49.4183709, "lon": 12.9098134, "tags": {"ele": "589", "name": "Vesel\u00e1 hora", "name:cs": "Vesel\u00e1 hora", "name:de": "St. Lorenziberg", "natural": "peak", "source": "\u010c\u00daZK"}}, {"type": "node", "id": 3681061237, "lat": 49.5208686, "lon": 12.959803, "tags": {"ele": "459", "name": "\u0160ibeni\u010dn\u00ed vrch", "natural": "peak"}}, {"type": "node", "id": 3957966132, "lat": 49.5108925, "lon": 12.8027765, "tags": {"information": "office", "name": "M\u011bstsk\u00e9 kulturn\u00ed a informa\u010dn\u00ed st\u0159edisko Pob\u011b\u017eovice", "short_name": "MKIS Pob\u011b\u017eovice", "tourism": "information", "website": "https://www.pobezovice.cz/infocentrum/"}}, {"type": "node", "id": 4031521079, "lat": 49.5130101, "lon": 12.8116138, "tags": {"ele": "430", "hiking": "yes", "information": "guidepost", "name": "Pob\u011b\u017eovice (vlak)", "official_name": "Pob\u011b\u017eovice (\u017dST)", "operator": "cz:K\u010cT", "ref": "DO244", "tourism": "information"}}, {"type": "node", "id": 4031521080, "lat": 49.5108453, "lon": 12.8025921, "tags": {"ele": "430", "hiking": "yes", "information": "guidepost", "name": "Pob\u011b\u017eovice", "operator": "cz:K\u010cT", "ref": "DO114", "tourism": "information"}}, {"type": "node", "id": 4147337376, "lat": 49.4119053, "lon": 12.8038916, "tags": {"information": "board", "tourism": "information"}}, {"type": "node", "id": 4147337378, "lat": 49.4120698, "lon": 12.8044895, "tags": {"ele": "699", "hiking": "yes", "information": "guidepost", "name": "V\u00fdhledy", "operator": "cz:K\u010cT", "ref": "DO024", "tourism": "information"}}, {"type": "node", "id": 4158641309, "lat": 49.5041811, "lon": 12.9199991, "tags": {"ele": "400", "hiking": "yes", "information": "guidepost", "name": "Doln\u00ed Valdorf", "operator": "cz:K\u010cT", "ref": "DO167", "tourism": "information"}}, {"type": "node", "id": 4176460339, "lat": 49.373939, "lon": 12.8645849, "tags": {"ele": "490", "hiking": "yes", "information": "guidepost", "name": "\u010cesk\u00e1 Kubice (\u017dST)", "operator": "cz:K\u010cT", "ref": "DO057", "tourism": "information"}}, {"type": "node", "id": 4359114653, "lat": 49.4081865, "lon": 12.9935497, "tags": {"ele": "450", "hiking": "yes", "information": "guidepost", "name": "Klobouk (Gloriet)", "operator": "cz:K\u010cT", "ref": "DO233", "tourism": "information"}}, {"type": "node", "id": 4425207452, "lat": 49.4617927, "lon": 12.9163469, "tags": {"ele": "550", "hiking": "yes", "information": "guidepost", "name": "Baldovsk\u00e9 n\u00e1vr\u0161\u00ed", "operator": "cz:K\u010cT", "ref": "DO170", "tourism": "information"}}, {"type": "node", "id": 4597426460, "lat": 49.5299111, "lon": 12.9426857}, {"type": "node", "id": 4597426461, "lat": 49.5299123, "lon": 12.9427279}, {"type": "node", "id": 4597426462, "lat": 49.5298185, "lon": 12.9429238}, {"type": "node", "id": 4597426463, "lat": 49.5298136, "lon": 12.9428816}, {"type": "node", "id": 4597426464, "lat": 49.5297289, "lon": 12.942908}, {"type": "node", "id": 4597426465, "lat": 49.5297224, "lon": 12.9428793}, {"type": "node", "id": 4597426466, "lat": 49.5297244, "lon": 12.9428782}, {"type": "node", "id": 4597426467, "lat": 49.5297054, "lon": 12.9427859}, {"type": "node", "id": 4597426468, "lat": 49.5298859, "lon": 12.9426992}, {"type": "node", "id": 4597426469, "lat": 49.5295005, "lon": 12.9425475}, {"type": "node", "id": 4597426470, "lat": 49.5298303, "lon": 12.9417079}, {"type": "node", "id": 4597426471, "lat": 49.5293965, "lon": 12.941877}, {"type": "node", "id": 4597426472, "lat": 49.5293956, "lon": 12.9418624}, {"type": "node", "id": 4597426473, "lat": 49.5296312, "lon": 12.9429963}, {"type": "node", "id": 4597426474, "lat": 49.5297094, "lon": 12.9429785}, {"type": "node", "id": 4597426475, "lat": 49.5299544, "lon": 12.9428966}, {"type": "node", "id": 4597426476, "lat": 49.5299628, "lon": 12.9429224}, {"type": "node", "id": 4597426477, "lat": 49.5299798, "lon": 12.9429353}, {"type": "node", "id": 4597426478, "lat": 49.5299994, "lon": 12.9429276}, {"type": "node", "id": 4597426479, "lat": 49.5300064, "lon": 12.9429154}, {"type": "node", "id": 4597426480, "lat": 49.5300106, "lon": 12.9428894}, {"type": "node", "id": 4597426481, "lat": 49.5299997, "lon": 12.9428583}, {"type": "node", "id": 4597426482, "lat": 49.5299824, "lon": 12.9428501}, {"type": "node", "id": 4597426483, "lat": 49.5294986, "lon": 12.9414764}, {"type": "node", "id": 4597426484, "lat": 49.5294308, "lon": 12.9415391}, {"type": "node", "id": 4597426485, "lat": 49.5294286, "lon": 12.9415339}, {"type": "node", "id": 4597426486, "lat": 49.5292819, "lon": 12.9425689}, {"type": "node", "id": 4597426487, "lat": 49.5292855, "lon": 12.9425875}, {"type": "node", "id": 4597426488, "lat": 49.5292158, "lon": 12.9426171}, {"type": "node", "id": 4597433389, "lat": 49.5292205, "lon": 12.9426451}, {"type": "node", "id": 4597433390, "lat": 49.5293063, "lon": 12.9426226}, {"type": "node", "id": 4597433391, "lat": 49.5295088, "lon": 12.9429133}, {"type": "node", "id": 4597433392, "lat": 49.5295037, "lon": 12.9428845}, {"type": "node", "id": 4597433393, "lat": 49.5296065, "lon": 12.9428346}, {"type": "node", "id": 4873127257, "lat": 49.4202584, "lon": 12.8457546, "tags": {"ele": "450", "hiking": "yes", "information": "guidepost", "name": "Trhanov", "operator": "cz:K\u010cT", "ref": "DO021", "tourism": "information"}}, {"type": "node", "id": 4935118747, "lat": 49.3531844, "lon": 12.8896183, "tags": {"ele": "496", "hiking": "yes", "information": "guidepost", "name": "Pod Ml\u00fdnsk\u00fdm vrchem", "operator": "cz:K\u010cT", "ref": "DO133", "tourism": "information"}}, {"type": "node", "id": 5045986404, "lat": 49.4245296, "lon": 12.9032704, "tags": {"board_type": "history", "check_date": "2025-04-13", "information": "board", "name": "Skokansk\u00fd m\u016fstek", "source": "survey;GPX", "tourism": "information"}}, {"type": "node", "id": 5050647157, "lat": 49.46187, "lon": 12.9159607, "tags": {"ele": "551", "name": "Baldovsk\u00e9 n\u00e1vr\u0161\u00ed", "natural": "peak", "wikidata": "Q11034981", "wikipedia": "cs:Baldov"}}, {"type": "node", "id": 5075932503, "lat": 49.3676875, "lon": 12.99728, "tags": {"ele": "575", "name": "Bezkout\u00ed", "natural": "peak"}}, {"type": "node", "id": 5075935915, "lat": 49.3667604, "lon": 12.9945825, "tags": {"tourism": "viewpoint"}}, {"type": "node", "id": 5075935916, "lat": 49.3519351, "lon": 12.9739835, "tags": {"ele": "480", "name": "Tet\u0159\u00edvek", "natural": "peak"}}, {"type": "node", "id": 5075944543, "lat": 49.3520106, "lon": 12.9234823, "tags": {"ele": "539", "name": "Bezovka", "natural": "peak"}}, {"type": "node", "id": 5075950049, "lat": 49.3631936, "lon": 12.9232098, "tags": {"ele": "579", "name": "Zadn\u00ed Sk\u00e1la", "natural": "peak"}}, {"type": "node", "id": 5075952113, "lat": 49.3724588, "lon": 12.925658, "tags": {"ele": "607", "name": "P\u0159edn\u00ed sk\u00e1la", "natural": "peak", "source": "\u010c\u00daZK"}}, {"type": "node", "id": 5075952884, "lat": 49.3792709, "lon": 12.916317, "tags": {"ele": "644", "name": "Halovska", "natural": "peak"}}, {"type": "node", "id": 5075953501, "lat": 49.3645393, "lon": 12.9454811, "tags": {"ele": "515", "name": "Na skalce", "natural": "peak", "source": "\u010c\u00daZK"}}, {"type": "node", "id": 5075956062, "lat": 49.3755547, "lon": 12.9875703, "tags": {"ele": "548", "name": "Skalka", "natural": "peak"}}, {"type": "node", "id": 5084234939, "lat": 49.3907116, "lon": 12.9509254, "tags": {"ele": "557", "name": "P\u0159edn\u00ed Vrchovo", "natural": "peak", "wikidata": "Q23824245"}}, {"type": "node", "id": 5084235971, "lat": 49.3897133, "lon": 12.9288674, "tags": {"ele": "590", "name": "Butovice", "natural": "peak"}}, {"type": "node", "id": 5084312683, "lat": 49.3593375, "lon": 12.8775985, "tags": {"ele": "526", "name": "Medv\u011bd\u00ed vrch", "natural": "peak"}}, {"type": "node", "id": 5084320152, "lat": 49.3559799, "lon": 12.8849976, "tags": {"ele": "511", "name": "Ml\u00fdnsk\u00fd vrch", "natural": "peak"}}, {"type": "node", "id": 5084328253, "lat": 49.3735081, "lon": 12.8827458, "tags": {"ele": "668", "name": "Sp\u00e1len\u00fd vrch", "natural": "peak", "source": "\u010c\u00daZK"}}, {"type": "node", "id": 5084330770, "lat": 49.381659, "lon": 12.8779829, "tags": {"ele": "623", "name": "Sedl\u00e1cko", "natural": "peak", "source": "\u010c\u00daZK"}}, {"type": "node", "id": 5084331224, "lat": 49.3874227, "lon": 12.8924529, "tags": {"ele": "600", "name": "Salka", "natural": "peak", "source": "\u010c\u00daZK"}}, {"type": "node", "id": 5084460447, "lat": 49.4260333, "lon": 12.8953391, "tags": {"ele": "578", "name": "Na z\u00e1mku", "natural": "peak", "source": "\u010c\u00daZK"}}, {"type": "node", "id": 5084463946, "lat": 49.4116136, "lon": 12.8777391, "tags": {"ele": "533", "name": "Na Hlav\u011b", "natural": "peak", "source": "\u010c\u00daZK"}}, {"type": "node", "id": 5084473160, "lat": 49.41678, "lon": 12.9026217, "tags": {"ele": "603", "name": "Dmout", "natural": "peak"}}, {"type": "node", "id": 5084479790, "lat": 49.4071096, "lon": 12.9242914, "tags": {"man_made": "tower", "source": "survey", "tourism": "viewpoint", "tower:type": "observation"}}, {"type": "node", "id": 5084480243, "lat": 49.4071326, "lon": 12.9241743, "tags": {"ele": "513", "loc_name": "\u0160k\u00e1la", "name": "Kub\u00ed\u010dkova sk\u00e1la", "natural": "peak"}}, {"type": "node", "id": 5084484112, "lat": 49.4121231, "lon": 12.9033981, "tags": {"ele": "589", "name": "Bou\u010dkova sk\u00e1la", "natural": "peak", "source": "\u010c\u00daZK"}}, {"type": "node", "id": 5084490738, "lat": 49.4034393, "lon": 12.9036815, "tags": {"ele": "601", "name": "Zadn\u00ed sk\u00e1la", "natural": "peak", "source": "\u010c\u00daZK", "wikidata": "Q23824248"}}, {"type": "node", "id": 5084496555, "lat": 49.4068134, "lon": 12.9493667, "tags": {"ele": "488", "name": "Na sk\u00e1le", "natural": "peak", "source": "\u010c\u00daZK"}}, {"type": "node", "id": 5084496807, "lat": 49.4233586, "lon": 12.9429879, "tags": {"ele": "474", "name": "Dlouh\u00e1 hora", "natural": "peak", "source": "\u010c\u00daZK"}}, {"type": "node", "id": 5084506163, "lat": 49.4317214, "lon": 12.9172851, "tags": {"ele": "472", "name": "Na \u0161ibenici", "natural": "peak", "source": "\u010c\u00daZK"}}, {"type": "node", "id": 5084509795, "lat": 49.4427384, "lon": 12.9414239, "tags": {"ele": "461", "name": "Mal\u00fd \u0160karma\u0148", "natural": "peak"}}, {"type": "node", "id": 5084512398, "lat": 49.4480005, "lon": 12.9438728, "tags": {"ele": "485", "name": "Velk\u00fd \u0160karma\u0148", "natural": "peak"}}, {"type": "node", "id": 5084515091, "lat": 49.4524484, "lon": 12.9305825, "tags": {"ele": "485", "name": "Na Kole", "natural": "peak"}}, {"type": "node", "id": 5084517307, "lat": 49.4540636, "lon": 12.9050692, "tags": {"ele": "515", "name": "Jalov\u010d\u00ed", "natural": "peak"}}, {"type": "node", "id": 5084519475, "lat": 49.4348158, "lon": 12.8790671, "tags": {"ele": "517", "name": "Dubov\u00e1 h\u016frka", "natural": "peak", "source": "\u010c\u00daZK"}}, {"type": "node", "id": 5084520633, "lat": 49.4288655, "lon": 12.8532112, "tags": {"ele": "541", "name": "Zadn\u00ed hora", "natural": "peak", "source": "\u010c\u00daZK"}}, {"type": "node", "id": 5084523556, "lat": 49.4114339, "lon": 12.821977, "tags": {"ele": "593", "name": "Bab\u00ed hora", "natural": "peak"}}, {"type": "node", "id": 5084532045, "lat": 49.381744, "lon": 12.8461414, "tags": {"ele": "589", "name": "Na podkov\u011b", "natural": "peak", "source": "\u010c\u00daZK"}}, {"type": "node", "id": 5084535378, "lat": 49.3729545, "lon": 12.8566242, "tags": {"ele": "592", "name": "Na sk\u00e1le", "natural": "peak", "source": "\u010c\u00daZK"}}, {"type": "node", "id": 5346621974, "lat": 49.3522741, "lon": 12.9319918, "tags": {"ele": "485", "hiking": "yes", "information": "guidepost", "name": "Maxov", "operator": "cz:K\u010cT", "ref": "DO270", "tourism": "information"}}, {"type": "node", "id": 5374793905, "lat": 49.4665832, "lon": 12.9848903, "tags": {"ele": "410", "hiking": "yes", "information": "guidepost", "name": "Milav\u010de \u017est", "operator": "cz:K\u010cT", "ref": "DO083", "tourism": "information"}}, {"type": "node", "id": 5374877474, "lat": 49.4362989, "lon": 12.943418, "tags": {"ele": "420", "hiking": "yes", "information": "guidepost", "name": "Doma\u017elice \u017est", "operator": "cz:K\u010cT", "ref": "DO015", "tourism": "information"}}, {"type": "node", "id": 5377533070, "lat": 49.4919002, "lon": 12.9155246, "tags": {"ele": "430", "hiking": "yes", "information": "guidepost", "name": "N\u011bm\u010dice", "operator": "cz:K\u010cT", "ref": "DO168", "tourism": "information"}}, {"type": "node", "id": 5377533073, "lat": 49.4738515, "lon": 12.9210269, "tags": {"ele": "480", "hiking": "yes", "information": "guidepost", "name": "Doln\u00ed Baldov", "operator": "cz:K\u010cT", "ref": "DO169", "tourism": "information"}}, {"type": "node", "id": 5377533074, "lat": 49.4696092, "lon": 12.9594147, "tags": {"ele": "470", "hiking": "yes", "information": "guidepost", "name": "mohyly u Milav\u010de", "operator": "cz:K\u010cT", "ref": "DO301", "tourism": "information"}}, {"type": "node", "id": 5377533080, "lat": 49.4703482, "lon": 12.9597527, "tags": {"ele": "470", "hiking": "yes", "information": "guidepost", "name": "Kopaniny", "operator": "cz:K\u010cT", "ref": "DO084", "tourism": "information"}}, {"type": "node", "id": 5380639155, "lat": 49.5388703, "lon": 12.9815268, "tags": {"ele": "380", "hiking": "yes", "information": "guidepost", "name": "Semo\u0161ice", "operator": "cz:K\u010cT", "ref": "DO164", "tourism": "information"}}, {"type": "node", "id": 5392126064, "lat": 49.5446806, "lon": 12.9314144, "tags": {"ele": "400", "hiking": "yes", "information": "guidepost", "name": "K\u0159akovsk\u00e1 n\u00e1dr\u017e", "operator": "cz:K\u010cT", "ref": "DO246", "tourism": "information"}}, {"type": "node", "id": 5392495205, "lat": 49.5351836, "lon": 12.8246069, "tags": {"ele": "460", "hiking": "yes", "information": "guidepost", "name": "Sedlec", "operator": "cz:K\u010cT", "ref": "DO115", "tourism": "information"}}, {"type": "node", "id": 5405136608, "lat": 49.412018, "lon": 12.8036896, "tags": {"information": "map", "operator": "cz:K\u010cT", "tourism": "information"}}, {"type": "node", "id": 5405193978, "lat": 49.4382194, "lon": 12.8226022, "tags": {"ele": "450", "hiking": "yes", "information": "guidepost", "name": "Klen\u010d\u00ed pod \u010cerchovem (vlak)", "official_name": "Klen\u010d\u00ed pod \u010cerchovem (\u017dST)", "operator": "cz:K\u010cT", "ref": "DO087", "tourism": "information"}}, {"type": "node", "id": 5405194749, "lat": 49.4311323, "lon": 12.8621203, "tags": {"ele": "585", "hiking": "yes", "information": "guidepost", "name": "Hr\u00e1dek", "operator": "cz:K\u010cT", "ref": "DO020", "tourism": "information"}}, {"type": "node", "id": 5408149537, "lat": 49.4205163, "lon": 12.9326125, "tags": {"ele": "475", "hiking": "yes", "information": "guidepost", "name": "Nevolice", "operator": "cz:K\u010cT", "ref": "DO091", "tourism": "information"}}, {"type": "node", "id": 5408149538, "lat": 49.4037184, "lon": 12.9504746, "tags": {"ele": "460", "hiking": "yes", "information": "guidepost", "name": "Mr\u00e1kov", "operator": "cz:K\u010cT", "ref": "DO092", "tourism": "information"}}, {"type": "node", "id": 5625101016, "lat": 49.4200662, "lon": 12.8462014, "tags": {"amenity": "shelter", "shelter_type": "picnic_shelter", "source": "survey"}}, {"type": "node", "id": 5637106294, "lat": 49.4555164, "lon": 12.8712451, "tags": {"ele": "460", "hiking": "yes", "information": "guidepost", "name": "Dra\u017eenov", "operator": "cz:K\u010cT", "ref": "DO222", "tourism": "information"}}, {"type": "node", "id": 6257924927, "lat": 49.4581492, "lon": 12.8081231, "tags": {"ele": "445", "hiking": "yes", "information": "guidepost", "name": "Post\u0159ekov", "operator": "cz:K\u010cT", "ref": "DO171;DO098", "tourism": "information"}}, {"type": "node", "id": 6257924931, "lat": 49.4590684, "lon": 12.8144611, "tags": {"ele": "445", "hiking": "yes", "information": "guidepost", "name": "Post\u0159ekov - \u017dST", "operator": "cz:K\u010cT", "ref": "DO171", "tourism": "information"}}, {"type": "node", "id": 6481085509, "lat": 49.4160059, "lon": 12.986564, "tags": {"ele": "450", "hiking": "yes", "information": "guidepost", "name": "Sp\u00e1\u0148ov \u017est", "operator": "cz:K\u010cT", "ref": "DO267", "tourism": "information"}}, {"type": "node", "id": 6516302676, "lat": 49.4100685, "lon": 12.8893254}, {"type": "node", "id": 6516302677, "lat": 49.410053, "lon": 12.8893605}, {"type": "node", "id": 6516302678, "lat": 49.41007, "lon": 12.8893939}, {"type": "node", "id": 6516302679, "lat": 49.4100959, "lon": 12.8893795}, {"type": "node", "id": 6516302680, "lat": 49.410095, "lon": 12.8893371}, {"type": "node", "id": 6516303785, "lat": 49.3959279, "lon": 12.86874, "tags": {"name": "\u010cert\u016fv k\u00e1men", "natural": "rock", "tourism": "attraction"}}, {"type": "node", "id": 6516303804, "lat": 49.3716108, "lon": 12.864029, "tags": {"amenity": "shelter", "shelter_type": "weather_shelter"}}, {"type": "node", "id": 6517841813, "lat": 49.4311358, "lon": 12.8617975, "tags": {"tourism": "viewpoint"}}, {"type": "node", "id": 6521653471, "lat": 49.4128652, "lon": 12.8041621, "tags": {"amenity": "shelter", "shelter_type": "lean_to"}}, {"type": "node", "id": 6521653472, "lat": 49.414471, "lon": 12.8040196, "tags": {"amenity": "shelter", "shelter_type": "lean_to"}}, {"type": "node", "id": 6592133295, "lat": 49.3781036, "lon": 12.8457918, "tags": {"board_type": "nature", "information": "board", "name": "P\u0159\u00edrodn\u00ed park \u010cesk\u00fd les", "ref": "15", "tourism": "information"}}, {"type": "node", "id": 6592133296, "lat": 49.3789492, "lon": 12.859159, "tags": {"board_type": "nature", "information": "board", "name": "\u010cesk\u00e1 Kubice", "ref": "14", "tourism": "information"}}, {"type": "node", "id": 6592133299, "lat": 49.385132, "lon": 12.8860538, "tags": {"ele": "550", "hiking": "yes", "information": "guidepost", "name": "Star\u00e1 Hu\u0165", "operator": "cz:K\u010cT", "ref": "DO058", "tourism": "information"}}, {"type": "node", "id": 6592133300, "lat": 49.3869199, "lon": 12.8880504, "tags": {"board_type": "information", "check_date": "2024-05-14", "information": "board", "name": "Obec Pase\u010dnice", "tourism": "information"}}, {"type": "node", "id": 6592133301, "lat": 49.3863732, "lon": 12.8898391, "tags": {"board_type": "nature", "information": "board", "name": "Salka", "tourism": "information"}}, {"type": "node", "id": 6592133303, "lat": 49.3862954, "lon": 12.8897007, "tags": {"ele": "575", "information": "guidepost", "name": "Salka", "operator": "cz:K\u010cT", "tourism": "information"}}, {"type": "node", "id": 6592133309, "lat": 49.3809978, "lon": 12.9251231, "tags": {"amenity": "shelter", "shelter_type": "picnic_shelter"}}, {"type": "node", "id": 6592133310, "lat": 49.3779519, "lon": 12.9234259, "tags": {"amenity": "shelter", "shelter_type": "picnic_shelter"}}, {"type": "node", "id": 6592133311, "lat": 49.3733117, "lon": 12.9542785, "tags": {"amenity": "shelter", "shelter_type": "picnic_shelter"}}, {"type": "node", "id": 6631894134, "lat": 49.3998596, "lon": 12.9590282, "tags": {"ele": "459", "hiking": "yes", "information": "guidepost", "name": "Star\u00fd Kl\u00ed\u010dov", "operator": "cz:K\u010cT", "ref": "DO093", "tourism": "information"}}, {"type": "node", "id": 7160648607, "lat": 49.3668029, "lon": 12.9945605, "tags": {"ele": "528", "hiking": "yes", "information": "guidepost", "name": "Br\u016fdek vyhl\u00eddka", "operator": "cz:K\u010cT", "ref": "DO125", "tourism": "information"}}, {"type": "node", "id": 7165894059, "lat": 49.3803926, "lon": 12.9241759, "tags": {"ele": "500", "hiking": "yes", "information": "guidepost", "name": "Filipova hora", "operator": "cz:K\u010cT", "ref": "DO061", "tourism": "information"}}, {"type": "node", "id": 7166006582, "lat": 49.4171269, "lon": 12.9435288, "tags": {"ele": "450", "hiking": "yes", "information": "guidepost", "name": "H\u016frka", "operator": "cz:K\u010cT", "ref": "DO277", "tourism": "information"}}, {"type": "node", "id": 7169517239, "lat": 49.4589197, "lon": 12.8977615, "tags": {"ele": "460", "hiking": "yes", "information": "guidepost", "name": "Lu\u017eeni\u010dky", "operator": "cz:K\u010cT", "ref": "DO220", "tourism": "information"}}, {"type": "node", "id": 7180879770, "lat": 49.4354477, "lon": 12.8721142, "tags": {"ele": "500", "hiking": "yes", "information": "guidepost", "name": "\u00dajezd", "operator": "cz:K\u010cT", "ref": "DO019", "tourism": "information"}}, {"type": "node", "id": 7180879771, "lat": 49.4383243, "lon": 12.9024298, "tags": {"ele": "440", "hiking": "yes", "information": "guidepost", "name": "U jezera", "operator": "cz:K\u010cT", "ref": "DO018", "tourism": "information"}}, {"type": "node", "id": 7180879776, "lat": 49.4091478, "lon": 12.8894198, "tags": {"ele": "480", "hiking": "yes", "information": "guidepost", "name": "Zelenovsk\u00e9 rybn\u00edky", "operator": "cz:K\u010cT", "ref": "DO048", "tourism": "information"}}, {"type": "node", "id": 7180879778, "lat": 49.4205251, "lon": 12.9104751, "tags": {"board_type": "history", "check_date": "2025-08-02", "information": "board", "name": "kaple sv. Vav\u0159ince", "tourism": "information"}}, {"type": "node", "id": 7180879779, "lat": 49.4201936, "lon": 12.9105556, "tags": {"ele": "570", "hiking": "yes", "information": "guidepost", "name": "Svat\u00fd Va\u0159inec kaple", "operator": "cz:K\u010cT", "ref": "DO506", "tourism": "information"}}, {"type": "node", "id": 7180988434, "lat": 49.4166899, "lon": 12.8732461, "tags": {"ele": "470", "hiking": "yes", "information": "guidepost", "name": "Havlovice \u017est", "operator": "cz:K\u010cT", "ref": "DO188", "tourism": "information"}}, {"type": "node", "id": 7180988435, "lat": 49.4143656, "lon": 12.85932, "tags": {"ele": "460", "hiking": "yes", "information": "guidepost", "name": "Pila zast\u00e1vka \u017est", "operator": "cz:K\u010cT", "ref": "DO306", "tourism": "information"}}, {"type": "node", "id": 7180988436, "lat": 49.4137863, "lon": 12.8560424, "tags": {"ele": "460", "hiking": "yes", "information": "guidepost", "name": "Pila", "operator": "cz:K\u010cT", "ref": "DO224", "tourism": "information"}}, {"type": "node", "id": 7180988442, "lat": 49.4196911, "lon": 12.8401691, "tags": {"ele": "460", "hiking": "yes", "information": "guidepost", "name": "Trhanov \u017est", "operator": "cz:K\u010cT", "ref": "DO022", "tourism": "information"}}, {"type": "node", "id": 7183680716, "lat": 49.3936131, "lon": 12.8958625, "tags": {"ele": "510", "hiking": "yes", "information": "guidepost", "name": "Pase\u010dnice", "operator": "cz:K\u010cT", "ref": "DO217", "tourism": "information"}}, {"type": "node", "id": 7183784402, "lat": 49.380555, "lon": 12.8050433, "tags": {"ele": "775", "hiking": "yes", "information": "guidepost", "name": "Plze\u0148sk\u00e1 cesta rozc.", "operator": "cz:K\u010cT", "ref": "DO053", "tourism": "information"}}, {"type": "node", "id": 7656897293, "lat": 49.4153393, "lon": 12.9140425, "tags": {"board_type": "nature", "information": "board", "tourism": "information"}}, {"type": "node", "id": 7656897294, "lat": 49.4153288, "lon": 12.9140156, "tags": {"board_type": "nature", "information": "board", "tourism": "information"}}, {"type": "node", "id": 7657028795, "lat": 49.3987611, "lon": 12.8318033, "tags": {"information": "map", "map_size": "region", "map_type": "topo", "tourism": "information"}}, {"type": "node", "id": 7657028799, "lat": 49.359677, "lon": 12.893696, "tags": {"information": "map", "map_size": "region", "map_type": "topo", "tourism": "information"}}, {"type": "node", "id": 7657028801, "lat": 49.359618, "lon": 12.8937623}, {"type": "node", "id": 7657028802, "lat": 49.3596354, "lon": 12.8938307}, {"type": "node", "id": 7657028803, "lat": 49.3595883, "lon": 12.8938588}, {"type": "node", "id": 7657028804, "lat": 49.3595708, "lon": 12.8937918}, {"type": "node", "id": 7657312111, "lat": 49.5388259, "lon": 12.9170693, "tags": {"board_type": "history", "information": "board", "name": "Kostel V\u0161ech svat\u00fdch v Hor\u0161ov\u011b", "tourism": "information"}}, {"type": "node", "id": 7657312116, "lat": 49.5353812, "lon": 12.8666492, "tags": {"information": "map", "map_size": "region", "map_type": "topo", "tourism": "information"}}, {"type": "node", "id": 7671592406, "lat": 49.4653952, "lon": 12.9831765, "tags": {"board_type": "nature", "information": "board", "tourism": "information"}}, {"type": "node", "id": 8075715767, "lat": 49.3685517, "lon": 12.8570105}, {"type": "node", "id": 8075715768, "lat": 49.3685456, "lon": 12.8570472}, {"type": "node", "id": 8075715769, "lat": 49.3685219, "lon": 12.8570575}, {"type": "node", "id": 8075715770, "lat": 49.3685042, "lon": 12.8570311}, {"type": "node", "id": 8075715771, "lat": 49.3685102, "lon": 12.8569944}, {"type": "node", "id": 8075715772, "lat": 49.368534, "lon": 12.8569841}, {"type": "node", "id": 8334255013, "lat": 49.406595, "lon": 12.9513361, "tags": {"hiking": "yes", "information": "guidepost", "operator": "cz:K\u010cT", "ref": "DO091", "tourism": "information"}}, {"type": "node", "id": 8783781694, "lat": 49.5430335, "lon": 12.8085565, "tags": {"ele": "519", "name": "Slatinsk\u00fd vrch", "natural": "peak"}}, {"type": "node", "id": 8783798861, "lat": 49.4389323, "lon": 12.8571681, "tags": {"ele": "536", "name": "V\u00e1clavkova hora", "natural": "peak", "source": "\u010c\u00daZK"}}, {"type": "node", "id": 8783798862, "lat": 49.4824258, "lon": 12.854315, "tags": {"ele": "499", "name": "\u010cerven\u00fd vrch", "natural": "peak"}}, {"type": "node", "id": 8900313959, "lat": 49.3751933, "lon": 12.8268489, "tags": {"board_type": "information", "information": "board", "name": "Zelen\u00fd plac", "tourism": "information"}}, {"type": "node", "id": 8900313960, "lat": 49.3544616, "lon": 12.8036421, "tags": {"amenity": "shelter", "shelter_type": "picnic_shelter"}}, {"type": "node", "id": 8900764786, "lat": 49.4121883, "lon": 12.8034695, "tags": {"board_type": "nature", "information": "board", "name": "Historie \u010derchovsk\u00fdch les\u016f", "ref": "3", "tourism": "information"}}, {"type": "node", "id": 8900764789, "lat": 49.3756154, "lon": 12.8632823, "tags": {"board_type": "nature", "information": "board", "ref": "13", "tourism": "information"}}, {"type": "node", "id": 8919875674, "lat": 49.4428524, "lon": 12.9230718, "tags": {"name": "Modelov\u00e1 \u017eeleznice", "opening_hours": "11:00,13:00,15:00", "tourism": "attraction", "website": "https://www.simitrain.cz/"}}, {"type": "node", "id": 8919875677, "lat": 49.4391354, "lon": 12.9275781, "tags": {"information": "office", "name": "M\u011bstsk\u00e9 informa\u010dn\u00ed centrum Doma\u017elice", "opening_hours": "Mo-Fr 07:30-17:00; Sa-Su 09:00-15:00", "toilets": "yes", "tourism": "information"}}, {"type": "node", "id": 8940893322, "lat": 49.4865656, "lon": 12.8144414}, {"type": "node", "id": 8940893323, "lat": 49.4865766, "lon": 12.8144769}, {"type": "node", "id": 8940893324, "lat": 49.4865565, "lon": 12.8144916}, {"type": "node", "id": 8940893325, "lat": 49.4865456, "lon": 12.814456}, {"type": "node", "id": 8952545019, "lat": 49.4608697, "lon": 12.9536359, "tags": {"board_type": "history", "information": "board", "name": "Chrastavick\u00fd katastr", "source": "survey;GPX", "tourism": "information"}}, {"type": "node", "id": 8952545020, "lat": 49.4607459, "lon": 12.9535675, "tags": {"board_type": "nature", "information": "board", "name": "\u010cesko-n\u011bmeck\u00e1 nau\u010dn\u00e1 vyhl\u00eddka v Chrastavic\u00edch", "source": "survey;GPX", "tourism": "information"}}, {"type": "node", "id": 8952545021, "lat": 49.4606491, "lon": 12.953546, "tags": {"man_made": "tower", "source": "survey;GPX", "tourism": "viewpoint", "tower:type": "observation"}}, {"type": "node", "id": 8957448286, "lat": 49.5285749, "lon": 12.9371221}, {"type": "node", "id": 8957448287, "lat": 49.5285619, "lon": 12.9371261}, {"type": "node", "id": 8957448288, "lat": 49.5285688, "lon": 12.9371677}, {"type": "node", "id": 8957448289, "lat": 49.5285831, "lon": 12.9371605, "tags": {"bus": "yes", "highway": "bus_stop", "name": "Hor\u0161ovsk\u00fd T\u00fdn, Vrchlick\u00e9ho", "public_transport": "platform", "shelter": "yes"}}, {"type": "node", "id": 8979969363, "lat": 49.467895, "lon": 12.8446552, "tags": {"ele": "485", "name": "Pa\u0159ezovsk\u00fd kopec", "natural": "peak"}}, {"type": "node", "id": 8994102769, "lat": 49.4388523, "lon": 12.9272966, "tags": {"amenity": "shelter", "fireplace": "no", "shelter_type": "picnic_shelter"}}, {"type": "node", "id": 9003286323, "lat": 49.4993729, "lon": 12.809198, "tags": {"ele": "469", "name": "\u010cihadlo", "natural": "peak"}}, {"type": "node", "id": 9003286324, "lat": 49.4988947, "lon": 12.8125614, "tags": {"ele": "469", "natural": "peak"}}, {"type": "node", "id": 9052515671, "lat": 49.5299638, "lon": 12.9427495}, {"type": "node", "id": 9092413374, "lat": 49.5353384, "lon": 12.9394831, "tags": {"board_type": "history", "description": "NS Kr\u00e1lovsk\u00e1 rokle", "information": "board", "name": "Loret\u00e1nsk\u00e1 kaple - Gloriet", "ref": "2", "tourism": "information"}}, {"type": "node", "id": 9450279836, "lat": 49.5296697, "lon": 12.9429877}, {"type": "node", "id": 9529812757, "lat": 49.5296449, "lon": 12.9429935}, {"type": "node", "id": 9628934860, "lat": 49.397715, "lon": 12.8642783, "tags": {"amenity": "shelter", "fireplace": "no", "shelter_type": "gazebo", "source": "survey;Bing aerial"}}, {"type": "node", "id": 9628934862, "lat": 49.3978665, "lon": 12.8642886, "tags": {"amenity": "shelter", "fireplace": "no", "shelter_type": "gazebo", "source": "survey;Bing aerial"}}, {"type": "node", "id": 9691327807, "lat": 49.3987942, "lon": 12.8646639, "tags": {"information": "board", "name": "Stud\u00e1nky", "tourism": "information"}}, {"type": "node", "id": 9852434478, "lat": 49.5298918, "lon": 12.9417203}, {"type": "node", "id": 9888948658, "lat": 49.3576747, "lon": 12.8584147, "tags": {"information": "board", "tourism": "information"}}, {"type": "node", "id": 9953350715, "lat": 49.4359571, "lon": 12.925594, "tags": {"amenity": "shelter", "shelter_type": "public_transport"}}, {"type": "node", "id": 9963628014, "lat": 49.5102781, "lon": 12.8026733, "tags": {"information": "map", "map_type": "topo", "tourism": "information"}}, {"type": "node", "id": 10003841429, "lat": 49.4201442, "lon": 12.91114, "tags": {"tourism": "viewpoint"}}, {"type": "node", "id": 10229094126, "lat": 49.4656763, "lon": 12.8921228, "tags": {"information": "map", "map_size": "region", "map_type": "topo", "name": "Lu\u017eeni\u010dky a Lu\u017eenice - mapa okol\u00ed", "tourism": "information"}}, {"type": "node", "id": 10229094169, "lat": 49.4648023, "lon": 12.8915076, "tags": {"board_type": "history", "information": "board", "name": "Lu\u017eenice", "tourism": "information"}}, {"type": "node", "id": 10673234579, "lat": 49.4919002, "lon": 12.9155612}, {"type": "node", "id": 10673234580, "lat": 49.4918653, "lon": 12.9155425}, {"type": "node", "id": 10673234581, "lat": 49.4918726, "lon": 12.9155099}, {"type": "node", "id": 10673234582, "lat": 49.4919076, "lon": 12.9155286}, {"type": "node", "id": 10873861253, "lat": 49.4030679, "lon": 12.8645758, "tags": {"amenity": "shelter", "description": "Foto ok\u00e9nko #cerchovnavode", "fireplace": "no", "name": "#cerchovnavode", "shelter_type": "gazebo", "tourism": "attraction"}}, {"type": "node", "id": 11010258351, "lat": 49.5161659, "lon": 12.8329669}, {"type": "node", "id": 11010258352, "lat": 49.5161459, "lon": 12.8329637}, {"type": "node", "id": 11010258353, "lat": 49.5161494, "lon": 12.83292}, {"type": "node", "id": 11010258354, "lat": 49.5161692, "lon": 12.8329255}, {"type": "node", "id": 11010258359, "lat": 49.513268, "lon": 12.8492695}, {"type": "node", "id": 11010258360, "lat": 49.5132457, "lon": 12.8492811}, {"type": "node", "id": 11010258361, "lat": 49.5132341, "lon": 12.84924}, {"type": "node", "id": 11010258362, "lat": 49.5132564, "lon": 12.8492296}, {"type": "node", "id": 11010258394, "lat": 49.5344502, "lon": 12.9835502}, {"type": "node", "id": 11010258395, "lat": 49.5344304, "lon": 12.9835307}, {"type": "node", "id": 11010258396, "lat": 49.5344658, "lon": 12.9834604}, {"type": "node", "id": 11010258397, "lat": 49.5344814, "lon": 12.9834836}, {"type": "node", "id": 11010258398, "lat": 49.5304633, "lon": 12.9996121}, {"type": "node", "id": 11010258399, "lat": 49.5304349, "lon": 12.9996065}, {"type": "node", "id": 11010258400, "lat": 49.5304405, "lon": 12.9995358}, {"type": "node", "id": 11010258401, "lat": 49.5304702, "lon": 12.9995394}, {"type": "node", "id": 11068903268, "lat": 49.4353581, "lon": 12.8725406, "tags": {"information": "board", "name": "Pam\u011btn\u00ed s\u00ed\u0148 Jana Sladk\u00e9ho Koziny", "tourism": "information"}}, {"type": "node", "id": 11105699036, "lat": 49.4325905, "lon": 12.9010043, "tags": {"ele": "445", "hiking": "yes", "information": "guidepost", "name": "Doma\u017elice (star\u00e1 vod\u00e1rna)", "operator": "cz:K\u010cT", "ref": "DO283", "source": "survey;Bing aerial", "tourism": "information"}}, {"type": "node", "id": 11115867574, "lat": 49.534679, "lon": 12.9375568, "tags": {"board_type": "history", "description": "NS Kr\u00e1lovsk\u00e1 rokle", "information": "board", "name": "Z\u00e1meck\u00fd park", "ref": "5", "tourism": "information"}}, {"type": "node", "id": 11115867575, "lat": 49.5303317, "lon": 12.9421843, "tags": {"board_type": "history", "description": "NS Kr\u00e1lovsk\u00e1 rokle", "information": "board", "name": "Hrad a z\u00e1mek Hor\u0161ovsk\u00fd T\u00fdn - Vdovsk\u00fd d\u00a7m", "ref": "1", "tourism": "information"}}, {"type": "node", "id": 11122022364, "lat": 49.4654336, "lon": 12.9828678, "tags": {"description": "Tematick\u00e1 trasa po stop\u00e1ch Bo\u017eeny N\u011bmcov\u00e9", "information": "board", "name": "Milav\u010de", "tourism": "information"}}, {"type": "node", "id": 11170719064, "lat": 49.4076783, "lon": 12.8911914, "tags": {"board_type": "wildlife", "description": "ot\u00e1\u010dec\u00ed karti\u010dky zv\u00ed\u0159at s popisky", "information": "board", "name": "Doma\u017elick\u00e9 lesy", "tourism": "information"}}, {"type": "node", "id": 11170719065, "lat": 49.40829, "lon": 12.8895606, "tags": {"board_type": "wildlife", "description": "ot\u00e1\u010dec\u00ed karti\u010dky zv\u00ed\u0159at s popisky", "information": "board", "name": "Zv\u011b\u0159 na\u0161ich les\u016f", "tourism": "information"}}, {"type": "node", "id": 11170719066, "lat": 49.4077283, "lon": 12.8912351}, {"type": "node", "id": 11170719067, "lat": 49.4077065, "lon": 12.8912076}, {"type": "node", "id": 11170719068, "lat": 49.4077202, "lon": 12.891182}, {"type": "node", "id": 11170719069, "lat": 49.407742, "lon": 12.8912095}, {"type": "node", "id": 11189198786, "lat": 49.3976753, "lon": 12.8640783, "tags": {"board_type": "nature", "information": "board", "name": "Krajin\u00e1\u0159sk\u00fd l\u00e1ze\u0148sk\u00fd park \u2013 b\u00fdval\u00fd Horn\u00ed Pa\u0159ezovsk\u00fd rybn\u00edk", "ref": "8", "source": "survey;Bing aerial", "tourism": "information"}}, {"type": "node", "id": 11189314037, "lat": 49.4030916, "lon": 12.8646737, "tags": {"board_type": "wildlife", "information": "board", "source": "survey", "tourism": "information"}}, {"type": "node", "id": 11189314039, "lat": 49.4044168, "lon": 12.861563, "tags": {"board_type": "wildlife", "information": "board", "source": "survey", "tourism": "information"}}, {"type": "node", "id": 11189314040, "lat": 49.404456, "lon": 12.8615704, "tags": {"board_type": "wildlife", "information": "board", "source": "survey", "tourism": "information"}}, {"type": "node", "id": 11214246969, "lat": 49.4674286, "lon": 12.9757118, "tags": {"board_type": "history", "information": "board", "name": "Mohyly u Milave\u010d", "source": "survey", "tourism": "information"}}, {"type": "node", "id": 11224680814, "lat": 49.5211443, "lon": 12.9605943, "tags": {"amenity": "shelter", "shelter_type": "picnic_shelter"}}, {"type": "node", "id": 11330679155, "lat": 49.4593208, "lon": 12.8067058, "tags": {"description": "Ru\u010dn\u011b malovan\u00e1 mapa", "information": "map", "name": "Doma\u017elicko", "tourism": "information"}}, {"type": "node", "id": 11330679158, "lat": 49.4582519, "lon": 12.8079992, "tags": {"information": "board", "tourism": "information"}}, {"type": "node", "id": 11343264387, "lat": 49.3750814, "lon": 12.8264674, "tags": {"name": "Zelen\u00e1 ch\u00fd\u0161e", "tourism": "alpine_hut"}}, {"type": "node", "id": 11350390565, "lat": 49.5212842, "lon": 12.9605528, "tags": {"description": "P\u011b\u0161\u00ed trasy Hor\u0161ovskot\u00fdnska", "information": "board", "name": "Kaple Panny Marie Lurdsk\u00e9", "ref": "4", "tourism": "information"}}, {"type": "node", "id": 11350411884, "lat": 49.4617678, "lon": 12.9160242, "tags": {"information": "board", "name": "V\u00edt\u011bzstv\u00ed Husit\u016f nad vojsky V. k\u0159\u00ed\u017eov\u00e9 v\u00fdpravy", "tourism": "information"}}, {"type": "node", "id": 11381662438, "lat": 49.5298936, "lon": 12.941765}, {"type": "node", "id": 11463547370, "lat": 49.3889279, "lon": 12.8436115, "tags": {"name": "Sokolova vyhl\u00eddka", "source": "survey", "tourism": "viewpoint"}}, {"type": "node", "id": 11476499453, "lat": 49.43851, "lon": 12.9295436, "tags": {"amenity": "shelter", "shelter_type": "public_transport"}}, {"type": "node", "id": 11574724074, "lat": 49.4066983, "lon": 12.9029502, "tags": {"ele": "582", "name": "P\u0159edn\u00ed sk\u00e1la", "natural": "peak", "source": "\u010c\u00daZK"}}, {"type": "node", "id": 11574724075, "lat": 49.401115, "lon": 12.8753704, "tags": {"ele": "556", "natural": "peak", "source": "\u010c\u00daZK"}}, {"type": "node", "id": 11574724076, "lat": 49.3950528, "lon": 12.8782322, "tags": {"ele": "586", "natural": "peak", "source": "\u010c\u00daZK"}}, {"type": "node", "id": 11574724077, "lat": 49.4389026, "lon": 12.9069247, "tags": {"ele": "465", "name": "Na B\u00e1b\u011b", "natural": "peak"}}, {"type": "node", "id": 11678833956, "lat": 49.5344654, "lon": 12.9126785, "tags": {"information": "board", "name": "Annaburg", "tourism": "information"}}, {"type": "node", "id": 11735411321, "lat": 49.4205293, "lon": 12.9325405, "tags": {"description": "Ru\u010dn\u011b malovan\u00e1 mapa", "hiking": "yes", "information": "map", "map_size": "region", "map_type": "scheme", "name": "Doma\u017elice", "source": "survey;cuzk:ortophoto", "tourism": "information"}}, {"type": "node", "id": 11735411322, "lat": 49.4205256, "lon": 12.9339898, "tags": {"board_type": "history", "information": "board", "name": "Zlat\u00e1 stezka / Goldsteig - Nevolice", "source": "survey;cuzk:ortophoto", "tourism": "information"}}, {"type": "node", "id": 11916602607, "lat": 49.4408236, "lon": 12.9347809, "tags": {"information": "map", "map_size": "city", "source": "survey;cuzk:ortophoto", "tourism": "information"}}, {"type": "node", "id": 12057944780, "lat": 49.5295318, "lon": 12.9425567}, {"type": "node", "id": 12057944781, "lat": 49.5295174, "lon": 12.9425634}, {"type": "node", "id": 12057944782, "lat": 49.5295294, "lon": 12.9426246}, {"type": "node", "id": 12057944783, "lat": 49.5295275, "lon": 12.9425349}, {"type": "node", "id": 12057944784, "lat": 49.5295168, "lon": 12.9426305}, {"type": "node", "id": 12057944785, "lat": 49.5296412, "lon": 12.9420902}, {"type": "node", "id": 12057944786, "lat": 49.5296734, "lon": 12.9421059}, {"type": "node", "id": 12057944787, "lat": 49.5296707, "lon": 12.9420821}, {"type": "node", "id": 12057944788, "lat": 49.529638, "lon": 12.9420584}, {"type": "node", "id": 12057944789, "lat": 49.5296286, "lon": 12.9421183}, {"type": "node", "id": 12082472979, "lat": 49.3970413, "lon": 12.8259857, "tags": {"information": "board", "name": "Peck\u00e1 cesta", "tourism": "information"}}, {"type": "node", "id": 12099352933, "lat": 49.373987, "lon": 12.9681023, "tags": {"bicycle": "yes", "information": "guidepost", "name": "U \u0160t\u00edtovek", "operator": "cz:K\u010cT", "tourism": "information"}}, {"type": "node", "id": 12099488047, "lat": 49.3810177, "lon": 12.9251136, "tags": {"ele": "500", "hiking": "yes", "information": "guidepost", "name": "Filipova Hora", "operator": "cz:K\u010cT", "tourism": "information"}}, {"type": "node", "id": 12099488050, "lat": 49.3890598, "lon": 12.9157643, "tags": {"board_type": "nature", "information": "board", "name": "Obec Pelechy", "tourism": "information"}}, {"type": "node", "id": 12099488061, "lat": 49.3907247, "lon": 12.9127916, "tags": {"amenity": "shelter", "shelter_type": "picnic_shelter"}}, {"type": "node", "id": 12099488095, "lat": 49.4099781, "lon": 12.8638812, "tags": {"board_type": "nature", "information": "board", "name": "\u010cern\u00fd rybn\u00edk", "ref": "5", "tourism": "information"}}, {"type": "node", "id": 12099488097, "lat": 49.4112509, "lon": 12.8652283, "tags": {"board_type": "nature", "information": "board", "name": "PP Louka u \u0160najbersk\u00e9ho rybn\u00edka", "ref": "4", "tourism": "information"}}, {"type": "node", "id": 12099488098, "lat": 49.4129077, "lon": 12.8682075, "tags": {"board_type": "nature", "information": "board", "name": "Osada Pila", "ref": "3", "tourism": "information"}}, {"type": "node", "id": 12099488100, "lat": 49.4138068, "lon": 12.8630099, "tags": {"board_type": "nature", "information": "board", "name": "PP Louka u \u0160najbersk\u00e9ho rybn\u00edka", "tourism": "information"}}, {"type": "node", "id": 12101330775, "lat": 49.4469504, "lon": 12.8605256, "tags": {"board_type": "history", "description": "Po stop\u00e1ch chodsk\u00e9 historie", "information": "board", "name": "Dobr\u00e1 Voda u Dra\u017eenova", "ref": "2", "tourism": "information"}}, {"type": "node", "id": 12101330791, "lat": 49.4472534, "lon": 12.8608166, "tags": {"board_type": "history", "description": "Tematick\u00e1 trasa Po stop\u00e1ch Bo\u017eeny N\u011bmcov\u00e9", "information": "board", "name": "Dra\u017eenov", "tourism": "information"}}, {"type": "node", "id": 12101330793, "lat": 49.4470944, "lon": 12.8613577, "tags": {"amenity": "shelter"}}, {"type": "node", "id": 12101330798, "lat": 49.4579364, "lon": 12.9002631, "tags": {"amenity": "shelter", "shelter_type": "picnic_shelter"}}, {"type": "node", "id": 12101330800, "lat": 49.4572624, "lon": 12.9047784, "tags": {"bicycle": "yes", "information": "guidepost", "name": "Lu\u017eeni\u010dky (rozc.)", "operator": "cz:K\u010cT", "tourism": "information"}}, {"type": "node", "id": 12101359102, "lat": 49.4552033, "lon": 12.9190721, "tags": {"board_type": "information", "information": "board", "name": "Socha\u0159sk\u00e1 stezka na Baldov", "tourism": "information"}}, {"type": "node", "id": 12101359121, "lat": 49.4617156, "lon": 12.9163414, "tags": {"board_type": "information", "information": "board", "name": "Socha\u0159sk\u00e1 stezka na Baldov", "tourism": "information"}}, {"type": "node", "id": 12101359140, "lat": 49.4618514, "lon": 12.9166411, "tags": {"tourism": "viewpoint"}}, {"type": "node", "id": 12104777318, "lat": 49.5251759, "lon": 12.9579335, "tags": {"board_type": "history", "description": "P\u011b\u0161\u00ed trasy Hor\u0161ovskot\u00fdnska", "information": "board", "name": "\u0160ibeni\u010dn\u00ed vrch a hrdeln\u00ed pr\u00e1vo m\u011bsta", "ref": "2", "tourism": "information"}}, {"type": "node", "id": 12104777319, "lat": 49.5250889, "lon": 12.9579315, "tags": {"board_type": "history", "description": "P\u011b\u0161\u00ed trasy Hor\u0161ovskot\u00fdnska", "information": "board", "name": "Historick\u00e9 vodovody", "ref": "6", "tourism": "information"}}, {"type": "node", "id": 12104777324, "lat": 49.5240374, "lon": 12.958933, "tags": {"board_type": "history", "description": "P\u011b\u0161\u00ed trasy Hor\u0161ovskot\u00fdnska", "information": "board", "name": "M\u011bstsk\u00e9 lesy v poles\u00ed Pe\u0159ina", "ref": "3", "tourism": "information"}}, {"type": "node", "id": 12104777325, "lat": 49.5222964, "lon": 12.9595145, "tags": {"board_type": "history", "description": "P\u011b\u0161\u00ed trasy Hor\u0161ovskot\u00fdnska", "information": "board", "name": "Lurdsk\u00e1 tradice a z\u00e1zra\u010dn\u00e1 stud\u00e1nka", "ref": "5", "tourism": "information"}}, {"type": "node", "id": 12104777326, "lat": 49.4979592, "lon": 12.9726561, "tags": {"amenity": "shelter", "shelter_type": "weather_shelter"}}, {"type": "node", "id": 12104777383, "lat": 49.4353676, "lon": 12.9612173, "tags": {"bicycle": "yes", "information": "guidepost", "name": "Sta\u0148k\u016fv ml\u00fdn", "operator": "cz:K\u010cT", "tourism": "information"}}, {"type": "node", "id": 12104777389, "lat": 49.4286175, "lon": 12.9708443, "tags": {"board_type": "history", "description": "Tematick\u00e1 trasa po stop\u00e1ch Bo\u017eeny N\u011bmcov\u00e9", "information": "board", "name": "Bo\u0159ice", "ref": "2", "tourism": "information"}}, {"type": "node", "id": 12106477360, "lat": 49.4411902, "lon": 12.835247, "tags": {"amenity": "shelter", "shelter_type": "weather_shelter"}}, {"type": "node", "id": 12137573952, "lat": 49.4310485, "lon": 12.8620495, "tags": {"information": "board", "name": "Tradi\u010dn\u00ed historick\u00e1 vyhl\u00eddka na vrchu Hr\u00e1dek u obce \u00dajezd", "tourism": "information"}}, {"type": "node", "id": 12137674355, "lat": 49.4312637, "lon": 12.8620277, "tags": {"information": "board", "name": "\u00dajezd", "tourism": "information"}}, {"type": "node", "id": 12137696637, "lat": 49.43106, "lon": 12.862068, "tags": {"board_type": "sight", "information": "board", "name": "Hr\u00e1dek", "tourism": "information"}}, {"type": "node", "id": 12137710406, "lat": 49.3957817, "lon": 12.8688365, "tags": {"board_type": "geology", "description": "\u010certova nau\u010dn\u00e1 stezka okol\u00edm Babylonu", "information": "board", "name": "Viklan \u010cert\u016fv k\u00e1men a geologie Babylonu", "ref": "9", "tourism": "information"}}, {"type": "node", "id": 12144462286, "lat": 49.4405295, "lon": 12.9325712, "tags": {"board_type": "history", "information": "board", "name": "M\u011bstsk\u00e9 br\u00e1ny", "name:en": "Town gates", "support": "wall", "tourism": "information"}}, {"type": "node", "id": 12270665954, "lat": 49.4082448, "lon": 12.9934443}, {"type": "node", "id": 12270665955, "lat": 49.4082373, "lon": 12.993423}, {"type": "node", "id": 12270665956, "lat": 49.4082378, "lon": 12.9933988}, {"type": "node", "id": 12270665957, "lat": 49.408246, "lon": 12.9933782}, {"type": "node", "id": 12270665958, "lat": 49.4082599, "lon": 12.9933668}, {"type": "node", "id": 12270665959, "lat": 49.408289, "lon": 12.9933802}, {"type": "node", "id": 12270665960, "lat": 49.4082965, "lon": 12.9934015}, {"type": "node", "id": 12270665961, "lat": 49.4082877, "lon": 12.9934462}, {"type": "node", "id": 12270665962, "lat": 49.4082739, "lon": 12.9934577}, {"type": "node", "id": 12270665963, "lat": 49.4082582, "lon": 12.993457}, {"type": "node", "id": 12270665964, "lat": 49.4082756, "lon": 12.9933675}, {"type": "node", "id": 12270665971, "lat": 49.4082099, "lon": 12.9935048, "tags": {"information": "board", "name": "Gloriet Klobouk", "tourism": "information"}}, {"type": "node", "id": 12580294678, "lat": 49.4042359, "lon": 12.9998732, "tags": {"bicycle": "yes", "information": "guidepost", "tourism": "information"}}, {"type": "node", "id": 12909303512, "lat": 49.5307802, "lon": 12.9368321, "tags": {"amenity": "shelter", "shelter_type": "public_transport"}}, {"type": "node", "id": 13008665866, "lat": 49.3915064, "lon": 12.9646048, "tags": {"name": "Podvodn\u00ed pozorovac\u00ed kabina", "reservation": "required", "tourism": "attraction"}}, {"type": "node", "id": 13019694458, "lat": 49.5343036, "lon": 12.9820906, "tags": {"amenity": "shelter", "shelter_type": "picnic_shelter"}}, {"type": "node", "id": 13019694462, "lat": 49.5275221, "lon": 12.9500232, "tags": {"bicycle": "yes", "information": "guidepost", "name": "Hor\u0161ovsk\u00fd T\u00fdn", "operator": "cz:K\u010cT", "tourism": "information"}}, {"type": "node", "id": 13021025511, "lat": 49.5420556, "lon": 12.9162444, "tags": {"board_type": "history", "description": "Nau\u010dn\u00e1 stezka Obora Hor\u0161ov", "information": "board", "name": "Vzd\u011bl\u00e1vac\u00ed centrum Hor\u0161ov", "ref": "1", "tourism": "information"}}, {"type": "node", "id": 13021025516, "lat": 49.5422828, "lon": 12.9159492, "tags": {"board_type": "history", "description": "Nau\u010dn\u00e1 stezka Obora Hor\u0161ov", "information": "board", "name": "Statek Hor\u0161ov", "ref": "2", "tourism": "information"}}, {"type": "node", "id": 13021025517, "lat": 49.5414571, "lon": 12.9029794, "tags": {"board_type": "history", "description": "Nau\u010dn\u00e1 stezka Obora Hor\u0161ov", "information": "board", "name": "Obora", "ref": "5", "tourism": "information"}}, {"type": "node", "id": 13021025518, "lat": 49.5348306, "lon": 12.9022648, "tags": {"board_type": "history", "description": "Nau\u010dn\u00e1 stezka Obora Hor\u0161ov", "information": "board", "name": "Rybn\u00edky", "ref": "4", "tourism": "information"}}, {"type": "node", "id": 13021025522, "lat": 49.5344135, "lon": 12.9126671, "tags": {"board_type": "history", "description": "Nau\u010dn\u00e1 stezka Obora Hor\u0161ov", "information": "board", "name": "Annaburg", "ref": "3", "tourism": "information"}}, {"type": "node", "id": 13021049537, "lat": 49.5383877, "lon": 12.9194785, "tags": {"amenity": "shelter", "shelter_type": "picnic_shelter"}}, {"type": "node", "id": 13021049557, "lat": 49.5035355, "lon": 12.8459909, "tags": {"board_type": "history", "description": "Nau\u010dn\u00e1 stezka T\u011b\u017eba \u017eivc\u016f na Pob\u011b\u017eovicku", "information": "board", "name": "N\u00e1ves Ohni\u0161\u0165ovice", "ref": "1", "tourism": "information"}}, {"type": "node", "id": 13021049558, "lat": 49.5035997, "lon": 12.8177042, "tags": {"board_type": "nature", "description": "Nau\u010dn\u00e1 stezka T\u011b\u017eba \u017eivc\u016f na Pob\u011b\u017eovicku", "information": "board", "name": "Rokle u otovsk\u00e9 silnice", "ref": "3", "tourism": "information"}}, {"type": "node", "id": 13021049560, "lat": 49.5097873, "lon": 12.8050918, "tags": {"board_type": "history", "description": "Nau\u010dn\u00e1 stezka T\u011b\u017eba \u017eivc\u016f na Pob\u011b\u017eovicku", "information": "board", "name": "\u0160koln\u00ed rybn\u00edky", "ref": "1", "tourism": "information"}}, {"type": "node", "id": 13021049561, "lat": 49.5107193, "lon": 12.8066454, "tags": {"board_type": "history", "description": "Nau\u010dn\u00e1 stezka T\u011b\u017eba \u017eivc\u016f na Pob\u011b\u017eovicku", "information": "board", "name": "Z\u00e1meck\u00fd park", "ref": "2", "tourism": "information"}}, {"type": "node", "id": 13021130329, "lat": 49.5115348, "lon": 12.8033099, "tags": {"board_type": "history", "description": "Hrad a z\u00e1mek Pob\u011b\u017eovice", "information": "board", "name": "Severn\u00ed k\u0159\u00eddlo", "ref": "4", "tourism": "information"}}, {"type": "node", "id": 13021130330, "lat": 49.5113673, "lon": 12.8030525, "tags": {"board_type": "history", "description": "Hrad a z\u00e1mek Pob\u011b\u017eovice", "information": "board", "name": "P\u016flkruhov\u00e9 schodi\u0161t\u011b", "ref": "3", "tourism": "information"}}, {"type": "node", "id": 13021130335, "lat": 49.5110833, "lon": 12.8030566, "tags": {"board_type": "history", "description": "Hrad a z\u00e1mek Pob\u011b\u017eovice", "information": "board", "name": "V\u011b\u017e a spojovac\u00ed m\u016fstek", "ref": "2", "tourism": "information"}}, {"type": "node", "id": 13021130337, "lat": 49.5112348, "lon": 12.8037644, "tags": {"board_type": "history", "description": "Hrad a z\u00e1mek Pob\u011b\u017eovice", "information": "board", "name": "Rnesan\u010dn\u00ed sgrafita, kartu\u0161e", "ref": "6", "tourism": "information"}}, {"type": "node", "id": 13021130338, "lat": 49.5114982, "lon": 12.8035526, "tags": {"board_type": "history", "description": "Hrad a z\u00e1mek Pob\u011b\u017eovice", "information": "board", "name": "Korouhvi\u010dka a ka\u0161na", "ref": "5", "tourism": "information"}}, {"type": "node", "id": 13021132918, "lat": 49.5108406, "lon": 12.8037627, "tags": {"board_type": "history", "description": "Hrad a z\u00e1mek Pob\u011b\u017eovice", "information": "board", "name": "Ji\u017en\u00ed k\u0159\u00eddlo", "ref": "7", "tourism": "information"}}, {"type": "node", "id": 13021132919, "lat": 49.5109458, "lon": 12.8031557, "tags": {"board_type": "information", "information": "board", "name": "V\u00edtejte v Pob\u011b\u017eovic\u00edch", "tourism": "information"}}, {"type": "node", "id": 13021132921, "lat": 49.5108691, "lon": 12.8029916, "tags": {"board_type": "history", "description": "Hrad a z\u00e1mek Pob\u011b\u017eovice", "information": "board", "name": "Hrad a z\u00e1mek v Pob\u011b\u017eovic\u00edch", "ref": "1", "tourism": "information"}}, {"type": "node", "id": 13021209768, "lat": 49.5107017, "lon": 12.8020292, "tags": {"board_type": "history", "information": "board", "name": "Kostel Nanebevzet\u00ed Panny Marie", "tourism": "information"}}, {"type": "node", "id": 13021209770, "lat": 49.5119703, "lon": 12.8030442, "tags": {"board_type": "history", "information": "board", "name": "Richard Coudenhove - Kalergi Zen zahrada M\u00edru", "tourism": "information"}}, {"type": "node", "id": 13042690534, "lat": 49.4213782, "lon": 12.9090892, "tags": {"board_type": "history", "information": "board", "tourism": "information"}}, {"type": "node", "id": 13042740315, "lat": 49.4208206, "lon": 12.9055116, "tags": {"board_type": "nature", "information": "board", "tourism": "information"}}, {"type": "node", "id": 13042768673, "lat": 49.4275214, "lon": 12.90105, "tags": {"board_type": "history", "information": "board", "tourism": "information"}}, {"type": "node", "id": 13043418293, "lat": 49.4408859, "lon": 12.9259966, "tags": {"information": "guidepost", "tourism": "information"}}, {"type": "node", "id": 13045141213, "lat": 49.4355823, "lon": 12.9434565, "tags": {"information": "map", "tourism": "information"}}, {"type": "node", "id": 13047844534, "lat": 49.5108258, "lon": 12.8009402, "tags": {"information": "terminal", "operator": "M\u011bsto Pob\u011b\u017eovice", "tourism": "information"}}, {"type": "node", "id": 13047844535, "lat": 49.5108818, "lon": 12.8028125, "tags": {"information": "terminal", "operator": "M\u011bsto Pob\u011b\u017eovice", "tourism": "information"}}, {"type": "node", "id": 13094001754, "lat": 49.3766171, "lon": 12.8372122, "tags": {"amenity": "shelter", "shelter_type": "picnic_shelter"}}, {"type": "node", "id": 13270141361, "lat": 49.3625353, "lon": 12.9919777, "tags": {"information": "board", "name": "Br\u00e1na do V\u0161erubsk\u00e9ho pr\u016fsmyku \u010d. 7", "tourism": "information"}}, {"type": "node", "id": 13311274773, "lat": 49.3535771, "lon": 12.9301259}, {"type": "node", "id": 13311274774, "lat": 49.3535452, "lon": 12.9301698}, {"type": "node", "id": 13311274775, "lat": 49.3535254, "lon": 12.9301357}, {"type": "node", "id": 13311274776, "lat": 49.3535573, "lon": 12.930092}, {"type": "node", "id": 13311274790, "lat": 49.3659879, "lon": 12.8830125}, {"type": "node", "id": 13311274791, "lat": 49.3659668, "lon": 12.8829825}, {"type": "node", "id": 13311274792, "lat": 49.3659343, "lon": 12.8830339}, {"type": "node", "id": 13311274793, "lat": 49.3659556, "lon": 12.8830662}, {"type": "node", "id": 13311274798, "lat": 49.3765951, "lon": 12.9280485}, {"type": "node", "id": 13311274799, "lat": 49.3765722, "lon": 12.9280338}, {"type": "node", "id": 13311274800, "lat": 49.3765638, "lon": 12.9280648}, {"type": "node", "id": 13311300101, "lat": 49.3765871, "lon": 12.9280798}, {"type": "node", "id": 13311300108, "lat": 49.382512, "lon": 12.9312836}, {"type": "node", "id": 13311300109, "lat": 49.3825475, "lon": 12.9312476}, {"type": "node", "id": 13311300110, "lat": 49.3825058, "lon": 12.9311504}, {"type": "node", "id": 13311300111, "lat": 49.3824723, "lon": 12.9311842}, {"type": "node", "id": 13311300114, "lat": 49.3896118, "lon": 12.913967}, {"type": "node", "id": 13311300115, "lat": 49.3895776, "lon": 12.9139818}, {"type": "node", "id": 13311300116, "lat": 49.3895848, "lon": 12.9140299}, {"type": "node", "id": 13311300117, "lat": 49.3896208, "lon": 12.9140155}, {"type": "way", "id": 122433483, "nodes": [4597426472, 4597426471, 1368207889, 4597426470, 1368207868, 1368207810, 1368207828, 1368207470, 1368207472, 1368207275, 1368207236, 1368207028, 1368207087, 1368207127, 1368207105, 4597426472]}, {"type": "way", "id": 122433630, "nodes": [1368207267, 4597426469, 12057944783, 12057944780, 12057944781, 12057944782, 12057944784, 1368207426, 1368207808, 1368207761, 1368207854, 1368207777, 12057944788, 12057944785, 12057944787, 12057944786, 12057944789, 1368207601, 1368207447, 1368207445, 1368207267]}, {"type": "way", "id": 122433670, "nodes": [4597433393, 4597433392, 4597433391, 1368207329, 1368207307, 1368207346, 1368207312, 1368207255, 1368207219, 1368207136, 4597433390, 4597433389, 4597426488, 4597426487, 4597426486, 1368207096, 1368206884, 4597426485, 4597426484, 1368207408, 4597426483, 1368207877, 1368207910, 1368207939, 9852434478, 11381662438, 1368207978, 1368207897, 9052515671, 1368208059, 4597426482, 1368208080, 4597426481, 1368208126, 4597426480, 1368208131, 4597426479, 4597426478, 1368208106, 4597426477, 1368208043, 4597426476, 1368208011, 4597426475, 4597426474, 9450279836, 9529812757, 4597426473, 4597433393], "tags": {"source": "cuzk:km"}}, {"type": "way", "id": 244338890, "nodes": [2516661471, 2516661477, 2516661490, 2516661487, 2516661475, 2516661470, 2516661465, 2516661466, 2516661471], "tags": {"amenity": "shelter", "building": "yes", "building:ruian:type": "19", "check_date": "2025-07-14", "lit": "no", "lockable": "no", "ref:ruian:building": "41838904", "shelter_type": "lean_to", "source": "cuzk:ruian", "wheelchair": "no"}}, {"type": "way", "id": 464662628, "nodes": [1368207956, 4597426468, 4597426467, 4597426465, 4597426466, 4597426464, 4597426463, 4597426462, 1368208005, 4597426461, 1368207981, 4597426460, 1368207956]}, {"type": "way", "id": 694056640, "nodes": [6516302680, 6516302679, 6516302678, 6516302677, 6516302676, 6516302680], "tags": {"amenity": "shelter", "shelter_type": "weather_shelter"}}, {"type": "way", "id": 819951359, "nodes": [7657028804, 7657028803, 7657028802, 7657028801, 7657028804], "tags": {"amenity": "shelter", "building": "yes", "shelter_type": "public_transport"}}, {"type": "way", "id": 866426046, "nodes": [8075715772, 8075715771, 8075715770, 8075715769, 8075715768, 8075715767, 8075715772], "tags": {"amenity": "shelter", "shelter_type": "picnic_shelter"}}, {"type": "way", "id": 966402002, "nodes": [8940893322, 8940893323, 8940893324, 8940893325, 8940893322], "tags": {"amenity": "shelter", "bench": "yes", "bin": "yes", "building": "yes", "shelter_type": "public_transport"}}, {"type": "way", "id": 968198666, "nodes": [8957448286, 8957448287, 8957448288, 8957448289, 8957448286], "tags": {"amenity": "shelter", "bench": "yes", "bin": "yes", "building": "yes", "shelter_type": "public_transport"}}, {"type": "way", "id": 1146983097, "nodes": [10673234582, 10673234579, 10673234580, 10673234581, 5377533070, 10673234582], "tags": {"amenity": "shelter", "shelter_type": "public_transport"}}, {"type": "way", "id": 1185279840, "nodes": [11010258351, 11010258352, 11010258353, 11010258354, 11010258351], "tags": {"amenity": "shelter", "building": "yes"}}, {"type": "way", "id": 1185279842, "nodes": [11010258359, 11010258360, 11010258361, 11010258362, 11010258359], "tags": {"amenity": "shelter", "building": "yes"}}, {"type": "way", "id": 1185279852, "nodes": [11010258394, 11010258395, 11010258396, 11010258397, 11010258394], "tags": {"amenity": "shelter", "building": "yes"}}, {"type": "way", "id": 1185279853, "nodes": [11010258398, 11010258399, 11010258400, 11010258401, 11010258398], "tags": {"amenity": "shelter", "building": "yes"}}, {"type": "way", "id": 1205346868, "nodes": [11170719069, 11170719066, 11170719067, 11170719068, 11170719069], "tags": {"amenity": "shelter", "building": "cabin", "fireplace": "no", "shelter_type": "weather_shelter"}}, {"type": "way", "id": 1326217010, "nodes": [12270665963, 12270665962, 12270665961, 2041762772, 12270665960, 12270665959, 12270665964, 12270665958, 12270665957, 12270665956, 12270665955, 12270665954, 12270665963], "tags": {"building": "roof", "name": "gloriet Klobouk", "source": "cuzk:km", "tourism": "viewpoint", "wikidata": "Q37428525"}}, {"type": "way", "id": 1451388796, "nodes": [13311274773, 13311274774, 13311274775, 13311274776, 13311274773], "tags": {"amenity": "shelter", "bench": "yes", "bin": "no", "building": "yes", "shelter_type": "public_transport"}}, {"type": "way", "id": 1451388797, "nodes": [13311274790, 13311274791, 13311274792, 13311274793, 13311274790], "tags": {"amenity": "shelter", "building": "yes", "shelter_type": "public_transport"}}, {"type": "way", "id": 1451388798, "nodes": [13311274798, 13311274799, 13311274800, 13311300101, 13311274798], "tags": {"amenity": "shelter", "building": "yes", "shelter_type": "public_transport"}}, {"type": "way", "id": 1451388800, "nodes": [13311300108, 13311300109, 13311300110, 13311300111, 13311300108], "tags": {"amenity": "shelter", "building": "yes", "shelter_type": "public_transport"}}, {"type": "way", "id": 1451388801, "nodes": [13311300114, 13311300115, 13311300116, 13311300117, 13311300114], "tags": {"amenity": "shelter", "building": "yes", "shelter_type": "public_transport"}}, {"type": "relation", "id": 1673194, "members": [{"type": "way", "ref": 122433670, "role": "outer"}, {"type": "way", "ref": 122433483, "role": "inner"}, {"type": "way", "ref": 122433630, "role": "inner"}, {"type": "way", "ref": 464662628, "role": "inner"}], "tags": {"access": "yes", "addr:city": "Hor\u0161ovsk\u00fd T\u00fdn", "addr:conscriptionnumber": "1", "addr:country": "CZ", "addr:housenumber": "1", "addr:place": "M\u011bsto", "addr:postcode": "34601", "addr:street": "n\u00e1m\u011bst\u00ed Republiky", "building": "civic", "building:flats": "2", "building:levels": "1", "building:ruian:type": "15", "castle_type": "defensive;stately", "email": "horsovskytyn@npu.cz", "fee": "yes", "heritage": "2", "heritage:operator": "npu", "historic": "castle", "name": "z\u00e1mek Hor\u0161ovsk\u00fd T\u00fdn", "name:cs": "z\u00e1mek Hor\u0161ovsk\u00fd T\u00fdn", "name:de": "Schloss Bischofteinitz", "name:en": "Hor\u0161ovsk\u00fd T\u00fdn Castle", "operator": "npu", "phone": "+420 379 423 111", "ref:ruian:addr": "6900364", "ref:ruian:building": "6854958", "sorting_name": "Hor\u0161ovsk\u00fd T\u00fdn", "source": "cuzk:ruian", "tourism": "attraction", "type": "multipolygon", "website": "http://www.horsovsky-tyn.cz", "wikidata": "Q367343", "wikipedia": "cs:Hor\u0161ovsk\u00fd T\u00fdn (z\u00e1mek)"}}]}