{"version": 0.6, "generator": "Overpass API 0.7.62.8 e802775f", "osm3s": {"timestamp_osm_base": "2026-01-05T15:45:15Z", "copyright": "The data included in this document is from www.openstreetmap.org. The data is made available under ODbL."}, "elements": [{"type": "node", "id": 96428403, "lat": 49.2031833, "lon": 13.1097845, "tags": {"ele": "1293", "name": "Gro\u00dfer Osser", "name:cs": "Ostr\u00fd", "name:de": "Gro\u00dfer Osser", "natural": "peak", "prominence": "178", "source": "\u010c\u00daZK", "summit:cross": "yes", "wikidata": "Q57572842"}}, {"type": "node", "id": 265094405, "lat": 49.2079128, "lon": 13.1003623, "tags": {"amenity": "shelter", "shelter_type": "weather_shelter"}}, {"type": "node", "id": 265094431, "lat": 49.2016875, "lon": 13.1030838, "tags": {"ele": "1266", "name": "Kleiner Osser", "name:cs": "Mal\u00fd Ostr\u00fd", "natural": "peak", "prominence": "48", "wikidata": "Q20752967"}}, {"type": "node", "id": 323133169, "lat": 49.181584, "lon": 13.1394258, "tags": {"information": "guidepost", "name": "Wegweiser", "tourism": "information"}}, {"type": "node", "id": 325216560, "lat": 49.1812778, "lon": 13.1868433, "tags": {"ele": "1007", "hiking": "yes", "information": "guidepost", "name": "\u010cern\u00e9 jezero", "name:de": "Schwarzer See", "operator": "cz:K\u010cT", "ref": "KT076", "ski": "yes", "tourism": "information"}}, {"type": "node", "id": 326124463, "lat": 49.1737704, "lon": 13.1971375, "tags": {"amenity": "shelter", "name": "Rozvod\u00ed"}}, {"type": "node", "id": 403315504, "lat": 49.1569817, "lon": 13.0149053, "tags": {"ele": "1079", "name": "M\u00fchlriegel", "natural": "peak", "source": "wikipedia.de", "summit:cross": "yes", "summit:register": "yes", "viewpoint": "yes", "wikidata": "Q1958642", "wikipedia": "de:M\u00fchlriegel (Bayerischer Wald)"}}, {"type": "node", "id": 403320694, "lat": 49.1570941, "lon": 13.0151211, "tags": {"access": "yes", "amenity": "shelter", "bench": "yes", "description": "Der Unterstand ist zu einer Seite vollst\u00e4ndig offen. An der einen Seite ist eine Bank. Aufgrund der offenen Seite nur bedingt f\u00fcr \u00dcbernachtungen mit Isomatte geeignet.", "lockable": "no", "locked": "no", "note": "shelter sieht etwas besch\u00e4digt aus.", "picnic_table": "no", "shelter_type": "weather_shelter", "table": "yes"}}, {"type": "node", "id": 437029765, "lat": 49.1537963, "lon": 13.0500875, "tags": {"access": "yes", "amenity": "shelter", "bench": "yes", "description": "Umlaufende Bank. Die eine Seite ist ungef\u00e4hr zur H\u00e4lfte offen. Bedingt f\u00fcr \u00dcbernachtungen mit Isomatte f\u00fcr eine Person geeignet.", "lockable": "no", "locked": "no", "name": "Am Waldwiesmarterl", "picnic_table": "no", "shelter_type": "lean_to", "surface": "dirt", "table": "no"}}, {"type": "node", "id": 519652044, "lat": 49.1918654, "lon": 13.1136381, "tags": {"information": "route_marker", "name": "Pfeil (Richtungsweiser)", "tourism": "information"}}, {"type": "node", "id": 519652066, "lat": 49.1794322, "lon": 13.1428511, "tags": {"amenity": "shelter", "operator": "Naturpark", "shelter_type": "weather_shelter", "year_of_construction": "1978"}}, {"type": "node", "id": 519652068, "lat": 49.159877, "lon": 13.1588071, "tags": {"information": "map", "name": "Scheiben", "tourism": "information"}}, {"type": "node", "id": 565439913, "lat": 49.1782, "lon": 13.1968, "tags": {"tourism": "viewpoint"}}, {"type": "node", "id": 576647349, "lat": 49.2157789, "lon": 13.1144227, "tags": {"ele": "1100", "name": "J\u00e4gerh\u00fcbel", "name:cs": "Hole", "natural": "peak", "source:ele": "tisicovky.cz", "source:name": "tisicovky.cz"}}, {"type": "node", "id": 576647358, "lat": 49.226964, "lon": 13.0891868, "tags": {"ele": "1102", "natural": "peak", "source:ele": "tisicovky.cz"}}, {"type": "node", "id": 576699851, "lat": 49.168656, "lon": 13.1847617, "tags": {"ele": "1344", "name": "Jezern\u00ed hora", "name:de": "Hohe Seewand", "natural": "peak", "prominence": "313", "wikidata": "Q12024624"}}, {"type": "node", "id": 576717511, "lat": 49.175129, "lon": 13.2003386, "tags": {"ele": "1190", "name": "Mal\u00fd \u0160pi\u010d\u00e1k", "name:de": "Kleiner Spitzberg", "natural": "peak", "source": "\u010c\u00daZK"}}, {"type": "node", "id": 577336410, "lat": 49.1861368, "lon": 13.1451712, "tags": {"ele": "1229", "name": "Velk\u00fd Kokrh\u00e1\u010d", "natural": "peak", "source": "tisicovky.cz"}}, {"type": "node", "id": 748062570, "lat": 49.1737585, "lon": 13.1659922, "tags": {"information": "guidepost", "source": "su#", "tourism": "information"}}, {"type": "node", "id": 748107600, "lat": 49.1740757, "lon": 13.1696779, "tags": {"board_type": "history", "information": "board", "name": "b\u00fdval\u00e1 Jur\u00e1nkova chata", "name:cs": "b\u00fdval\u00e1 Jur\u00e1nkova chata", "name:de": "Juranek-H\u00fctte (verfallen)", "tourism": "information"}}, {"type": "node", "id": 748318784, "lat": 49.1656549, "lon": 13.165007, "tags": {"information": "guidepost", "source": "su#", "tourism": "information"}}, {"type": "node", "id": 748318792, "lat": 49.1740003, "lon": 13.1970642, "tags": {"ele": "1152", "hiking": "yes", "information": "guidepost", "name": "Rozvod\u00ed", "operator": "cz:K\u010cT", "ref": "KT078", "source": "survey", "tourism": "information"}}, {"type": "node", "id": 748318806, "lat": 49.163154, "lon": 13.1600157, "tags": {"information": "guidepost", "source": "su#", "tourism": "information"}}, {"type": "node", "id": 748359395, "lat": 49.1758343, "lon": 13.1751967, "tags": {"tourism": "viewpoint"}}, {"type": "node", "id": 748359404, "lat": 49.1728657, "lon": 13.1651895, "tags": {"tourism": "viewpoint"}}, {"type": "node", "id": 847203203, "lat": 49.2029337, "lon": 13.1101924, "tags": {"hiking": "yes", "information": "guidepost", "name": "Lo1 / La 1 / La 3 / E 6", "ref": "none", "tourism": "information"}}, {"type": "node", "id": 847203226, "lat": 49.2304942, "lon": 13.076727, "tags": {"information": "guidepost", "tourism": "information"}}, {"type": "node", "id": 847203319, "lat": 49.2351177, "lon": 13.0845904, "tags": {"information": "guidepost", "tourism": "information"}}, {"type": "node", "id": 847203321, "lat": 49.2027516, "lon": 13.1072739, "tags": {"information": "guidepost", "tourism": "information"}}, {"type": "node", "id": 847203349, "lat": 49.232562, "lon": 13.0563942, "tags": {"information": "guidepost", "tourism": "information"}}, {"type": "node", "id": 847203402, "lat": 49.2398399, "lon": 13.0550126, "tags": {"FIXME": "Position gesch\u00e4tzt.", "name": "Holzkunst (Auerhahn)", "tourism": "attraction"}}, {"type": "node", "id": 847203466, "lat": 49.2074579, "lon": 13.1004903, "tags": {"information": "guidepost", "tourism": "information"}}, {"type": "node", "id": 847203482, "lat": 49.2300118, "lon": 13.0765777, "tags": {"tourism": "viewpoint"}}, {"type": "node", "id": 847203528, "lat": 49.2396051, "lon": 13.0646294, "tags": {"name": "Holzkunst (Uhu mit Jungem)", "tourism": "attraction"}}, {"type": "node", "id": 847203582, "lat": 49.23842, "lon": 13.0747741, "tags": {"name": "Holzkunst (Luchs)", "tourism": "attraction"}}, {"type": "node", "id": 847203585, "lat": 49.2139123, "lon": 13.1083478, "tags": {"information": "guidepost", "tourism": "information"}}, {"type": "node", "id": 847203646, "lat": 49.2372297, "lon": 13.0822724, "tags": {"information": "guidepost", "tourism": "information"}}, {"type": "node", "id": 847203717, "lat": 49.2404422, "lon": 13.0528768, "tags": {"information": "guidepost", "name": "Wasserscheideweg / z. Osser etc.", "tourism": "information"}}, {"type": "node", "id": 847203798, "lat": 49.2388152, "lon": 13.0695312, "tags": {"name": "Holzkunst (Reh)", "tourism": "attraction"}}, {"type": "node", "id": 847203820, "lat": 49.2311419, "lon": 13.0875361, "tags": {"information": "guidepost", "tourism": "information"}}, {"type": "node", "id": 847203857, "lat": 49.2336623, "lon": 13.0561802, "tags": {"information": "guidepost", "tourism": "information"}}, {"type": "node", "id": 847203940, "lat": 49.2293624, "lon": 13.0859496, "tags": {"information": "guidepost", "name": "Europ\u00e4ische Hauptwasserscheide", "tourism": "information"}}, {"type": "node", "id": 850113965, "lat": 49.2029011, "lon": 13.1062961, "tags": {"information": "guidepost", "tourism": "information"}}, {"type": "node", "id": 1008802462, "lat": 49.1876844, "lon": 13.1793654, "tags": {"ele": "1093", "natural": "peak", "source": "\u010c\u00daZK"}}, {"type": "node", "id": 1172675263, "lat": 49.1729651, "lon": 13.1062845}, {"type": "node", "id": 1172675320, "lat": 49.1730499, "lon": 13.1065625}, {"type": "node", "id": 1172675394, "lat": 49.1729564, "lon": 13.1064423}, {"type": "node", "id": 1172675478, "lat": 49.1731042, "lon": 13.1065731}, {"type": "node", "id": 1172675535, "lat": 49.172944, "lon": 13.1064791}, {"type": "node", "id": 1172675600, "lat": 49.1729213, "lon": 13.1064146}, {"type": "node", "id": 1172675655, "lat": 49.1731518, "lon": 13.1064316}, {"type": "node", "id": 1172675704, "lat": 49.1730585, "lon": 13.1065371}, {"type": "node", "id": 1262584124, "lat": 49.198441, "lon": 13.0492127, "tags": {"addr:city": "Lam", "addr:housenumber": "1", "addr:postcode": "93462", "addr:street": "Marktplatz", "information": "terminal", "internet_access": "yes", "internet_access:fee": "no", "name": "Tourist-Info Lam", "operator": "Markt Lam", "source": "http://www.lam.de", "tourism": "information", "wheelchair": "yes"}}, {"type": "node", "id": 1396668606, "lat": 49.1983435, "lon": 13.0493086}, {"type": "node", "id": 1396668615, "lat": 49.1983962, "lon": 13.0494616}, {"type": "node", "id": 1396668618, "lat": 49.1985001, "lon": 13.0491822}, {"type": "node", "id": 1396668619, "lat": 49.1985528, "lon": 13.0493353}, {"type": "node", "id": 1424952870, "lat": 49.2081846, "lon": 13.0878456, "tags": {"information": "guidepost", "tourism": "information"}}, {"type": "node", "id": 1453581973, "lat": 49.2301239, "lon": 13.0846191, "tags": {"natural": "peak"}}, {"type": "node", "id": 1453632077, "lat": 49.2092007, "lon": 13.0630444, "tags": {"information": "guidepost", "tourism": "information"}}, {"type": "node", "id": 1453632087, "lat": 49.2107705, "lon": 13.0934866, "tags": {"information": "guidepost", "name": "1000m \u00fc NN", "tourism": "information"}}, {"type": "node", "id": 1453632092, "lat": 49.2100033, "lon": 13.0907554, "tags": {"information": "guidepost", "tourism": "information"}}, {"type": "node", "id": 1453632101, "lat": 49.2094319, "lon": 13.0639627, "tags": {"information": "guidepost", "tourism": "information"}}, {"type": "node", "id": 1453679289, "lat": 49.2080119, "lon": 13.1117054, "tags": {"natural": "peak"}}, {"type": "node", "id": 1458422474, "lat": 49.2151697, "lon": 13.0703954, "tags": {"information": "map", "tourism": "information"}}, {"type": "node", "id": 1469910361, "lat": 49.1912578, "lon": 13.1556181, "tags": {"description": "Romantick\u00e9 \u00fadol\u00ed s\u00a0jedin\u00fdm vodop\u00e1dem na \u0160umav\u011b", "ele": "965", "hiking": "yes", "information": "guidepost", "name": "B\u00edl\u00e1 str\u017e", "name:de": "Klammerloch", "old_ref": "0245/28;6690/1,3", "operator": "cz:K\u010cT", "ref": "KT075", "ski": "yes", "source": "survey", "tourism": "information"}}, {"type": "node", "id": 1469910365, "lat": 49.1923722, "lon": 13.1537892, "tags": {"ele": "950", "hiking": "yes", "information": "guidepost", "name": "B\u00edl\u00e1 str\u017e (rozcest\u00ed)", "name:de": "Klammerloch", "official_name": "B\u00edl\u00e1 str\u017e (rozc.)", "operator": "cz:K\u010cT", "ref": "0245/27,7;6690/1;KT074", "ski": "yes", "ski:nordic": "yes", "source": "survey", "tourism": "information"}}, {"type": "node", "id": 1469910382, "lat": 49.2606449, "lon": 13.0580476, "tags": {"ele": "590", "hiking": "yes", "information": "guidepost", "name": "Chodsk\u00e1 \u00dahlava", "operator": "cz:K\u010cT", "ref": "KT069", "source": "survey", "tourism": "information"}}, {"type": "node", "id": 1469910453, "lat": 49.2900367, "lon": 13.0451807, "tags": {"ele": "570", "hiking": "yes", "information": "guidepost", "name": "P\u0159edn\u00ed Fleky (rozc.)", "operator": "cz:K\u010cT", "ref": "KT066", "tourism": "information"}}, {"type": "node", "id": 1469910472, "lat": 49.2013639, "lon": 13.1388453, "tags": {"ele": "958", "hiking": "yes", "information": "guidepost", "name": "State\u010dek", "operator": "cz:K\u010cT", "ref": "KT073", "source": "survey", "tourism": "information"}}, {"type": "node", "id": 1469910481, "lat": 49.2723389, "lon": 13.0653732, "tags": {"ele": "625", "hiking": "yes", "information": "guidepost", "name": "Svat\u00e1 Kate\u0159ina (bus)", "operator": "cz:K\u010cT", "ref": "KT067", "source": "survey", "tourism": "information"}}, {"type": "node", "id": 1469910498, "lat": 49.2484862, "lon": 13.0928753, "tags": {"ele": "731", "hiking": "yes", "information": "guidepost", "name": "Zadn\u00ed chalupy", "operator": "cz:K\u010cT", "ref": "KT070", "ski": "yes", "tourism": "information"}}, {"type": "node", "id": 1469910936, "lat": 49.1909861, "lon": 13.1553611, "tags": {"amenity": "shelter", "fireplace": "no", "name": "B\u00edl\u00e1 str\u017e", "shelter_type": "picnic_shelter", "source": "survey"}}, {"type": "node", "id": 1469911004, "lat": 49.2019812, "lon": 13.1392992, "tags": {"tourism": "viewpoint"}}, {"type": "node", "id": 1469911181, "lat": 49.2483813, "lon": 13.0927365, "tags": {"bicycle": "yes", "hiking": "yes", "information": "map", "map_size": "region", "map_type": "topo", "source": "survey", "tourism": "information"}}, {"type": "node", "id": 1469911843, "lat": 49.2966304, "lon": 13.0431044, "tags": {"ele": "550", "hiking": "yes", "information": "guidepost", "name": "\u010cerven\u00e9 d\u0159evo", "operator": "cz:K\u010cT", "ref": "KT065", "tourism": "information"}}, {"type": "node", "id": 1615573947, "lat": 49.206956, "lon": 13.1105056, "tags": {"natural": "peak"}}, {"type": "node", "id": 1615573951, "lat": 49.2027726, "lon": 13.109264, "tags": {"information": "guidepost", "tourism": "information"}}, {"type": "node", "id": 1680780554, "lat": 49.1732502, "lon": 13.1060271, "tags": {"information": "map", "map_size": "site", "map_type": "scheme", "name": "Lohberg", "tourism": "information"}}, {"type": "node", "id": 1683725445, "lat": 49.2120186, "lon": 13.0188948, "tags": {"tourism": "information"}}, {"type": "node", "id": 1741294761, "lat": 49.195972, "lon": 13.1258815, "tags": {"tourism": "viewpoint"}}, {"type": "node", "id": 1742704635, "lat": 49.1819639, "lon": 13.1486683, "tags": {"tourism": "viewpoint"}}, {"type": "node", "id": 1742704646, "lat": 49.1857456, "lon": 13.1453526, "tags": {"tourism": "viewpoint"}}, {"type": "node", "id": 1768727330, "lat": 49.1982819, "lon": 13.1554117, "tags": {"ele": "750", "hiking": "yes", "information": "guidepost", "name": "B\u00edl\u00fd potok", "operator": "cz:K\u010cT", "ref": "KT032", "ski": "yes", "tourism": "information"}}, {"type": "node", "id": 1768727344, "lat": 49.2007107, "lon": 13.1481243, "tags": {"ele": "823", "hiking": "yes", "information": "guidepost", "name": "Pod State\u010dkem (rozcest\u00ed)", "official_name": "Pod State\u010dkem (rozc.)", "operator": "cz:K\u010cT", "ref": "KT113", "tourism": "information"}}, {"type": "node", "id": 1878324822, "lat": 49.1715649, "lon": 13.0893337, "tags": {"information": "map", "map_size": "site", "map_type": "street", "tourism": "information"}}, {"type": "node", "id": 1891788051, "lat": 49.1593927, "lon": 13.1546158, "tags": {"name": "Langlaufzentrum Lohberg-Scheiben", "tourism": "attraction"}}, {"type": "node", "id": 1891813231, "lat": 49.2147288, "lon": 13.1144343, "tags": {"ele": "1093", "name": "Wei\u00dfer Riegel", "natural": "peak"}}, {"type": "node", "id": 2021901437, "lat": 49.1783608, "lon": 13.1289937, "tags": {"information": "guidepost", "tourism": "information"}}, {"type": "node", "id": 2021901463, "lat": 49.1848092, "lon": 13.1257443, "tags": {"information": "guidepost", "tourism": "information"}}, {"type": "node", "id": 2021901464, "lat": 49.1876634, "lon": 13.1260648, "tags": {"information": "guidepost", "tourism": "information"}}, {"type": "node", "id": 2022641705, "lat": 49.1904798, "lon": 13.1567291, "tags": {"tourism": "viewpoint"}}, {"type": "node", "id": 2022641715, "lat": 49.1958429, "lon": 13.1485, "tags": {"tourism": "viewpoint"}}, {"type": "node", "id": 2024394335, "lat": 49.1783839, "lon": 13.1291801, "tags": {"information": "map", "map_size": "region", "map_type": "scheme", "tourism": "information"}}, {"type": "node", "id": 2067184116, "lat": 49.1885407, "lon": 13.0049287, "tags": {"historic": "ruins", "name": "Steinerne Br\u00fccke", "tourism": "attraction"}}, {"type": "node", "id": 2133051614, "lat": 49.2095164, "lon": 13.1989414, "tags": {"ele": "895", "hiking": "yes", "information": "guidepost", "name": "Hojsova Str\u00e1\u017e, kostel", "operator": "cz:K\u010cT", "ref": "KT109", "ski": "yes", "tourism": "information"}}, {"type": "node", "id": 2388719374, "lat": 49.1631148, "lon": 13.0265857, "tags": {"ele": "1047", "name": "Haib\u00fchler Spitz", "natural": "peak"}}, {"type": "node", "id": 2417574831, "lat": 49.1984114, "lon": 13.1157105, "tags": {"tourism": "viewpoint"}}, {"type": "node", "id": 2418033937, "lat": 49.1612151, "lon": 13.1337664, "tags": {"information": "guidepost", "tourism": "information"}}, {"type": "node", "id": 2418034050, "lat": 49.1649755, "lon": 13.1279331, "tags": {"information": "guidepost", "tourism": "information"}}, {"type": "node", "id": 2418034061, "lat": 49.1663484, "lon": 13.1275132, "tags": {"information": "guidepost", "tourism": "information"}}, {"type": "node", "id": 2418034088, "lat": 49.1698002, "lon": 13.1441892, "tags": {"information": "guidepost", "tourism": "information"}}, {"type": "node", "id": 2418034118, "lat": 49.1712384, "lon": 13.1463738, "tags": {"information": "guidepost", "tourism": "information"}}, {"type": "node", "id": 2418034246, "lat": 49.1742515, "lon": 13.1372678, "tags": {"information": "guidepost", "tourism": "information"}}, {"type": "node", "id": 2418034270, "lat": 49.1760573, "lon": 13.1316731, "tags": {"information": "guidepost", "tourism": "information"}}, {"type": "node", "id": 2418034364, "lat": 49.1904193, "lon": 13.1386641, "tags": {"information": "guidepost", "name": "LO 8 - \u00fcber Lohberger Steindl - Altlohbergh\u00fctte", "tourism": "information"}}, {"type": "node", "id": 2418050271, "lat": 49.1752013, "lon": 13.1610787, "tags": {"information": "guidepost", "name": "LO 5 - Lohberg \u00fc. Oberhaidenberg", "tourism": "information"}}, {"type": "node", "id": 2482137827, "lat": 49.1711906, "lon": 13.0886279, "tags": {"check_date": "2025-09-21", "information": "map", "map_size": "site", "map_type": "scheme", "name": "Bayerwald-Tierpark Lohberg", "tourism": "information"}}, {"type": "node", "id": 2482138075, "lat": 49.1692631, "lon": 13.0865405, "tags": {"name": "Wisent", "tourism": "attraction"}}, {"type": "node", "id": 2482138078, "lat": 49.1688841, "lon": 13.0858665, "tags": {"name": "Wolf", "tourism": "attraction"}}, {"type": "node", "id": 2592463249, "lat": 49.1778965, "lon": 13.1266036, "tags": {"information": "guidepost", "tourism": "information"}}, {"type": "node", "id": 2595966364, "lat": 49.1996758, "lon": 13.170296, "tags": {"amenity": "shelter", "shelter_type": "rock_shelter", "source": "Bing;gps"}}, {"type": "node", "id": 2597291760, "lat": 49.2076245, "lon": 13.0874809, "tags": {"amenity": "shelter", "information": "guidepost", "note": "Schild ist auf der Schutzh\u00fctte => kein eigener POI", "shelter_type": "weather_shelter", "tourism": "information"}}, {"type": "node", "id": 2691239059, "lat": 49.2616, "lon": 13.12015, "tags": {"amenity": "shelter", "source": "survey"}}, {"type": "node", "id": 2691239060, "lat": 49.2692167, "lon": 13.1247, "tags": {"amenity": "shelter", "shelter_type": "picnic_shelter", "source": "survey"}}, {"type": "node", "id": 2691256376, "lat": 49.30865, "lon": 13.0609333, "tags": {"board_type": "history", "information": "board", "name": "Medv\u011bd\u00ed kaple", "source": "survey", "tourism": "information"}}, {"type": "node", "id": 2899079704, "lat": 49.3219671, "lon": 13.0697989, "tags": {"ele": "739", "name": "Jezvinec", "name:cs": "Jezvinec", "name:de": "Gewintzyberg", "natural": "peak", "wikidata": "Q23818589"}}, {"type": "node", "id": 2899094792, "lat": 49.2613778, "lon": 13.1202705, "tags": {"ele": "833", "name": "Hrani\u010d\u00e1\u0159", "name:de": "Rantscher Berg", "natural": "peak"}}, {"type": "node", "id": 2917253617, "lat": 49.1708513, "lon": 13.090526, "tags": {"contact:email": "info@kleine-arberseebahn.de", "contact:phone": "+49 9943 905026", "contact:website": "http://www.kleine-arberseebahn.de/", "description": "Kasse", "information": "office", "name": "Kleine Arberseebahn", "tourism": "information"}}, {"type": "node", "id": 2969872191, "lat": 49.1947024, "lon": 13.1324031, "tags": {"ele": "1138", "name": "Maxfelsen", "natural": "peak", "note": "hat den Namen wer erfunden?"}}, {"type": "node", "id": 2969891965, "lat": 49.2055104, "lon": 13.0975688, "tags": {"hiking": "yes", "information": "map", "name": "Osserwiese & Gr. Osser + Karte", "tourism": "information"}}, {"type": "node", "id": 2969896180, "lat": 49.2028097, "lon": 13.1022516, "tags": {"information": "guidepost", "tourism": "information"}}, {"type": "node", "id": 2969903538, "lat": 49.2057755, "lon": 13.0976124, "tags": {"information": "board", "name": "Bergpieper", "tourism": "information"}}, {"type": "node", "id": 2969908441, "lat": 49.2102748, "lon": 13.0961747, "tags": {"information": "guidepost", "name": "Lo 3 - Osser-Riesen-Steig", "tourism": "information"}}, {"type": "node", "id": 2969908509, "lat": 49.2105607, "lon": 13.0916289, "tags": {"information": "board", "name": "Die Sage vom Teufelstritt", "tourism": "information"}}, {"type": "node", "id": 2969914885, "lat": 49.2081019, "lon": 13.0878617, "tags": {"hiking": "yes", "information": "map", "map_size": "region", "map_type": "topo", "name": "Wanderkarte \"Lamer Winkel\"", "tourism": "information"}}, {"type": "node", "id": 2969914886, "lat": 49.2080711, "lon": 13.0878194, "tags": {"information": "board", "name": "Osser-Quarzit bei Lam", "tourism": "information"}}, {"type": "node", "id": 2969921900, "lat": 49.2051078, "lon": 13.062997, "tags": {"information": "guidepost", "tourism": "information"}}, {"type": "node", "id": 2969923872, "lat": 49.2088193, "lon": 13.062482, "tags": {"information": "guidepost", "name": "Wegweiser", "tourism": "information"}}, {"type": "node", "id": 2969940940, "lat": 49.208786, "lon": 13.06241, "tags": {"name": "Lam - Gl\u00e4serner Steig-E6", "tourism": "information"}}, {"type": "node", "id": 2969966047, "lat": 49.1906293, "lon": 13.1371358, "tags": {"ele": "1169", "name": "Mal\u00fd Kokrh\u00e1\u010d", "natural": "peak"}}, {"type": "node", "id": 2970748586, "lat": 49.1893925, "lon": 13.1360916, "tags": {"name": "Am Kn\u00f6chel", "natural": "peak", "place": "locality"}}, {"type": "node", "id": 3085753887, "lat": 49.1732758, "lon": 13.2003897, "tags": {"ele": "1145", "hiking": "yes", "information": "guidepost", "name": "Pod Mal\u00fdm \u0160pi\u010d\u00e1kem", "operator": "cz:K\u010cT", "ref": "KT008", "tourism": "information"}}, {"type": "node", "id": 3085788750, "lat": 49.1617582, "lon": 13.1972124, "tags": {"information": "board", "name": "Turisticka stezka Jezern\u00ed sponka", "tourism": "information"}}, {"type": "node", "id": 3302120956, "lat": 49.1917936, "lon": 13.1087452, "tags": {"information": "guidepost", "tourism": "information"}}, {"type": "node", "id": 3302126661, "lat": 49.1919953, "lon": 13.1081069, "tags": {"information": "guidepost", "tourism": "information"}}, {"type": "node", "id": 3302160245, "lat": 49.1923485, "lon": 13.1050263}, {"type": "node", "id": 3302160246, "lat": 49.1923643, "lon": 13.1051016}, {"type": "node", "id": 3302160247, "lat": 49.1923128, "lon": 13.1051269}, {"type": "node", "id": 3302160248, "lat": 49.192297, "lon": 13.1050515}, {"type": "node", "id": 3302172725, "lat": 49.1811417, "lon": 13.1055617, "tags": {"information": "guidepost", "name": "Osserparkplatz", "tourism": "information"}}, {"type": "node", "id": 3302177502, "lat": 49.1780034, "lon": 13.1057474, "tags": {"information": "guidepost", "name": "Wegweiser- Osserparkplatz", "tourism": "information"}}, {"type": "node", "id": 3302178090, "lat": 49.1797862, "lon": 13.1086996, "tags": {"amenity": "shelter", "shelter_type": "public_transport"}}, {"type": "node", "id": 3302301577, "lat": 49.2012643, "lon": 13.1135223, "tags": {"information": "guidepost", "name": "SVAROH", "tourism": "information"}}, {"type": "node", "id": 3302319335, "lat": 49.2035157, "lon": 13.1097983, "tags": {"information": "board", "name": "Betriebsbereich- Betreten verboten!", "tourism": "information"}}, {"type": "node", "id": 3302343358, "lat": 49.1813725, "lon": 13.1063491, "tags": {"information": "guidepost", "tourism": "information"}}, {"type": "node", "id": 3302343359, "lat": 49.1813518, "lon": 13.1064666, "tags": {"hiking": "yes", "information": "map", "map_type": "topo", "tourism": "information"}}, {"type": "node", "id": 3305553157, "lat": 49.2403618, "lon": 13.0533379}, {"type": "node", "id": 3305553159, "lat": 49.240392, "lon": 13.0533927}, {"type": "node", "id": 3305553160, "lat": 49.2403959, "lon": 13.0532939}, {"type": "node", "id": 3305553663, "lat": 49.2404261, "lon": 13.0533487}, {"type": "node", "id": 3459018475, "lat": 49.1775478, "lon": 13.1310158, "tags": {"information": "guidepost", "name": "zur BW - Meldestelle", "tourism": "information"}}, {"type": "node", "id": 3459019507, "lat": 49.1785669, "lon": 13.1289833, "tags": {"information": "guidepost", "tourism": "information"}}, {"type": "node", "id": 3459052673, "lat": 49.1739781, "lon": 13.1664534, "tags": {"ele": "1334", "name": "Svaroh", "name:de": "Zwercheck", "natural": "peak", "prominence": "14", "source": "\u010c\u00daZK", "wikidata": "Q243865", "wikipedia": "cs:Svaroh (\u0160umava)"}}, {"type": "node", "id": 3459052675, "lat": 49.1740261, "lon": 13.1670269, "tags": {"information": "history", "name": "Arny Juranek (1874 \u2013 1944)", "tourism": "information"}}, {"type": "node", "id": 3459055190, "lat": 49.1738706, "lon": 13.1664586, "tags": {"board_type": "warning", "information": "board", "inscription": "POZOR St\u00e1tn\u00ed hranice", "tourism": "information"}}, {"type": "node", "id": 3459055191, "lat": 49.173868, "lon": 13.1664868, "tags": {"name": "P\u0159\u00edrodn\u00ed rezervace - z\u00e1kaz vstupu", "name:de": "Naturschutzgebiet - Zutritt verboten", "tourism": "information"}}, {"type": "node", "id": 3459057657, "lat": 49.1783355, "lon": 13.1567714, "tags": {"name": "Pozor", "tourism": "information"}}, {"type": "node", "id": 3459060330, "lat": 49.1804158, "lon": 13.153234, "tags": {"board_type": "warning", "information": "board", "inscription": "POZOR St\u00e1tn\u00ed hranice", "tourism": "information"}}, {"type": "node", "id": 3459060982, "lat": 49.1750591, "lon": 13.1614684, "tags": {"board_type": "warning", "information": "board", "inscription": "POZOR St\u00e1tn\u00ed hranice", "tourism": "information"}}, {"type": "node", "id": 3459060983, "lat": 49.1749378, "lon": 13.1616394, "tags": {"name": "Pr\u00e1zdn\u00e1 d\u0159ev\u011bn\u00e1 deska", "name:de": "Leere Holztafel", "tourism": "information"}}, {"type": "node", "id": 3459063270, "lat": 49.1821918, "lon": 13.1486039, "tags": {"name": "Pozor", "tourism": "information"}}, {"type": "node", "id": 3459063678, "lat": 49.1866264, "lon": 13.1445486, "tags": {"description": "1,5h Ossry / 1,5h Svaroh", "information": "guidepost", "tourism": "information"}}, {"type": "node", "id": 3459063679, "lat": 49.186521, "lon": 13.1446657, "tags": {"name": "Pozor", "tourism": "information"}}, {"type": "node", "id": 3459067027, "lat": 49.1879731, "lon": 13.1428424, "tags": {"name": "Pozor", "tourism": "information"}}, {"type": "node", "id": 3459067028, "lat": 49.1896786, "lon": 13.1419, "tags": {"name": "Pozor", "tourism": "information"}}, {"type": "node", "id": 3459071823, "lat": 49.1850545, "lon": 13.1344858, "tags": {"direction": "220", "tourism": "viewpoint"}}, {"type": "node", "id": 3459075057, "lat": 49.1851825, "lon": 13.1346146, "tags": {"information": "guidepost", "tourism": "information"}}, {"type": "node", "id": 3459082771, "lat": 49.1736773, "lon": 13.1708845, "tags": {"historic": "memorial", "information": "history", "name": "Rok vy\u0159ez\u00e1n\u00ed - KB 1766", "name:de": "Eingemeisselte Jahreszahl - KB 1766", "tourism": "information"}}, {"type": "node", "id": 3459082772, "lat": 49.1735054, "lon": 13.1709081, "tags": {"information": "guidepost", "name": "LO 5 - Lohberg \u00fcber Scheiben, Sommerau", "tourism": "information"}}, {"type": "node", "id": 3459083194, "lat": 49.1736982, "lon": 13.1714026, "tags": {"name": "Z\u00e1kaz p\u0159ekra\u010dov\u00e1n\u00ed NSG", "name:de": "Betretungsverbot-NSG", "tourism": "information"}}, {"type": "node", "id": 3459364423, "lat": 49.1635706, "lon": 13.1768843, "tags": {"board_type": "warning", "information": "board", "inscription": "POZOR St\u00e1tn\u00ed hranice", "tourism": "information"}}, {"type": "node", "id": 3459379474, "lat": 49.1575633, "lon": 13.1743725, "tags": {"board_type": "warning", "information": "board", "name": "Landesgrenze", "tourism": "information"}}, {"type": "node", "id": 3459379475, "lat": 49.1564162, "lon": 13.1740721, "tags": {"board_type": "warning", "information": "board", "inscription": "POZOR St\u00e1tn\u00ed hranice", "tourism": "information"}}, {"type": "node", "id": 3459399042, "lat": 49.1532778, "lon": 13.1735827, "tags": {"board_type": "warning", "information": "board", "inscription": "POZOR St\u00e1tn\u00ed hranice", "tourism": "information"}}, {"type": "node", "id": 3459399043, "lat": 49.1532536, "lon": 13.1735731, "tags": {"name": "P\u00e1smo ochrany p\u0159\u00edrody - vstup zak\u00e1z\u00e1n", "name:de": "Naturschutzzone- Betreten verboten", "tourism": "information"}}, {"type": "node", "id": 3459682910, "lat": 49.1594674, "lon": 13.1601274, "tags": {"information": "board", "name": "Zwercheck (Waldgebiet)", "tourism": "information"}}, {"type": "node", "id": 3461951645, "lat": 49.1822906, "lon": 13.137221, "tags": {"information": "guidepost", "name": "Lo 8", "tourism": "information"}}, {"type": "node", "id": 3462006185, "lat": 49.1778201, "lon": 13.1373329, "tags": {"name": "Schlagh\u00fctte (Waldgebietstafel)", "tourism": "information"}}, {"type": "node", "id": 3462009131, "lat": 49.1769718, "lon": 13.1340548, "tags": {"information": "guidepost", "name": "Lo 8 \u00fcber Lohberger Steindl", "tourism": "information"}}, {"type": "node", "id": 3462013832, "lat": 49.1770489, "lon": 13.1330033, "tags": {"hiking": "yes", "information": "map", "tourism": "information"}}, {"type": "node", "id": 3595959826, "lat": 49.2237895, "lon": 13.0991098, "tags": {"tourism": "viewpoint"}}, {"type": "node", "id": 3595959827, "lat": 49.2043674, "lon": 13.0992131, "tags": {"name": "Osserwiese", "tourism": "information"}}, {"type": "node", "id": 3595959828, "lat": 49.2113767, "lon": 13.1134959, "tags": {"name": "Osserblick", "tourism": "viewpoint"}}, {"type": "node", "id": 3595999220, "lat": 49.2322616, "lon": 13.0561218, "tags": {"ele": "903", "natural": "peak"}}, {"type": "node", "id": 3596023203, "lat": 49.1900171, "lon": 13.0789765, "tags": {"name": "Kneippbecken", "tourism": "information"}}, {"type": "node", "id": 3596031275, "lat": 49.2032357, "lon": 13.1096897, "tags": {"tourism": "viewpoint"}}, {"type": "node", "id": 3596036768, "lat": 49.1814465, "lon": 13.0951642, "tags": {"name": "Kneipplatz", "tourism": "information"}}, {"type": "node", "id": 3650438745, "lat": 49.1956516, "lon": 13.0097159}, {"type": "node", "id": 3650438746, "lat": 49.1956508, "lon": 13.0097589}, {"type": "node", "id": 3650438747, "lat": 49.1956218, "lon": 13.0097803}, {"type": "node", "id": 3650438748, "lat": 49.1955929, "lon": 13.0097629}, {"type": "node", "id": 3650438749, "lat": 49.1955929, "lon": 13.0096985}, {"type": "node", "id": 3650438750, "lat": 49.1956262, "lon": 13.0096811}, {"type": "node", "id": 3658463246, "lat": 49.2087687, "lon": 13.042772, "tags": {"information": "guidepost", "tourism": "information"}}, {"type": "node", "id": 3673432656, "lat": 49.2534585, "lon": 13.049184, "tags": {"ele": "757", "name": "Auf der Schanz", "natural": "peak", "summit:cross": "yes"}}, {"type": "node", "id": 3687770818, "lat": 49.2148723, "lon": 13.1598401, "tags": {"ele": "582", "hiking": "yes", "information": "guidepost", "name": "Hamry (bus)", "operator": "cz:K\u010cT", "ref": "KT112;1421/58", "tourism": "information"}}, {"type": "node", "id": 3687770819, "lat": 49.2132535, "lon": 13.1735947, "tags": {"ele": "740", "hiking": "yes", "information": "guidepost", "name": "Hamry - H. Str\u00e1\u017e (\u017dST)", "operator": "cz:K\u010cT", "ref": "KT111", "tourism": "information"}}, {"type": "node", "id": 3771973762, "lat": 49.3155082, "lon": 13.0658609, "tags": {"ele": "576", "hiking": "yes", "information": "guidepost", "name": "Li\u0161\u010d\u00ed h\u00e1jovna", "operator": "cz:K\u010cT", "ref": "KT063", "tourism": "information"}}, {"type": "node", "id": 3771973764, "lat": 49.3292287, "lon": 13.0894465, "tags": {"ele": "620", "hiking": "yes", "information": "guidepost", "name": "Orlovice - rozcest\u00ed", "operator": "cz:K\u010cT", "ref": "DO259", "tourism": "information"}}, {"type": "node", "id": 3771973765, "lat": 49.3104835, "lon": 13.0597689, "tags": {"ele": "567", "hiking": "yes", "information": "guidepost", "name": "Pod Li\u0161\u00e1kem", "operator": "cz:K\u010cT", "ref": "0245/4,5;KT064;KT066", "tourism": "information"}}, {"type": "node", "id": 3773845997, "lat": 49.3219291, "lon": 13.0699067, "tags": {"ele": "739", "hiking": "yes", "information": "guidepost", "name": "Jezvinec", "operator": "cz:K\u010cT", "ref": "DO260", "tourism": "information"}}, {"type": "node", "id": 3773845998, "lat": 49.2932536, "lon": 13.1416265, "tags": {"ele": "440", "foot": "yes", "hiking": "yes", "information": "guidepost", "name": "N\u00fdrsko (u mostu)", "operator": "cz:K\u010cT", "ref": "KT134", "tourism": "information"}}, {"type": "node", "id": 3773845999, "lat": 49.2973885, "lon": 13.1527396, "tags": {"ele": "465", "hiking": "yes", "information": "guidepost", "name": "N\u00fdrsko \ud83d\ude82", "operator": "cz:K\u010cT", "ref": "KT133", "tourism": "information"}}, {"type": "node", "id": 3773846000, "lat": 49.330913, "lon": 13.0902469, "tags": {"ele": "590", "hiking": "yes", "information": "guidepost", "name": "Orlovice", "operator": "cz:K\u010cT", "ref": "DO076", "tourism": "information"}}, {"type": "node", "id": 3773846001, "lat": 49.3433825, "lon": 13.1323421, "tags": {"ele": "440", "hiking": "yes", "information": "guidepost", "name": "Poc\u00ednovice", "operator": "cz:K\u010cT", "ref": "DO268;KT219", "tourism": "information"}}, {"type": "node", "id": 3774983230, "lat": 49.2868252, "lon": 13.0308453, "tags": {"ele": "580", "hiking": "yes", "information": "guidepost", "name": "Fleky (CZ/D)", "operator": "cz:K\u010cT", "ref": "KT195", "tourism": "information"}}, {"type": "node", "id": 3775069325, "lat": 49.2599136, "lon": 13.1769725, "tags": {"ele": "645", "hiking": "yes", "information": "guidepost", "name": "Mat\u011bjovice U Kaple", "operator": "cz:K\u010cT", "ref": "KT187", "tourism": "information"}}, {"type": "node", "id": 3775069326, "lat": 49.2589867, "lon": 13.1805776, "tags": {"ele": "665", "hiking": "yes", "information": "guidepost", "name": "Mat\u011bjovi\u010dky (rozc.)", "operator": "cz:K\u010cT", "ref": "KT010;3641/11,7;6633/2,7;KT130", "tourism": "information"}}, {"type": "node", "id": 3775069327, "lat": 49.26168, "lon": 13.1740121, "tags": {"ele": "635", "hiking": "yes", "information": "guidepost", "name": "Mat\u011bjovice (rozc.)", "operator": "cz:K\u010cT", "ref": "3641/11,7;3641/12,3;6633/2,2;KT130", "tourism": "information"}}, {"type": "node", "id": 3775069329, "lat": 49.2900552, "lon": 13.1391853, "tags": {"ele": "450", "hiking": "yes", "information": "guidepost", "name": "N\u00fdrsko \ud83d\ude8c", "operator": "cz:K\u010cT", "ref": "KT198", "tourism": "information"}}, {"type": "node", "id": 3775069330, "lat": 49.2528035, "lon": 13.1119801, "tags": {"ele": "782", "hiking": "yes", "information": "guidepost", "name": "Pod Hrani\u010d\u00e1\u0159em", "operator": "cz:K\u010cT", "ref": "KT132", "tourism": "information"}}, {"type": "node", "id": 3775090520, "lat": 49.2775866, "lon": 13.1746124, "tags": {"ele": "525", "hiking": "yes", "information": "guidepost", "name": "De\u0161enice \u017est.", "operator": "cz:K\u010cT", "ref": "KT224;KT225", "tourism": "information"}}, {"type": "node", "id": 3775090521, "lat": 49.274338, "lon": 13.1716379, "tags": {"ele": "520", "hiking": "yes", "information": "guidepost", "name": "D\u011b\u0161enice", "operator": "cz:K\u010cT", "ref": "KT225", "tourism": "information"}}, {"type": "node", "id": 3775090522, "lat": 49.2535132, "lon": 13.1942478, "tags": {"ele": "803", "hiking": "yes", "information": "guidepost", "name": "K\u0159\u00ed\u017eov\u00fd vrch", "operator": "cz:K\u010cT", "ref": "KT180", "tourism": "information"}}, {"type": "node", "id": 3806480594, "lat": 49.2049763, "lon": 13.1100879, "tags": {"backrest": "yes", "information": "map", "name": "Velk\u00fd a Mal\u00fd Ostr\u00fd", "name:de": "Grosser und Kleiner Osser", "ref": "13", "source": "survey;GPX", "tourism": "information"}}, {"type": "node", "id": 3806480596, "lat": 49.2049662, "lon": 13.110056, "tags": {"hiking": "yes", "information": "guidepost", "name": "Blau / Wei\u00dfer Richtungsweiser", "ref": "none", "tourism": "information"}}, {"type": "node", "id": 3806480597, "lat": 49.2048917, "lon": 13.1099547, "tags": {"information": "board", "name": "Gr. Osser - Wanderweg \u00fcber die Staatsgrenze", "note": "\u00d6ffnungszeiten der \u00dcbertrittserlaubnis", "tourism": "information"}}, {"type": "node", "id": 3806569403, "lat": 49.2075957, "lon": 13.0874888}, {"type": "node", "id": 3806569404, "lat": 49.207601, "lon": 13.0874367}, {"type": "node", "id": 3806569406, "lat": 49.2075701, "lon": 13.0874293}, {"type": "node", "id": 3806569586, "lat": 49.2074908, "lon": 13.086599, "tags": {"name": "Sattel", "natural": "peak"}}, {"type": "node", "id": 4016875090, "lat": 49.3503059, "lon": 13.1486614, "tags": {"check_date": "2025-09-20", "ele": "624", "name": "Poho\u0159\u00ed", "natural": "peak", "summit:cross": "yes"}}, {"type": "node", "id": 4128522506, "lat": 49.2121103, "lon": 13.1907103, "tags": {"ele": "916", "name": "Liebesh\u00f6he", "natural": "peak", "source": "\u010c\u00daZK", "tourism": "viewpoint"}}, {"type": "node", "id": 4244655765, "lat": 49.1914849, "lon": 13.0528643, "tags": {"amenity": "shelter", "shelter_type": "picnic_shelter"}}, {"type": "node", "id": 4253289289, "lat": 49.1580485, "lon": 13.1074479, "tags": {"information": "guidepost", "tourism": "information"}}, {"type": "node", "id": 4264537606, "lat": 49.2584528, "lon": 13.140387, "tags": {"ele": "550", "hiking": "yes", "information": "guidepost", "name": "Na Lesn\u00ed louce", "operator": "cz:K\u010cT", "ref": "KT239", "tourism": "information"}}, {"type": "node", "id": 4264552408, "lat": 49.2770435, "lon": 13.1370249, "tags": {"ele": "615", "hiking": "yes", "information": "guidepost", "name": "Pajrek (z\u0159\u00edc.)", "operator": "cz:K\u010cT", "ref": "KT128", "tourism": "information"}}, {"type": "node", "id": 4264552409, "lat": 49.2762732, "lon": 13.1284454, "tags": {"ele": "675", "hiking": "yes", "information": "guidepost", "name": "Such\u00fd K\u00e1men", "operator": "cz:K\u010cT", "ref": "KT198", "tourism": "information"}}, {"type": "node", "id": 4290087713, "lat": 49.1531139, "lon": 13.1050997, "tags": {"tourism": "information"}}, {"type": "node", "id": 4301585049, "lat": 49.1953219, "lon": 13.0027752}, {"type": "node", "id": 4301585050, "lat": 49.1953344, "lon": 13.0027055}, {"type": "node", "id": 4301585051, "lat": 49.195342, "lon": 13.0027836}, {"type": "node", "id": 4301585052, "lat": 49.1953546, "lon": 13.002714}, {"type": "node", "id": 4318114707, "lat": 49.1551642, "lon": 13.0855512, "tags": {"information": "guidepost", "name": "Lo 7- Schareben", "tourism": "information"}}, {"type": "node", "id": 4343671631, "lat": 49.1596362, "lon": 13.0015648, "tags": {"information": "guidepost", "tourism": "information"}}, {"type": "node", "id": 4344883904, "lat": 49.153841, "lon": 13.0502386, "tags": {"information": "guidepost", "tourism": "information"}}, {"type": "node", "id": 4344883905, "lat": 49.1576557, "lon": 13.0180087, "tags": {"information": "guidepost", "tourism": "information"}}, {"type": "node", "id": 4344883906, "lat": 49.1601344, "lon": 13.0085642, "tags": {"information": "guidepost", "tourism": "information"}}, {"type": "node", "id": 4362067168, "lat": 49.2849265, "lon": 13.1452784, "tags": {"amenity": "shelter", "shelter_type": "picnic_shelter"}}, {"type": "node", "id": 4382090676, "lat": 49.175019, "lon": 13.1967712, "tags": {"ele": "1150", "hiking": "yes", "information": "guidepost", "name": "Rozvod\u00ed (rozcest\u00ed)", "official_name": "Rozvod\u00ed (rozc.)", "operator": "cz:K\u010cT", "ref": "KT077", "source": "survey", "tourism": "information"}}, {"type": "node", "id": 4382091775, "lat": 49.1651569, "lon": 13.200287, "tags": {"ele": "1030", "hiking": "yes", "information": "guidepost", "name": "\u010certovo jezero", "name:cs": "\u010certovo jezero", "name:de": "Teufelssee", "operator": "cz:K\u010cT", "ref": "KT080", "ski:nordic": "yes", "source": "survey", "tourism": "information"}}, {"type": "node", "id": 4382099505, "lat": 49.2147933, "lon": 13.1238851, "tags": {"ele": "1000", "hiking": "yes", "information": "guidepost", "name": "Pod Love\u010dnou", "operator": "cz:K\u010cT", "ref": "KT072", "tourism": "information"}}, {"type": "node", "id": 4382107623, "lat": 49.223829, "lon": 13.1059474, "tags": {"bicycle": "yes", "ele": "1020", "hiking": "yes", "information": "guidepost", "name": "Lomnice", "operator": "cz:K\u010cT", "ref": "KT071", "ski": "yes", "tourism": "information"}}, {"type": "node", "id": 4382107624, "lat": 49.246675, "lon": 13.0900091, "tags": {"ele": "735", "hiking": "yes", "information": "guidepost", "name": "U Zadn\u00edch chalup", "operator": "cz:K\u010cT", "ref": "KT276", "tourism": "information"}}, {"type": "node", "id": 4403850590, "lat": 49.2095488, "lon": 13.1518898, "tags": {"board_type": "nature", "information": "board", "name": "Hamry \u2013 historie", "tourism": "information"}}, {"type": "node", "id": 4403850591, "lat": 49.2015208, "lon": 13.1390868, "tags": {"board_type": "nature", "information": "board", "name": "Horsk\u00e1 slu\u017eba", "ref": "9", "tourism": "information"}}, {"type": "node", "id": 4403850592, "lat": 49.2041795, "lon": 13.1539113, "tags": {"board_type": "nature", "information": "board", "name": "Kr\u00e1lovsk\u00fd hvozd", "tourism": "information"}}, {"type": "node", "id": 4403850593, "lat": 49.272564, "lon": 13.0654389, "tags": {"board_type": "history", "description": "Svat\u00e1 Kate\u0159ina", "information": "board", "name": "Kr\u00e1lov\u00e1ck\u00e9 rychty", "tourism": "information"}}, {"type": "node", "id": 4403850594, "lat": 49.200725, "lon": 13.1482278, "tags": {"board_type": "nature", "check_date": "2025-07-23", "information": "board", "name": "Lesn\u00ed zv\u011b\u0159", "ref": "6", "tourism": "information"}}, {"type": "node", "id": 4403850596, "lat": 49.2118727, "lon": 13.1511241, "tags": {"board_type": "nature", "information": "board", "name": "NS Z\u00a0Hamr\u016f na Ostr\u00fd", "tourism": "information"}}, {"type": "node", "id": 4403850597, "lat": 49.2008137, "lon": 13.1459119, "tags": {"board_type": "nature", "check_date": "2025-07-23", "information": "board", "name": "Na\u0161e d\u0159eviny", "ref": "7", "tourism": "information"}}, {"type": "node", "id": 4403850598, "lat": 49.1979732, "lon": 13.1554313, "tags": {"board_type": "nature", "check_date": "2025-07-23", "information": "board", "name": "Pt\u00e1ci", "ref": "5", "tourism": "information"}}, {"type": "node", "id": 4403850599, "lat": 49.2869041, "lon": 13.030071, "tags": {"board_type": "history", "description": "EuroVelo 13", "information": "board", "name": "Stezka \u017eelezn\u00e9 opony", "tourism": "information"}}, {"type": "node", "id": 4403850600, "lat": 49.2900159, "lon": 13.0451388, "tags": {"board_type": "history", "description": "NS Za tajemstv\u00edm krajiny pod medv\u011bd\u00ed kapl\u00ed", "information": "board", "name": "Troje Fleky", "tourism": "information"}}, {"type": "node", "id": 4403850601, "lat": 49.2606154, "lon": 13.147989, "tags": {"board_type": "notice", "information": "board", "name": "VD N\u00fdrsko", "tourism": "information"}}, {"type": "node", "id": 4403850602, "lat": 49.2019922, "lon": 13.1413226, "tags": {"board_type": "nature", "check_date": "2025-07-23", "information": "board", "name": "V\u00fdvoj lesa", "name:de": "Waldentwicklung", "ref": "8", "tourism": "information"}}, {"type": "node", "id": 4403850611, "lat": 49.2143621, "lon": 13.1585818, "tags": {"bicycle": "yes", "hiking": "yes", "information": "map", "map_size": "region", "map_type": "topo", "name": "\u0160umava \u2013 \u017deleznorudsko", "tourism": "information"}}, {"type": "node", "id": 4425319437, "lat": 49.2105345, "lon": 13.1976991, "tags": {"hiking": "yes", "information": "guidepost", "name": "Hojsova Str\u00e1\u017e", "operator": "cz:K\u010cT", "ref": "KT110", "tourism": "information"}}, {"type": "node", "id": 4464586949, "lat": 49.1914445, "lon": 13.0519985}, {"type": "node", "id": 4464586950, "lat": 49.1914482, "lon": 13.0519046}, {"type": "node", "id": 4464586955, "lat": 49.191469, "lon": 13.0520007}, {"type": "node", "id": 4464586956, "lat": 49.1914727, "lon": 13.0519068}, {"type": "node", "id": 4533598637, "lat": 49.1912348, "lon": 13.0282564}, {"type": "node", "id": 4533598638, "lat": 49.1912168, "lon": 13.0282574}, {"type": "node", "id": 4533598639, "lat": 49.1912159, "lon": 13.0282145}, {"type": "node", "id": 4533598640, "lat": 49.1912338, "lon": 13.0282136}, {"type": "node", "id": 4549405861, "lat": 49.2635898, "lon": 13.1483317, "tags": {"ele": "510", "hiking": "yes", "information": "guidepost", "name": "V\u011btrovec", "operator": "cz:K\u010cT", "ref": "KT188", "tourism": "information"}}, {"type": "node", "id": 4720605303, "lat": 49.3021553, "lon": 13.1985991, "tags": {"ele": "615", "hiking": "yes", "information": "guidepost", "name": "Blata", "operator": "cz:K\u010cT", "ref": "KT184", "tourism": "information"}}, {"type": "node", "id": 4840461848, "lat": 49.2151206, "lon": 13.0704233, "tags": {"information": "board", "name": "Holzwegtor", "tourism": "information"}}, {"type": "node", "id": 4844417828, "lat": 49.237655, "lon": 13.1564523}, {"type": "node", "id": 4844417829, "lat": 49.2376509, "lon": 13.1564902}, {"type": "node", "id": 4844417830, "lat": 49.2376213, "lon": 13.1564826}, {"type": "node", "id": 4844417831, "lat": 49.2376255, "lon": 13.1564447}, {"type": "node", "id": 4849561178, "lat": 49.1783095, "lon": 13.0338255, "tags": {"ele": "862", "name": "Traillingriegel", "natural": "peak"}}, {"type": "node", "id": 4876333870, "lat": 49.3110568, "lon": 13.1238001, "tags": {"amenity": "shelter", "name:de": "Busstop", "shelter_type": "public_transport"}}, {"type": "node", "id": 4876334953, "lat": 49.2636047, "lon": 13.0471346, "tags": {"direction": "355", "information": "board", "name": "Freistaat Bayern", "tourism": "information"}}, {"type": "node", "id": 4876334954, "lat": 49.2636375, "lon": 13.0471247, "tags": {"direction": "355", "information": "board", "name": "Bundesrepublik Deutschland", "tourism": "information"}}, {"type": "node", "id": 4876338946, "lat": 49.2414715, "lon": 13.0532877, "tags": {"information": "guidepost", "name": "Zum Rodelhang", "tourism": "information"}}, {"type": "node", "id": 4876338947, "lat": 49.2456804, "lon": 13.0533909, "tags": {"information": "guidepost", "name": "Zu den Helmh\u00f6fen", "tourism": "information"}}, {"type": "node", "id": 4876367081, "lat": 49.3115614, "lon": 13.1233788, "tags": {"ele": "445", "hiking": "yes", "information": "guidepost", "name": "ORLOVICE 3,5 km /Nyrsko (Posta) 3km", "operator": "cz:K\u010cT", "ref": "KT135", "tourism": "information"}}, {"type": "node", "id": 4876738046, "lat": 49.2160782, "lon": 13.0521778, "tags": {"board_type": "history", "information": "board", "name": "Die Waldglash\u00fctte", "tourism": "information"}}, {"type": "node", "id": 4876738047, "lat": 49.2160862, "lon": 13.0522246, "tags": {"information": "guidepost", "name": "Zum Gr. & Kl. Osser ( La 5)", "tourism": "information"}}, {"type": "node", "id": 4877175960, "lat": 49.2404204, "lon": 13.0529606, "tags": {"information": "map", "map_size": "region", "map_type": "topo", "name": "Neurittsteig (Naturpark Oberer Bayr. Wald)", "tourism": "information"}}, {"type": "node", "id": 4881157967, "lat": 49.2677898, "lon": 13.070669, "tags": {"information": "guidepost", "name": "Svat\u00e1 Kate\u0159ina (rozcest\u00ed)", "official_name": "Svat\u00e1 Kate\u0159ina (rozc.)", "tourism": "information"}}, {"type": "node", "id": 4881318834, "lat": 49.3244887, "lon": 13.183337, "tags": {"amenity": "shelter"}}, {"type": "node", "id": 4881318880, "lat": 49.3312749, "lon": 13.196484, "tags": {"amenity": "shelter", "shelter_type": "public_transport"}}, {"type": "node", "id": 4881318881, "lat": 49.3308467, "lon": 13.1963277, "tags": {"amenity": "shelter", "shelter_type": "public_transport"}}, {"type": "node", "id": 4881318898, "lat": 49.3330828, "lon": 13.1953005, "tags": {"amenity": "shelter"}}, {"type": "node", "id": 4881393204, "lat": 49.3065733, "lon": 13.1578646, "tags": {"name": "na Hadrava", "tourism": "viewpoint"}}, {"type": "node", "id": 4881393205, "lat": 49.3057525, "lon": 13.1305297, "tags": {"name": "na Kaple Nejsv\u011bt\u011bj\u0161\u00ed Trojice", "tourism": "viewpoint", "website": "https://www.wikiwand.com/cs/Seznam_kulturn%C3%ADch_pam%C3%A1tek_v_N%C3%BDrsku"}}, {"type": "node", "id": 4919905848, "lat": 49.1528745, "lon": 13.1202203}, {"type": "node", "id": 4919905849, "lat": 49.1528608, "lon": 13.1202465}, {"type": "node", "id": 4919905850, "lat": 49.1528311, "lon": 13.1202102}, {"type": "node", "id": 4919905851, "lat": 49.1528665, "lon": 13.120189}, {"type": "node", "id": 5005758780, "lat": 49.3205206, "lon": 13.179954, "tags": {"ele": "439", "fixme": "position only aproximate from info on waymarks. resurvey", "hiking": "yes", "information": "guidepost", "name": "Petrovice nad \u00dahlavou (\u017est)", "operator": "cz:K\u010cT", "ref": "KT182", "tourism": "information"}}, {"type": "node", "id": 5005758781, "lat": 49.3020827, "lon": 13.1987965, "tags": {"bicycle": "yes", "information": "guidepost", "operator": "cz:K\u010cT", "ref": "none", "tourism": "information"}}, {"type": "node", "id": 5020276957, "lat": 49.2501488, "lon": 13.1777626, "tags": {"ele": "630", "hiking": "yes", "information": "guidepost", "name": "Zelen\u00e1 Lhota- u \u017est", "operator": "cz:K\u010cT", "ref": "KT179", "tourism": "information"}}, {"type": "node", "id": 5020276958, "lat": 49.24955, "lon": 13.1783205, "tags": {"hiking": "yes", "information": "guidepost", "name": "Zelen\u00e1 Lhota - \u017est", "operator": "cz:K\u010cT", "ref": "KT179", "tourism": "information"}}, {"type": "node", "id": 5050602344, "lat": 49.3270253, "lon": 13.084388, "tags": {"ele": "723", "name": "Orlovick\u00e1 hora", "natural": "peak"}}, {"type": "node", "id": 5056862523, "lat": 49.3311656, "lon": 13.1097417, "tags": {"amenity": "shelter"}}, {"type": "node", "id": 5056881604, "lat": 49.2555184, "lon": 13.0669547, "tags": {"ele": "750", "natural": "peak"}}, {"type": "node", "id": 5056882077, "lat": 49.2707662, "lon": 13.0527228, "tags": {"ele": "751", "name": "Kame\u0148\u00e1k", "natural": "peak"}}, {"type": "node", "id": 5056885255, "lat": 49.2279465, "lon": 13.1197882, "tags": {"ele": "1005", "name": "Na v\u00fd\u0161in\u011b", "natural": "peak", "source": "\u010c\u00daZK"}}, {"type": "node", "id": 5056885524, "lat": 49.2533078, "lon": 13.0818556, "tags": {"ele": "875", "natural": "peak"}}, {"type": "node", "id": 5056894544, "lat": 49.2336432, "lon": 13.0935539, "tags": {"ele": "1027", "name": "Lomni\u010dky", "natural": "peak", "source": "\u010c\u00daZK"}}, {"type": "node", "id": 5056921225, "lat": 49.2192167, "lon": 13.1207068, "tags": {"ele": "1091", "name": "Love\u010dn\u00e1", "natural": "peak", "source": "\u010c\u00daZK", "wikidata": "Q23824209"}}, {"type": "node", "id": 5056925126, "lat": 49.2046887, "lon": 13.1585322, "tags": {"ele": "808", "natural": "peak"}}, {"type": "node", "id": 5056926213, "lat": 49.2076358, "lon": 13.1969506, "tags": {"ele": "944", "name": "R\u00fdzmberk", "natural": "peak", "source": "\u010c\u00daZK"}}, {"type": "node", "id": 5056929950, "lat": 49.2265226, "lon": 13.186186, "tags": {"ele": "764", "natural": "peak"}}, {"type": "node", "id": 5056932733, "lat": 49.2477069, "lon": 13.1494481, "tags": {"ele": "582", "natural": "peak"}}, {"type": "node", "id": 5056935479, "lat": 49.2568594, "lon": 13.1747319, "tags": {"ele": "734", "natural": "peak", "source": "\u010c\u00daZK"}}, {"type": "node", "id": 5056935785, "lat": 49.2553239, "lon": 13.1928355, "tags": {"ele": "806", "name": "K\u0159\u00ed\u017eov\u00fd vrch", "natural": "peak", "source": "\u010c\u00daZK"}}, {"type": "node", "id": 5056971103, "lat": 49.3342713, "lon": 13.0994597, "tags": {"ele": "666", "name": "Havranice", "natural": "peak"}}, {"type": "node", "id": 5056974243, "lat": 49.3397069, "lon": 13.1033353, "tags": {"ele": "605", "name": "Hol\u00fd vrch", "natural": "peak", "source": "\u010c\u00daZK"}}, {"type": "node", "id": 5056974742, "lat": 49.3391029, "lon": 13.0722317, "tags": {"ele": "551", "name": "Hr\u010doven", "natural": "peak"}}, {"type": "node", "id": 5056975373, "lat": 49.3439047, "lon": 13.0564929, "tags": {"ele": "568", "natural": "peak"}}, {"type": "node", "id": 5056976691, "lat": 49.3314646, "lon": 13.0529337, "tags": {"ele": "541", "name": "Kameni\u0161t\u011b", "natural": "peak"}}, {"type": "node", "id": 5056977846, "lat": 49.3243436, "lon": 13.0446398, "tags": {"ele": "551", "name": "Hl\u00e1sn\u00fd vrch", "natural": "peak"}}, {"type": "node", "id": 5056979540, "lat": 49.3128645, "lon": 13.0421466, "tags": {"ele": "556", "name": "Velk\u00e9 pole", "natural": "peak"}}, {"type": "node", "id": 5056980328, "lat": 49.3127788, "lon": 13.0595381, "tags": {"ele": "623", "name": "Medv\u011bd\u00ed vrch", "natural": "peak", "source": "\u010c\u00daZK"}}, {"type": "node", "id": 5056981285, "lat": 49.3018864, "lon": 13.0637666, "tags": {"ele": "710", "name": "Li\u0161\u00e1k", "natural": "peak"}}, {"type": "node", "id": 5056984866, "lat": 49.2975686, "lon": 13.0913467, "tags": {"ele": "536", "name": "Vr\u0161ek", "natural": "peak"}}, {"type": "node", "id": 5056985860, "lat": 49.2970647, "lon": 13.1604692, "tags": {"ele": "511", "name": "Such\u00fd vrch", "natural": "peak"}}, {"type": "node", "id": 5056987664, "lat": 49.2944625, "lon": 13.1155442, "tags": {"ele": "485", "name": "Na skalce", "natural": "peak"}}, {"type": "node", "id": 5056988285, "lat": 49.3126916, "lon": 13.0938373, "tags": {"ele": "629", "natural": "peak"}}, {"type": "node", "id": 5056988879, "lat": 49.3164244, "lon": 13.1298841, "tags": {"ele": "481", "natural": "peak"}}, {"type": "node", "id": 5056993885, "lat": 49.2844734, "lon": 13.157049, "tags": {"ele": "493", "natural": "peak"}}, {"type": "node", "id": 5056997011, "lat": 49.2771769, "lon": 13.1706895, "tags": {"ele": "549", "natural": "peak"}}, {"type": "node", "id": 5057005064, "lat": 49.2986501, "lon": 13.1968835, "tags": {"ele": "666", "natural": "peak"}}, {"type": "node", "id": 5057015912, "lat": 49.3008329, "lon": 13.1805328, "tags": {"ele": "615", "name": "Rack\u016fv vrch", "natural": "peak"}}, {"type": "node", "id": 5057018513, "lat": 49.30708, "lon": 13.1901971, "tags": {"ele": "605", "natural": "peak"}}, {"type": "node", "id": 5057019367, "lat": 49.3119171, "lon": 13.1967782, "tags": {"ele": "639", "name": "Na Porovn\u00e1n\u00ed", "natural": "peak"}}, {"type": "node", "id": 5075900878, "lat": 49.3387403, "lon": 13.0117829, "tags": {"ele": "563", "name": "V\u0161erubsk\u00fd vrch", "natural": "peak"}}, {"type": "node", "id": 5075902397, "lat": 49.3501026, "lon": 13.0465308, "tags": {"ele": "536", "name": "Na Skalic\u00edch", "natural": "peak"}}, {"type": "node", "id": 5075906848, "lat": 49.3509513, "lon": 13.0843982, "tags": {"ele": "599", "name": "Javorice", "natural": "peak"}}, {"type": "node", "id": 5075911260, "lat": 49.3468018, "lon": 13.0871529, "tags": {"ele": "589", "name": "Zadn\u00ed Javorice", "natural": "peak"}}, {"type": "node", "id": 5075911812, "lat": 49.3479333, "lon": 13.0983332, "tags": {"ele": "586", "name": "Mal\u00e1 K\u0159\u00ed\u017eov\u00e1", "natural": "peak", "source": "\u010c\u00daZK"}}, {"type": "node", "id": 5082465214, "lat": 49.2716797, "lon": 13.027273, "tags": {"ele": "705", "name": "Hoher Stein", "natural": "peak"}}, {"type": "node", "id": 5082465215, "lat": 49.2666499, "lon": 13.0259899, "tags": {"ele": "705", "name": "Br\u00e4ndriegel", "natural": "peak"}}, {"type": "node", "id": 5157175060, "lat": 49.1821347, "lon": 13.1910771, "tags": {"bicycle": "yes", "information": "route_marker", "operator": "cz:K\u010cT", "ref": "none", "tourism": "information"}}, {"type": "node", "id": 5157175061, "lat": 49.1812651, "lon": 13.1868178, "tags": {"board_type": "nature", "check_date": "2024-10-10", "information": "board", "tourism": "information"}}, {"type": "node", "id": 5157175062, "lat": 49.181223, "lon": 13.186925, "tags": {"board_type": "nature", "check_date": "2025-08-28", "information": "board", "name": "\u0160\u00eddlatka na dn\u011b \u010cern\u00e9ho jezera", "tourism": "information"}}, {"type": "node", "id": 5157175063, "lat": 49.1812475, "lon": 13.1868768, "tags": {"board_type": "nature", "check_date": "2025-08-28", "information": "board", "name": "NPR \u010cern\u00e9 a \u010certovo jezero", "tourism": "information"}}, {"type": "node", "id": 5157175064, "lat": 49.1813134, "lon": 13.1869582, "tags": {"bicycle": "yes", "information": "guidepost", "operator": "cz:K\u010cT", "ref": "none", "tourism": "information"}}, {"type": "node", "id": 5157175065, "lat": 49.1843192, "lon": 13.1809652, "tags": {"bicycle": "yes", "information": "guidepost", "operator": "cz:K\u010cT", "ref": "none", "tourism": "information"}}, {"type": "node", "id": 5157175067, "lat": 49.1860487, "lon": 13.167593, "tags": {"bicycle": "yes", "information": "guidepost", "operator": "cz:K\u010cT", "ref": "none", "ski": "yes", "ski:nordic": "yes", "tourism": "information"}}, {"type": "node", "id": 5157175068, "lat": 49.18535, "lon": 13.1676829, "tags": {"bicycle": "yes", "information": "route_marker", "operator": "cz:K\u010cT", "ref": "none", "tourism": "information"}}, {"type": "node", "id": 5157175069, "lat": 49.1851958, "lon": 13.1676024, "tags": {"board_type": "nature", "check_date": "2025-07-23", "information": "board", "name": "N\u00e1rodn\u00ed p\u0159\u00edrodn\u00ed rezervace B\u00edl\u00e1 Str\u017e", "tourism": "information"}}, {"type": "node", "id": 5157175070, "lat": 49.1912073, "lon": 13.1556223, "tags": {"board_type": "nature", "information": "board", "name": "N\u00e1rodn\u00ed p\u0159\u00edrodn\u00ed rezervace B\u00edl\u00e1 Str\u017e", "tourism": "information"}}, {"type": "node", "id": 5157175071, "lat": 49.1905495, "lon": 13.1567287, "tags": {"board_type": "nature", "check_date": "2025-07-23", "information": "board", "name": "B\u00edl\u00e1 str\u017e", "tourism": "information"}}, {"type": "node", "id": 5157175072, "lat": 49.1925689, "lon": 13.1531292, "tags": {"bicycle": "yes", "information": "route_marker", "operator": "cz:K\u010cT", "ref": "none", "tourism": "information"}}, {"type": "node", "id": 5157175073, "lat": 49.2008917, "lon": 13.1230911, "tags": {"board_type": "nature", "check_date": "2025-07-23", "information": "board", "name": "Vegetace", "name:de": "Vegetation", "ref": "11", "tourism": "information"}}, {"type": "node", "id": 5157175082, "lat": 49.2031621, "lon": 13.1098652, "tags": {"board_type": "history", "check_date": "2025-07-23", "information": "board", "tourism": "information"}}, {"type": "node", "id": 5157175083, "lat": 49.202899, "lon": 13.1104128, "tags": {"board_type": "history", "direction": "260", "information": "board", "name": "\u010cESK\u00c1 REPUBLIKA", "tourism": "information"}}, {"type": "node", "id": 5157175084, "lat": 49.202903, "lon": 13.1104944, "tags": {"ele": "1280", "hiking": "yes", "information": "guidepost", "name": "Ostr\u00fd", "operator": "cz:K\u010cT", "ref": "KT114", "tourism": "information"}}, {"type": "node", "id": 5157175085, "lat": 49.201308, "lon": 13.1203875, "tags": {"board_type": "geology", "check_date": "2025-07-23", "information": "board", "name": "Geologie", "name:de": "Geologie", "ref": "12", "tourism": "information"}}, {"type": "node", "id": 5157175086, "lat": 49.2012401, "lon": 13.132318, "tags": {"board_type": "nature", "information": "board", "name": "\u0160k\u016fdci lesa", "ref": "10", "tourism": "information"}}, {"type": "node", "id": 5157175087, "lat": 49.201343, "lon": 13.1384039, "tags": {"board_type": "information", "information": "board", "name": "Osl\u00ed stud\u00e1nka", "tourism": "information"}}, {"type": "node", "id": 5157175088, "lat": 49.2013886, "lon": 13.1389242, "tags": {"board_type": "history", "information": "board", "name": "State\u010dek", "tourism": "information"}}, {"type": "node", "id": 5157175089, "lat": 49.2007086, "lon": 13.148371, "tags": {"bicycle": "yes", "check_date": "2025-07-23", "hiking": "yes", "information": "map", "map_size": "region", "map_type": "topo", "name": "Mikroregion \u00dahlava", "tourism": "information"}}, {"type": "node", "id": 5157175090, "lat": 49.1977975, "lon": 13.1548995, "tags": {"board_type": "nature", "check_date": "2025-07-23", "information": "board", "name": "B\u00edl\u00e1 str\u017e", "tourism": "information"}}, {"type": "node", "id": 5157175091, "lat": 49.2007471, "lon": 13.1553554, "tags": {"board_type": "nature", "information": "board", "tourism": "information"}}, {"type": "node", "id": 5157175092, "lat": 49.2020457, "lon": 13.1550548, "tags": {"board_type": "history", "information": "board", "name": "Skl\u00e1\u0159stv\u00ed", "operator": "Lesy \u010cR, s.p.", "ref": "4", "tourism": "information"}}, {"type": "node", "id": 5157175093, "lat": 49.2076133, "lon": 13.1527001, "tags": {"board_type": "history", "information": "board", "name": "Kr\u00e1lov\u00e1ci", "tourism": "information"}}, {"type": "node", "id": 5157175625, "lat": 49.2305638, "lon": 13.1600193, "tags": {"bicycle": "yes", "information": "route_marker", "operator": "cz:K\u010cT", "ref": "none", "tourism": "information"}}, {"type": "node", "id": 5157175626, "lat": 49.2294111, "lon": 13.1601191, "tags": {"ele": "573", "hiking": "yes", "information": "guidepost", "name": "Koller\u016fv kostel", "operator": "cz:K\u010cT", "ref": "KT176", "tourism": "information"}}, {"type": "node", "id": 5157175627, "lat": 49.2291343, "lon": 13.1605589, "tags": {"bicycle": "yes", "hiking": "yes", "information": "map", "map_size": "region", "map_type": "topo", "tourism": "information"}}, {"type": "node", "id": 5157175632, "lat": 49.2265233, "lon": 13.1623928, "tags": {"bicycle": "yes", "information": "route_marker", "operator": "cz:K\u010cT", "ref": "0033", "tourism": "information"}}, {"type": "node", "id": 5157175668, "lat": 49.2148885, "lon": 13.1598991, "tags": {"bicycle": "yes", "information": "route_marker", "operator": "cz:K\u010cT", "ref": "none", "tourism": "information"}}, {"type": "node", "id": 5157175669, "lat": 49.2141876, "lon": 13.1597704, "tags": {"board_type": "history", "information": "board", "tourism": "information"}}, {"type": "node", "id": 5157175676, "lat": 49.20891, "lon": 13.1704885, "tags": {"ele": "640", "hiking": "yes", "information": "guidepost", "name": "Zadn\u00ed Hamry", "operator": "cz:K\u010cT", "ref": "KT278", "tourism": "information"}}, {"type": "node", "id": 5157175677, "lat": 49.2087768, "lon": 13.170687, "tags": {"bicycle": "yes", "information": "route_marker", "operator": "cz:K\u010cT", "ref": "none", "tourism": "information"}}, {"type": "node", "id": 5157175956, "lat": 49.2070385, "lon": 13.1762123, "tags": {"board_type": "history", "check_date": "2025-05-14", "information": "board", "tourism": "information"}}, {"type": "node", "id": 5157175957, "lat": 49.2045711, "lon": 13.1831163, "tags": {"bicycle": "yes", "hiking": "yes", "information": "map", "map_size": "region", "map_type": "topo", "tourism": "information"}}, {"type": "node", "id": 5157175958, "lat": 49.2045256, "lon": 13.1835133, "tags": {"ele": "654", "hiking": "yes", "information": "guidepost", "name": "Zadn\u00ed hamry", "operator": "cz:K\u010cT", "ref": "KT241", "tourism": "information"}}, {"type": "node", "id": 5157175959, "lat": 49.2048024, "lon": 13.1829286, "tags": {"bicycle": "yes", "information": "route_marker", "operator": "cz:K\u010cT", "ref": "none", "tourism": "information"}}, {"type": "node", "id": 5157175960, "lat": 49.2043713, "lon": 13.1830412, "tags": {"bicycle": "yes", "information": "route_marker", "operator": "cz:K\u010cT", "ref": "none", "tourism": "information"}}, {"type": "node", "id": 5157175961, "lat": 49.2040769, "lon": 13.1830358, "tags": {"bicycle": "yes", "information": "route_marker", "operator": "cz:K\u010cT", "ref": "none", "tourism": "information"}}, {"type": "node", "id": 5157175970, "lat": 49.1926986, "lon": 13.1983942, "tags": {"bicycle": "yes", "information": "route_marker", "operator": "cz:K\u010cT", "ref": "none", "tourism": "information"}}, {"type": "node", "id": 5396851591, "lat": 49.1766183, "lon": 13.132918, "tags": {"information": "route_marker", "tourism": "information"}}, {"type": "node", "id": 5396851592, "lat": 49.176952, "lon": 13.1333226, "tags": {"information": "route_marker", "tourism": "information"}}, {"type": "node", "id": 5416645545, "lat": 49.1538587, "lon": 13.0502991, "tags": {"information": "guidepost", "tourism": "information"}}, {"type": "node", "id": 5416955169, "lat": 49.1553896, "lon": 13.0534286, "tags": {"information": "map", "name": "Auerhahnschutzgebiet", "tourism": "information"}}, {"type": "node", "id": 5434460328, "lat": 49.198256, "lon": 13.1215709, "tags": {"ele": "1184", "name": "Huberriegel", "natural": "peak", "summit:cross": "yes"}}, {"type": "node", "id": 5434460345, "lat": 49.1906674, "lon": 13.1105025, "tags": {"information": "guidepost", "name": "Pfeil (Richtungsweiser)", "tourism": "information"}}, {"type": "node", "id": 5434460350, "lat": 49.1940273, "lon": 13.1144596, "tags": {"information": "route_marker", "name": "Pfeil (Richtungsweiser)", "tourism": "information"}}, {"type": "node", "id": 5434460355, "lat": 49.1961509, "lon": 13.1141434, "tags": {"information": "guidepost", "name": "Pfeil (Richtungsweiser)", "tourism": "information"}}, {"type": "node", "id": 5434460356, "lat": 49.1978037, "lon": 13.1139336, "tags": {"information": "route_marker", "tourism": "information"}}, {"type": "node", "id": 5434460361, "lat": 49.2012906, "lon": 13.1136325, "tags": {"information": "board", "name": "Grenz\u00fcbergang (\u00d6ffnungszeiten)", "name:cs": "Hrani\u010dn\u00ed p\u0159echod (otev\u00edrac\u00ed doba)", "tourism": "information"}}, {"type": "node", "id": 5434460363, "lat": 49.2006299, "lon": 13.1151307, "tags": {"board_type": "warning", "information": "board", "inscription": "POZOR St\u00e1tn\u00ed hranice", "tourism": "information"}}, {"type": "node", "id": 5434460364, "lat": 49.1990747, "lon": 13.1183399, "tags": {"information": "board", "name": "Leere Holztafel (klein)", "tourism": "information"}}, {"type": "node", "id": 5434460365, "lat": 49.1990682, "lon": 13.118933, "tags": {"information": "board", "name": "Leere Holztafel (Gro\u00df)", "tourism": "information"}}, {"type": "node", "id": 5434460369, "lat": 49.1970494, "lon": 13.1266508, "tags": {"information": "board", "name": "Landesgrenze", "tourism": "information"}}, {"type": "node", "id": 5434460384, "lat": 49.192151, "lon": 13.1357695, "tags": {"board_type": "warning", "information": "board", "inscription": "POZOR St\u00e1tn\u00ed hranice", "tourism": "information"}}, {"type": "node", "id": 5434460387, "lat": 49.1819285, "lon": 13.1387983, "tags": {"information": "route_marker", "name": "Pfosten mit Rot/Wei\u00df Markierung", "tourism": "information"}}, {"type": "node", "id": 5434460393, "lat": 49.1816821, "lon": 13.1393179, "tags": {"information": "guidepost", "name": "Wegweiser Lo 8", "tourism": "information"}}, {"type": "node", "id": 5434469522, "lat": 49.1822235, "lon": 13.1263105, "tags": {"information": "route_marker", "name": "Pfeil (Richtungsweiser)", "tourism": "information"}}, {"type": "node", "id": 5434487170, "lat": 49.2029165, "lon": 13.1103895, "tags": {"board_type": "warning", "direction": "60", "information": "board", "inscription": "POZOR St\u00e1tn\u00ed hranice", "tourism": "information"}}, {"type": "node", "id": 5434487178, "lat": 49.2030002, "lon": 13.1101259, "tags": {"hiking": "yes", "information": "guidepost", "name": "Osserschutzhaus 50m", "ref": "none", "tourism": "information"}}, {"type": "node", "id": 5434488260, "lat": 49.2022664, "lon": 13.1117263, "tags": {"information": "board", "name": "Staatsgrenze", "tourism": "information"}}, {"type": "node", "id": 5503372191, "lat": 49.1970464, "lon": 13.1299546, "tags": {"ele": "1124", "name": "\u010cek\u00e1n\u00ed", "natural": "peak", "website": "http://www.tisicovky.cz/exp/sumava/cekani-95a/CB83C029-65D0-4537-BD25-F4EBBEF1B21Ebig.jpg"}}, {"type": "node", "id": 5551151321, "lat": 49.2391926, "lon": 13.0392141, "tags": {"ele": "780", "name": "Schindelauberg", "natural": "peak"}}, {"type": "node", "id": 5551151322, "lat": 49.2494402, "lon": 13.0516171, "tags": {"ele": "750", "name": "Steinb\u00fcgel", "natural": "peak"}}, {"type": "node", "id": 5551151323, "lat": 49.2414207, "lon": 13.0206159, "tags": {"ele": "774", "name": "Oberer Berg", "natural": "peak"}}, {"type": "node", "id": 5551151324, "lat": 49.2406922, "lon": 13.0099515, "tags": {"ele": "775", "name": "Vorderer Berg", "natural": "peak"}}, {"type": "node", "id": 5551151325, "lat": 49.2630549, "lon": 13.024318, "tags": {"ele": "708", "natural": "peak"}}, {"type": "node", "id": 5551151326, "lat": 49.2627608, "lon": 13.0170868, "tags": {"ele": "727", "natural": "peak"}}, {"type": "node", "id": 5551151327, "lat": 49.2597286, "lon": 13.0334351, "tags": {"ele": "773", "natural": "peak"}}, {"type": "node", "id": 5551151328, "lat": 49.2828681, "lon": 13.0272984, "tags": {"ele": "677", "name": "Stangenruck", "name:cs": "Rati\u0161t\u011b", "natural": "peak", "source": "\u010c\u00daZK"}}, {"type": "node", "id": 5583926455, "lat": 49.2016049, "lon": 13.1385809}, {"type": "node", "id": 5583926456, "lat": 49.2016401, "lon": 13.1386692}, {"type": "node", "id": 5583926457, "lat": 49.2016017, "lon": 13.1387049}, {"type": "node", "id": 5583926458, "lat": 49.2015666, "lon": 13.1386165}, {"type": "node", "id": 5583926461, "lat": 49.2016179, "lon": 13.1386898}, {"type": "node", "id": 5610147930, "lat": 49.1527353, "lon": 13.1202521, "tags": {"board_type": "history", "check_date": "2024-06-07", "information": "board", "name": "Triftsteig", "tourism": "information"}}, {"type": "node", "id": 5610147936, "lat": 49.1528448, "lon": 13.1201839}, {"type": "node", "id": 5610147937, "lat": 49.1528391, "lon": 13.1202415}, {"type": "node", "id": 5796139951, "lat": 49.3088753, "lon": 13.061918, "tags": {"ele": "625", "hiking": "yes", "information": "guidepost", "name": "kaple sv. Bernarda", "operator": "cz:K\u010cT", "ref": "KT251;KT066", "tourism": "information"}}, {"type": "node", "id": 6071613025, "lat": 49.1621025, "lon": 13.1908079, "tags": {"tourism": "viewpoint"}}, {"type": "node", "id": 6388250185, "lat": 49.1969916, "lon": 13.1003899, "tags": {"information": "guidepost", "name": "Wegweiser", "tourism": "information"}}, {"type": "node", "id": 6592120670, "lat": 49.2605256, "lon": 13.1130256, "tags": {"amenity": "shelter", "shelter_type": "picnic_shelter"}}, {"type": "node", "id": 6592120683, "lat": 49.3099914, "lon": 13.0152502, "tags": {"amenity": "shelter", "shelter_type": "picnic_shelter"}}, {"type": "node", "id": 6711492556, "lat": 49.173425, "lon": 13.0419895, "tags": {"board_type": "name", "information": "board", "name": "Berggasthof zum ,Veitl` bauern", "tourism": "information"}}, {"type": "node", "id": 6711536786, "lat": 49.1916578, "lon": 13.0526393, "tags": {"information": "guidepost", "name": "Zum Fest in der Veitbauern Halle", "tourism": "information"}}, {"type": "node", "id": 6711536787, "lat": 49.191586, "lon": 13.0529275, "tags": {"information": "guidepost", "name": "Ein\u00f6dh\u00f6fe / Lissen - Waldeck/ zum Veitlbauernhof", "tourism": "information"}}, {"type": "node", "id": 6711540360, "lat": 49.1735245, "lon": 13.0419086, "tags": {"information": "name", "name": "Botzeitst\u00fcberl zum \u00d6dbauern", "tourism": "information"}}, {"type": "node", "id": 6711547187, "lat": 49.1836755, "lon": 13.0475497, "tags": {"information": "guidepost", "name": "Zum Koppenhof", "tourism": "information"}}, {"type": "node", "id": 6711547188, "lat": 49.1836304, "lon": 13.0476022, "tags": {"information": "guidepost", "tourism": "information"}}, {"type": "node", "id": 6711547205, "lat": 49.1713286, "lon": 13.03945, "tags": {"information": "board", "name": "Woid Disco", "tourism": "information"}}, {"type": "node", "id": 6711630726, "lat": 49.1758131, "lon": 13.0470211, "tags": {"information": "guidepost", "name": "Waldeck", "tourism": "information"}}, {"type": "node", "id": 6711630941, "lat": 49.1858475, "lon": 13.0647246, "tags": {"amenity": "shelter", "shelter_type": "public_transport"}}, {"type": "node", "id": 6797411543, "lat": 49.2252019, "lon": 13.1541914, "tags": {"ele": "741", "hiking": "yes", "information": "guidepost", "name": "Na kopci", "operator": "cz:K\u010cT", "ref": "KT174", "tourism": "information"}}, {"type": "node", "id": 6797418668, "lat": 49.2472077, "lon": 13.0948905, "tags": {"information": "board", "tourism": "information"}}, {"type": "node", "id": 6797418669, "lat": 49.2472043, "lon": 13.0949434, "tags": {"amenity": "shelter", "shelter_type": "picnic_shelter"}}, {"type": "node", "id": 6800449681, "lat": 49.2451679, "lon": 13.0832892, "tags": {"information": "guidepost", "tourism": "information"}}, {"type": "node", "id": 6800449682, "lat": 49.2452213, "lon": 13.0833704, "tags": {"board_type": "warning", "direction": "70", "information": "board", "inscription": "POZOR St\u00e1tn\u00ed hranice", "tourism": "information"}}, {"type": "node", "id": 6800449683, "lat": 49.2453312, "lon": 13.0831893, "tags": {"information": "board", "tourism": "information"}}, {"type": "node", "id": 6800449684, "lat": 49.2451959, "lon": 13.0834729, "tags": {"ele": "735", "hiking": "yes", "information": "guidepost", "name": "Zadn\u00ed Chalupy - Helmhof", "operator": "cz:K\u010cT", "ref": "KT501", "tourism": "information"}}, {"type": "node", "id": 6905320554, "lat": 49.173225, "lon": 13.1645284, "tags": {"description": "Landschaftspanorama \"wie im Film\", zu genie\u00dfen auf 20 durchnummerierten \"Logenpl\u00e4tzen\", verteilt auf 5 B\u00e4nke", "fee": "no", "name": "Naturkino", "opening_hours": "24/7", "tourism": "attraction"}}, {"type": "node", "id": 6952099678, "lat": 49.2010221, "lon": 13.1608011, "tags": {"tourism": "attraction"}}, {"type": "node", "id": 6988195507, "lat": 49.2133606, "lon": 13.15822, "tags": {"historic": "yes", "name": "B\u00fdval\u00e1 rota pohrani\u010dn\u00ed str\u00e1\u017ee", "tourism": "attraction"}}, {"type": "node", "id": 7093434689, "lat": 49.2886591, "lon": 13.1894839, "tags": {"ele": "575", "hiking": "yes", "information": "guidepost", "name": "\u017d\u00edzn\u011btice", "operator": "cz:K\u010cT", "ref": "KT254", "tourism": "information"}}, {"type": "node", "id": 7093435196, "lat": 49.2716724, "lon": 13.1339461, "tags": {"ele": "600", "hiking": "yes", "information": "guidepost", "name": "Horn\u00ed Pol\u00e1nky", "operator": "cz:K\u010cT", "ref": "KT018", "tourism": "information"}}, {"type": "node", "id": 7116417629, "lat": 49.3493833, "lon": 13.0661821, "tags": {"ele": "570", "hiking": "yes", "information": "guidepost", "name": "Na \u0160tefl\u00edch", "operator": "cz:K\u010cT", "ref": "DO075", "tourism": "information"}}, {"type": "node", "id": 7116464134, "lat": 49.3461236, "lon": 13.135153, "tags": {"ele": "470", "hiking": "yes", "information": "guidepost", "name": "Poc\u00ednovice \u017est", "operator": "cz:K\u010cT", "ref": "DO159", "tourism": "information"}}, {"type": "node", "id": 7123108216, "lat": 49.1654191, "lon": 13.2003777, "tags": {"board_type": "nature", "information": "board", "name": "\u010certovo jezero", "tourism": "information"}}, {"type": "node", "id": 7123108217, "lat": 49.1732362, "lon": 13.200499, "tags": {"board_type": "notice", "information": "board", "inscription": "Pro cyklo nevhodn\u00e9 nebezpe\u010dn\u00fd ter\u00e9n!!! V zimn\u00edm obdob\u00ed t\u00e9\u017e pro p\u011b\u0161\u00ed.", "operator": "cz:K\u010cT", "ref": "KT061", "tourism": "information"}}, {"type": "node", "id": 7123108220, "lat": 49.1818112, "lon": 13.1863216, "tags": {"board_type": "nature", "information": "board", "name": "NPR \u010cern\u00e9 a \u010certovo jezero", "tourism": "information"}}, {"type": "node", "id": 7123108223, "lat": 49.2474131, "lon": 13.0954872, "tags": {"hiking": "yes", "information": "guidepost", "operator": "local", "ref": "none", "tourism": "information"}}, {"type": "node", "id": 7123108224, "lat": 49.2484325, "lon": 13.0928184, "tags": {"hiking": "yes", "information": "guidepost", "operator": "local", "ref": "none", "tourism": "information"}}, {"type": "node", "id": 7123108225, "lat": 49.2484382, "lon": 13.0928278, "tags": {"information": "map", "map_size": "region", "map_type": "scheme", "name": "P\u0159eshrani\u010dn\u00ed sportov\u00e1n\u00ed pod Ostr\u00fdm", "name:de": "Grenz\u00fcberschreitender Langlauf um den Osser", "ski:nordic": "yes", "tourism": "information"}}, {"type": "node", "id": 7123108227, "lat": 49.2507091, "lon": 13.1082921, "tags": {"bicycle": "yes", "hiking": "yes", "information": "guidepost", "operator": "local", "ref": "none", "tourism": "information"}}, {"type": "node", "id": 7123108228, "lat": 49.2662801, "lon": 13.1131509, "tags": {"hiking": "yes", "information": "guidepost", "operator": "M\u011bsto N\u00fdrsko", "ref": "none", "tourism": "information"}}, {"type": "node", "id": 7123108229, "lat": 49.2771445, "lon": 13.1360167, "tags": {"hiking": "yes", "information": "guidepost", "operator": "M\u011bsto N\u00fdrsko", "ref": "none", "tourism": "information"}}, {"type": "node", "id": 7123108230, "lat": 49.2873242, "lon": 13.1379372, "tags": {"hiking": "yes", "information": "guidepost", "operator": "cz:K\u010cT", "ref": "ZS043", "tourism": "information"}}, {"type": "node", "id": 7123108231, "lat": 49.2939221, "lon": 13.1439909, "tags": {"hiking": "yes", "information": "guidepost", "operator": "cz:K\u010cT", "ref": "none", "tourism": "information"}}, {"type": "node", "id": 7128981316, "lat": 49.2012685, "lon": 13.1206329, "tags": {"board_type": "nature", "check_date": "2025-07-23", "information": "board", "name": "p\u0159\u00edrodn\u00ed pam\u00e1tka Kr\u00e1lovsk\u00fd hvozd", "operator": "Spr\u00e1va n\u00e1rodn\u00edho parku a chr\u00e1n\u011bn\u00e9 krajinn\u00e9 oblasti \u0160umava", "tourism": "information"}}, {"type": "node", "id": 7128981318, "lat": 49.201102, "lon": 13.1211224, "tags": {"board_type": "nature", "check_date": "2025-07-23", "information": "board", "name": "Ostr\u00fd", "operator": "Spr\u00e1va n\u00e1rodn\u00edho parku a chr\u00e1n\u011bn\u00e9 krajinn\u00e9 oblasti \u0160umava", "tourism": "information"}}, {"type": "node", "id": 7128981319, "lat": 49.201109, "lon": 13.1211399, "tags": {"check_date": "2025-07-23", "hiking": "yes", "information": "map", "map_size": "region", "map_type": "topo", "name": "Zlat\u00e1 stezka", "name:de": "Goldsteig", "tourism": "information"}}, {"type": "node", "id": 7128981320, "lat": 49.2008067, "lon": 13.1471425, "tags": {"bicycle": "yes", "information": "route_marker", "operator": "cz:K\u010cT", "ref": "none", "ski:nordic": "yes", "tourism": "information"}}, {"type": "node", "id": 7128981321, "lat": 49.2016953, "lon": 13.1650946, "tags": {"ele": "750", "hiking": "yes", "information": "guidepost", "name": "B\u00edl\u00fd potok", "operator": "cz:K\u010cT", "ref": "KT032", "tourism": "information"}}, {"type": "node", "id": 7128981322, "lat": 49.2103968, "lon": 13.1755619, "tags": {"ele": "742", "hiking": "yes", "information": "guidepost", "name": "Hamry - H. Str\u00e1\u017e rozc.", "operator": "cz:K\u010cT", "ref": "KT227", "tourism": "information"}}, {"type": "node", "id": 7128981324, "lat": 49.2118739, "lon": 13.174993, "tags": {"bicycle": "yes", "hiking": "yes", "information": "map", "map_size": "region", "map_type": "topo", "name": "\u017deleznorudsko", "note": "Yes, there are two maps with the same name.", "tourism": "information"}}, {"type": "node", "id": 7128981325, "lat": 49.2118186, "lon": 13.175058, "tags": {"bicycle": "yes", "hiking": "yes", "information": "map", "map_size": "region", "map_type": "topo", "name": "\u017deleznorudsko", "tourism": "information"}}, {"type": "node", "id": 7128981326, "lat": 49.2118389, "lon": 13.1750288, "tags": {"hiking": "yes", "information": "guidepost", "name": "Hamry, Hojsova str\u00e1\u017e \u017est", "operator": "cz:K\u010cT", "ref": "KT041", "tourism": "information"}}, {"type": "node", "id": 7222280825, "lat": 49.3021526, "lon": 13.1987536, "tags": {"bicycle": "yes", "hiking": "yes", "information": "map", "map_size": "region", "map_type": "topo", "name": "Mikroregion \u00dahlava", "tourism": "information"}}, {"type": "node", "id": 7227020596, "lat": 49.2394676, "lon": 13.1547975, "tags": {"ele": "532", "hiking": "yes", "information": "guidepost", "name": "Hamersk\u00fd dv\u016fr", "operator": "cz:K\u010cT", "ref": "KT237", "tourism": "information"}}, {"type": "node", "id": 7227020597, "lat": 49.2466996, "lon": 13.1731975, "tags": {"ele": "611", "hiking": "yes", "information": "guidepost", "name": "Zelen\u00e1 Lhota bus", "operator": "cz:K\u010cT", "ref": "KT178", "tourism": "information"}}, {"type": "node", "id": 7232292978, "lat": 49.2146108, "lon": 13.1861848, "tags": {"ele": "780", "hiking": "yes", "information": "guidepost", "name": "Hojsova Str\u00e1\u017e rozcest\u00ed", "operator": "cz:K\u010cT", "ref": "KT110", "tourism": "information"}}, {"type": "node", "id": 7232395753, "lat": 49.233965, "lon": 13.1704026, "tags": {"ele": "502", "hiking": "yes", "information": "guidepost", "name": "Na sedle", "operator": "cz:K\u010cT", "ref": "KT177", "tourism": "information"}}, {"type": "node", "id": 7235772247, "lat": 49.1704006, "lon": 13.088842, "tags": {"name": "Enten", "tourism": "attraction"}}, {"type": "node", "id": 7235772248, "lat": 49.1686487, "lon": 13.0865112, "tags": {"tourism": "viewpoint"}}, {"type": "node", "id": 7235772259, "lat": 49.1708373, "lon": 13.0882989, "tags": {"name": "Streichelzoo", "tourism": "attraction"}}, {"type": "node", "id": 7235772260, "lat": 49.1699657, "lon": 13.0882519, "tags": {"name": "Fuchs", "tourism": "attraction"}}, {"type": "node", "id": 7235772261, "lat": 49.1689292, "lon": 13.0851915, "tags": {"tourism": "viewpoint"}}, {"type": "node", "id": 7235772262, "lat": 49.16928, "lon": 13.0857065, "tags": {"tourism": "viewpoint"}}, {"type": "node", "id": 7235772270, "lat": 49.170089, "lon": 13.0877817, "tags": {"name": "Schildkr\u00f6te", "tourism": "attraction"}}, {"type": "node", "id": 7235772272, "lat": 49.1702322, "lon": 13.0872522, "tags": {"name": "Uhu", "tourism": "attraction"}}, {"type": "node", "id": 7235772273, "lat": 49.1693541, "lon": 13.0869297, "tags": {"name": "Eulen", "tourism": "attraction"}}, {"type": "node", "id": 7235772274, "lat": 49.1692959, "lon": 13.0871848, "tags": {"name": "Rentiere", "tourism": "attraction"}}, {"type": "node", "id": 7235772275, "lat": 49.1699773, "lon": 13.0884797, "tags": {"name": "Biber", "tourism": "attraction"}}, {"type": "node", "id": 7235772276, "lat": 49.1699489, "lon": 13.0880109, "tags": {"name": "Otter", "tourism": "attraction"}}, {"type": "node", "id": 7235772277, "lat": 49.1702164, "lon": 13.0886602, "tags": {"name": "Enten", "tourism": "attraction"}}, {"type": "node", "id": 7235772279, "lat": 49.1710095, "lon": 13.088539, "tags": {"name": "Esel", "tourism": "attraction"}}, {"type": "node", "id": 7235772280, "lat": 49.1710599, "lon": 13.0887781, "tags": {"name": "Ziege", "tourism": "attraction"}}, {"type": "node", "id": 7235772281, "lat": 49.1703046, "lon": 13.0878154, "tags": {"name": "Waschb\u00e4r", "tourism": "attraction"}}, {"type": "node", "id": 7235826487, "lat": 49.1708081, "lon": 13.0877552, "tags": {"name": "Elch", "tourism": "attraction"}}, {"type": "node", "id": 7235826488, "lat": 49.1683092, "lon": 13.087464, "tags": {"name": "Hirsch", "tourism": "attraction"}}, {"type": "node", "id": 7235826490, "lat": 49.170377, "lon": 13.0874544, "tags": {"name": "Aquarium", "tourism": "attraction"}}, {"type": "node", "id": 7235826512, "lat": 49.1686491, "lon": 13.0868286, "tags": {"name": "Wildkatze", "tourism": "attraction"}}, {"type": "node", "id": 7235826513, "lat": 49.1688112, "lon": 13.0872354, "tags": {"name": "Luchs", "tourism": "attraction"}}, {"type": "node", "id": 7452948345, "lat": 49.1586561, "lon": 13.0249647, "tags": {"ele": "1154", "name": "\u00d6driegel", "natural": "peak"}}, {"type": "node", "id": 7641679875, "lat": 49.3448182, "lon": 13.1600748, "tags": {"information": "map", "map_size": "region", "map_type": "topo", "tourism": "information"}}, {"type": "node", "id": 7649408624, "lat": 49.2116708, "lon": 13.0418668, "tags": {"information": "guidepost", "tourism": "information"}}, {"type": "node", "id": 7649416945, "lat": 49.1846994, "lon": 13.1344061, "tags": {"information": "route_marker", "tourism": "information"}}, {"type": "node", "id": 7659408428, "lat": 49.2861696, "lon": 13.1449445, "tags": {"information": "map", "map_size": "region", "map_type": "topo", "panoramax": "664c4480-8e46-44e1-b713-84b22682d209", "tourism": "information"}}, {"type": "node", "id": 7659408429, "lat": 49.2861704, "lon": 13.1449015, "tags": {"information": "map", "map_size": "region", "map_type": "topo", "panoramax": "8d5e197d-68fe-404e-802e-5de9eba7e7d3", "tourism": "information"}}, {"type": "node", "id": 7671592419, "lat": 49.3429886, "lon": 13.1328276, "tags": {"information": "board", "tourism": "information"}}, {"type": "node", "id": 7671592420, "lat": 49.3429894, "lon": 13.1328759, "tags": {"information": "map", "map_size": "region", "map_type": "topo", "tourism": "information"}}, {"type": "node", "id": 7717744368, "lat": 49.2375237, "lon": 13.1825637, "tags": {"ele": "654", "natural": "peak"}}, {"type": "node", "id": 7717744369, "lat": 49.2404658, "lon": 13.1643247, "tags": {"ele": "661", "natural": "peak", "source": "\u010c\u00daZK"}}, {"type": "node", "id": 7717744370, "lat": 49.226062, "lon": 13.1445407, "tags": {"ele": "831", "natural": "peak"}}, {"type": "node", "id": 7717744371, "lat": 49.2354782, "lon": 13.1393051, "tags": {"ele": "703", "natural": "peak", "source": "\u010c\u00daZK"}}, {"type": "node", "id": 7835724370, "lat": 49.3492659, "lon": 13.0662972, "tags": {"information": "map", "tourism": "information"}}, {"type": "node", "id": 8372319475, "lat": 49.1651103, "lon": 13.2002421, "tags": {"board_type": "nature", "check_date": "2025-08-28", "description": "NPR \u010cern\u00e9 a \u010certovo jezero", "information": "board", "name": "\u010certovo jezero", "tourism": "information"}}, {"type": "node", "id": 9007763509, "lat": 49.2029977, "lon": 13.1100536, "tags": {"hiking": "yes", "information": "guidepost", "ref": "none", "tourism": "information"}}, {"type": "node", "id": 9007867758, "lat": 49.2028385, "lon": 13.1071638, "tags": {"information": "guidepost", "tourism": "information"}}, {"type": "node", "id": 9098333802, "lat": 49.1983425, "lon": 13.0474455, "tags": {"information": "board", "name": "Sagenhafter Rundweg", "tourism": "information"}}, {"type": "node", "id": 9098333803, "lat": 49.1983469, "lon": 13.0474555, "tags": {"board_type": "history", "information": "board", "name": "Dem Waldglas auf der Spur", "tourism": "information"}}, {"type": "node", "id": 9098333804, "lat": 49.1983495, "lon": 13.0474669, "tags": {"hiking": "yes", "information": "guidepost", "tourism": "information"}}, {"type": "node", "id": 9098333805, "lat": 49.1983412, "lon": 13.0474998, "tags": {"information": "map", "map_size": "region", "map_type": "topo", "name": "Lam Bayerischer Wald", "tourism": "information"}}, {"type": "node", "id": 9098605127, "lat": 49.2021483, "lon": 13.0450496, "tags": {"board_type": "history", "information": "board", "name": "Das verwunschene Burgfr\u00e4ulein vom Osser", "tourism": "information"}}, {"type": "node", "id": 9098605128, "lat": 49.2042119, "lon": 13.0383226, "tags": {"board_type": "history", "information": "board", "name": "Der Stilzel", "tourism": "information"}}, {"type": "node", "id": 9098605129, "lat": 49.2053163, "lon": 13.035216, "tags": {"board_type": "history", "information": "board", "name": "Der Teufelstritt", "tourism": "information"}}, {"type": "node", "id": 9098605131, "lat": 49.2039192, "lon": 13.0346829, "tags": {"board_type": "history", "information": "board", "name": "Die Schatztruhe am Waldeck", "tourism": "information"}}, {"type": "node", "id": 9098605134, "lat": 49.2016041, "lon": 13.0374496, "tags": {"board_type": "history", "information": "board", "name": "Der Hexentanzplatz am Frahelser Buckl", "tourism": "information"}}, {"type": "node", "id": 9098605136, "lat": 49.1985178, "lon": 13.040911, "tags": {"board_type": "history", "information": "board", "name": "Die Freikugeln", "tourism": "information"}}, {"type": "node", "id": 9098605138, "lat": 49.1938875, "lon": 13.0403537, "tags": {"bicycle": "yes", "hiking": "yes", "information": "map", "map_size": "region", "map_type": "street", "name": "Arber Region", "tourism": "information"}}, {"type": "node", "id": 9098605141, "lat": 49.194277, "lon": 13.0428247, "tags": {"hiking": "yes", "information": "guidepost", "tourism": "information"}}, {"type": "node", "id": 9098605142, "lat": 49.1942792, "lon": 13.0428183, "tags": {"board_type": "history", "information": "board", "name": "Die aufhockende Katze", "tourism": "information"}}, {"type": "node", "id": 9098605150, "lat": 49.1960289, "lon": 13.0443361, "tags": {"board_type": "history", "information": "board", "name": "Der unb\u00e4ndige Osserriese", "tourism": "information"}}, {"type": "node", "id": 9098705125, "lat": 49.1987025, "lon": 13.0483048, "tags": {"hiking": "yes", "information": "guidepost", "tourism": "information"}}, {"type": "node", "id": 9098705126, "lat": 49.1994607, "lon": 13.0470157, "tags": {"board_type": "history", "information": "board", "name": "Der Hammerschmied und der Tod", "tourism": "information"}}, {"type": "node", "id": 9098705127, "lat": 49.2021019, "lon": 13.0454412, "tags": {"information": "map", "map_size": "region", "map_type": "topo", "name": "Lam Bayerischer Wald", "tourism": "information"}}, {"type": "node", "id": 9157228282, "lat": 49.2770506, "lon": 13.1370593, "tags": {"board_type": "history", "information": "board", "name": "Pajrek", "tourism": "information"}}, {"type": "node", "id": 9383965317, "lat": 49.2027961, "lon": 13.1071714}, {"type": "node", "id": 9383965318, "lat": 49.2027931, "lon": 13.1072161}, {"type": "node", "id": 9383965319, "lat": 49.2027712, "lon": 13.1072126}, {"type": "node", "id": 9383965320, "lat": 49.2027742, "lon": 13.1071679}, {"type": "node", "id": 9384100723, "lat": 49.1870048, "lon": 13.1123969, "tags": {"name": "Wasserschutzgebiet", "tourism": "information"}}, {"type": "node", "id": 9384100726, "lat": 49.1988705, "lon": 13.0942657, "tags": {"information": "guidepost", "name": "La 1", "tourism": "information"}}, {"type": "node", "id": 9547605928, "lat": 49.2170552, "lon": 13.1740539, "tags": {"ele": "752", "name": "Nad Kn\u00ed\u017eec\u00edm Dvorem", "natural": "peak", "source": "\u010c\u00daZK"}}, {"type": "node", "id": 9573724254, "lat": 49.2075648, "lon": 13.0874814}, {"type": "node", "id": 9573724259, "lat": 49.2151969, "lon": 13.070302}, {"type": "node", "id": 9573724260, "lat": 49.2151953, "lon": 13.0702602}, {"type": "node", "id": 9573724261, "lat": 49.2152189, "lon": 13.0702806}, {"type": "node", "id": 9748194058, "lat": 49.2365129, "lon": 13.1566984, "tags": {"bicycle": "yes", "information": "guidepost", "operator": "cz:K\u010cT", "ref": "none", "tourism": "information"}}, {"type": "node", "id": 9748194059, "lat": 49.2365853, "lon": 13.1565629, "tags": {"bicycle": "yes", "hiking": "yes", "information": "map", "map_size": "region", "map_type": "topo", "ski": "yes", "tourism": "information"}}, {"type": "node", "id": 9748194060, "lat": 49.2118408, "lon": 13.1511108, "tags": {"bicycle": "yes", "hiking": "yes", "information": "map", "map_size": "region", "map_type": "topo", "name": "PP Kr\u00e1lovsk\u00fd hvozd a okol\u00ed", "operator": "Lesy \u010cR, s.p.", "tourism": "information"}}, {"type": "node", "id": 9794307111, "lat": 49.2142196, "lon": 13.0423209, "tags": {"amenity": "shelter", "bench": "yes", "shelter_type": "weather_shelter"}}, {"type": "node", "id": 9885164459, "lat": 49.1730165, "lon": 13.1061796, "tags": {"description": "Wanderwege", "information": "map", "tourism": "information"}}, {"type": "node", "id": 9885164465, "lat": 49.1965665, "lon": 13.0756442, "tags": {"tourism": "viewpoint"}}, {"type": "node", "id": 9890511898, "lat": 49.1732628, "lon": 13.1645076, "tags": {"alt_name": "Naturkino", "name": "Bayernwald-Blick", "tourism": "viewpoint"}}, {"type": "node", "id": 9890511899, "lat": 49.1732426, "lon": 13.164474, "tags": {"board_type": "geography", "description": "Beschreibung des Panoramas und Entstehung des Bayerischen Waldes.", "information": "board", "name": "Bayernwald-Blick", "tourism": "information"}}, {"type": "node", "id": 9891454763, "lat": 49.1726636, "lon": 13.0785537, "tags": {"tourism": "viewpoint"}}, {"type": "node", "id": 9906314683, "lat": 49.2861619, "lon": 13.1448509, "tags": {"bicycle": "yes", "information": "guidepost", "tourism": "information"}}, {"type": "node", "id": 9958759535, "lat": 49.2160447, "lon": 13.0647409, "tags": {"information": "board", "name": "Tierweitsprung", "tourism": "information"}}, {"type": "node", "id": 9958759536, "lat": 49.2158232, "lon": 13.0651885, "tags": {"information": "board", "name": "Holzweg Lambach", "tourism": "information"}}, {"type": "node", "id": 9971587897, "lat": 49.2174719, "lon": 13.0652747, "tags": {"information": "board", "name": "Was fliegt denn da?", "tourism": "information"}}, {"type": "node", "id": 9991613217, "lat": 49.2034214, "lon": 13.109739, "tags": {"addr:housenumber": "1", "addr:postcode": "93462", "addr:street": "Osser", "name": "Osserschutzhaus", "tourism": "alpine_hut", "website": "https://www.osser-schutzhaus.de/"}}, {"type": "node", "id": 10148381907, "lat": 49.3208192, "lon": 13.1795447}, {"type": "node", "id": 10148381908, "lat": 49.3207862, "lon": 13.1795039}, {"type": "node", "id": 10148381909, "lat": 49.320796, "lon": 13.1794854}, {"type": "node", "id": 10148381910, "lat": 49.3208289, "lon": 13.1795262}, {"type": "node", "id": 10188229430, "lat": 49.1527435, "lon": 13.1200741, "tags": {"hiking": "yes", "information": "guidepost", "tourism": "information"}}, {"type": "node", "id": 10430661851, "lat": 49.2517182, "lon": 13.1988934, "tags": {"amenity": "shelter"}}, {"type": "node", "id": 10797421226, "lat": 49.2106347, "lon": 13.1974779, "tags": {"amenity": "clock", "author": "Zden\u011bk Landa", "contact:website": "http://www.orloj-sumava-hojsovastraz.cz/", "date": "yes", "faces": "1", "name": "\u0160umavsk\u00fd orloj", "name:cs": "\u0160umavsk\u00fd orloj", "name:de": "Astronomische Uhr", "name:en": "Astronomical Clock", "opening_hours": "24/7", "start_date": "2017-11-17", "tourism": "attraction", "visibility": "street"}}, {"type": "node", "id": 10815032827, "lat": 49.2668127, "lon": 13.0491934, "tags": {"hiking": "yes", "information": "map", "map_size": "region", "map_type": "topo", "tourism": "information"}}, {"type": "node", "id": 10921309329, "lat": 49.2172952, "lon": 13.0678029, "tags": {"board:title": "Speisepilze und Giftpilze", "board_type": "nature", "information": "board", "subject:wikidata": "Q764", "tourism": "information"}}, {"type": "node", "id": 10921309336, "lat": 49.2156506, "lon": 13.0704043, "tags": {"board:title": "Gl\u00e4sener Steig", "information": "map", "tourism": "information"}}, {"type": "node", "id": 10921309337, "lat": 49.2159063, "lon": 13.0693938, "tags": {"board:title": "Stammaufbau und Alter eine Baumes", "board_type": "nature", "information": "board", "subject:wikidata": "Q1137122", "subject:wikipedia": "de:Jahresring", "tourism": "information"}}, {"type": "node", "id": 10939332119, "lat": 49.215165, "lon": 13.1603797, "tags": {"information": "map", "name": "Kr\u00e1lovsk\u00fd hvozd", "tourism": "information"}}, {"type": "node", "id": 10944347776, "lat": 49.205168, "lon": 13.0970851, "tags": {"tourism": "viewpoint"}}, {"type": "node", "id": 10944360054, "lat": 49.2050149, "lon": 13.0978635, "tags": {"tourism": "viewpoint"}}, {"type": "node", "id": 10966112143, "lat": 49.2296114, "lon": 13.1589347}, {"type": "node", "id": 10966112144, "lat": 49.2295933, "lon": 13.158934}, {"type": "node", "id": 10966112145, "lat": 49.2295839, "lon": 13.1589576}, {"type": "node", "id": 10966112146, "lat": 49.2295925, "lon": 13.1589819}, {"type": "node", "id": 10966112147, "lat": 49.2296106, "lon": 13.1589826}, {"type": "node", "id": 10966112148, "lat": 49.22962, "lon": 13.158959}, {"type": "node", "id": 10966112149, "lat": 49.2308375, "lon": 13.1600093}, {"type": "node", "id": 10966112150, "lat": 49.2307895, "lon": 13.1599428}, {"type": "node", "id": 10966112151, "lat": 49.2307572, "lon": 13.1599973}, {"type": "node", "id": 10966112152, "lat": 49.2308052, "lon": 13.1600638}, {"type": "node", "id": 10966301641, "lat": 49.2141358, "lon": 13.159706, "tags": {"amenity": "shelter", "shelter_type": "picnic_shelter"}}, {"type": "node", "id": 11012398030, "lat": 49.2744633, "lon": 13.1719458, "tags": {"information": "board", "name": "De\u0161enick\u00e1 tvrz", "tourism": "information"}}, {"type": "node", "id": 11012401113, "lat": 49.2735211, "lon": 13.1683717, "tags": {"information": "board", "name": "De\u0161enicko na trase v\u00fdznamn\u00e9 Sv\u011btelsk\u00e9 cesty", "tourism": "information"}}, {"type": "node", "id": 11012401881, "lat": 49.2693914, "lon": 13.1663331, "tags": {"information": "board", "name": "Zahrada (o\u00e1za) zdrav\u00ed", "tourism": "information"}}, {"type": "node", "id": 11012403419, "lat": 49.2734406, "lon": 13.1679378, "tags": {"information": "board", "name": "Mok\u0159ad \"Mokrou\u0161\"", "tourism": "information"}}, {"type": "node", "id": 11042379717, "lat": 49.2088834, "lon": 13.1703032, "tags": {"information": "map", "name": "V\u00edt\u00e1 v\u00e1s obec Hamry", "tourism": "information"}}, {"type": "node", "id": 11111765171, "lat": 49.1942958, "lon": 13.012919, "tags": {"board_type": "nature", "information": "board", "tourism": "information"}}, {"type": "node", "id": 11111765172, "lat": 49.1952495, "lon": 13.0093154, "tags": {"information": "board", "name": "Zugang West", "tourism": "information"}}, {"type": "node", "id": 11111765173, "lat": 49.1941903, "lon": 13.0128085, "tags": {"board_type": "plants", "information": "board", "name": "Zugang Ost", "tourism": "information"}}, {"type": "node", "id": 11111765175, "lat": 49.1943512, "lon": 13.0089987, "tags": {"board_type": "wildlife", "information": "board", "name": "Kreuzotter", "tourism": "information"}}, {"type": "node", "id": 11111765176, "lat": 49.1936656, "lon": 13.0095817, "tags": {"board_type": "wildlife", "information": "board", "name": "Wiesenknopf-Ameisenbl\u00e4uling", "tourism": "information"}}, {"type": "node", "id": 11111765177, "lat": 49.193518, "lon": 13.0113068, "tags": {"board_type": "wildlife", "information": "board", "name": "M\u00e4des\u00fc\u00df-Perlmuttfalter", "tourism": "information"}}, {"type": "node", "id": 11111765179, "lat": 49.1937652, "lon": 13.0121386, "tags": {"board_type": "wildlife", "information": "board", "name": "Quelljungfer", "tourism": "information"}}, {"type": "node", "id": 11111765180, "lat": 49.1941313, "lon": 13.0127612, "tags": {"board_type": "nature", "information": "board", "name": "Sonnentau", "tourism": "information"}}, {"type": "node", "id": 11115935367, "lat": 49.1949129, "lon": 13.0091069, "tags": {"board_type": "plants", "information": "board", "name": "Wollgras", "tourism": "information"}}, {"type": "node", "id": 11176198967, "lat": 49.2512561, "lon": 13.1995477, "tags": {"ele": "845", "information": "route_marker", "ref": "2100;2053", "tourism": "information"}}, {"type": "node", "id": 11277718275, "lat": 49.2415357, "lon": 13.0531217, "tags": {"amenity": "shelter", "bench": "yes", "shelter_type": "public_transport", "wheelchair": "no"}}, {"type": "node", "id": 11309730610, "lat": 49.2935338, "lon": 13.14326, "tags": {"board_type": "nature", "information": "board", "name": "Pozn\u00e1vac\u00ed okruh N\u00fdrsko", "tourism": "information"}}, {"type": "node", "id": 11330574569, "lat": 49.3066589, "lon": 13.1580544, "tags": {"information": "board", "name": "Poutn\u00ed kaple Nejsv\u011bt\u011bj\u0161\u00ed Trojice", "tourism": "information"}}, {"type": "node", "id": 11350401811, "lat": 49.2090769, "lon": 13.1993489, "tags": {"board_type": "history", "description": "Nau\u010dn\u00e1 stezka Hojsova Str\u00e1\u017e", "information": "board", "name": "Kostel Neposkvrn\u011bn\u00e9ho po\u010det\u00ed Panny Marie", "ref": "1", "tourism": "information"}}, {"type": "node", "id": 11350457499, "lat": 49.2114469, "lon": 13.1973139, "tags": {"board_type": "sport", "information": "board", "name": "Kr\u00e1lov\u00e1ck\u00e9 rychty", "tourism": "information"}}, {"type": "node", "id": 11350470572, "lat": 49.2090567, "lon": 13.1993651, "tags": {"board_type": "nature", "information": "board", "name": "Kostel Neposkvrn\u011bn\u00e9ho po\u010det\u00ed Panny Marie v Hojsov\u011b Str\u00e1\u017ei", "tourism": "information"}}, {"type": "node", "id": 11380251549, "lat": 49.2094865, "lon": 13.1992365, "tags": {"amenity": "shelter", "shelter_type": "picnic_shelter"}}, {"type": "node", "id": 11380251561, "lat": 49.2142023, "lon": 13.193857, "tags": {"board_type": "history", "information": "board", "name": "Kaple Archand\u011bla Michaela", "tourism": "information"}}, {"type": "node", "id": 11462188093, "lat": 49.2937797, "lon": 13.0673206, "tags": {"description": "Nau\u010dn\u00e1 stezka Za tajemstv\u00edm krajiny pod medv\u011bd\u00ed kapl\u00ed", "information": "board", "name": "Za voln\u011b \u017eij\u00edc\u00edmi \u017eivo\u010dichy les\u016f, luk a pol\u00ed", "ref": "2", "tourism": "information"}}, {"type": "node", "id": 11755842947, "lat": 49.2875884, "lon": 13.0371129, "tags": {"hiking": "yes", "information": "guidepost", "name": "Na Sign\u00e1lce", "operator": "cz:K\u010cT", "tourism": "information"}}, {"type": "node", "id": 11755843008, "lat": 49.3136019, "lon": 13.0074021, "tags": {"hiking": "yes", "information": "guidepost", "name": "Sruby na \u0160umav\u011b", "operator": "cz:K\u010cT", "tourism": "information"}}, {"type": "node", "id": 11818121277, "lat": 49.3016632, "lon": 13.1993929, "tags": {"hiking": "yes", "information": "map", "map_size": "region", "map_type": "topo", "name": "St\u0159edn\u00ed Po\u0161umav\u00ed", "tourism": "information"}}, {"type": "node", "id": 11930756764, "lat": 49.1546541, "lon": 13.0294146, "tags": {"information": "guidepost", "tourism": "information"}}, {"type": "node", "id": 11962613626, "lat": 49.1528418, "lon": 13.1202633, "tags": {"information": "map", "name": "\u00dcbersichtskarte Fernradwege", "tourism": "information"}}, {"type": "node", "id": 11962615184, "lat": 49.1527922, "lon": 13.120255, "tags": {"information": "map", "name": "\u00dcbersichtskarte Wandern", "tourism": "information"}}, {"type": "node", "id": 11962997862, "lat": 49.1707942, "lon": 13.0020601, "tags": {"information": "guidepost", "tourism": "information"}}, {"type": "node", "id": 12063343503, "lat": 49.1523635, "lon": 13.0364722, "tags": {"information": "board", "name": "Entstehungsgeschichte Arnbruck", "tourism": "information"}}, {"type": "node", "id": 12063343548, "lat": 49.152549, "lon": 13.0159386, "tags": {"name": "Wasserschutzgebiet", "tourism": "information"}}, {"type": "node", "id": 12063343551, "lat": 49.1541119, "lon": 13.0104574, "tags": {"name": "Wasserschutzgebiet", "tourism": "information"}}, {"type": "node", "id": 12063343556, "lat": 49.1565803, "lon": 13.0009292, "tags": {"name": "Wasserschutzgebiet", "tourism": "information"}}, {"type": "node", "id": 12063383633, "lat": 49.1567935, "lon": 13.0150956, "tags": {"information": "guidepost", "name": "Bergwachtwinkel", "tourism": "information"}}, {"type": "node", "id": 12063383634, "lat": 49.1569866, "lon": 13.0148667, "tags": {"name": "M\u00fchlriegel", "tourism": "viewpoint"}}, {"type": "node", "id": 12064325326, "lat": 49.1592607, "lon": 13.0259456, "tags": {"tourism": "viewpoint"}}, {"type": "node", "id": 12064325327, "lat": 49.1586933, "lon": 13.0251474, "tags": {"name": "\u00d6driegel", "tourism": "viewpoint"}}, {"type": "node", "id": 12064325328, "lat": 49.1586587, "lon": 13.0250572, "tags": {"information": "guidepost", "name": "\u00d6driegel", "tourism": "information"}}, {"type": "node", "id": 12067643726, "lat": 49.277922, "lon": 13.14255, "tags": {"board_type": "nature", "information": "board", "name": "Pta\u010d\u00ed rezervace, Kdo tu \u017eije?", "tourism": "information"}}, {"type": "node", "id": 12085842824, "lat": 49.2451883, "lon": 13.0833706, "tags": {"direction": "250", "information": "board", "name": "\u010cESK\u00c1 REPUBLIKA", "tourism": "information"}}, {"type": "node", "id": 12085842838, "lat": 49.2012463, "lon": 13.1137356, "tags": {"board_type": "warning", "direction": "40", "information": "board", "inscription": "POZOR St\u00e1tn\u00ed hranice", "tourism": "information"}}, {"type": "node", "id": 12099352920, "lat": 49.3505217, "lon": 13.005868, "tags": {"amenity": "shelter", "shelter_type": "picnic_shelter"}}, {"type": "node", "id": 12099352921, "lat": 49.3505563, "lon": 13.0058797, "tags": {"board_type": "history", "description": "NS Br\u00e1na do V\u0161erubsk\u00e9ho pr\u016fsmyku", "information": "board", "name": "H\u00e1jek", "ref": "3", "tourism": "information"}}, {"type": "node", "id": 12100400872, "lat": 49.3433618, "lon": 13.0741565, "tags": {"information": "board", "name": "Revitaliza\u010dn\u00ed opat\u0159en\u00ed \u0160tefle - v\u00fdstavba vodn\u00ed n\u00e1dr\u017ee a t\u016fn\u00ed", "tourism": "information"}}, {"type": "node", "id": 12168419692, "lat": 49.2060786, "lon": 13.0152845, "tags": {"amenity": "shelter"}}, {"type": "node", "id": 12179766745, "lat": 49.1758472, "lon": 13.0561459, "tags": {"ele": "749", "name": "Th\u00fcrnsteiner Berg", "natural": "peak"}}, {"type": "node", "id": 12180395141, "lat": 49.1884425, "lon": 13.0475414, "tags": {"ele": "613", "name": "Riedberg", "natural": "peak"}}, {"type": "node", "id": 12196653650, "lat": 49.1686294, "lon": 13.0997801, "tags": {"ele": "661", "name": "H\u00fcttenberg", "natural": "peak"}}, {"type": "node", "id": 12196667179, "lat": 49.1849223, "lon": 13.0950379, "tags": {"ele": "753", "name": "Hausberg", "natural": "peak"}}, {"type": "node", "id": 12196667180, "lat": 49.1966319, "lon": 13.0853927, "tags": {"ele": "774", "name": "Oberer Berg", "natural": "peak"}}, {"type": "node", "id": 12196667181, "lat": 49.1909843, "lon": 13.076477, "tags": {"ele": "679", "name": "Geigenberg", "natural": "peak"}}, {"type": "node", "id": 12196667182, "lat": 49.1827273, "lon": 13.0795562, "tags": {"ele": "654", "name": "Vogelh\u00f6he", "natural": "peak"}}, {"type": "node", "id": 12196970402, "lat": 49.2090116, "lon": 13.0550408, "tags": {"ele": "764", "name": "Rotschwanzelh\u00f6he", "natural": "peak"}}, {"type": "node", "id": 12197240266, "lat": 49.2299155, "lon": 13.0387223, "tags": {"ele": "893", "name": "Fahrenberg", "natural": "peak"}}, {"type": "node", "id": 12197240267, "lat": 49.2253473, "lon": 13.0355358, "tags": {"ele": "808", "name": "Hoher Riegel", "natural": "peak"}}, {"type": "node", "id": 12197240268, "lat": 49.2194612, "lon": 13.0360937, "tags": {"ele": "740", "natural": "peak"}}, {"type": "node", "id": 12197616876, "lat": 49.2001723, "lon": 13.025955, "tags": {"ele": "654", "name": "Oberer K\u00fchberg", "natural": "peak"}}, {"type": "node", "id": 12197616878, "lat": 49.1988263, "lon": 13.0189168, "tags": {"ele": "587", "name": "Unterer K\u00fchberg", "natural": "peak"}}, {"type": "node", "id": 12197883817, "lat": 49.2256941, "lon": 13.0079976, "tags": {"ele": "786", "name": "Kronwith\u00f6he", "natural": "peak"}}, {"type": "node", "id": 12324182974, "lat": 49.1653059, "lon": 13.2004054, "tags": {"amenity": "shelter", "shelter_type": "picnic_shelter"}}, {"type": "node", "id": 12541874103, "lat": 49.2142532, "lon": 13.0347664, "tags": {"amenity": "bench", "tourism": "viewpoint"}}, {"type": "node", "id": 12552072655, "lat": 49.1706043, "lon": 13.0788318, "tags": {"information": "guidepost", "tourism": "information"}}, {"type": "node", "id": 12552087451, "lat": 49.165096, "lon": 13.0744281, "tags": {"information": "guidepost", "tourism": "information"}}, {"type": "node", "id": 12552108746, "lat": 49.1555448, "lon": 13.0540172, "tags": {"information": "guidepost", "tourism": "information"}}, {"type": "node", "id": 12639355744, "lat": 49.3448682, "lon": 13.1599573}, {"type": "node", "id": 12639355745, "lat": 49.3448545, "lon": 13.1599553}, {"type": "node", "id": 12639355746, "lat": 49.3448439, "lon": 13.1599686}, {"type": "node", "id": 12639355747, "lat": 49.3448425, "lon": 13.1599896}, {"type": "node", "id": 12639355748, "lat": 49.3448513, "lon": 13.1600059}, {"type": "node", "id": 12639355749, "lat": 49.3448649, "lon": 13.160008}, {"type": "node", "id": 12639355750, "lat": 49.3448755, "lon": 13.1599946}, {"type": "node", "id": 12639355751, "lat": 49.3448769, "lon": 13.1599736}, {"type": "node", "id": 12769162557, "lat": 49.3503263, "lon": 13.0956545, "tags": {"ele": "603", "name": "K\u0159\u00ed\u017eov\u00e1", "natural": "peak", "source": "\u010c\u00daZK"}}, {"type": "node", "id": 12850368530, "lat": 49.2821888, "lon": 13.1149836, "tags": {"board_type": "information", "information": "board", "name": "K\u0159\u00ed\u017eov\u00e1 cesta Skeln\u00e1 Hu\u0165", "tourism": "information"}}, {"type": "node", "id": 12850396772, "lat": 49.2803107, "lon": 13.1096559, "tags": {"hiking": "yes", "information": "guidepost", "operator": "cz:K\u010cT", "ref": "KT198", "tourism": "information"}}, {"type": "node", "id": 12886241411, "lat": 49.2022355, "lon": 13.141607, "tags": {"board_type": "nature", "information": "board", "name": "Nau\u010dn\u00e1 stezka z Hamr\u016f na Ostr\u00fd / Zast\u00e1vka \u010d. 8", "tourism": "information"}}, {"type": "node", "id": 12947502224, "lat": 49.2976379, "lon": 13.1533482}, {"type": "node", "id": 12947502225, "lat": 49.2975497, "lon": 13.1533192}, {"type": "node", "id": 12947502226, "lat": 49.2975455, "lon": 13.1533493}, {"type": "node", "id": 12947502227, "lat": 49.2976337, "lon": 13.1533783}, {"type": "node", "id": 12965077832, "lat": 49.2765367, "lon": 13.1381188, "tags": {"board_type": "nature", "information": "board", "tourism": "information"}}, {"type": "node", "id": 13019420990, "lat": 49.2028938, "lon": 13.1737472, "tags": {"information": "map", "tourism": "information"}}, {"type": "node", "id": 13019436865, "lat": 49.2029622, "lon": 13.1738029, "tags": {"board_type": "history", "information": "board", "name": "Poutn\u00ed m\u00edsto K\u0159\u00ed\u017ekov - Kreutzwinkel", "tourism": "information"}}, {"type": "node", "id": 13159497531, "lat": 49.3503507, "lon": 13.1487725, "tags": {"board_type": "panorama", "information": "board", "tourism": "information"}}, {"type": "node", "id": 13159497532, "lat": 49.35034, "lon": 13.1487515, "tags": {"check_date": "2025-09-20", "direction": "S", "ele": "624", "name": "Vyhl\u00eddka Poho\u0159\u00ed", "tourism": "viewpoint"}}, {"type": "node", "id": 13234471312, "lat": 49.1976337, "lon": 13.0089633, "tags": {"information": "map", "tourism": "information"}}, {"type": "node", "id": 13270241601, "lat": 49.3502993, "lon": 13.0057954, "tags": {"board_type": "history", "information": "board", "name": "Br\u00e1na do V\u0161erubsk\u00e9ho pr\u016fsmyku \u010d.3", "tourism": "information"}}, {"type": "node", "id": 13311057066, "lat": 49.3336357, "lon": 13.0284717}, {"type": "node", "id": 13311057067, "lat": 49.3336116, "lon": 13.02844}, {"type": "node", "id": 13311057068, "lat": 49.3335985, "lon": 13.0284638}, {"type": "node", "id": 13311057069, "lat": 49.3336227, "lon": 13.0284952}, {"type": "node", "id": 13333761940, "lat": 49.2154342, "lon": 13.0785014, "tags": {"information": "board", "tourism": "information"}}, {"type": "node", "id": 13335974970, "lat": 49.165539, "lon": 13.0033816, "tags": {"information": "board", "name": "Auerhahnloipe", "tourism": "information"}}, {"type": "node", "id": 13412953840, "lat": 49.2743953, "lon": 13.1715552, "tags": {"information": "board", "tourism": "information"}}, {"type": "node", "id": 13412958490, "lat": 49.2742658, "lon": 13.1717707, "tags": {"information": "map", "tourism": "information"}}, {"type": "way", "id": 101550088, "nodes": [1172675263, 1172675655, 1172675478, 1172675704, 1172675320, 1172675535, 1172675394, 1172675600, 1172675263], "tags": {"addr:housenumber": "1a", "addr:street": "Rathausweg", "amenity": "townhall", "building": "yes", "information": "office", "name": "Gemeinde Lohberg", "opening_hours": "Mo-Fr 08:00-12:00; PH off", "tourism": "information"}}, {"type": "way", "id": 125844904, "nodes": [1396668619, 1396668618, 1396668606, 1396668615, 1396668619], "tags": {"addr:city": "Lam", "addr:housenumber": "1", "addr:postcode": "93462", "addr:street": "Marktplatz", "building": "yes", "information": "office", "internet_access": "yes", "internet_access:fee": "no", "layer": "-1", "location": "surface", "name": "Tourist-Info Lam", "operator": "Markt Lam", "tourism": "information"}}, {"type": "way", "id": 323417221, "nodes": [3302160245, 3302160246, 3302160247, 3302160248, 3302160245], "tags": {"amenity": "shelter", "name": "Schutzh\u00fctte von 1973", "shelter_type": "weather_shelter"}}, {"type": "way", "id": 323776934, "nodes": [3305553160, 3305553157, 3305553159, 3305553663, 3305553160], "tags": {"amenity": "shelter", "shelter_type": "picnic_shelter"}}, {"type": "way", "id": 360514000, "nodes": [3650438745, 3650438746, 3650438747, 3650438748, 3650438749, 3650438750, 3650438745], "tags": {"building": "yes", "information": "board", "name": "Informationspavillon", "tourism": "information"}}, {"type": "way", "id": 377285096, "nodes": [3806569406, 3806569404, 3806569403, 9573724254, 3806569406], "tags": {"amenity": "shelter", "bench": "yes", "building": "yes", "shelter_type": "weather_shelter"}}, {"type": "way", "id": 430896986, "nodes": [4301585052, 4301585051, 4301585049, 4301585050, 4301585052], "tags": {"amenity": "shelter", "bench": "yes", "shelter_type": "public_transport"}}, {"type": "way", "id": 449510024, "nodes": [4464586949, 4464586950, 4464586956, 4464586955, 4464586949], "tags": {"amenity": "shelter", "bench": "yes", "shelter_type": "public_transport"}}, {"type": "way", "id": 457180543, "nodes": [4533598640, 4533598637, 4533598638, 4533598639, 4533598640], "tags": {"amenity": "shelter", "shelter_type": "public_transport"}}, {"type": "way", "id": 492421672, "nodes": [4844417828, 4844417829, 4844417830, 4844417831, 4844417828], "tags": {"amenity": "shelter", "shelter_type": "picnic_shelter"}}, {"type": "way", "id": 501089523, "nodes": [4919905851, 5610147936, 4919905850, 5610147937, 4919905849, 4919905848, 4919905851], "tags": {"amenity": "shelter", "shelter_type": "pavilion"}}, {"type": "way", "id": 584116397, "nodes": [5583926455, 5583926456, 5583926461, 5583926457, 5583926458, 5583926455], "tags": {"amenity": "shelter", "bench": "yes", "fireplace": "no", "name": "State\u010dek-G\u00fcttlplatzl", "shelter_type": "lean_to", "source": "survey;GPX"}}, {"type": "way", "id": 1017378552, "nodes": [9383965317, 9383965318, 9383965319, 9383965320, 9383965317], "tags": {"amenity": "shelter", "building": "yes", "shelter_type": "lean_to"}}, {"type": "way", "id": 1039701945, "nodes": [9573724261, 9573724260, 9573724259, 9573724261], "tags": {"amenity": "shelter", "bench": "yes", "building": "yes", "shelter_type": "weather_shelter"}}, {"type": "way", "id": 1109141402, "nodes": [10148381910, 10148381909, 10148381908, 10148381907, 10148381910], "tags": {"amenity": "shelter", "bench": "yes", "building": "yes", "shelter_type": "public_transport"}}, {"type": "way", "id": 1180743586, "nodes": [10966112148, 10966112147, 10966112146, 10966112145, 10966112144, 10966112143, 10966112148], "tags": {"amenity": "shelter", "shelter_type": "Wetterpilz"}}, {"type": "way", "id": 1180743587, "nodes": [10966112152, 10966112151, 10966112150, 10966112149, 10966112152], "tags": {"amenity": "shelter", "bench": "yes", "bin": "yes", "shelter_type": "public_transport"}}, {"type": "way", "id": 1364845668, "nodes": [12639355751, 12639355750, 12639355749, 12639355748, 12639355747, 12639355746, 12639355745, 12639355744, 12639355751], "tags": {"amenity": "shelter", "shelter_type": "gazebo"}}, {"type": "way", "id": 1408918415, "nodes": [12947502227, 12947502226, 12947502225, 12947502224, 12947502227], "tags": {"amenity": "shelter", "shelter_type": "public_transport"}}, {"type": "way", "id": 1451364010, "nodes": [13311057066, 13311057067, 13311057068, 13311057069, 13311057066], "tags": {"amenity": "shelter", "building": "yes", "shelter_type": "public_transport"}}]}