{"version": 0.6, "generator": "Overpass API 0.7.62.8 e802775f", "osm3s": {"timestamp_osm_base": "2026-01-05T15:52:26Z", "copyright": "The data included in this document is from www.openstreetmap.org. The data is made available under ODbL."}, "elements": [{"type": "node", "id": 49915464, "lat": 49.1678502, "lon": 13.2446383, "tags": {"ele": "1077", "hiking": "yes", "information": "guidepost", "name": "Hofmanky", "operator": "cz:K\u010cT", "ref": "KT123", "ski": "yes", "source": "survey", "tourism": "information"}}, {"type": "node", "id": 52823600, "lat": 49.1669574, "lon": 13.2474439, "tags": {"ele": "1057", "hiking": "yes", "information": "guidepost", "name": "Hofmanky (rozcest\u00ed)", "operator": "cz:K\u010cT", "ref": "KT124", "source": "survey", "tourism": "information"}}, {"type": "node", "id": 52825393, "lat": 49.1778132, "lon": 13.2533503, "tags": {"ele": "1214", "hiking": "yes", "information": "guidepost", "name": "Panc\u00ed\u0159 (chata)", "operator": "cz:K\u010cT", "ref": "KT034", "ski": "yes", "source": "survey", "tourism": "information"}}, {"type": "node", "id": 53321897, "lat": 49.1843852, "lon": 13.302581, "tags": {"ele": "1020", "hiking": "yes", "information": "guidepost", "name": "Rudsk\u00e1 silnice", "operator": "cz:K\u010cT", "ref": "KT196", "source": "survey", "tourism": "information"}}, {"type": "node", "id": 324576473, "lat": 49.1745785, "lon": 13.3339668, "tags": {"ele": "888", "hiking": "yes", "information": "guidepost", "name": "Zh\u016f\u0159sk\u00fd potok", "operator": "cz:K\u010cT", "ref": "SE010", "ski": "yes", "source": "survey", "tourism": "information"}}, {"type": "node", "id": 324581991, "lat": 49.1767072, "lon": 13.3356251, "tags": {"ele": "920", "hiking": "yes", "information": "guidepost", "name": "Zh\u016f\u0159\u00ed", "operator": "cz:K\u010cT", "ref": "SE088", "ski": "yes", "ski:nordic": "yes", "source": "survey", "tourism": "information"}}, {"type": "node", "id": 324581992, "lat": 49.1868212, "lon": 13.3371964, "tags": {"ele": "1023.5", "name": "Hadi vrch", "name:cs": "Hadi vrch", "name:de": "Natternberg", "natural": "peak"}}, {"type": "node", "id": 325114689, "lat": 49.1613405, "lon": 13.2826324, "tags": {"information": "guidepost", "source": "survey", "tourism": "information"}}, {"type": "node", "id": 325133005, "lat": 49.1839105, "lon": 13.2726404, "tags": {"ele": "998", "hiking": "yes", "information": "guidepost", "name": "Nov\u00fd Brunst (h\u00e1j.)", "operator": "cz:K\u010cT", "ref": "KT172", "ski": "yes", "source": "survey", "tourism": "information"}}, {"type": "node", "id": 325133079, "lat": 49.2023664, "lon": 13.2904362, "tags": {"ele": "978", "hiking": "yes", "information": "guidepost", "name": "U obr\u00e1zku", "operator": "cz:K\u010cT", "ref": "KT228", "source": "survey", "tourism": "information"}}, {"type": "node", "id": 325133105, "lat": 49.1728289, "lon": 13.2576038, "tags": {"ele": "1036", "hiking": "yes", "information": "guidepost", "name": "Prameni\u0161t\u011b \u0158ezn\u00e9", "operator": "cz:K\u010cT", "ref": "KT170", "ski": "yes", "source": "survey", "tourism": "information"}}, {"type": "node", "id": 325133566, "lat": 49.1879018, "lon": 13.2793379, "tags": {"ele": "1053", "hiking": "yes", "information": "guidepost", "name": "Nad Brunstem", "operator": "cz:K\u010cT", "ref": "KT197", "ski": "yes", "ski:nordic": "yes", "source": "survey", "tourism": "information"}}, {"type": "node", "id": 325216684, "lat": 49.1728293, "lon": 13.2259535, "tags": {"ele": "975", "hiking": "yes", "information": "guidepost", "name": "\u0160pi\u010d\u00e1ck\u00e9 sedlo", "operator": "cz:K\u010cT", "ref": "KT038", "ski": "yes", "source": "survey", "tourism": "information"}}, {"type": "node", "id": 325223315, "lat": 49.1910702, "lon": 13.2733794, "tags": {"ele": "1032", "hiking": "yes", "information": "guidepost", "name": "\u0160mauzy", "operator": "cz:K\u010cT", "ref": "KT173", "source": "survey", "tourism": "information"}}, {"type": "node", "id": 326039808, "lat": 49.22298, "lon": 13.2900344, "tags": {"ele": "770", "hiking": "yes", "information": "guidepost", "name": "Javorn\u00e1 (restaurace)", "operator": "cz:K\u010cT", "ref": "KT191", "source": "survey", "tourism": "information"}}, {"type": "node", "id": 326124507, "lat": 49.1799235, "lon": 13.2114841, "tags": {"amenity": "shelter", "shelter_type": "picnic_shelter"}}, {"type": "node", "id": 326131804, "lat": 49.1651932, "lon": 13.2785034, "tags": {"amenity": "shelter", "name": "Gerlova Hu\u0165", "shelter_type": "weather_shelter"}}, {"type": "node", "id": 389781595, "lat": 49.1647435, "lon": 13.2211339, "tags": {"ele": "860", "hiking": "yes", "information": "guidepost", "name": "\u0160pi\u010d\u00e1k (sportovn\u00ed are\u00e1l)", "official_name": "\u0160pi\u010d\u00e1k (sport.are\u00e1l)", "operator": "cz:K\u010cT", "ref": "KT040", "ski": "yes", "ski:nordic": "yes", "source": "survey", "tourism": "information"}}, {"type": "node", "id": 389781610, "lat": 49.1699331, "lon": 13.2238343, "tags": {"ele": "937", "hiking": "yes", "information": "guidepost", "name": "\u0160pi\u010d\u00e1k (pod Rixi)", "operator": "cz:K\u010cT", "ref": "KT039", "ski": "yes", "source": "survey", "tourism": "information"}}, {"type": "node", "id": 389781737, "lat": 49.1709355, "lon": 13.2400752, "tags": {"ele": "1086", "hiking": "yes", "information": "guidepost", "name": "Pod \u0160v\u00fdc\u00e1rnou", "operator": "cz:K\u010cT", "ref": "KT036", "ski": "yes", "source": "survey", "tourism": "information"}}, {"type": "node", "id": 563809981, "lat": 49.1727429, "lon": 13.2082479, "tags": {"ele": "1202", "name": "\u0160pi\u010d\u00e1k", "name:de": "Spitzberg", "natural": "peak", "wikidata": "Q2688045", "wikipedia": "cs:\u0160pi\u010d\u00e1k (\u017deleznorudsk\u00e1 hornatina)"}}, {"type": "node", "id": 568265874, "lat": 49.1779544, "lon": 13.2535613, "tags": {"ele": "1214", "name": "Panc\u00ed\u0159", "name:de": "Panzer", "natural": "peak", "wikidata": "Q1456734", "wikipedia": "cs:Panc\u00ed\u0159 (\u0160umava)"}}, {"type": "node", "id": 568265876, "lat": 49.1917663, "lon": 13.2531234, "tags": {"ele": "1203", "name": "Habr", "name:de": "Hochgefild", "natural": "peak", "source:ele": "tisicovky.cz"}}, {"type": "node", "id": 568265878, "lat": 49.2022274, "lon": 13.2468267, "tags": {"ele": "1234", "name": "M\u016fstek", "name:de": "Br\u00fcckelberg", "natural": "peak", "wikidata": "Q12039463"}}, {"type": "node", "id": 576699845, "lat": 49.1997248, "lon": 13.3242973, "tags": {"ele": "1090", "name": "Javorn\u00e1", "natural": "peak", "source": "tisicovky.cz", "wikidata": "Q23819469", "wikipedia": "cs:Javorn\u00e1 (\u0160umava)"}}, {"type": "node", "id": 576699848, "lat": 49.2061111, "lon": 13.2652778, "tags": {"ele": "1176", "name": "Jedlov\u00e1", "natural": "peak", "source": "tisicovky.cz"}}, {"type": "node", "id": 576717525, "lat": 49.1933333, "lon": 13.3691667, "tags": {"ele": "1004", "name": "Koch\u00e1novsk\u00fd vrch", "natural": "peak", "source": "tisicovky.cz"}}, {"type": "node", "id": 576717531, "lat": 49.2426549, "lon": 13.2015692, "tags": {"ele": "1005", "name": "Mal\u00fd Prenet", "name:de": "Kleiner Brennetberg", "natural": "peak", "source": "\u010c\u00daZK"}}, {"type": "node", "id": 576722558, "lat": 49.1880556, "lon": 13.2755556, "tags": {"ele": "1068", "name": "Nad \u0160mauzy", "natural": "peak", "source": "tisicovky.cz"}}, {"type": "node", "id": 576733435, "lat": 49.2352889, "lon": 13.2113341, "tags": {"ele": "1071", "name": "Prenet", "name:de": "Gro\u00dfer Brennetberg", "natural": "peak", "source": "\u010c\u00daZK", "wikidata": "Q12046975", "wikipedia": "cs:Prenet (\u0160umava)"}}, {"type": "node", "id": 577336411, "lat": 49.1565068, "lon": 13.2776647, "tags": {"ele": "1023", "name": "Tok", "name:de": "Hahnenriegel", "natural": "peak", "source": "tisicovky.cz"}}, {"type": "node", "id": 577336422, "lat": 49.1686762, "lon": 13.373881, "tags": {"ele": "1078", "name": "Vysok\u00fd h\u0159bet", "natural": "peak", "source": "tisicovky.cz", "wikidata": "Q23807790"}}, {"type": "node", "id": 736354504, "lat": 49.1644788, "lon": 13.2005355, "tags": {"amenity": "shelter", "shelter_type": "lean_to"}}, {"type": "node", "id": 1008803836, "lat": 49.172788, "lon": 13.2086901, "tags": {"ele": "1202", "hiking": "yes", "information": "guidepost", "name": "\u0160pi\u010d\u00e1k (vrchol)", "operator": "cz:K\u010cT", "ref": "KT279", "tourism": "information"}}, {"type": "node", "id": 1336506603, "lat": 49.2636411, "lon": 13.3980988}, {"type": "node", "id": 1350081230, "lat": 49.1617851, "lon": 13.3654726, "tags": {"name": "Bor", "name:de": "Haid", "natural": "peak"}}, {"type": "node", "id": 1364562820, "lat": 49.1796776, "lon": 13.361056, "tags": {"ele": "955", "hiking": "yes", "information": "guidepost", "name": "Star\u00e1 Hu\u0165", "operator": "cz:K\u010cT", "ref": "SE192", "source": "survey", "tourism": "information"}}, {"type": "node", "id": 1364562840, "lat": 49.2658623, "lon": 13.391971, "tags": {"bicycle": "yes", "ele": "618", "hiking": "yes", "information": "guidepost", "name": "Velhartice n\u00e1m\u011bst\u00ed", "operator": "cz:K\u010cT", "ref": "SE001", "tourism": "information"}}, {"type": "node", "id": 1406991607, "lat": 49.1564412, "lon": 13.3085816, "tags": {"ele": "954", "name": "U \u0161kolky", "natural": "peak", "source": "\u010c\u00daZK"}}, {"type": "node", "id": 1469910396, "lat": 49.1716952, "lon": 13.2286101, "tags": {"ele": "997", "hiking": "yes", "information": "guidepost", "name": "Hrn\u010d\u00ed\u0159 (hotel)", "operator": "cz:K\u010cT", "ref": "KT037", "ski": "yes", "source": "survey", "tourism": "information"}}, {"type": "node", "id": 1937595004, "lat": 49.178196, "lon": 13.2154816, "tags": {"amenity": "shelter", "shelter_type": "picnic_shelter"}}, {"type": "node", "id": 2133051615, "lat": 49.2032871, "lon": 13.2285143, "tags": {"ele": "985", "hiking": "yes", "information": "guidepost", "name": "Nad silnic\u00ed (rozc.)", "operator": "cz:K\u010cT", "ref": "KT108", "ski": "yes", "ski:nordic": "yes", "tourism": "information"}}, {"type": "node", "id": 2133051616, "lat": 49.2059747, "lon": 13.2082533, "tags": {"ele": "950", "hiking": "yes", "information": "guidepost", "name": "Tom\u00e1\u0161\u016fv dv\u016fr", "operator": "cz:K\u010cT", "ref": "KT186", "tourism": "information"}}, {"type": "node", "id": 2372480171, "lat": 49.1658703, "lon": 13.3935388, "tags": {"ele": "975", "hiking": "yes", "information": "guidepost", "name": "Vyhl\u00eddka do \u00fadol\u00ed K\u0159emeln\u00e9", "ref": "3682", "tourism": "information"}}, {"type": "node", "id": 2372480214, "lat": 49.1658546, "lon": 13.3929495, "tags": {"tourism": "viewpoint"}}, {"type": "node", "id": 2400321554, "lat": 49.303919, "lon": 13.2477059, "tags": {"ele": "480", "hiking": "yes", "information": "guidepost", "name": "Str\u00e1\u017eov (BUS)", "old_ref": "0215/13", "operator": "cz:K\u010cT", "ref": "KT022", "tourism": "information"}}, {"type": "node", "id": 2400371849, "lat": 49.307939, "lon": 13.2482021, "tags": {"name": "\u0160umavsk\u00e1 vyhl\u00eddka Zde\u0148ka Hodka a str\u00e1\u017eovsk\u00fdch turist\u016f", "tourism": "viewpoint"}}, {"type": "node", "id": 2419886882, "lat": 49.3381127, "lon": 13.3930635, "tags": {"name": "Drkolna, 729 m.n.m.", "tourism": "viewpoint"}}, {"type": "node", "id": 2428215268, "lat": 49.1915578, "lon": 13.2077514, "tags": {"board_type": "history", "information": "board", "name": "Elektr\u00e1rna \u010cern\u00e9 jezero", "tourism": "information"}}, {"type": "node", "id": 2428234375, "lat": 49.1908924, "lon": 13.2126979, "tags": {"hiking": "yes", "information": "guidepost", "name": "Nau\u010dn\u00e1 stezka CHKO \"\u0160umava - Br\u010d\u00e1ln\u00edk\"", "tourism": "information"}}, {"type": "node", "id": 2428234376, "lat": 49.1925004, "lon": 13.211546, "tags": {"ele": "737", "hiking": "yes", "information": "guidepost", "name": "\u00dahlavsk\u00fd luh", "operator": "cz:K\u010cT", "ref": "KT249", "tourism": "information"}}, {"type": "node", "id": 2517797468, "lat": 49.2244769, "lon": 13.2693293}, {"type": "node", "id": 2620300818, "lat": 49.1769433, "lon": 13.2503561, "tags": {"ele": "1110", "hiking": "yes", "information": "guidepost", "name": "Pramen \u00dahlavy (odb.)", "name:de": "Angelquelle", "operator": "cz:K\u010cT", "ref": "KT035", "tourism": "information"}}, {"type": "node", "id": 2620300819, "lat": 49.1770987, "lon": 13.2490374, "tags": {"ele": "1110", "hiking": "yes", "information": "guidepost", "name": "Pramen \u00dahlavy", "name:de": "Angelquelle", "operator": "cz:K\u010cT", "ref": "none", "tourism": "information"}}, {"type": "node", "id": 2620300820, "lat": 49.1713596, "lon": 13.2541066, "tags": {"hiking": "yes", "information": "guidepost", "name": "Pramen \u0158ezn\u00e9 (odb.)", "operator": "cz:K\u010cT", "ref": "KT170", "tourism": "information"}}, {"type": "node", "id": 2620300961, "lat": 49.1721358, "lon": 13.2532687, "tags": {"name": "Pramen \u0158ezn\u00e9", "name:de": "Regenquelle", "natural": "spring", "tourism": "attraction"}}, {"type": "node", "id": 2670574080, "lat": 49.1735916, "lon": 13.2231606, "tags": {"ele": "1001", "natural": "peak", "source": "\u010c\u00daZK"}}, {"type": "node", "id": 2670574380, "lat": 49.2048271, "lon": 13.2243424, "tags": {"ele": "1001", "natural": "peak", "source": "\u010c\u00daZK"}}, {"type": "node", "id": 2670574382, "lat": 49.2053166, "lon": 13.2208217, "tags": {"ele": "1006", "natural": "peak", "source": "\u010c\u00daZK"}}, {"type": "node", "id": 2688549587, "lat": 49.1914508, "lon": 13.2243543, "tags": {"ele": "812", "hiking": "yes", "information": "guidepost", "name": "Br\u010d\u00e1ln\u00edk (\u017est.)", "operator": "cz:K\u010cT", "ref": "KT138", "tourism": "information"}}, {"type": "node", "id": 2688549588, "lat": 49.1915402, "lon": 13.2227973, "tags": {"hiking": "yes", "information": "guidepost", "name": "Br\u010d\u00e1ln\u00edk (\u017est.)", "operator": "cz:K\u010cT", "ref": "3675/0", "tourism": "information"}}, {"type": "node", "id": 2688549589, "lat": 49.2006263, "lon": 13.2260556, "tags": {"ele": "938", "hiking": "yes", "information": "guidepost", "name": "Br\u010d\u00e1ln\u00edk (silnice)", "operator": "cz:K\u010cT", "ref": "KT227", "tourism": "information"}}, {"type": "node", "id": 2688549590, "lat": 49.1914877, "lon": 13.2241814, "tags": {"information": "map", "tourism": "information"}}, {"type": "node", "id": 2688562000, "lat": 49.1942034, "lon": 13.2244032, "tags": {"ele": "815", "hiking": "yes", "information": "guidepost", "name": "Br\u010d\u00e1ln\u00edk most", "operator": "cz:K\u010cT", "ref": "KT250", "tourism": "information"}}, {"type": "node", "id": 2717034908, "lat": 49.224556, "lon": 13.2696049}, {"type": "node", "id": 2717034919, "lat": 49.2246245, "lon": 13.2695565}, {"type": "node", "id": 2717034938, "lat": 49.2246202, "lon": 13.2692272}, {"type": "node", "id": 2799117592, "lat": 49.1761699, "lon": 13.2751725, "tags": {"board_type": "history", "description": "Skl\u00e1\u0159sk\u00e1 stezka", "information": "board", "name": "Skl\u00e1rna Nov\u00fd Brunst", "ref": "13", "source": "survey", "tourism": "information"}}, {"type": "node", "id": 2987360024, "lat": 49.2625265, "lon": 13.3992102}, {"type": "node", "id": 2987360025, "lat": 49.2625167, "lon": 13.3993514}, {"type": "node", "id": 2987360028, "lat": 49.2625242, "lon": 13.3995149}, {"type": "node", "id": 2987535423, "lat": 49.3208939, "lon": 13.2449205, "tags": {"ele": "571", "name": "Rovensk\u00e1 hora", "natural": "peak"}}, {"type": "node", "id": 2987543659, "lat": 49.3381127, "lon": 13.3930635, "tags": {"ele": "729", "name": "Drkoln\u00e1", "natural": "peak"}}, {"type": "node", "id": 3151679847, "lat": 49.1729752, "lon": 13.2084404, "tags": {"height": "26.5", "man_made": "tower", "name": "rozhledna \u0160pi\u010d\u00e1k", "tourism": "viewpoint", "tower:type": "observation"}}, {"type": "node", "id": 3196750572, "lat": 49.1980671, "lon": 13.2482851, "tags": {"amenity": "shelter", "shelter_type": "picnic_shelter", "source": "survey"}}, {"type": "node", "id": 3209597419, "lat": 49.2508884, "lon": 13.3965832, "tags": {"ele": "865", "name": "Borek", "natural": "peak", "wikidata": "Q23821164"}}, {"type": "node", "id": 3649520372, "lat": 49.2157777, "lon": 13.3470586, "tags": {"ele": "970", "name": "Svinensk\u00fd vrch", "natural": "peak"}}, {"type": "node", "id": 3664268418, "lat": 49.1946903, "lon": 13.3831958, "tags": {"ele": "988.7", "name": "Kamen\u00e1\u010d", "natural": "peak", "source": "CUZK"}}, {"type": "node", "id": 3717028125, "lat": 49.178787, "lon": 13.2304709, "tags": {"amenity": "shelter", "shelter_type": "weather_shelter"}}, {"type": "node", "id": 3775069321, "lat": 49.2596386, "lon": 13.2202346, "tags": {"bicycle": "yes", "ele": "654", "hiking": "yes", "information": "guidepost", "name": "D\u011bpoltice (rozc.)", "operator": "cz:K\u010cT", "ref": "0215/19;3671/9,5;KT025", "tourism": "information"}}, {"type": "node", "id": 3775069322, "lat": 49.2638918, "lon": 13.2182639, "tags": {"ele": "638", "hiking": "yes", "information": "guidepost", "name": "D\u011bpoltice", "operator": "cz:K\u010cT", "ref": "KT024", "tourism": "information"}}, {"type": "node", "id": 3775069323, "lat": 49.2192049, "lon": 13.3038372, "tags": {"ele": "839", "hiking": "yes", "information": "guidepost", "name": "Javorn\u00e1 kostel", "operator": "cz:K\u010cT", "ref": "KT189", "tourism": "information"}}, {"type": "node", "id": 3775069324, "lat": 49.2216826, "lon": 13.2964889, "tags": {"ele": "795", "hiking": "yes", "information": "guidepost", "name": "Javorn\u00e1 rozcest\u00ed", "operator": "cz:K\u010cT", "ref": "KT190", "tourism": "information"}}, {"type": "node", "id": 3775069328, "lat": 49.2473203, "lon": 13.2379076, "tags": {"ele": "602", "hiking": "yes", "information": "guidepost", "name": "M\u011bsti\u0161t\u011b", "operator": "cz:K\u010cT", "ref": "KT193", "tourism": "information"}}, {"type": "node", "id": 3775069331, "lat": 49.2488993, "lon": 13.204074, "tags": {"ele": "866", "hiking": "yes", "information": "guidepost", "name": "Pod Prenetem (rozc.)", "operator": "cz:K\u010cT", "ref": "KT026", "tourism": "information"}}, {"type": "node", "id": 3775069332, "lat": 49.2404583, "lon": 13.2053295, "tags": {"ele": "984", "hiking": "yes", "information": "guidepost", "name": "Prenet", "operator": "cz:K\u010cT", "ref": "KT027", "ski": "yes", "tourism": "information"}}, {"type": "node", "id": 3775109766, "lat": 49.2666538, "lon": 13.3621151, "tags": {"ele": "641", "hiking": "yes", "information": "guidepost", "name": "Nemilkov", "operator": "cz:K\u010cT", "ref": "1421/31", "tourism": "information"}}, {"type": "node", "id": 3775109767, "lat": 49.2747695, "lon": 13.3288648, "tags": {"ele": "652", "hiking": "yes", "information": "guidepost", "name": "Rajsk\u00fd ml\u00fdn - U K\u0159\u00ed\u017ee", "operator": "cz:K\u010cT", "ref": "KT101", "tourism": "information"}}, {"type": "node", "id": 3775109768, "lat": 49.2732468, "lon": 13.329611, "tags": {"ele": "653", "hiking": "yes", "information": "guidepost", "name": "Rajsk\u00fd ml\u00fdn rozcest\u00ed", "operator": "cz:K\u010cT", "ref": "KT100", "tourism": "information"}}, {"type": "node", "id": 3775109780, "lat": 49.2665816, "lon": 13.3027836, "tags": {"ele": "717", "hiking": "yes", "information": "guidepost", "name": "\u010cachrov (rozc.)", "operator": "cz:K\u010cT", "ref": "KT102", "tourism": "information"}}, {"type": "node", "id": 3775109781, "lat": 49.264595, "lon": 13.302993, "tags": {"ele": "713", "hiking": "yes", "information": "guidepost", "name": "\u010cachrov bus", "operator": "cz:K\u010cT", "ref": "KT103", "tourism": "information"}}, {"type": "node", "id": 3775280534, "lat": 49.283769, "lon": 13.35808, "tags": {"ele": "650", "hiking": "yes", "information": "guidepost", "name": "Makov rozcest\u00ed", "operator": "cz:K\u010cT", "ref": "KT248", "tourism": "information"}}, {"type": "node", "id": 3775280535, "lat": 49.2830957, "lon": 13.346547, "tags": {"ele": "550", "hiking": "yes", "information": "guidepost", "name": "Nemilkov u z\u00e1vor", "operator": "cz:K\u010cT", "ref": "KT235", "tourism": "information"}}, {"type": "node", "id": 3775280536, "lat": 49.2840856, "lon": 13.342542, "tags": {"hiking": "yes", "information": "guidepost", "name": "Nemilkov \u017est.", "operator": "cz:K\u010cT", "tourism": "information"}}, {"type": "node", "id": 3777085917, "lat": 49.2837781, "lon": 13.2268413, "tags": {"ele": "517", "hiking": "yes", "information": "guidepost", "name": "Krot\u011bjov", "operator": "cz:K\u010cT", "ref": "KT023", "tourism": "information"}}, {"type": "node", "id": 3777085918, "lat": 49.3188455, "lon": 13.2579112, "tags": {"ele": "510", "hiking": "yes", "information": "guidepost", "name": "Lehom", "operator": "cz:K\u010cT", "ref": "KT021", "tourism": "information"}}, {"type": "node", "id": 3777085920, "lat": 49.3306527, "lon": 13.2721877, "tags": {"ele": "520", "hiking": "yes", "information": "guidepost", "name": "Lou\u010dany", "operator": "cz:K\u010cT", "ref": "KT020", "tourism": "information"}}, {"type": "node", "id": 3777085922, "lat": 49.3392897, "lon": 13.2812377, "tags": {"ele": "562", "hiking": "yes", "information": "guidepost", "name": "Nad Horn\u00ed Lhotou", "operator": "cz:K\u010cT", "ref": "KT019", "tourism": "information"}}, {"type": "node", "id": 3777135025, "lat": 49.294171, "lon": 13.276266, "tags": {"ele": "517", "hiking": "yes", "information": "guidepost", "name": "Brt\u00ed", "operator": "cz:K\u010cT", "ref": "KT153", "tourism": "information"}}, {"type": "node", "id": 3777135026, "lat": 49.2746585, "lon": 13.2925017, "tags": {"ele": "650", "hiking": "yes", "information": "guidepost", "name": "B\u0159ez\u00ed", "operator": "cz:K\u010cT", "ref": "KT152", "tourism": "information"}}, {"type": "node", "id": 3777135027, "lat": 49.3453839, "lon": 13.2161697, "tags": {"ele": "414", "hiking": "yes", "information": "guidepost", "name": "Janovice nad \u00dahlavou - n\u00e1m\u011bst\u00ed", "operator": "cz:K\u010cT", "ref": "3624/36,5;KT158", "tourism": "information"}}, {"type": "node", "id": 3777135030, "lat": 49.3139903, "lon": 13.2352134, "tags": {"ele": "465", "hiking": "yes", "information": "guidepost", "name": "Rovn\u00e1", "operator": "cz:K\u010cT", "ref": "KT155", "tourism": "information"}}, {"type": "node", "id": 3778196557, "lat": 49.3048573, "lon": 13.3038886, "tags": {"ele": "484", "hiking": "yes", "information": "guidepost", "name": "B\u011b\u0161iny (\u017est)", "operator": "cz:K\u010cT", "ref": "KT199", "tourism": "information"}}, {"type": "node", "id": 3778196558, "lat": 49.3025835, "lon": 13.3122137, "tags": {"ele": "487", "hiking": "yes", "information": "guidepost", "name": "B\u011b\u0161iny", "operator": "cz:K\u010cT", "ref": "KT200", "tourism": "information"}}, {"type": "node", "id": 3778196559, "lat": 49.3056638, "lon": 13.3372, "tags": {"ele": "693", "hiking": "yes", "information": "guidepost", "name": "Sv. Bartolom\u011bj", "operator": "cz:K\u010cT", "ref": "KT049", "tourism": "information"}}, {"type": "node", "id": 3778227757, "lat": 49.3244688, "lon": 13.3279312, "tags": {"ele": "601", "hiking": "yes", "information": "guidepost", "name": "Ka\u0161p\u00e1rkovna", "operator": "cz:K\u010cT", "ref": "KT047", "tourism": "information"}}, {"type": "node", "id": 3778227758, "lat": 49.3271188, "lon": 13.2996327, "tags": {"ele": "464", "hiking": "yes", "information": "guidepost", "name": "Nezna\u0161ovy \u017est.", "operator": "cz:K\u010cT", "ref": "KT246", "tourism": "information"}}, {"type": "node", "id": 3778292404, "lat": 49.261763, "lon": 13.3987984, "tags": {"ele": "605", "hiking": "yes", "information": "guidepost", "name": "Ostru\u017en\u00e1", "operator": "cz:K\u010cT", "ref": "SE002", "tourism": "information"}}, {"type": "node", "id": 3917393163, "lat": 49.2510597, "lon": 13.3379354, "tags": {"ele": "886", "name": "Tele\u010dek", "natural": "peak"}}, {"type": "node", "id": 3918905113, "lat": 49.1980868, "lon": 13.2491454, "tags": {"tourism": "viewpoint"}}, {"type": "node", "id": 3918905114, "lat": 49.2034033, "lon": 13.2463818}, {"type": "node", "id": 3918905115, "lat": 49.2034112, "lon": 13.246336}, {"type": "node", "id": 3918905116, "lat": 49.2034532, "lon": 13.2464019}, {"type": "node", "id": 3918905117, "lat": 49.2034611, "lon": 13.2463561}, {"type": "node", "id": 3930273406, "lat": 49.2022579, "lon": 13.2946789, "tags": {"ele": "1001", "name": "Sup", "natural": "peak"}}, {"type": "node", "id": 4020823552, "lat": 49.224611, "lon": 13.2695101}, {"type": "node", "id": 4020823553, "lat": 49.2246868, "lon": 13.269456}, {"type": "node", "id": 4081476628, "lat": 49.1806513, "lon": 13.3402191, "tags": {"ele": "990", "hiking": "yes", "information": "guidepost", "name": "Pod Had\u00edm vrchem", "operator": "cz:K\u010cT", "ref": "SE089", "tourism": "information"}}, {"type": "node", "id": 4178583770, "lat": 49.3346065, "lon": 13.2293614, "tags": {"tourism": "viewpoint"}}, {"type": "node", "id": 4178585266, "lat": 49.3336248, "lon": 13.2291928, "tags": {"ele": "548", "hiking": "yes", "information": "guidepost", "name": "Klenov\u00e1 - hrad", "operator": "cz:K\u010cT", "ref": "KT158", "tourism": "information"}}, {"type": "node", "id": 4178585597, "lat": 49.3472258, "lon": 13.2636159, "tags": {"ele": "520", "hiking": "yes", "information": "guidepost", "name": "T\u00fdnec - z\u00e1mek", "operator": "cz:K\u010cT", "ref": "KT245", "tourism": "information"}}, {"type": "node", "id": 4329453090, "lat": 49.2215475, "lon": 13.3310959, "tags": {"ele": "874", "hiking": "yes", "information": "guidepost", "name": "Svinn\u00e1", "operator": "cz:K\u010cT", "ref": "3624/16;6639/14,5;KT150", "tourism": "information"}}, {"type": "node", "id": 4361891655, "lat": 49.1728597, "lon": 13.2259586, "tags": {"amenity": "shelter", "shelter_type": "picnic_shelter"}}, {"type": "node", "id": 4382074520, "lat": 49.1616132, "lon": 13.2231774, "tags": {"ele": "837", "hiking": "yes", "information": "guidepost", "name": "\u0160pi\u010d\u00e1k (\u017eelezni\u010dn\u00ed stanice)", "official_name": "\u0160pi\u010d\u00e1k (\u017dST)", "operator": "cz:K\u010cT", "ref": "KT041", "ski": "yes", "tourism": "information"}}, {"type": "node", "id": 4382081801, "lat": 49.1655974, "lon": 13.2024391, "tags": {"ele": "1025", "hiking": "yes", "information": "guidepost", "name": "\u010certovo jezero (rozcest\u00ed)", "official_name": "\u010certovo jezero (rozc.)", "operator": "cz:K\u010cT", "ref": "KT079", "source": "survey", "tourism": "information"}}, {"type": "node", "id": 4382085879, "lat": 49.1728187, "lon": 13.2260052, "tags": {"bicycle": "yes", "hiking": "yes", "information": "map", "map_size": "region", "map_type": "topo", "tourism": "information"}}, {"type": "node", "id": 4382088726, "lat": 49.1740731, "lon": 13.220347, "tags": {"ele": "980", "hiking": "yes", "information": "guidepost", "name": "Rozvodsk\u00e1 cesta", "operator": "cz:K\u010cT", "ref": "KT284", "tourism": "information"}}, {"type": "node", "id": 4408956710, "lat": 49.1627082, "lon": 13.2821161, "tags": {"ele": "956", "hiking": "yes", "information": "guidepost", "name": "H\u016freck\u00e1 silnice", "operator": "cz:K\u010cT", "ref": "KT243", "tourism": "information"}}, {"type": "node", "id": 4408956736, "lat": 49.1626407, "lon": 13.2822269, "tags": {"information": "guidepost", "name": "H\u016freck\u00e1 silnice", "operator": "cz:K\u010cT", "ref": "KT171", "ski": "yes", "tourism": "information"}}, {"type": "node", "id": 4408956752, "lat": 49.2245169, "lon": 13.2694749, "tags": {"entrance": "main"}}, {"type": "node", "id": 4408956761, "lat": 49.156127, "lon": 13.2217627, "tags": {"ele": "820", "hiking": "yes", "information": "guidepost", "name": "\u0160pi\u010d\u00e1k \u2013 u viaduktu", "operator": "cz:K\u010cT", "ref": "KT274", "tourism": "information"}}, {"type": "node", "id": 4451772913, "lat": 49.2543406, "lon": 13.3314456, "tags": {"tourism": "viewpoint"}}, {"type": "node", "id": 4466051883, "lat": 49.1841398, "lon": 13.2037664, "tags": {"amenity": "shelter", "shelter_type": "picnic_shelter"}}, {"type": "node", "id": 4558177715, "lat": 49.1926928, "lon": 13.2507879, "tags": {"ele": "1185", "hiking": "yes", "information": "guidepost", "name": "Habr", "operator": "cz:K\u010cT", "ref": "KT031;0215/28,8", "ski": "yes", "tourism": "information"}}, {"type": "node", "id": 4582961106, "lat": 49.1777299, "lon": 13.2538229, "tags": {"tourism": "viewpoint"}}, {"type": "node", "id": 4646638822, "lat": 49.1660846, "lon": 13.2151533, "tags": {"ele": "930", "hiking": "yes", "information": "guidepost", "name": "\u0160pi\u010d\u00e1k - jezern\u00ed cesta", "operator": "cz:K\u010cT", "ref": "KT115", "tourism": "information"}}, {"type": "node", "id": 4720605301, "lat": 49.2640291, "lon": 13.2192832, "tags": {"information": "board", "name": "Spojen\u00e9 obce D\u011bpoltice a Old\u0159ichovice", "ref": "5", "tourism": "information"}}, {"type": "node", "id": 4905024895, "lat": 49.2323191, "lon": 13.2645879, "tags": {"hiking": "yes", "information": "guidepost", "operator": "cz:K\u010cT", "ref": "KT106", "tourism": "information"}}, {"type": "node", "id": 4905024896, "lat": 49.2323865, "lon": 13.266423, "tags": {"bicycle": "yes", "ele": "800", "information": "guidepost", "name": "Onen sv\u011bt (rozc.)", "operator": "cz:K\u010cT", "ref": "none", "tourism": "information"}}, {"type": "node", "id": 4927477243, "lat": 49.2826238, "lon": 13.359588, "tags": {"amenity": "shelter", "shelter_type": "picnic_table"}}, {"type": "node", "id": 5018077246, "lat": 49.1534724, "lon": 13.2241726, "tags": {"ele": "810", "hiking": "yes", "information": "guidepost", "name": "\u0160pi\u010d\u00e1k \u2013 \u010cert\u016fv ml\u00fdn", "operator": "cz:K\u010cT", "ref": "KT275", "tourism": "information"}}, {"type": "node", "id": 5018077247, "lat": 49.1532487, "lon": 13.2249367, "tags": {"ele": "810", "hiking": "yes", "information": "guidepost", "name": "\u0160pi\u010d\u00e1k \u2013 \u010cert\u016fv ml\u00fdn", "operator": "cz:K\u010cT", "ref": "KT275", "tourism": "information"}}, {"type": "node", "id": 5018136434, "lat": 49.1732344, "lon": 13.2499777, "tags": {"tourism": "viewpoint"}}, {"type": "node", "id": 5018136435, "lat": 49.1722886, "lon": 13.2476518, "tags": {"ele": "1164", "hiking": "yes", "information": "guidepost", "name": "Pod Panc\u00ed\u0159em (rozc.)", "operator": "cz:K\u010cT", "ref": "KT035", "ski": "yes", "source": "survey", "tourism": "information"}}, {"type": "node", "id": 5018136487, "lat": 49.1860162, "lon": 13.253891, "tags": {"ele": "1155", "hiking": "yes", "information": "guidepost", "name": "Tomandl\u016fv k\u0159\u00ed\u017e", "operator": "cz:K\u010cT", "ref": "KT033", "ski": "yes", "ski:nordic": "yes", "source": "survey", "tourism": "information"}}, {"type": "node", "id": 5019528793, "lat": 49.2300459, "lon": 13.2647229, "tags": {"bicycle": "yes", "ele": "875", "hiking": "yes", "information": "guidepost", "name": "Such\u00e9 stud\u00e1nky", "operator": "cz:K\u010cT", "ref": "KT106", "source": "survey", "tourism": "information"}}, {"type": "node", "id": 5020305541, "lat": 49.1816673, "lon": 13.2535582, "tags": {"hiking": "yes", "information": "guidepost", "name": "K prameni \u00dahlavy", "operator": "cz:K\u010cT", "ref": "KT035", "ski": "yes", "tourism": "information"}}, {"type": "node", "id": 5020305542, "lat": 49.1719311, "lon": 13.2454549, "tags": {"ele": "1164", "hiking": "yes", "information": "guidepost", "name": "K prameni \u00dahlavy", "operator": "cz:K\u010cT", "ref": "KT035;KT243", "ski": "yes", "tourism": "information"}}, {"type": "node", "id": 5020733171, "lat": 49.2208093, "lon": 13.2342687, "tags": {"ele": "1013", "hiking": "yes", "information": "guidepost", "name": "Na Sjezdovce", "operator": "cz:K\u010cT", "ref": "KT028", "ski": "yes", "source": "survey", "tourism": "information"}}, {"type": "node", "id": 5020737381, "lat": 49.1988383, "lon": 13.2406191, "tags": {"ele": "1088", "hiking": "yes", "information": "guidepost", "name": "Pod M\u016fstkem (rozcest\u00ed)", "operator": "cz:K\u010cT", "ref": "1421/48,5", "tourism": "information"}}, {"type": "node", "id": 5020745372, "lat": 49.176606, "lon": 13.3354933, "tags": {"board_type": "history", "information": "board", "name": "Zh\u016f\u0159\u00ed", "tourism": "information"}}, {"type": "node", "id": 5020745373, "lat": 49.1765753, "lon": 13.3355355, "tags": {"bicycle": "yes", "information": "guidepost", "name": "b\u00fdval\u00e9 Zh\u016f\u0159\u00ed", "official_name": "b\u00fdv. Zh\u016f\u0159\u00ed", "operator": "cz:K\u010cT", "ref": "none", "tourism": "information"}}, {"type": "node", "id": 5021993378, "lat": 49.1868984, "lon": 13.2527751, "tags": {"ele": "1158", "hiking": "yes", "information": "guidepost", "name": "Rozcest\u00ed na h\u0159ebeni", "operator": "cz:K\u010cT", "ref": "KT033;KT277", "ski": "yes", "ski:nordic": "yes", "source": "survey", "tourism": "information"}}, {"type": "node", "id": 5021993379, "lat": 49.1899091, "lon": 13.2493532, "tags": {"ele": "1166", "hiking": "yes", "information": "guidepost", "name": "Pod Habrem", "operator": "cz:K\u010cT", "ref": "1439/3;KT031", "tourism": "information"}}, {"type": "node", "id": 5021993380, "lat": 49.2034823, "lon": 13.2464257, "tags": {"check_date": "2025-07-22", "information": "board", "name": "NS Hojsova Str\u00e1\u017e, 8 - M\u016fstek", "tourism": "information"}}, {"type": "node", "id": 5021993381, "lat": 49.203589, "lon": 13.2468139, "tags": {"ele": "1227", "hiking": "yes", "information": "guidepost", "name": "M\u016fstek", "operator": "cz:K\u010cT", "ref": "KT030", "ski": "yes", "source": "survey", "tourism": "information"}}, {"type": "node", "id": 5021993382, "lat": 49.2112983, "lon": 13.2439369, "tags": {"ele": "1190", "hiking": "yes", "information": "guidepost", "name": "M\u016fstek (rozc.)", "operator": "cz:K\u010cT", "ref": "KT029", "ski": "yes", "source": "survey", "tourism": "information"}}, {"type": "node", "id": 5021993387, "lat": 49.1731002, "lon": 13.2255634, "tags": {"ele": "975", "hiking": "yes", "information": "guidepost", "name": "\u0160pi\u010d\u00e1ck\u00e9 sedlo", "operator": "cz:K\u010cT", "ref": "KT038", "ski": "yes", "source": "survey", "tourism": "information"}}, {"type": "node", "id": 5023935422, "lat": 49.1874783, "lon": 13.3939071, "tags": {"ele": "865", "hiking": "yes", "information": "guidepost", "name": "Mochov", "operator": "cz:K\u010cT", "ref": "3624/7,5;SE141", "tourism": "information"}}, {"type": "node", "id": 5023935425, "lat": 49.196854, "lon": 13.3696953, "tags": {"ele": "950", "hiking": "yes", "information": "guidepost", "name": "Koch\u00e1nov", "operator": "cz:K\u010cT", "ref": "SE086", "tourism": "information"}}, {"type": "node", "id": 5023935436, "lat": 49.218455, "lon": 13.2549909, "tags": {"ele": "1088", "hiking": "yes", "information": "guidepost", "name": "Na Such\u00fdch stud\u00e1nk\u00e1ch", "operator": "cz:K\u010cT", "ref": "KT194", "ski": "yes", "source": "survey", "tourism": "information"}}, {"type": "node", "id": 5038682337, "lat": 49.182275, "lon": 13.2471567, "tags": {"ele": "1070", "hiking": "yes", "information": "guidepost", "name": "Pod panc\u00ed\u0159skou sjezdovkou", "operator": "cz:K\u010cT", "ref": "KT116", "source": "survey", "tourism": "information"}}, {"type": "node", "id": 5046468724, "lat": 49.1865359, "lon": 13.3382742, "tags": {"tourism": "viewpoint"}}, {"type": "node", "id": 5056942716, "lat": 49.2488978, "lon": 13.2115151, "tags": {"ele": "887", "natural": "peak"}}, {"type": "node", "id": 5056952839, "lat": 49.2481314, "lon": 13.25813, "tags": {"ele": "972", "name": "Plo\u0161ina", "natural": "peak"}}, {"type": "node", "id": 5056953594, "lat": 49.2545027, "lon": 13.2583765, "tags": {"ele": "964", "natural": "peak"}}, {"type": "node", "id": 5056958477, "lat": 49.2586587, "lon": 13.2734897, "tags": {"ele": "840", "natural": "peak"}}, {"type": "node", "id": 5056960477, "lat": 49.2652263, "lon": 13.2833284, "tags": {"ele": "824", "name": "Hv\u011bzdn\u00edk", "natural": "peak"}}, {"type": "node", "id": 5057002844, "lat": 49.2796238, "lon": 13.2138164, "tags": {"ele": "770", "name": "\u017delivsk\u00fd vrch", "natural": "peak", "summit:cross": "no"}}, {"type": "node", "id": 5057004490, "lat": 49.2886022, "lon": 13.2061747, "tags": {"ele": "732", "natural": "peak"}}, {"type": "node", "id": 5057007710, "lat": 49.2943541, "lon": 13.2081059, "tags": {"ele": "723", "natural": "peak"}}, {"type": "node", "id": 5057023488, "lat": 49.3152353, "lon": 13.2110496, "tags": {"ele": "525", "natural": "peak"}}, {"type": "node", "id": 5092629220, "lat": 49.2668297, "lon": 13.321997, "tags": {"ele": "819", "name": "Zahr\u00e1dka", "natural": "peak"}}, {"type": "node", "id": 5092648625, "lat": 49.2760265, "lon": 13.3142845, "tags": {"ele": "762", "name": "Pavl\u016fv vrch", "natural": "peak"}}, {"type": "node", "id": 5092661887, "lat": 49.2826652, "lon": 13.3188585, "tags": {"ele": "707", "name": "Bruskov", "natural": "peak"}}, {"type": "node", "id": 5092663236, "lat": 49.281399, "lon": 13.2873939, "tags": {"ele": "639", "name": "Hora", "natural": "peak"}}, {"type": "node", "id": 5092671565, "lat": 49.2875015, "lon": 13.2963643, "tags": {"ele": "629", "name": "Hajn\u00fd", "natural": "peak"}}, {"type": "node", "id": 5092681621, "lat": 49.292894, "lon": 13.2861948, "tags": {"ele": "623", "name": "Vlkanovka", "natural": "peak"}}, {"type": "node", "id": 5092689227, "lat": 49.2828175, "lon": 13.2770786, "tags": {"ele": "620", "name": "V Ho\u0159e", "natural": "peak"}}, {"type": "node", "id": 5092707626, "lat": 49.3140988, "lon": 13.3193903, "tags": {"ele": "582", "name": "Lipovka", "natural": "peak"}}, {"type": "node", "id": 5092707627, "lat": 49.3014161, "lon": 13.2891097, "tags": {"ele": "615", "name": "Na Skalici", "natural": "peak"}}, {"type": "node", "id": 5092729621, "lat": 49.3000461, "lon": 13.2717934, "tags": {"ele": "628", "name": "Smrkov\u00e1 hora", "natural": "peak"}}, {"type": "node", "id": 5092735979, "lat": 49.3061398, "lon": 13.2820869, "tags": {"ele": "615", "name": "Na \u017d\u010f\u00e1ru", "natural": "peak"}}, {"type": "node", "id": 5092756881, "lat": 49.3126889, "lon": 13.2661316, "tags": {"ele": "631", "name": "Chvojov\u00e1 hora", "natural": "peak"}}, {"type": "node", "id": 5092758205, "lat": 49.3085418, "lon": 13.2493646, "tags": {"ele": "535", "name": "Vinn\u00fd vrch", "natural": "peak"}}, {"type": "node", "id": 5092761129, "lat": 49.3289991, "lon": 13.2477663, "tags": {"ele": "509", "name": "Rem\u00edzek", "natural": "peak"}}, {"type": "node", "id": 5092770709, "lat": 49.331985, "lon": 13.2290169, "tags": {"ele": "542", "name": "Klenov\u00e1", "natural": "peak", "wikidata": "Q15735164"}}, {"type": "node", "id": 5092771312, "lat": 49.2808496, "lon": 13.261752, "tags": {"ele": "593", "name": "H\u016frka", "natural": "peak"}}, {"type": "node", "id": 5092771829, "lat": 49.3295751, "lon": 13.2225383, "tags": {"ele": "468", "name": "H\u016frka", "natural": "peak"}}, {"type": "node", "id": 5092782862, "lat": 49.2924704, "lon": 13.2429054, "tags": {"ele": "532", "name": "Na V\u00e1penici", "natural": "peak"}}, {"type": "node", "id": 5092811172, "lat": 49.3264984, "lon": 13.2815793, "tags": {"ele": "690", "name": "\u00dali\u0161t\u011b", "natural": "peak", "wikidata": "Q31568258"}}, {"type": "node", "id": 5092817846, "lat": 49.3380918, "lon": 13.2332319, "tags": {"ele": "489", "name": "Na \u0160ibenici", "natural": "peak"}}, {"type": "node", "id": 5136138702, "lat": 49.2657596, "lon": 13.3896143}, {"type": "node", "id": 5136138703, "lat": 49.2657307, "lon": 13.389666}, {"type": "node", "id": 5136138704, "lat": 49.265762, "lon": 13.3897071}, {"type": "node", "id": 5136138705, "lat": 49.2657909, "lon": 13.3896554}, {"type": "node", "id": 5157175055, "lat": 49.1729819, "lon": 13.2194656, "tags": {"board_type": "history", "description": "Historie obce \u0160pi\u010d\u00e1k", "information": "board", "name": "Kr\u00e1lovsk\u00fd hvozd", "ref": "Z11", "tourism": "information"}}, {"type": "node", "id": 5157175056, "lat": 49.1730766, "lon": 13.2198626, "tags": {"board_type": "history", "description": "Historie obce \u0160pi\u010d\u00e1k", "information": "board", "name": "Prokopova louka, Jur\u00e1nkova chata", "ref": "Z10", "tourism": "information"}}, {"type": "node", "id": 5157175057, "lat": 49.1735571, "lon": 13.2199001, "tags": {"board_type": "history", "description": "Historie obce \u0160pi\u010d\u00e1k", "information": "board", "name": "Nad tunelem", "ref": "Z9", "tourism": "information"}}, {"type": "node", "id": 5157175058, "lat": 49.1781319, "lon": 13.2156274, "tags": {"board_type": "history", "information": "board", "name": "Otec a syn Kom\u00e1rkovi", "tourism": "information"}}, {"type": "node", "id": 5157175059, "lat": 49.1846153, "lon": 13.201208, "tags": {"board_type": "history", "direction": "355", "information": "board", "name": "Kapli\u010dka pod \u010cern\u00fdm jezerem", "tourism": "information"}}, {"type": "node", "id": 5157175971, "lat": 49.1840597, "lon": 13.214364, "tags": {"bicycle": "yes", "information": "route_marker", "operator": "cz:K\u010cT", "ref": "none", "tourism": "information"}}, {"type": "node", "id": 5157175972, "lat": 49.1800272, "lon": 13.2189935, "tags": {"bicycle": "yes", "information": "route_marker", "operator": "cz:K\u010cT", "ref": "none", "tourism": "information"}}, {"type": "node", "id": 5157175973, "lat": 49.1769799, "lon": 13.2299262, "tags": {"bicycle": "yes", "information": "route_marker", "operator": "cz:K\u010cT", "ref": "none", "tourism": "information"}}, {"type": "node", "id": 5157175974, "lat": 49.1767765, "lon": 13.2300711, "tags": {"bicycle": "yes", "information": "route_marker", "operator": "cz:K\u010cT", "ref": "none", "tourism": "information"}}, {"type": "node", "id": 5157175975, "lat": 49.1727539, "lon": 13.2256079, "tags": {"bicycle": "yes", "information": "route_marker", "operator": "cz:K\u010cT", "ref": "none", "tourism": "information"}}, {"type": "node", "id": 5157175978, "lat": 49.1597723, "lon": 13.2256186, "tags": {"bicycle": "yes", "information": "route_marker", "operator": "cz:K\u010cT", "ref": "none", "tourism": "information"}}, {"type": "node", "id": 5158953238, "lat": 49.1993994, "lon": 13.3527741, "tags": {"ele": "947", "hiking": "yes", "information": "guidepost", "name": "Keply", "operator": "cz:K\u010cT", "ref": "SE087", "ski": "yes", "tourism": "information"}}, {"type": "node", "id": 5169122162, "lat": 49.2636809, "lon": 13.3982187, "tags": {"hiking": "yes", "information": "guidepost", "name": "Velhartice hrad", "operator": "cz:K\u010cT", "ref": "SE301", "tourism": "information"}}, {"type": "node", "id": 5243143000, "lat": 49.2268152, "lon": 13.2569034, "tags": {"amenity": "shelter", "shelter_type": "weather_shelter"}}, {"type": "node", "id": 5305161754, "lat": 49.2658393, "lon": 13.39199, "tags": {"board_type": "history", "information": "board", "name": "M\u011bstsk\u00e1 pam\u00e1tkov\u00e1 z\u00f3na", "tourism": "information"}}, {"type": "node", "id": 5305161757, "lat": 49.2627848, "lon": 13.3962863, "tags": {"board_type": "nature", "check_date": "2022-09-07", "information": "board", "name": "P\u0159\u00edrodn\u00ed rezervace Borek", "tourism": "information"}}, {"type": "node", "id": 5345007979, "lat": 49.2910215, "lon": 13.3507749, "tags": {"ele": "676", "hiking": "yes", "information": "guidepost", "name": "Javo\u0159\u00ed", "operator": "cz:K\u010cT", "ref": "KT247", "tourism": "information"}}, {"type": "node", "id": 5345063035, "lat": 49.3372318, "lon": 13.3377135, "tags": {"ele": "510", "hiking": "yes", "information": "guidepost", "name": "K\u0159i\u0161t\u00edn", "operator": "cz:K\u010cT", "ref": "KT045", "tourism": "information"}}, {"type": "node", "id": 5345063036, "lat": 49.331866, "lon": 13.3357984, "tags": {"ele": "510", "hiking": "yes", "information": "guidepost", "name": "St\u0159ezim\u011b\u0159", "operator": "cz:K\u010cT", "ref": "KT046", "tourism": "information"}}, {"type": "node", "id": 5775181984, "lat": 49.1917452, "lon": 13.3728499, "tags": {"direction": "77", "tourism": "viewpoint"}}, {"type": "node", "id": 5775181985, "lat": 49.1932827, "lon": 13.3769853, "tags": {"ele": "910", "hiking": "yes", "information": "guidepost", "name": "Radkov", "operator": "cz:K\u010cT", "ref": "SE142", "tourism": "information"}}, {"type": "node", "id": 5796134630, "lat": 49.2776245, "lon": 13.2163102, "tags": {"ele": "741", "hiking": "yes", "information": "guidepost", "name": "\u017delivsk\u00fd vrch", "operator": "cz:K\u010cT", "ref": "KT185", "tourism": "information"}}, {"type": "node", "id": 5796135136, "lat": 49.2695757, "lon": 13.2157856, "tags": {"ele": "685", "hiking": "yes", "information": "guidepost", "name": "Nad D\u011bpolticemi", "operator": "cz:K\u010cT", "ref": "KT225;KT198", "tourism": "information"}}, {"type": "node", "id": 5868881599, "lat": 49.2623205, "lon": 13.3968881, "tags": {"board_type": "information", "check_date": "2022-09-07", "information": "board", "name": "Velhartice", "tourism": "information"}}, {"type": "node", "id": 5868881602, "lat": 49.264123, "lon": 13.398173, "tags": {"board_type": "history", "information": "board", "tourism": "information"}}, {"type": "node", "id": 5868979276, "lat": 49.2990089, "lon": 13.3367142, "tags": {"ele": "526", "hiking": "yes", "information": "guidepost", "name": "V Podol\u00ed", "operator": "cz:K\u010cT", "ref": "KT050", "tourism": "information"}}, {"type": "node", "id": 5868979277, "lat": 49.3051121, "lon": 13.3366024, "tags": {"amenity": "shelter", "shelter_type": "picnic_shelter"}}, {"type": "node", "id": 5868979279, "lat": 49.3052808, "lon": 13.3369167, "tags": {"board_type": "history", "information": "board", "name": "Z\u0159\u00edcenina kostela Sv. Bartolom\u011bje", "tourism": "information"}}, {"type": "node", "id": 5868979280, "lat": 49.3060923, "lon": 13.3375155, "tags": {"board_type": "information", "information": "board", "tourism": "information"}}, {"type": "node", "id": 5869137735, "lat": 49.2976707, "lon": 13.255304, "tags": {"amenity": "shelter", "shelter_type": "picnic_shelter"}}, {"type": "node", "id": 5869137747, "lat": 49.2498444, "lon": 13.3268936, "tags": {"ele": "748", "hiking": "yes", "information": "guidepost", "name": "Kunkovice", "operator": "cz:K\u010cT", "ref": "KT252", "tourism": "information"}}, {"type": "node", "id": 5869137751, "lat": 49.2202674, "lon": 13.3319753, "tags": {"amenity": "shelter", "shelter_type": "picnic_shelter"}}, {"type": "node", "id": 5869137752, "lat": 49.1993898, "lon": 13.3528838, "tags": {"board_type": "history", "information": "board", "name": "Keply", "tourism": "information"}}, {"type": "node", "id": 5869137753, "lat": 49.1986939, "lon": 13.3749232, "tags": {"amenity": "shelter", "shelter_type": "picnic_shelter"}}, {"type": "node", "id": 5869137754, "lat": 49.1989585, "lon": 13.375888, "tags": {"board_type": "history", "information": "board", "name": "Koch\u00e1nov", "tourism": "information"}}, {"type": "node", "id": 5869137755, "lat": 49.1989943, "lon": 13.3759378, "tags": {"board_type": "history", "information": "board", "name": "Kr\u00e1lov\u00e1ck\u00e9 rychty", "tourism": "information"}}, {"type": "node", "id": 5869137756, "lat": 49.2013378, "lon": 13.3841164, "tags": {"amenity": "shelter", "shelter_type": "picnic_shelter"}}, {"type": "node", "id": 5869137758, "lat": 49.2021862, "lon": 13.3837735, "tags": {"board_type": "history", "information": "board", "name": "Doln\u00ed Koch\u00e1nov", "tourism": "information"}}, {"type": "node", "id": 5906334565, "lat": 49.3175807, "lon": 13.3412041, "tags": {"tourism": "viewpoint"}}, {"type": "node", "id": 6040274701, "lat": 49.1962182, "lon": 13.349314, "tags": {"amenity": "shelter", "shelter_type": "picnic_shelter"}}, {"type": "node", "id": 6322943135, "lat": 49.2634733, "lon": 13.3989601}, {"type": "node", "id": 6322943136, "lat": 49.2633734, "lon": 13.3991524}, {"type": "node", "id": 6322943137, "lat": 49.2634092, "lon": 13.399604}, {"type": "node", "id": 6322943138, "lat": 49.2632219, "lon": 13.3997546}, {"type": "node", "id": 6322943139, "lat": 49.2631228, "lon": 13.3997435}, {"type": "node", "id": 6322943140, "lat": 49.2627112, "lon": 13.3998875}, {"type": "node", "id": 6322943141, "lat": 49.2625314, "lon": 13.3998605}, {"type": "node", "id": 6322943142, "lat": 49.2625274, "lon": 13.3996649}, {"type": "node", "id": 6322943145, "lat": 49.2625384, "lon": 13.3990839}, {"type": "node", "id": 6322943146, "lat": 49.2627927, "lon": 13.3989921}, {"type": "node", "id": 6322943147, "lat": 49.2631943, "lon": 13.3988693}, {"type": "node", "id": 6322943148, "lat": 49.2636982, "lon": 13.398537}, {"type": "node", "id": 6322943149, "lat": 49.2636297, "lon": 13.3980711}, {"type": "node", "id": 6547574910, "lat": 49.2767045, "lon": 13.3676219, "tags": {"ele": "777", "name": "H\u00e1j", "natural": "peak"}}, {"type": "node", "id": 6547574913, "lat": 49.2822345, "lon": 13.3985188, "tags": {"ele": "597", "natural": "peak"}}, {"type": "node", "id": 6769321021, "lat": 49.3341819, "lon": 13.2300996, "tags": {"direction": "E", "tourism": "viewpoint"}}, {"type": "node", "id": 6769416403, "lat": 49.2241513, "lon": 13.270148, "tags": {"ele": "878", "hiking": "yes", "information": "guidepost", "inscription": "Osada ze 16. stolet\u00ed, p\u016fvodn\u011b zvan\u00e1 \u201eRiesener\u201c, pozd\u011bji \u201eSchuhkatcher Haus\u201c", "name": "\u0160uka\u010dka", "operator": "cz:K\u010cT", "ref": "KT192", "tourism": "information"}}, {"type": "node", "id": 6863969479, "lat": 49.2635065, "lon": 13.3982345}, {"type": "node", "id": 6863969481, "lat": 49.2632877, "lon": 13.3986497}, {"type": "node", "id": 6863969482, "lat": 49.2632405, "lon": 13.3986053}, {"type": "node", "id": 6863969483, "lat": 49.2625736, "lon": 13.3999118}, {"type": "node", "id": 6863969484, "lat": 49.2626224, "lon": 13.3999312}, {"type": "node", "id": 6863971285, "lat": 49.2634206, "lon": 13.399666}, {"type": "node", "id": 6863971286, "lat": 49.2634178, "lon": 13.3997758}, {"type": "node", "id": 6903211207, "lat": 49.1980669, "lon": 13.2482699, "tags": {"hiking": "yes", "information": "guidepost", "name": "Vyhl\u00eddka pod M\u016fstkem", "operator": "cz:K\u010cT", "ref": "KT030", "tourism": "information"}}, {"type": "node", "id": 6989801023, "lat": 49.2640878, "lon": 13.218146, "tags": {"information": "board", "tourism": "information"}}, {"type": "node", "id": 6989801024, "lat": 49.2640738, "lon": 13.2181232, "tags": {"information": "map", "tourism": "information"}}, {"type": "node", "id": 6989830277, "lat": 49.2667094, "lon": 13.2335965, "tags": {"information": "map", "tourism": "information"}}, {"type": "node", "id": 6989949247, "lat": 49.2781699, "lon": 13.331472, "tags": {"information": "guidepost", "name": "Rajsk\u00e9", "tourism": "information"}}, {"type": "node", "id": 6989949254, "lat": 49.2785479, "lon": 13.3300732, "tags": {"man_made": "tower", "name": "Zvonice", "tourism": "attraction"}}, {"type": "node", "id": 6989956918, "lat": 49.2750516, "lon": 13.3454128, "tags": {"man_made": "tower", "name": "Zvonice", "tourism": "attraction"}}, {"type": "node", "id": 7123108214, "lat": 49.1654883, "lon": 13.2130431, "tags": {"hiking": "yes", "information": "guidepost", "operator": "cz:K\u010cT", "ref": "KT274", "tourism": "information"}}, {"type": "node", "id": 7132740018, "lat": 49.2615699, "lon": 13.2879692, "tags": {"ele": "745", "hiking": "yes", "information": "guidepost", "name": "Bradn\u00e9", "operator": "cz:K\u010cT", "ref": "KT104", "tourism": "information"}}, {"type": "node", "id": 7142876834, "lat": 49.2310716, "lon": 13.3435714, "tags": {"ele": "829", "hiking": "yes", "information": "guidepost", "name": "Jarkovice", "operator": "cz:K\u010cT", "ref": "KT230", "tourism": "information"}}, {"type": "node", "id": 7142876837, "lat": 49.25684, "lon": 13.3322418, "tags": {"ele": "784", "hiking": "yes", "information": "guidepost", "name": "Dob\u0159emilice", "operator": "cz:K\u010cT", "ref": "KT231", "tourism": "information"}}, {"type": "node", "id": 7142876838, "lat": 49.2652702, "lon": 13.3294308, "tags": {"ele": "720", "hiking": "yes", "information": "guidepost", "name": "Zahr\u00e1dka", "operator": "cz:K\u010cT", "ref": "KT732", "tourism": "information"}}, {"type": "node", "id": 7142952513, "lat": 49.2750149, "lon": 13.3450627, "tags": {"ele": "590", "hiking": "yes", "information": "guidepost", "name": "Tvrdoslav", "operator": "cz:K\u010cT", "ref": "KT234", "tourism": "information"}}, {"type": "node", "id": 7142990948, "lat": 49.3077876, "lon": 13.3374828, "tags": {"ele": "680", "hiking": "yes", "information": "guidepost", "name": "Sv. Bartolom\u011bj rozcest\u00e1", "operator": "cz:K\u010cT", "ref": "KT048", "tourism": "information"}}, {"type": "node", "id": 7211188032, "lat": 49.2221959, "lon": 13.3146653, "tags": {"ele": "814", "hiking": "yes", "information": "guidepost", "name": "Buchar", "operator": "cz:K\u010cT", "ref": "KT229", "tourism": "information"}}, {"type": "node", "id": 7211188033, "lat": 49.2370403, "lon": 13.3188844, "tags": {"ele": "800", "hiking": "yes", "information": "guidepost", "name": "Chval\u0161ovice", "operator": "cz:K\u010cT", "ref": "KT151", "tourism": "information"}}, {"type": "node", "id": 7213671244, "lat": 49.1917904, "lon": 13.3727706, "tags": {"ele": "915", "hiking": "yes", "information": "guidepost", "name": "Radkovsk\u00e1 vyhl\u00eddka", "operator": "cz:K\u010cT", "ref": "SE235", "tourism": "information"}}, {"type": "node", "id": 7213671255, "lat": 49.15986, "lon": 13.3929509, "tags": {"ele": "1005", "hiking": "yes", "information": "guidepost", "name": "Parkovi\u0161t\u011b", "operator": "cz:K\u010cT", "ref": "SE306", "tourism": "information"}}, {"type": "node", "id": 7213671256, "lat": 49.1673409, "lon": 13.3929844, "tags": {"ele": "1005", "hiking": "yes", "information": "guidepost", "name": "Vysok\u00fd h\u0159bet", "operator": "cz:K\u010cT", "ref": "SE191", "tourism": "information"}}, {"type": "node", "id": 7213689775, "lat": 49.2098878, "lon": 13.3975589, "tags": {"ele": "700", "hiking": "yes", "information": "guidepost", "name": "Rovn\u00e1", "operator": "cz:K\u010cT", "ref": "SE085", "tourism": "information"}}, {"type": "node", "id": 7222116178, "lat": 49.1553028, "lon": 13.3339959, "tags": {"ele": "860", "hiking": "yes", "information": "guidepost", "name": "Slatinn\u00fd potok", "operator": "cz:K\u010cT", "ref": "SE090", "tourism": "information"}}, {"type": "node", "id": 7222229327, "lat": 49.3276008, "lon": 13.244158, "tags": {"ele": "496", "hiking": "yes", "information": "guidepost", "name": "Javor", "operator": "cz:K\u010cT", "ref": "KT156", "tourism": "information"}}, {"type": "node", "id": 7227080606, "lat": 49.2522603, "lon": 13.2670909, "tags": {"ele": "857", "hiking": "yes", "information": "guidepost", "name": "Ch\u0159epice", "operator": "cz:K\u010cT", "ref": "KT105", "tourism": "information"}}, {"type": "node", "id": 7232292979, "lat": 49.2205088, "lon": 13.2039517, "tags": {"ele": "660", "hiking": "yes", "information": "guidepost", "name": "Zelensk\u00fd potok", "operator": "cz:K\u010cT", "ref": "KT181", "tourism": "information"}}, {"type": "node", "id": 7542120895, "lat": 49.1988288, "lon": 13.2406491, "tags": {"board_type": "history", "check_date": "2025-07-22", "information": "board", "name": "Rozcest\u00ed Pod M\u016fstkem, Br\u010d\u00e1ln\u00edk", "ref": "9", "tourism": "information"}}, {"type": "node", "id": 7542120897, "lat": 49.1910114, "lon": 13.2693708, "tags": {"board_type": "nature", "information": "board", "name": "P\u0159\u00edrodn\u00ed rezervace Prameni\u0161t\u011b", "tourism": "information"}}, {"type": "node", "id": 7542120899, "lat": 49.1910071, "lon": 13.2732392, "tags": {"board_type": "nature", "information": "board", "name": "\u0160mauzy", "tourism": "information"}}, {"type": "node", "id": 7542120900, "lat": 49.1746215, "lon": 13.3337961, "tags": {"board_type": "nature", "information": "board", "name": "Louky a pastviny", "tourism": "information"}}, {"type": "node", "id": 7542120902, "lat": 49.1768571, "lon": 13.3350943, "tags": {"board_type": "history", "information": "board", "name": "Zh\u016f\u0159\u00ed", "name:de": "Haidl am Ahornberg", "tourism": "information"}}, {"type": "node", "id": 7542120906, "lat": 49.1914019, "lon": 13.3469832, "tags": {"board_type": "nature", "information": "board", "name": "Kepelsk\u00e9 mok\u0159ady", "tourism": "information"}}, {"type": "node", "id": 7542120908, "lat": 49.1964809, "lon": 13.3504323, "tags": {"bicycle": "yes", "ele": "947", "information": "guidepost", "name": "Keply (rozc.)", "operator": "cz:K\u010cT", "ref": "SE231", "ski": "yes", "ski:nordic": "yes", "tourism": "information"}}, {"type": "node", "id": 7542120910, "lat": 49.1996631, "lon": 13.3527634, "tags": {"bicycle": "yes", "hiking": "yes", "information": "map", "map_size": "region", "map_type": "topo", "name": "Mikroregion st\u0159edn\u00ed po\u0161umav\u00ed", "ski:nordic": "yes", "tourism": "information"}}, {"type": "node", "id": 7542120911, "lat": 49.199611, "lon": 13.3528151, "tags": {"amenity": "shelter", "shelter_type": "public_transport"}}, {"type": "node", "id": 7542120914, "lat": 49.2014959, "lon": 13.3841439, "tags": {"bicycle": "yes", "hiking": "yes", "information": "map", "map_size": "region", "map_type": "topo", "name": "Mikroregion st\u0159edn\u00ed po\u0161umav\u00ed", "ski:nordic": "yes", "tourism": "information"}}, {"type": "node", "id": 7542120915, "lat": 49.2016672, "lon": 13.3841023, "tags": {"horse": "yes", "information": "map", "map_size": "region", "map_type": "topo", "name": "Hipoturistika v po\u0161umav\u00ed", "tourism": "information"}}, {"type": "node", "id": 7647880097, "lat": 49.2975736, "lon": 13.3962513, "tags": {"information": "map", "map_size": "region", "map_type": "topo", "tourism": "information"}}, {"type": "node", "id": 7717744367, "lat": 49.2308157, "lon": 13.2157213, "tags": {"ele": "1067", "natural": "peak", "source": "\u010c\u00daZK"}}, {"type": "node", "id": 7780012083, "lat": 49.2001123, "lon": 13.2162908, "tags": {"name": "Vyhl\u00eddka Seppa Wudyho", "tourism": "viewpoint"}}, {"type": "node", "id": 7905186683, "lat": 49.2190057, "lon": 13.3044823, "tags": {"information": "map", "tourism": "information"}}, {"type": "node", "id": 7905381433, "lat": 49.2189382, "lon": 13.3049832, "tags": {"information": "board", "tourism": "information"}}, {"type": "node", "id": 7941783601, "lat": 49.1798036, "lon": 13.3609482, "tags": {"information": "map", "name": "B\u00edl\u00e1 stopa \u0161umava", "ski": "yes", "tourism": "information"}}, {"type": "node", "id": 7941863219, "lat": 49.1770426, "lon": 13.3346196, "tags": {"information": "board", "name": "Sm\u00edr\u010d\u00ed k\u0159\u00ed\u017e", "tourism": "information"}}, {"type": "node", "id": 8078522939, "lat": 49.1652006, "lon": 13.27838, "tags": {"ele": "952", "hiking": "yes", "information": "guidepost", "name": "b\u00fdv. Gerlova hu\u0165", "operator": "cz:K\u010cT", "ref": "KT171;KT243", "ski": "yes", "source": "survey", "tourism": "information"}}, {"type": "node", "id": 8078522940, "lat": 49.1542543, "lon": 13.2998121, "tags": {"bicycle": "yes", "ele": "950", "information": "guidepost", "name": "Popeln\u00ed domky", "operator": "cz:K\u010cT", "ref": "SE501;2119/0", "ski": "yes", "tourism": "information"}}, {"type": "node", "id": 8405465263, "lat": 49.1627714, "lon": 13.2814833, "tags": {"description": "Skl\u00e1\u0159sk\u00e1 stezka", "information": "board", "name": "Skl\u00e1rna Gerlova Hu\u0165", "ref": "14", "tourism": "information"}}, {"type": "node", "id": 8405465264, "lat": 49.1629834, "lon": 13.2818083, "tags": {"information": "map", "tourism": "information"}}, {"type": "node", "id": 8405465265, "lat": 49.162928, "lon": 13.2815706, "tags": {"information": "map", "tourism": "information"}}, {"type": "node", "id": 8491767589, "lat": 49.2631891, "lon": 13.3997509}, {"type": "node", "id": 8491773120, "lat": 49.2630513, "lon": 13.3989001}, {"type": "node", "id": 8491773146, "lat": 49.2632538, "lon": 13.3997581}, {"type": "node", "id": 8491773147, "lat": 49.2631289, "lon": 13.3997442}, {"type": "node", "id": 8491773149, "lat": 49.2626282, "lon": 13.3990515}, {"type": "node", "id": 8491773150, "lat": 49.2633993, "lon": 13.3994438}, {"type": "node", "id": 8491773176, "lat": 49.2635649, "lon": 13.3989426}, {"type": "node", "id": 8491773177, "lat": 49.2635065, "lon": 13.3989393}, {"type": "node", "id": 8491773191, "lat": 49.2633833, "lon": 13.3991837}, {"type": "node", "id": 8491773192, "lat": 49.2637154, "lon": 13.3986036}, {"type": "node", "id": 8491773193, "lat": 49.2637276, "lon": 13.3985745}, {"type": "node", "id": 8491773194, "lat": 49.263728, "lon": 13.3985599}, {"type": "node", "id": 8491773195, "lat": 49.263726, "lon": 13.3985537}, {"type": "node", "id": 8491773196, "lat": 49.2637236, "lon": 13.3985881}, {"type": "node", "id": 8491773197, "lat": 49.2637219, "lon": 13.3985453}, {"type": "node", "id": 8491773198, "lat": 49.2637163, "lon": 13.3985406}, {"type": "node", "id": 8491773199, "lat": 49.2637098, "lon": 13.3985363}, {"type": "node", "id": 8491773200, "lat": 49.2635711, "lon": 13.3989818}, {"type": "node", "id": 8491773201, "lat": 49.2637066, "lon": 13.3986295}, {"type": "node", "id": 8491773202, "lat": 49.2627935, "lon": 13.3998415}, {"type": "node", "id": 8491773203, "lat": 49.2628731, "lon": 13.3998147}, {"type": "node", "id": 8491773204, "lat": 49.2625324, "lon": 13.3995672}, {"type": "node", "id": 8491773205, "lat": 49.2630893, "lon": 13.3988866}, {"type": "node", "id": 8491773206, "lat": 49.263459, "lon": 13.3982712}, {"type": "node", "id": 8491773207, "lat": 49.2634591, "lon": 13.3982573}, {"type": "node", "id": 8491773208, "lat": 49.2634635, "lon": 13.3982417}, {"type": "node", "id": 8491773209, "lat": 49.2634705, "lon": 13.398231}, {"type": "node", "id": 8491773210, "lat": 49.2634617, "lon": 13.3982828}, {"type": "node", "id": 8491773211, "lat": 49.2634661, "lon": 13.3982912}, {"type": "node", "id": 8491773212, "lat": 49.2634716, "lon": 13.3982974}, {"type": "node", "id": 8491773213, "lat": 49.2634771, "lon": 13.3983017}, {"type": "node", "id": 8491773214, "lat": 49.2634817, "lon": 13.3982256}, {"type": "node", "id": 8491773221, "lat": 49.2634934, "lon": 13.3982251}, {"type": "node", "id": 8491773222, "lat": 49.2634822, "lon": 13.3983029}, {"type": "node", "id": 8491773223, "lat": 49.2635404, "lon": 13.3981413}, {"type": "node", "id": 8491773224, "lat": 49.2636564, "lon": 13.3981564}, {"type": "node", "id": 8491773225, "lat": 49.263661, "lon": 13.398147}, {"type": "node", "id": 8491781994, "lat": 49.2639627, "lon": 13.3993936, "tags": {"name": "Skanzen lidov\u00e9 architektury", "tourism": "attraction", "website": "https://www.hrad-velhartice.cz/cs/informace-pro-navstevniky/prohlidkove-okruhy/5899-skanzen-lidove-architektury"}}, {"type": "node", "id": 8491800931, "lat": 49.2653279, "lon": 13.3967341, "tags": {"information": "board", "tourism": "information"}}, {"type": "node", "id": 8491928904, "lat": 49.2539089, "lon": 13.3772201}, {"type": "node", "id": 8491928905, "lat": 49.2538839, "lon": 13.3772268}, {"type": "node", "id": 8491928906, "lat": 49.2538876, "lon": 13.3772586}, {"type": "node", "id": 8491928907, "lat": 49.2539125, "lon": 13.3772519}, {"type": "node", "id": 8496821740, "lat": 49.1911475, "lon": 13.3950499, "tags": {"ele": "950", "name": "Na Z\u00e1mku", "natural": "peak"}}, {"type": "node", "id": 8727477998, "lat": 49.2708109, "lon": 13.3075219, "tags": {"board_type": "history", "information": "board", "name": "Josef Zahr\u00e1dka", "tourism": "information"}}, {"type": "node", "id": 9212233439, "lat": 49.3060616, "lon": 13.3375221, "tags": {"bicycle": "yes", "information": "guidepost", "operator": "cz:K\u010cT", "tourism": "information"}}, {"type": "node", "id": 9274839488, "lat": 49.167426, "lon": 13.2737456, "tags": {"information": "board", "name": "Kdo \u017eije na strom\u011b?", "tourism": "information"}}, {"type": "node", "id": 9274900587, "lat": 49.172804, "lon": 13.2629924, "tags": {"description": "NS Had\u00ed stezka", "information": "board", "name": "Letokruhy a dendrochronologie", "tourism": "information"}}, {"type": "node", "id": 9355287403, "lat": 49.1597208, "lon": 13.2804903, "tags": {"information": "board", "name": "\u017divot pro mok\u0159ady", "tourism": "information"}}, {"type": "node", "id": 9358429289, "lat": 49.1741483, "lon": 13.2761075, "tags": {"description": "V\u00edtejte v chr\u00e1n\u011bnn\u00e9 krajinn\u00e9 oblasti \u0160umava", "information": "board", "name": "P\u0159\u00edrodn\u00ed rezervace Prameni\u0161t\u011b", "tourism": "information"}}, {"type": "node", "id": 9358446946, "lat": 49.1713275, "lon": 13.2539228, "tags": {"information": "board", "name": "pramen \u0158ezn\u00e9", "tourism": "information"}}, {"type": "node", "id": 9358477855, "lat": 49.1651292, "lon": 13.2785106, "tags": {"information": "board", "name": "P\u0159e\u017e\u00edt nen\u00ed v\u016fbec jednoduch\u00e9", "tourism": "information"}}, {"type": "node", "id": 9358514613, "lat": 49.1725717, "lon": 13.2634358, "tags": {"information": "board", "name": "P\u0159\u00edrodn\u00ed rezervace Prameni\u0161t\u011b", "tourism": "information"}}, {"type": "node", "id": 9358516440, "lat": 49.1678178, "lon": 13.2444908, "tags": {"description": "Turistick\u00e1 v\u00fdv\u011bsn\u00ed mapa 1:25 000", "information": "map", "name": "\u017deleznorudsko", "tourism": "information"}}, {"type": "node", "id": 9358516441, "lat": 49.1678211, "lon": 13.2445572, "tags": {"description": "cykloturistick\u00e1 a ly\u017ea\u0159sk\u00e1 mapa", "information": "map", "name": "\u017deleznorudsko", "tourism": "information"}}, {"type": "node", "id": 9358523600, "lat": 49.1729903, "lon": 13.2581044, "tags": {"information": "board", "name": "Had\u00ed stezka", "tourism": "information"}}, {"type": "node", "id": 9532882549, "lat": 49.1585047, "lon": 13.2450945, "tags": {"ele": "1029", "natural": "peak", "source": "\u010c\u00daZK"}}, {"type": "node", "id": 9532882551, "lat": 49.2040996, "lon": 13.2173037, "tags": {"ele": "997", "natural": "peak", "source": "\u010c\u00daZK"}}, {"type": "node", "id": 9690644657, "lat": 49.2546588, "lon": 13.3981115, "tags": {"ele": "859", "man_made": "survey_point", "natural": "peak"}}, {"type": "node", "id": 9724034926, "lat": 49.1567765, "lon": 13.383596, "tags": {"bicycle": "yes", "information": "map", "map_size": "region", "map_type": "topo", "name": "Cyklostezka Skeln\u00e1", "tourism": "information"}}, {"type": "node", "id": 9748194057, "lat": 49.1727943, "lon": 13.2260116, "tags": {"board_type": "history", "description": "Historie obce \u0160pi\u010d\u00e1k", "information": "board", "name": "Prokop, Rixi a dal\u0161\u00ed reklrea\u010dn\u00ed za\u0159\u00edzen\u00ed", "ref": "Z7", "tourism": "information"}}, {"type": "node", "id": 9751099986, "lat": 49.172715, "lon": 13.2259308, "tags": {"bicycle": "yes", "information": "guidepost", "operator": "cz:K\u010cT", "ref": "none", "tourism": "information"}}, {"type": "node", "id": 9871151208, "lat": 49.178183, "lon": 13.253686, "tags": {"door": "yes", "name": "Dve\u0159e", "tourism": "viewpoint"}}, {"type": "node", "id": 9911637303, "lat": 49.331895, "lon": 13.2280736, "tags": {"name": "Soubor soch sv\u011btc\u016f", "reservation": "no", "tourism": "attraction", "wikidata": "Q37343495"}}, {"type": "node", "id": 9943136550, "lat": 49.176613, "lon": 13.335469, "tags": {"board_type": "nature", "information": "board", "name": "Lu\u010dn\u00ed prameni\u0161t\u011b", "name:de": "Wiesenquellgebiete", "tourism": "information"}}, {"type": "node", "id": 9943136555, "lat": 49.1798045, "lon": 13.3609723, "tags": {"board_type": "history", "information": "board", "name": "Hartmanice - Star\u00e1 Hu\u0165", "tourism": "information"}}, {"type": "node", "id": 9943136566, "lat": 49.1809604, "lon": 13.3882038, "tags": {"board_type": "history", "information": "board", "name": "Hartmanice - Busil", "tourism": "information"}}, {"type": "node", "id": 9943136567, "lat": 49.1809686, "lon": 13.3881934, "tags": {"information": "map", "map_size": "region", "map_type": "topo", "tourism": "information"}}, {"type": "node", "id": 9945853612, "lat": 49.2314444, "lon": 13.2790622}, {"type": "node", "id": 9945853613, "lat": 49.2314053, "lon": 13.2791462}, {"type": "node", "id": 9945853614, "lat": 49.2313152, "lon": 13.2790476}, {"type": "node", "id": 9945853615, "lat": 49.2313543, "lon": 13.2789637}, {"type": "node", "id": 9951379843, "lat": 49.3116831, "lon": 13.378689, "tags": {"ele": "638", "name": "H\u00e1j", "natural": "peak"}}, {"type": "node", "id": 9951451278, "lat": 49.1881158, "lon": 13.3933819, "tags": {"board_type": "history", "information": "board", "name": "Mochov", "tourism": "information"}}, {"type": "node", "id": 9951451279, "lat": 49.1881233, "lon": 13.3933644, "tags": {"bicycle": "yes", "hiking": "yes", "information": "map", "map_size": "region", "map_type": "topo", "name": "Mikroregion St\u0159edn\u00ed Po\u0161umav\u00ed", "tourism": "information"}}, {"type": "node", "id": 10429642662, "lat": 49.2223139, "lon": 13.2289295, "tags": {"amenity": "shelter"}}, {"type": "node", "id": 10686341767, "lat": 49.262334, "lon": 13.3964524, "tags": {"description": "Star\u00e9 d\u016fln\u00ed; d\u00edlo \u010d. o. 1840; Oprava zaji\u0161t\u011bn\u00ed 2017; Investor akce: \u010cR ministerstvo \u017eivotn\u00edho prost\u0159ed\u00ed odbor geologie; Zhotovitel: GIS GEOINDUSTRY, s.r.o. Plze\u0148", "information": "board", "name": "Velhartice \u0160achta pod hradem", "tourism": "information"}}, {"type": "node", "id": 10982909304, "lat": 49.1794873, "lon": 13.3604173, "tags": {"bicycle": "yes", "information": "guidepost", "ref": "none", "tourism": "information"}}, {"type": "node", "id": 10982994605, "lat": 49.179824, "lon": 13.3610773, "tags": {"bicycle": "yes", "information": "guidepost", "ref": "none", "tourism": "information"}}, {"type": "node", "id": 10982994606, "lat": 49.1798048, "lon": 13.3606405, "tags": {"bicycle": "yes", "information": "guidepost", "ref": "none", "tourism": "information"}}, {"type": "node", "id": 10982994621, "lat": 49.1808377, "lon": 13.3667992, "tags": {"bicycle": "yes", "information": "guidepost", "ref": "none", "tourism": "information"}}, {"type": "node", "id": 10982994622, "lat": 49.1917706, "lon": 13.372809, "tags": {"board_type": "history", "information": "board", "name": "Vyhl\u00eddka na Pekelsk\u00e9 \u00fadol\u00ed", "tourism": "information"}}, {"type": "node", "id": 11012313799, "lat": 49.303995, "lon": 13.2477203, "tags": {"information": "map", "name": "Kr\u00e1lovsk\u00fd hvozd", "tourism": "information"}}, {"type": "node", "id": 11049257659, "lat": 49.1720965, "lon": 13.2534312, "tags": {"board_type": "rules", "information": "board", "name": "Osv\u011b\u017eovna u pramene \u0158ezn\u00e9", "tourism": "information"}}, {"type": "node", "id": 11049257661, "lat": 49.1804045, "lon": 13.3751255, "tags": {"board_type": "nature", "information": "board", "name": "p\u0159\u00edrodn\u00ed rezervace Poustka", "tourism": "information"}}, {"type": "node", "id": 11298392701, "lat": 49.1626667, "lon": 13.2093565, "tags": {"amenity": "shelter"}}, {"type": "node", "id": 11298392732, "lat": 49.1557341, "lon": 13.2185199, "tags": {"information": "guidepost", "name": "Kapl", "tourism": "information"}}, {"type": "node", "id": 11298392745, "lat": 49.1606792, "lon": 13.2123674, "tags": {"information": "board", "name": "Z 15", "tourism": "information"}}, {"type": "node", "id": 11298392754, "lat": 49.1591115, "lon": 13.2022492, "tags": {"amenity": "shelter"}}, {"type": "node", "id": 11299888427, "lat": 49.26537, "lon": 13.3973065, "tags": {"board_type": "history", "information": "board", "name": "Velhartice - hrad", "tourism": "information"}}, {"type": "node", "id": 11299968777, "lat": 49.2653798, "lon": 13.3974162, "tags": {"board_type": "history", "information": "board", "name": "N\u00e1rodn\u00ed kulturn\u00ed pam\u00e1tka hrad Velhartice", "tourism": "information"}}, {"type": "node", "id": 11299974347, "lat": 49.2651721, "lon": 13.3977268, "tags": {"board_type": "welcome_sign", "information": "board", "name": "VESA Velhartice", "tourism": "information"}}, {"type": "node", "id": 11308099787, "lat": 49.3332874, "lon": 13.2291759, "tags": {"information": "map", "map_size": "area", "map_type": "hiking", "name": "\u0160umava Klatovsko", "tourism": "information"}}, {"type": "node", "id": 11344342482, "lat": 49.1766235, "lon": 13.3357358, "tags": {"information": "board", "name": "Bod z\u00e1chrany A 11", "name:en": "Rescue point A 11", "tourism": "information"}}, {"type": "node", "id": 11625977797, "lat": 49.2484245, "lon": 13.3020028, "tags": {"information": "board", "name": "Zde se nat\u00e1\u010del film ,,T\u0159i o\u0159\u00ed\u0161ky pro Popelku\"", "tourism": "information"}}, {"type": "node", "id": 11818179812, "lat": 49.2838158, "lon": 13.2271849, "tags": {"bicycle": "yes", "hiking": "yes", "information": "map", "map_size": "region", "map_type": "topo", "name": "Str\u00e1\u017eov a okol\u00ed", "tourism": "information"}}, {"type": "node", "id": 11818179813, "lat": 49.2838108, "lon": 13.2272274, "tags": {"bicycle": "yes", "ele": "517", "hiking": "yes", "information": "guidepost", "name": "Krot\u011bjov", "operator": "cz:K\u010cT", "ref": "KT023", "tourism": "information"}}, {"type": "node", "id": 11818351555, "lat": 49.2664571, "lon": 13.2334725, "tags": {"bicycle": "yes", "ele": "565", "information": "guidepost", "name": "Divi\u0161ovice, kostel sv. Anny", "operator": "cz:K\u010cT", "ref": "none", "tourism": "information"}}, {"type": "node", "id": 11818351556, "lat": 49.2457075, "lon": 13.238283, "tags": {"horse": "yes", "information": "map", "map_size": "region", "map_type": "topo", "name": "P\u00e1te\u0159n\u00ed hipostezka v Po\u0161umav\u00ed", "tourism": "information"}}, {"type": "node", "id": 12127499581, "lat": 49.3020831, "lon": 13.3123217, "tags": {"information": "board", "name": "Poutn\u00ed stezka ke kostelu sv. Bartolom\u011bje - Vint\u00ed\u0159ova", "tourism": "information"}}, {"type": "node", "id": 12250215469, "lat": 49.234727, "lon": 13.320595, "tags": {"tourism": "viewpoint"}}, {"type": "node", "id": 12264986240, "lat": 49.1700274, "lon": 13.3219328, "tags": {"ele": "996", "name": "Na vyhl\u00eddce", "natural": "peak", "source": "\u010c\u00daZK"}}, {"type": "node", "id": 12324182973, "lat": 49.16642, "lon": 13.2156682, "tags": {"board_type": "history", "description": "Historie obce \u0160pi\u010d\u00e1k", "information": "board", "name": "\u017deleznorudsk\u00e1 kotlina, letn\u00ed turistika", "ref": "Z14", "tourism": "information"}}, {"type": "node", "id": 12402284350, "lat": 49.1753224, "lon": 13.3538025, "tags": {"ele": "984", "natural": "peak"}}, {"type": "node", "id": 12402379916, "lat": 49.1671305, "lon": 13.343135, "tags": {"ele": "980", "natural": "peak"}}, {"type": "node", "id": 12430117746, "lat": 49.312252, "lon": 13.3572051, "tags": {"ele": "633", "name": "H\u016frka", "natural": "peak"}}, {"type": "node", "id": 12443854708, "lat": 49.1765715, "lon": 13.2287924, "tags": {"board_type": "nature", "information": "board", "name": "Doh\u00e1dkov\u00e1 stezka \u010d. 3 - Jablo\u0148ov\u00e1", "tourism": "information"}}, {"type": "node", "id": 12582792872, "lat": 49.1782887, "lon": 13.3999515, "tags": {"ele": "806.3", "natural": "peak"}}, {"type": "node", "id": 13017648824, "lat": 49.2223458, "lon": 13.228882, "tags": {"information": "board", "name": "Nau\u010dn\u00e1 stezka Hojsova Str\u00e1\u017e 7", "tourism": "information"}}, {"type": "node", "id": 13019448510, "lat": 49.1943004, "lon": 13.2120019, "tags": {"information": "board", "name": "\u017delezni\u010dn\u00ed tra\u0165", "tourism": "information"}}, {"type": "node", "id": 13413117754, "lat": 49.277601, "lon": 13.2161634, "tags": {"amenity": "shelter"}}, {"type": "way", "id": 266125932, "nodes": [2717034938, 4020823553, 4020823552, 2717034919, 2717034908, 4408956752, 2517797468, 2717034938], "tags": {"addr:city": "\u010cachrov", "addr:conscriptionnumber": "45", "addr:country": "CZ", "addr:housenumber": "45", "addr:place": "Javorn\u00e1", "addr:postcode": "33901", "building": "residential", "building:levels": "1", "building:ruian:type": "3", "name": "Z\u00e1kladna B\u00edl\u00e9ho orla", "operator": "Jun\u00e1k", "ref:ruian:addr": "6937802", "ref:ruian:building": "6892388", "reservation": "members_only", "source": "cuzk:ruian", "tourism": "alpine_hut"}}, {"type": "way", "id": 388725660, "nodes": [3918905115, 3918905117, 3918905116, 3918905114, 3918905115], "tags": {"amenity": "shelter", "building": "yes", "shelter_type": "weather_shelter"}}, {"type": "way", "id": 528543179, "nodes": [5136138705, 5136138704, 5136138703, 5136138702, 5136138705], "tags": {"amenity": "shelter", "building": "yes", "shelter_type": "public_transport"}}, {"type": "way", "id": 675163711, "nodes": [6322943148, 8491773199, 8491773198, 8491773197, 8491773195, 8491773194, 8491773193, 8491773196, 8491773192, 8491773201, 8491773200, 8491773176, 8491773177, 6322943135, 6322943136, 8491773191, 8491773150, 6322943137, 6863971285, 6863971286, 8491773146, 6322943138, 8491767589, 8491773147, 6322943139, 8491773203, 8491773202, 6322943140, 6863969484, 6863969483, 6322943141, 6322943142, 8491773204, 2987360028, 2987360025, 2987360024, 6322943145, 8491773149, 6322943146, 8491773120, 8491773205, 6322943147, 6863969482, 6863969481, 8491773222, 8491773213, 8491773212, 8491773211, 8491773210, 8491773206, 8491773207, 8491773208, 8491773209, 8491773214, 8491773221, 6863969479, 8491773223, 6322943149, 1336506603, 8491773225, 8491773224, 6322943148], "tags": {"castle_type": "defensive", "email": "velhartice@npu.cz", "historic": "castle", "name": "Velhartice", "name:en": "Velhartice Castle", "phone": "+420 376 583 315", "tourism": "attraction", "website": "https://www.hrad-velhartice.cz/", "wikidata": "Q1014368", "wikipedia": "cs:Velhartice (hrad)"}}, {"type": "way", "id": 914200630, "nodes": [8491928907, 8491928906, 8491928905, 8491928904, 8491928907], "tags": {"amenity": "shelter", "building": "roof", "shelter_type": "public_transport"}}, {"type": "way", "id": 1085432300, "nodes": [9945853612, 9945853613, 9945853614, 9945853615, 9945853612], "tags": {"amenity": "shelter", "building": "yes"}}]}