{"version": 0.6, "generator": "Overpass API 0.7.62.8 e802775f", "osm3s": {"timestamp_osm_base": "2026-01-04T12:14:30Z", "copyright": "The data included in this document is from www.openstreetmap.org. The data is made available under ODbL."}, "elements": [{"type": "node", "id": 245957955, "lat": 49.016038, "lon": 15.5811008, "tags": {"name": "Jemnice", "operator": "cz:S\u017dDC", "public_transport": "station", "railway": "station", "railway:ref": "341859", "source": "uhul:ortofoto", "wikidata": "Q18180280", "wikipedia": "cs:Jemnice (n\u00e1dra\u017e\u00ed)"}}, {"type": "node", "id": 277171057, "lat": 49.1541303, "lon": 15.0057238}, {"type": "node", "id": 277171062, "lat": 49.1538235, "lon": 15.0059185}, {"type": "node", "id": 277171063, "lat": 49.1537518, "lon": 15.005489}, {"type": "node", "id": 277171064, "lat": 49.1540617, "lon": 15.0039593}, {"type": "node", "id": 277171067, "lat": 49.154337, "lon": 15.0039407}, {"type": "node", "id": 277171069, "lat": 49.1543806, "lon": 15.0045014}, {"type": "node", "id": 277171070, "lat": 49.1537685, "lon": 15.0056645}, {"type": "node", "id": 277171071, "lat": 49.1538338, "lon": 15.0057896}, {"type": "node", "id": 277171088, "lat": 49.1539227, "lon": 15.0059024}, {"type": "node", "id": 277171100, "lat": 49.1543803, "lon": 15.003991}, {"type": "node", "id": 277288872, "lat": 49.0192726, "lon": 15.1110196, "tags": {"name": "Nov\u00e1 Byst\u0159ice", "name:cs": "Nov\u00e1 Byst\u0159ice", "name:de": "Neubistritz", "operator": "cz:JHMD", "public_transport": "station", "railway": "station", "railway:ref": "744623"}}, {"type": "node", "id": 277289629, "lat": 49.0296604, "lon": 15.1376726, "tags": {"name": "Albe\u0159", "operator": "cz:JHMD", "railway": "halt", "railway:ref": "744524"}}, {"type": "node", "id": 277289784, "lat": 49.0453295, "lon": 15.1583741, "tags": {"name": "H\u016frky", "operator": "cz:JHMD", "public_transport": "station", "railway": "station", "railway:ref": "744425", "wheelchair": "no"}}, {"type": "node", "id": 277291865, "lat": 49.0659459, "lon": 15.1577054, "tags": {"name": "Senot\u00edn", "operator": "cz:JHMD", "public_transport": "station", "railway": "station", "railway:ref": "744326"}}, {"type": "node", "id": 277292020, "lat": 49.1120656, "lon": 15.1628042, "tags": {"name": "Kun\u017eak-Lomy", "operator": "cz:JHMD", "public_transport": "station", "railway": "station", "railway:ref": "744128"}}, {"type": "node", "id": 277292289, "lat": 49.1488962, "lon": 15.0526878, "tags": {"name": "Jind\u0159i\u0161", "operator": "cz:JHMD", "railway": "halt", "railway:ref": "743724"}}, {"type": "node", "id": 277307914, "lat": 49.1342471, "lon": 15.1348486, "tags": {"name": "St\u0159\u00ed\u017eovice", "operator": "cz:JHMD", "railway": "station", "railway:ref": "744029"}}, {"type": "node", "id": 277314918, "lat": 48.9935228, "lon": 15.3496002, "tags": {"ele": "520", "internet_access": "no", "name": "Slavonice", "name:de": "Zlabings", "operator": "cz:S\u017d", "public_transport": "station", "railway": "station", "railway:ref": "748228", "start_date": "1902-09-07", "train": "yes", "uic_ref": "5474822", "wikidata": "Q17750055", "wikipedia": "cs:Slavonice (n\u00e1dra\u017e\u00ed)"}}, {"type": "node", "id": 288478168, "lat": 49.1080178, "lon": 15.4475874, "tags": {"name": "Mal\u00fd P\u011b\u010d\u00edn", "operator": "cz:S\u017dDC", "railway": "halt", "railway:ref": "748921", "train": "yes", "wikidata": "Q19400945"}}, {"type": "node", "id": 288478172, "lat": 49.1203133, "lon": 15.4475971, "tags": {"name": "Velk\u00fd P\u011b\u010d\u00edn", "operator": "cz:S\u017dDC", "railway": "halt", "railway:ref": "749028", "train": "yes", "wikidata": "Q18590816"}}, {"type": "node", "id": 288478274, "lat": 49.0859835, "lon": 15.4392042, "tags": {"ele": "465", "image": "https://upload.wikimedia.org/wikipedia/commons/5/54/%C5%BDelezni%C4%8Dn%C3%AD_stanice_Da%C4%8Dice_%2807%29.jpg", "name": "Da\u010dice", "name:de": "Datschitz", "operator": "cz:S\u017dDC", "public_transport": "station", "railway": "station", "railway:ref": "748822", "start_date": "1902-09-07", "train": "yes", "uic_ref": "5474882", "wikidata": "Q18180184"}}, {"type": "node", "id": 298900658, "lat": 49.1458325, "lon": 15.0616897, "tags": {"name": "Jind\u0159i\u0161 zast\u00e1vka", "operator": "cz:JHMD", "railway": "halt", "railway:ref": "743732"}}, {"type": "node", "id": 300679998, "lat": 49.0342762, "lon": 15.3748274, "tags": {"name": "Doln\u00ed Bol\u00edkov", "operator": "cz:S\u017dDC", "railway": "halt", "railway:ref": "748426", "train": "yes", "wikidata": "Q18613957", "wikipedia": "cs:Doln\u00ed Bol\u00edkov (\u017eelezni\u010dn\u00ed zast\u00e1vka)"}}, {"type": "node", "id": 301066609, "lat": 49.0445799, "lon": 15.3979642, "tags": {"name": "Pe\u010d", "operator": "cz:S\u017dDC", "railway": "halt", "railway:ref": "748525", "train": "yes", "wikidata": "Q19401222"}}, {"type": "node", "id": 309438955, "lat": 49.1719093, "lon": 15.0330918, "tags": {"name": "Horn\u00ed Skr\u00fdchov", "operator": "cz:JHMD", "railway": "station", "railway:ref": "744722", "wheelchair": "no"}}, {"type": "node", "id": 309444674, "lat": 49.2115428, "lon": 15.0580866, "tags": {"name": "Lov\u011bt\u00edn obec", "operator": "cz:JHMD", "railway": "halt", "railway:ref": "745026"}}, {"type": "node", "id": 309444810, "lat": 49.2234917, "lon": 15.0625584, "tags": {"name": "Nekras\u00edn", "operator": "cz:JHMD", "railway": "halt", "railway:ref": "745125"}}, {"type": "node", "id": 309459602, "lat": 49.264114, "lon": 15.0749537, "tags": {"name": "\u017d\u010f\u00e1r u Kamenice nad Lipou", "operator": "cz:JHMD", "railway": "halt", "railway:ref": "745323"}}, {"type": "node", "id": 309459750, "lat": 49.2812039, "lon": 15.0796797, "tags": {"name": "Rodinov", "operator": "cz:JHMD", "railway": "halt", "railway:ref": "745422"}}, {"type": "node", "id": 309474825, "lat": 49.3048039, "lon": 15.0428903, "tags": {"name": "V\u010delni\u010dka", "operator": "cz:JHMD", "railway": "station", "railway:ref": "745620"}}, {"type": "node", "id": 472102250, "lat": 49.3291362, "lon": 15.0085756, "tags": {"name": "Bene\u0161ov nad Lipou", "operator": "cz:JHMD", "railway": "halt", "railway:ref": "745729"}}, {"type": "node", "id": 534830855, "lat": 49.2618742, "lon": 15.2371581}, {"type": "node", "id": 615587642, "lat": 49.1552108, "lon": 15.0026799}, {"type": "node", "id": 615587643, "lat": 49.1551622, "lon": 15.0026321}, {"type": "node", "id": 615587644, "lat": 49.1552381, "lon": 15.00261}, {"type": "node", "id": 615587645, "lat": 49.1552456, "lon": 15.0026698}, {"type": "node", "id": 615587661, "lat": 49.1546637, "lon": 15.0038534}, {"type": "node", "id": 615587662, "lat": 49.1547244, "lon": 15.0038217}, {"type": "node", "id": 615587693, "lat": 49.1546863, "lon": 15.0039804}, {"type": "node", "id": 615587694, "lat": 49.1548352, "lon": 15.0045076}, {"type": "node", "id": 615587696, "lat": 49.155064, "lon": 15.0046338}, {"type": "node", "id": 615587697, "lat": 49.15495, "lon": 15.0040505}, {"type": "node", "id": 615587699, "lat": 49.1549054, "lon": 15.0045534}, {"type": "node", "id": 615587702, "lat": 49.1552495, "lon": 15.0033674}, {"type": "node", "id": 615587703, "lat": 49.155304, "lon": 15.0033516}, {"type": "node", "id": 615587719, "lat": 49.15478, "lon": 15.0046303}, {"type": "node", "id": 615587742, "lat": 49.1551373, "lon": 15.0057675}, {"type": "node", "id": 615587745, "lat": 49.1551235, "lon": 15.0050569}, {"type": "node", "id": 615587746, "lat": 49.1550477, "lon": 15.0050515}, {"type": "node", "id": 615587748, "lat": 49.1548488, "lon": 15.0045665}, {"type": "node", "id": 632227364, "lat": 49.1309417, "lon": 15.4621927, "tags": {"name": "Slavibo\u0159", "operator": "cz:S\u017dDC", "railway": "halt", "railway:ref": "749101", "wikidata": "Q18590892"}}, {"type": "node", "id": 632228777, "lat": 49.1461582, "lon": 15.4718464, "tags": {"name": "Radkov", "operator": "cz:S\u017dDC", "railway": "halt", "railway:ref": "749200", "source": "uhul:ortofoto", "wikidata": "Q19401320"}}, {"type": "node", "id": 637666508, "lat": 49.2616918, "lon": 15.2379366}, {"type": "node", "id": 637666512, "lat": 49.2615433, "lon": 15.236981}, {"type": "node", "id": 637666519, "lat": 49.2617715, "lon": 15.2375963}, {"type": "node", "id": 637691353, "lat": 49.2370219, "lon": 15.2124826, "tags": {"ele:accuracy": "610", "name": "Po\u010d\u00e1tky-\u017dirovnice", "operator": "cz:S\u017dDC", "railway": "station", "railway:ref": "757625", "start_date": "1887-11-03", "uic_ref": "5475762", "wikidata": "Q16590776", "wikipedia": "cs:Po\u010d\u00e1tky-\u017dirovnice (n\u00e1dra\u017e\u00ed)"}}, {"type": "node", "id": 638581168, "lat": 49.2613519, "lon": 15.2377408}, {"type": "node", "id": 638581171, "lat": 49.2614824, "lon": 15.237818}, {"type": "node", "id": 638581173, "lat": 49.2613901, "lon": 15.2375951}, {"type": "node", "id": 640426974, "lat": 49.1819906, "lon": 15.4640617, "tags": {"amenity": "bus_station", "bus": "yes", "name": "Autobusov\u00e9 n\u00e1dra\u017e\u00ed Tel\u010d", "public_transport": "station", "source": "knowledge"}}, {"type": "node", "id": 658837004, "lat": 49.2202436, "lon": 15.1783006, "tags": {"name": "Popel\u00edn", "operator": "cz:S\u017dDC", "public_transport": "no", "railway": "station", "railway:ref": "757526", "uic_ref": "5475752", "wikidata": "Q15886995"}}, {"type": "node", "id": 776029989, "lat": 49.1815293, "lon": 15.0786071, "tags": {"ele": "505", "name": "Jaro\u0161ov nad Ne\u017e\u00e1rkou", "operator": "cz:S\u017dDC", "public_transport": "no", "railway": "station", "railway:ref": "757229", "start_date": "1887-11-03", "uic_ref": "5475722", "wikidata": "Q15886831", "wikipedia": "cs:Jaro\u0161ov nad Ne\u017e\u00e1rkou (n\u00e1dra\u017e\u00ed)"}}, {"type": "node", "id": 945961967, "lat": 49.0784475, "lon": 15.4396875, "tags": {"name": "Da\u010dice m\u011bsto", "operator": "cz:S\u017dDC", "railway": "halt", "railway:ref": "748723", "train": "yes", "wikidata": "Q19400546"}}, {"type": "node", "id": 945981824, "lat": 49.053529, "lon": 15.4189491, "tags": {"name": "Urbane\u010d", "operator": "cz:S\u017dDC", "railway": "halt", "railway:ref": "748624", "train": "yes", "wikidata": "Q19401565", "wikipedia": "cs:Urbane\u010d (\u017eelezni\u010dn\u00ed zast\u00e1vka)"}}, {"type": "node", "id": 945981837, "lat": 49.0155486, "lon": 15.378062, "tags": {"name": "Muti\u0161ov", "operator": "cz:S\u017dDC", "railway": "halt", "railway:ref": "748327", "train": "yes", "wikidata": "Q19401003", "wikipedia": "cs:Muti\u0161ov (\u017eelezni\u010dn\u00ed zast\u00e1vka)"}}, {"type": "node", "id": 1346255857, "lat": 48.9982726, "lon": 15.3541786}, {"type": "node", "id": 1580528998, "lat": 48.958428, "lon": 15.546266}, {"type": "node", "id": 1580529006, "lat": 48.958446, "lon": 15.546206}, {"type": "node", "id": 1580529088, "lat": 48.958508, "lon": 15.546325}, {"type": "node", "id": 1580529119, "lat": 48.958528, "lon": 15.546269}, {"type": "node", "id": 2397157560, "lat": 49.0581809, "lon": 15.3892821}, {"type": "node", "id": 2397157569, "lat": 49.0582152, "lon": 15.3893693}, {"type": "node", "id": 2397157575, "lat": 49.0582107, "lon": 15.389255}, {"type": "node", "id": 2397157583, "lat": 49.0582451, "lon": 15.3893426}, {"type": "node", "id": 2397157787, "lat": 49.0591092, "lon": 15.3900014}, {"type": "node", "id": 2397157793, "lat": 49.0591397, "lon": 15.3899321}, {"type": "node", "id": 2397157796, "lat": 49.0591435, "lon": 15.3900364}, {"type": "node", "id": 2397157804, "lat": 49.0591739, "lon": 15.3899674}, {"type": "node", "id": 2421861858, "lat": 49.1549756, "lon": 15.0056269, "tags": {"name": "Jind\u0159ich\u016fv Hradec - m\u00edstn\u00ed n\u00e1dra\u017e\u00ed", "note": "n\u00e1dra\u017e\u00ed \u00fazkokolejn\u00e9 dr\u00e1hy", "operator": "cz:JHMD", "public_transport": "station", "railway": "station", "railway:ref": "007013", "wikidata": "Q66888480"}}, {"type": "node", "id": 2421866843, "lat": 49.1550024, "lon": 15.0045299, "tags": {"amenity": "toilets", "check_date": "2021-09-15"}}, {"type": "node", "id": 2530534717, "lat": 49.1939248, "lon": 15.033468, "tags": {"name": "Doln\u00ed Radou\u0148", "operator": "cz:JHMD", "railway": "halt", "railway:ref": "744821", "source": "survey", "wikidata": "Q66888482"}}, {"type": "node", "id": 2788938957, "lat": 49.0823273, "lon": 15.170921, "tags": {"name": "Kaproun", "name:de": "Kaltenbrunn", "operator": "cz:JHMD", "railway": "halt", "railway:ref": "744227"}}, {"type": "node", "id": 2808022337, "lat": 49.14359, "lon": 15.1144162, "tags": {"name": "Mal\u00fd Ratm\u00edrov", "operator": "cz:JHMD", "railway": "halt", "railway:ref": "743922"}}, {"type": "node", "id": 3156139073, "lat": 49.1546945, "lon": 15.0032783}, {"type": "node", "id": 3813533969, "lat": 49.2529504, "lon": 15.1875678, "tags": {"amenity": "bus_station", "bus": "yes", "name": "\u017dirovnice, n\u00e1m.", "public_transport": "station"}}, {"type": "node", "id": 4086869591, "lat": 48.9981574, "lon": 15.3538715}, {"type": "node", "id": 4086869602, "lat": 48.9983011, "lon": 15.3541272}, {"type": "node", "id": 4086869607, "lat": 48.9984042, "lon": 15.3531808}, {"type": "node", "id": 4086869613, "lat": 48.9985851, "lon": 15.3533871}, {"type": "node", "id": 4086869614, "lat": 48.9985714, "lon": 15.3533459}, {"type": "node", "id": 4086869615, "lat": 48.9985837, "lon": 15.3533149}, {"type": "node", "id": 4776728009, "lat": 49.1548579, "lon": 15.0041796}, {"type": "node", "id": 4776728010, "lat": 49.1548459, "lon": 15.0041826}, {"type": "node", "id": 4776728011, "lat": 49.1548644, "lon": 15.0043333}, {"type": "node", "id": 4776728012, "lat": 49.1548775, "lon": 15.004328}, {"type": "node", "id": 4776728013, "lat": 49.1548458, "lon": 15.0040821}, {"type": "node", "id": 5018113444, "lat": 49.1744435, "lon": 15.4623764, "tags": {"name": "Tel\u010d-Star\u00e9 M\u011bsto", "operator": "cz:S\u017dDC", "railway": "halt", "railway:ref": "749002", "wikidata": "Q22712121"}}, {"type": "node", "id": 5018113451, "lat": 49.1825563, "lon": 15.4645899, "tags": {"ele": "520", "name": "Tel\u010d", "name:de": "Teltsch", "operator": "cz:S\u017dDC", "public_transport": "station", "railway": "station", "railway:ref": "749309", "start_date": "1898-08-13", "uic_ref": "5474930", "wikidata": "Q18180540", "wikipedia": "cs:Tel\u010d (n\u00e1dra\u017e\u00ed)"}}, {"type": "node", "id": 5163532949, "lat": 49.1548078, "lon": 15.0043685}, {"type": "node", "id": 5163534045, "lat": 49.1547504, "lon": 15.003963}, {"type": "node", "id": 5163958658, "lat": 49.153834, "lon": 15.0058953}, {"type": "node", "id": 5163958659, "lat": 49.1537844, "lon": 15.005701}, {"type": "node", "id": 5163964286, "lat": 49.153841, "lon": 15.0058663}, {"type": "node", "id": 5163964287, "lat": 49.153841, "lon": 15.0058237}, {"type": "node", "id": 5163964288, "lat": 49.1537992, "lon": 15.0057309}, {"type": "node", "id": 5163964289, "lat": 49.1537512, "lon": 15.0055859}, {"type": "node", "id": 5163964294, "lat": 49.1540374, "lon": 15.0040776}, {"type": "node", "id": 5163964295, "lat": 49.1537613, "lon": 15.0054463}, {"type": "node", "id": 5163965186, "lat": 49.1550092, "lon": 15.0045226}, {"type": "node", "id": 5163965193, "lat": 49.1549058, "lon": 15.0040644}, {"type": "node", "id": 5163967231, "lat": 49.1550375, "lon": 15.0050388}, {"type": "node", "id": 5163967232, "lat": 49.1550966, "lon": 15.0050218}, {"type": "node", "id": 5163967233, "lat": 49.1550665, "lon": 15.0047722}, {"type": "node", "id": 5163967234, "lat": 49.1550168, "lon": 15.0047862}, {"type": "node", "id": 5183001779, "lat": 49.1548354, "lon": 15.0038512}, {"type": "node", "id": 5183001780, "lat": 49.1548169, "lon": 15.0038628}, {"type": "node", "id": 5183001782, "lat": 49.1548216, "lon": 15.0037997}, {"type": "node", "id": 5667328935, "lat": 49.1551699, "lon": 15.0026943}, {"type": "node", "id": 5667328936, "lat": 49.1551669, "lon": 15.0026951}, {"type": "node", "id": 5667328937, "lat": 49.1551756, "lon": 15.0027643}, {"type": "node", "id": 5667328938, "lat": 49.1551782, "lon": 15.0027635}, {"type": "node", "id": 5667328939, "lat": 49.1551889, "lon": 15.0028496}, {"type": "node", "id": 5667328940, "lat": 49.1551854, "lon": 15.0028507}, {"type": "node", "id": 5667328941, "lat": 49.1552129, "lon": 15.0030707}, {"type": "node", "id": 5667328942, "lat": 49.1552172, "lon": 15.0030694}, {"type": "node", "id": 5667328943, "lat": 49.1552361, "lon": 15.0032211}, {"type": "node", "id": 5667328944, "lat": 49.1552315, "lon": 15.0032225}, {"type": "node", "id": 5667328945, "lat": 49.1552784, "lon": 15.0031453}, {"type": "node", "id": 5667328946, "lat": 49.1552704, "lon": 15.0031476}, {"type": "node", "id": 5667328947, "lat": 49.155266, "lon": 15.0031123}, {"type": "node", "id": 5667328948, "lat": 49.1552726, "lon": 15.0031104}, {"type": "node", "id": 5667328949, "lat": 49.1552644, "lon": 15.0030447}, {"type": "node", "id": 5667328950, "lat": 49.1552566, "lon": 15.003047}, {"type": "node", "id": 5667328951, "lat": 49.1552097, "lon": 15.0057465}, {"type": "node", "id": 5667328952, "lat": 49.1550957, "lon": 15.0050653}, {"type": "node", "id": 5667328953, "lat": 49.1550919, "lon": 15.0050389}, {"type": "node", "id": 5685683778, "lat": 49.2012112, "lon": 15.050697, "tags": {"name": "Lov\u011bt\u00edn", "operator": "cz:JHMD", "railway": "station", "railway:ref": "744920"}}, {"type": "node", "id": 5685683779, "lat": 49.2368768, "lon": 15.0668753, "tags": {"name": "Nov\u00e1 V\u010delnice", "operator": "cz:JHMD", "public_transport": "station", "railway": "station", "railway:ref": "745224"}}, {"type": "node", "id": 5685683780, "lat": 49.2948536, "lon": 15.0747315, "tags": {"name": "Kamenice nad Lipou", "name:de": "Kamnitz an der Linde", "operator": "cz:JHMD", "railway": "station", "railway:ref": "745521"}}, {"type": "node", "id": 6554655926, "lat": 49.0830271, "lon": 15.3843325}, {"type": "node", "id": 6554655927, "lat": 49.0829937, "lon": 15.3843178}, {"type": "node", "id": 6554655928, "lat": 49.0829803, "lon": 15.3843875}, {"type": "node", "id": 6554655929, "lat": 49.0830137, "lon": 15.3844023}, {"type": "node", "id": 6964133876, "lat": 48.9984, "lon": 15.3538853}, {"type": "node", "id": 7958763952, "lat": 49.2527653, "lon": 15.2946718, "tags": {"name": "Jihl\u00e1vka", "public_transport": "no", "railway": "station", "wikidata": "Q15886843"}}, {"type": "node", "id": 8143781953, "lat": 49.1549737, "lon": 15.0039117}, {"type": "node", "id": 8143781954, "lat": 49.1548899, "lon": 15.0039368}, {"type": "node", "id": 8143781955, "lat": 49.1548983, "lon": 15.0040062}, {"type": "node", "id": 8143781956, "lat": 49.1549821, "lon": 15.0039809}, {"type": "node", "id": 8143781957, "lat": 49.155024, "lon": 15.0046456}, {"type": "node", "id": 8143781958, "lat": 49.1550408, "lon": 15.0044444}, {"type": "node", "id": 8143781959, "lat": 49.155, "lon": 15.0044544}, {"type": "node", "id": 8143781960, "lat": 49.154944, "lon": 15.0040514}, {"type": "node", "id": 8143781961, "lat": 49.1549375, "lon": 15.0039944}, {"type": "node", "id": 8143781969, "lat": 49.1549209, "lon": 15.0046752}, {"type": "node", "id": 8143781970, "lat": 49.1546436, "lon": 15.0032905}, {"type": "node", "id": 8143781971, "lat": 49.1547899, "lon": 15.0037895}, {"type": "node", "id": 8143781972, "lat": 49.1548204, "lon": 15.0038729}, {"type": "node", "id": 8143781973, "lat": 49.1549703, "lon": 15.0039127}, {"type": "node", "id": 8143781974, "lat": 49.1549241, "lon": 15.003687}, {"type": "node", "id": 8143781975, "lat": 49.1548737, "lon": 15.0036887}, {"type": "node", "id": 8143781976, "lat": 49.1547952, "lon": 15.0032881}, {"type": "node", "id": 8143781977, "lat": 49.1547398, "lon": 15.0033108}, {"type": "node", "id": 8143781978, "lat": 49.1547298, "lon": 15.0032641}, {"type": "node", "id": 8143781989, "lat": 49.1548284, "lon": 15.0037945}, {"type": "node", "id": 8143781990, "lat": 49.1548211, "lon": 15.003766}, {"type": "node", "id": 8143781991, "lat": 49.1547965, "lon": 15.0037843}, {"type": "node", "id": 8143781997, "lat": 49.1552335, "lon": 15.0032007, "tags": {"entrance": "service"}}, {"type": "node", "id": 8143781999, "lat": 49.1552247, "lon": 15.0031303, "tags": {"entrance": "yes"}}, {"type": "node", "id": 8143782001, "lat": 49.1549254, "lon": 15.0026852}, {"type": "node", "id": 8143782002, "lat": 49.1549124, "lon": 15.0026889}, {"type": "node", "id": 8143782003, "lat": 49.1550422, "lon": 15.0037197}, {"type": "node", "id": 8143782004, "lat": 49.1550664, "lon": 15.0039506}, {"type": "node", "id": 8143782005, "lat": 49.1551106, "lon": 15.0042614}, {"type": "node", "id": 8143782006, "lat": 49.1552158, "lon": 15.0050958}, {"type": "node", "id": 8143782007, "lat": 49.1552177, "lon": 15.0051098}, {"type": "node", "id": 8143782008, "lat": 49.1552303, "lon": 15.0051062}, {"type": "node", "id": 8143782009, "lat": 49.1552283, "lon": 15.0050913}, {"type": "node", "id": 8143782010, "lat": 49.1552033, "lon": 15.0048936}, {"type": "node", "id": 8143782011, "lat": 49.1551266, "lon": 15.0042832}, {"type": "node", "id": 8143782012, "lat": 49.1550885, "lon": 15.0039793}, {"type": "node", "id": 8143782013, "lat": 49.1550845, "lon": 15.0039489}, {"type": "node", "id": 8143782014, "lat": 49.1550402, "lon": 15.0035969}, {"type": "node", "id": 8143782015, "lat": 49.154973, "lon": 15.0030654}, {"type": "node", "id": 8143782016, "lat": 49.1550746, "lon": 15.0040151}, {"type": "node", "id": 8143782020, "lat": 49.1550177, "lon": 15.0030818}, {"type": "node", "id": 8143782021, "lat": 49.1550052, "lon": 15.0030849}, {"type": "node", "id": 8143782022, "lat": 49.155117, "lon": 15.0039715}, {"type": "node", "id": 8143782023, "lat": 49.1551555, "lon": 15.0042765}, {"type": "node", "id": 8143782024, "lat": 49.1552321, "lon": 15.0048839}, {"type": "node", "id": 8143782025, "lat": 49.1553954, "lon": 15.0061779}, {"type": "node", "id": 8143782026, "lat": 49.1554083, "lon": 15.0061746}, {"type": "node", "id": 8143782027, "lat": 49.1552448, "lon": 15.0048796}, {"type": "node", "id": 8143782028, "lat": 49.1551682, "lon": 15.0042734}, {"type": "node", "id": 8143782030, "lat": 49.1550114, "lon": 15.0026608}, {"type": "node", "id": 8143782031, "lat": 49.1549988, "lon": 15.0026641}, {"type": "node", "id": 8143782032, "lat": 49.1549963, "lon": 15.0026919}, {"type": "node", "id": 8143782033, "lat": 49.1551461, "lon": 15.003913}, {"type": "node", "id": 8143782034, "lat": 49.1551589, "lon": 15.0039388}, {"type": "node", "id": 8143782035, "lat": 49.1551613, "lon": 15.0039586}, {"type": "node", "id": 8143782036, "lat": 49.1552001, "lon": 15.0042656}, {"type": "node", "id": 8143782037, "lat": 49.1552789, "lon": 15.0048889}, {"type": "node", "id": 8143782038, "lat": 49.155294, "lon": 15.0050686}, {"type": "node", "id": 8143782039, "lat": 49.1554026, "lon": 15.0059217}, {"type": "node", "id": 8143782040, "lat": 49.155412, "lon": 15.005946}, {"type": "node", "id": 8143782041, "lat": 49.1554249, "lon": 15.0059432}, {"type": "node", "id": 8143782042, "lat": 49.1552137, "lon": 15.0042629}, {"type": "node", "id": 8143782043, "lat": 49.1551721, "lon": 15.0039331}, {"type": "node", "id": 8143782044, "lat": 49.1551296, "lon": 15.003968}, {"type": "node", "id": 8143782045, "lat": 49.1550708, "lon": 15.003985}, {"type": "node", "id": 8143782050, "lat": 49.1551139, "lon": 15.0042869}, {"type": "node", "id": 8143782058, "lat": 49.1551909, "lon": 15.0048981}, {"type": "node", "id": 8143782059, "lat": 49.1552764, "lon": 15.004869}, {"type": "node", "id": 8143782062, "lat": 49.1551686, "lon": 15.0061052}, {"type": "node", "id": 8143782094, "lat": 49.1547039, "lon": 15.0041134}, {"type": "node", "id": 8143782095, "lat": 49.1547133, "lon": 15.0042124}, {"type": "node", "id": 8143782096, "lat": 49.1547207, "lon": 15.0043077}, {"type": "node", "id": 8143782097, "lat": 49.1547377, "lon": 15.0044173}, {"type": "node", "id": 8143782107, "lat": 49.1549993, "lon": 15.0046527}, {"type": "node", "id": 8143782109, "lat": 49.1549672, "lon": 15.0050598}, {"type": "node", "id": 8143782116, "lat": 49.1549517, "lon": 15.0049336}, {"type": "node", "id": 8143782140, "lat": 49.1550388, "lon": 15.0050556}, {"type": "node", "id": 8143782142, "lat": 49.1550875, "lon": 15.006125}, {"type": "node", "id": 8143782143, "lat": 49.1549506, "lon": 15.005065}, {"type": "node", "id": 8143782144, "lat": 49.1549577, "lon": 15.0051234}, {"type": "node", "id": 8151939588, "lat": 49.155244, "lon": 15.002946}, {"type": "node", "id": 8151939601, "lat": 49.155234, "lon": 15.0028658}, {"type": "node", "id": 8151939604, "lat": 49.1551745, "lon": 15.0026285}, {"type": "node", "id": 8151939605, "lat": 49.1552171, "lon": 15.0027305}, {"type": "node", "id": 8152351955, "lat": 49.1549806, "lon": 15.0032305}, {"type": "node", "id": 8155356844, "lat": 49.1551958, "lon": 15.004937}, {"type": "node", "id": 8946877699, "lat": 49.1548806, "lon": 15.003993, "tags": {"amenity": "bicycle_parking", "bicycle_parking": "rack", "capacity": "15", "covered": "no"}}, {"type": "node", "id": 9452930140, "lat": 49.261384, "lon": 15.2376185, "tags": {"amenity": "atm", "brand": "MONETA Money Bank", "brand:wikidata": "Q24282966", "brand:wikipedia": "cs:Moneta Money Bank", "currency:CZK": "yes", "name": "MONETA Money Bank", "operator": "MONETA Money Bank", "operator:wikidata": "Q24282966", "operator:wikipedia": "cs:Moneta Money Bank", "website": "https://www.moneta.cz/pobocky/pocatky-tyrsova-535-S1DS3104_2200"}}, {"type": "node", "id": 9883987541, "lat": 48.9528837, "lon": 15.0453728, "tags": {"amenity": "ferry_terminal", "ferry": "yes", "public_transport": "station"}}, {"type": "node", "id": 9883987542, "lat": 48.9543559, "lon": 15.0461589, "tags": {"amenity": "ferry_terminal", "cargo": "passengers", "ferry": "yes", "public_transport": "station"}}, {"type": "node", "id": 10266039713, "lat": 49.0839238, "lon": 15.437601}, {"type": "node", "id": 10266039714, "lat": 49.0841513, "lon": 15.4381657}, {"type": "node", "id": 10266039715, "lat": 49.0830771, "lon": 15.4382693}, {"type": "node", "id": 10266039716, "lat": 49.0829876, "lon": 15.437661}, {"type": "node", "id": 10733645752, "lat": 49.0836194, "lon": 15.4373483}, {"type": "node", "id": 11101477614, "lat": 49.155095, "lon": 15.0039115, "tags": {"name": "Jind\u0159ich\u016fv Hradec", "operator": "cz:S\u017dDC", "public_transport": "stop_position", "train": "yes"}}, {"type": "node", "id": 11101477617, "lat": 49.1551579, "lon": 15.0041996, "tags": {"ele": "470", "name": "Jind\u0159ich\u016fv Hradec", "operator": "cz:S\u017dDC", "public_transport": "station", "railway": "station", "railway:ref": "743625", "start_date": "1887-11-03", "wheelchair": "limited", "wikidata": "Q15886845", "wikipedia": "cs:Jind\u0159ich\u016fv Hradec (n\u00e1dra\u017e\u00ed)"}}, {"type": "node", "id": 11324055146, "lat": 49.083966, "lon": 15.4381256}, {"type": "node", "id": 11324055147, "lat": 49.0841668, "lon": 15.4382827}, {"type": "node", "id": 11324055148, "lat": 49.0840203, "lon": 15.4383096}, {"type": "node", "id": 11776332786, "lat": 49.0834449, "lon": 15.4384348}, {"type": "node", "id": 11780045299, "lat": 49.083177, "lon": 15.4383536}, {"type": "node", "id": 11780045300, "lat": 49.0836682, "lon": 15.4383659}, {"type": "node", "id": 11780045301, "lat": 49.0840798, "lon": 15.4375799}, {"type": "node", "id": 11780045302, "lat": 49.0838615, "lon": 15.4376885}, {"type": "node", "id": 11780045303, "lat": 49.0837706, "lon": 15.4377169}, {"type": "node", "id": 11780045304, "lat": 49.0836879, "lon": 15.4376851}, {"type": "node", "id": 11780045305, "lat": 49.0836584, "lon": 15.4376349}, {"type": "node", "id": 11780045306, "lat": 49.0832365, "lon": 15.4374812}, {"type": "node", "id": 11780045307, "lat": 49.0832081, "lon": 15.4374619}, {"type": "node", "id": 11780045308, "lat": 49.0829537, "lon": 15.4376048}, {"type": "node", "id": 11780045309, "lat": 49.0830773, "lon": 15.4375505}, {"type": "node", "id": 11780045310, "lat": 49.0831303, "lon": 15.4374927}, {"type": "node", "id": 11792018626, "lat": 49.012362, "lon": 15.4521845}, {"type": "node", "id": 11792018627, "lat": 49.0124088, "lon": 15.4523587}, {"type": "node", "id": 11792018628, "lat": 49.0123662, "lon": 15.4524128}, {"type": "node", "id": 11792018629, "lat": 49.0120135, "lon": 15.4524868}, {"type": "node", "id": 11792018630, "lat": 49.0120455, "lon": 15.452438}, {"type": "node", "id": 11792018631, "lat": 49.0122005, "lon": 15.4522955}, {"type": "node", "id": 11807280350, "lat": 49.1399359, "lon": 15.0912482, "tags": {"name": "Bla\u017eejov", "public_transport": "station", "railway": "station", "train": "yes"}}, {"type": "node", "id": 12079788095, "lat": 49.1548495, "lon": 15.0049064}, {"type": "node", "id": 12079788096, "lat": 49.1549038, "lon": 15.0049405}, {"type": "node", "id": 13201422612, "lat": 49.2615582, "lon": 15.2369889, "tags": {"crossing:island": "no", "highway": "crossing"}}, {"type": "way", "id": 25432628, "nodes": [277171057, 277171088, 277171062, 5163958658, 5163964286, 5163964287, 277171071, 5163964288, 5163958659, 277171070, 5163964289, 277171063, 5163964295, 5163964294, 277171064, 277171067, 277171100, 277171069, 277171057], "tags": {"amenity": "bus_station", "bus": "yes", "name": "Autobusov\u00e9 n\u00e1dra\u017e\u00ed Jind\u0159ich\u016fv Hradec", "public_transport": "station"}}, {"type": "way", "id": 48454506, "nodes": [4776728013, 5163965193, 8143781960, 615587697, 8143781959, 8143781958, 615587696, 8143781957, 5163965186, 615587699, 4776728012, 4776728011, 4776728010, 4776728009, 4776728013], "tags": {"building": "train_station", "building:flats": "2", "building:levels": "1", "building:ruian:type": "17", "ref:ruian:building": "14686660", "roof:shape": "gabled", "source": "cuzk:ruian"}}, {"type": "way", "id": 48454507, "nodes": [615587661, 615587693, 8143782094, 8143782095, 8143782096, 8143782097, 615587719, 12079788095, 12079788096, 615587748, 615587694, 5163532949, 5163534045, 615587662, 615587661], "tags": {"access": "yes", "amenity": "parking", "capacity": "22", "capacity:disabled": "2", "fee": "no", "name": "Parkovi\u0161t\u011b Jind\u0159ich\u016fv Hradec", "orientation": "perpendicular", "parking": "street_side", "surface": "sett"}}, {"type": "way", "id": 48454510, "nodes": [615587643, 8151939604, 615587644, 615587645, 615587642, 8151939605, 8151939601, 8151939588, 5667328950, 5667328949, 5667328948, 5667328947, 5667328946, 5667328945, 615587703, 615587702, 5667328944, 5667328943, 8143781997, 8143781999, 5667328942, 5667328941, 5667328940, 5667328939, 5667328938, 5667328937, 5667328936, 5667328935, 615587643], "tags": {"building": "transportation", "building:levels": "1", "building:ruian:type": "17", "ref:ruian:building": "41039823", "roof:shape": "gabled", "source": "cuzk:ruian"}}, {"type": "way", "id": 48454518, "nodes": [615587746, 5667328953, 5667328952, 615587745, 5667328951, 615587742, 615587746], "tags": {"building": "warehouse", "building:ruian:type": "17", "ref:ruian:building": "41039831", "source": "cuzk:ruian"}}, {"type": "way", "id": 50161192, "nodes": [637666508, 638581171, 638581168, 9452930140, 638581173, 637666512, 13201422612, 534830855, 637666519, 637666508], "tags": {"amenity": "bus_station", "area": "yes", "bus": "yes", "highway": "service", "name": "Po\u010d\u00e1tky, aut. n\u00e1dr.", "public_transport": "station", "source": "knowledge;uhul:ortofoto"}}, {"type": "way", "id": 144489812, "nodes": [1580529088, 1580528998, 1580529006, 1580529119, 1580529088], "tags": {"amenity": "bus_station", "building": "yes", "bus": "yes", "public_transport": "station", "source": "cuzk:km"}}, {"type": "way", "id": 231324310, "nodes": [2397157804, 2397157796, 2397157787, 2397157793, 2397157804], "tags": {"building": "transportation", "building:ruian:type": "17", "public_transport": "station", "ref:ruian:building": "43435831", "source": "cuzk:ruian"}}, {"type": "way", "id": 231324509, "nodes": [2397157569, 2397157560, 2397157575, 2397157583, 2397157569], "tags": {"building": "transportation", "building:ruian:type": "17", "public_transport": "station", "ref:ruian:building": "50408062", "source": "cuzk:ruian"}}, {"type": "way", "id": 406635976, "nodes": [1346255857, 4086869591, 4086869607, 4086869615, 4086869614, 4086869613, 6964133876, 4086869602, 1346255857], "tags": {"amenity": "bus_station", "bus": "yes", "name": "Slavonice", "public_transport": "station"}}, {"type": "way", "id": 532078009, "nodes": [5163967234, 5163967233, 5163967232, 5163967231, 8143782140, 8143782062, 8143782142, 8143782144, 8143782143, 8143782109, 8143782116, 8143781969, 8143782107, 5163967234], "tags": {"access": "yes", "amenity": "parking", "capacity": "38", "fee": "no", "name": "\u010cD parking", "parking": "surface", "surface": "sett"}}, {"type": "way", "id": 697936199, "nodes": [6554655929, 6554655928, 6554655927, 6554655926, 6554655929], "tags": {"amenity": "shelter", "building": "yes", "building:ruian:type": "15", "internet_access": "no", "public_transport": "station", "ref:ruian:building": "48398934", "shelter_type": "public_transport", "source": "cuzk:ruian"}}, {"type": "way", "id": 874865263, "nodes": [8143781953, 8143781973, 8143781954, 8143781955, 8143781961, 8143781956, 8143781953], "tags": {"building": "yes"}}, {"type": "way", "id": 874865264, "nodes": [8143781957, 8143782107, 8143781969, 615587699, 5163965186, 8143781957], "tags": {"landuse": "grass"}}, {"type": "way", "id": 874865265, "nodes": [8143781959, 8143781958, 8143781956, 8143781961, 8143781960, 615587697, 8143781959], "tags": {"amenity": "shelter", "bench": "yes", "bin": "yes", "building": "yes", "departures_board": "yes", "layer": "1", "lit": "yes", "shelter_type": "public_transport", "surface": "paving_stones"}}, {"type": "way", "id": 874865277, "nodes": [8143781973, 8143781954, 8143781972, 5183001780, 5183001779, 5183001782, 8143781989, 8143781990, 8143781991, 8143781971, 8143781970, 3156139073, 8143781978, 8143781977, 8143781976, 8143781975, 8143781974, 8143781973], "tags": {"leisure": "park"}}, {"type": "way", "id": 874865283, "nodes": [8143782001, 8143782002, 8152351955, 8143782003, 8143782004, 8143782045, 8143782016, 8143782005, 8143782050, 8143782058, 8155356844, 8143782006, 8143782007, 8143782008, 8143782009, 8143782010, 8143782011, 8143782012, 8143782013, 8143782014, 8143782015, 8143782001], "tags": {"area": "yes", "bench": "no", "bin": "no", "departures_board": "no", "lit": "yes", "operator": "Spr\u00e1va \u017eeleznic, s. o.", "public_transport": "platform", "railway": "platform", "shelter": "no", "surface": "concrete:plates", "tactile_paving": "no", "train": "yes"}}, {"type": "way", "id": 874865284, "nodes": [8143782020, 8143782021, 8143782022, 8143782023, 8143782024, 8143782025, 8143782026, 8143782027, 8143782028, 8143782044, 8143782020], "tags": {"area": "yes", "bench": "no", "bin": "no", "departures_board": "no", "lit": "yes", "operator": "Spr\u00e1va \u017eeleznic, s. o.", "public_transport": "platform", "railway": "platform", "shelter": "no", "surface": "concrete:plates", "tactile_paving": "no", "train": "yes"}}, {"type": "way", "id": 874865285, "nodes": [8143782030, 8143782031, 8143782032, 8143782033, 8143782034, 8143782035, 8143782036, 8143782059, 8143782037, 8143782038, 8143782039, 8143782040, 8143782041, 8143782042, 8143782043, 8143782030], "tags": {"area": "yes", "bench": "no", "bin": "no", "departures_board": "no", "lit": "yes", "operator": "Spr\u00e1va \u017eeleznic, s. o.", "public_transport": "platform", "railway": "platform", "shelter": "no", "surface": "concrete:plates", "tactile_paving": "no", "train": "yes"}}, {"type": "way", "id": 1122461739, "nodes": [10266039713, 11780045301, 10266039714, 11324055147, 11324055148, 11324055146, 11780045300, 11776332786, 11780045299, 10266039715, 10266039716, 11780045308, 11780045309, 11780045310, 11780045307, 11780045306, 10733645752, 11780045305, 11780045304, 11780045303, 11780045302, 10266039713], "tags": {"amenity": "bus_station", "bus": "yes", "name": "Da\u010dice, aut. n\u00e1dr.", "operator": "ICOM", "public_transport": "station"}}, {"type": "way", "id": 1269875861, "nodes": [11792018626, 11792018627, 11792018628, 11792018629, 11792018630, 11792018631, 11792018626], "tags": {"amenity": "bus_station", "bus": "yes", "public_transport": "station"}}, {"type": "relation", "id": 16178796, "members": [{"type": "way", "ref": 48454507, "role": ""}, {"type": "way", "ref": 48454518, "role": ""}, {"type": "way", "ref": 48454510, "role": ""}, {"type": "way", "ref": 874865277, "role": ""}, {"type": "node", "ref": 11101477617, "role": ""}, {"type": "node", "ref": 11101477614, "role": ""}, {"type": "way", "ref": 874865283, "role": ""}, {"type": "way", "ref": 874865284, "role": ""}, {"type": "way", "ref": 874865285, "role": ""}, {"type": "way", "ref": 48454506, "role": ""}, {"type": "way", "ref": 874865265, "role": ""}, {"type": "way", "ref": 874865263, "role": ""}, {"type": "node", "ref": 2421866843, "role": ""}, {"type": "way", "ref": 532078009, "role": ""}, {"type": "way", "ref": 874865264, "role": ""}, {"type": "node", "ref": 8946877699, "role": ""}], "tags": {"name": "Jind\u0159ich\u016fv Hradec", "operator": "cz:S\u017dDC", "public_transport": "station", "public_transport:version": "2", "railway": "station", "railway:ref": "743625", "start_date": "1887-11-03", "type": "public_transport", "wikidata": "Q15886845", "wikipedia": "cs:Jind\u0159ich\u016fv Hradec (n\u00e1dra\u017e\u00ed)"}}]}