{"version": 0.6, "generator": "Overpass API 0.7.62.8 e802775f", "osm3s": {"timestamp_osm_base": "2026-01-05T15:59:30Z", "copyright": "The data included in this document is from www.openstreetmap.org. The data is made available under ODbL."}, "elements": [{"type": "node", "id": 946080759, "lat": 50.0420109, "lon": 13.2894535, "tags": {"ele": "468", "hiking": "yes", "information": "guidepost", "name": "Rab\u0161tejn nad St\u0159elou (bus)", "operator": "cz:K\u010cT", "ref": "PS075", "short_name": "Rab\u0161tejn n. St\u0159. (bus)", "tourism": "information"}}, {"type": "node", "id": 946080768, "lat": 50.0404463, "lon": 13.287026, "tags": {"ele": "440", "hiking": "yes", "information": "guidepost", "name": "U \u017eidovsk\u00e9ho h\u0159bitova", "operator": "cz:K\u010cT", "ref": "PS263", "tourism": "information"}}, {"type": "node", "id": 946080783, "lat": 50.0583324, "lon": 13.3380312, "tags": {"ele": "598", "hiking": "yes", "information": "guidepost", "name": "Viklan", "operator": "cz:K\u010cT", "ref": "PS281", "tourism": "information"}}, {"type": "node", "id": 946080817, "lat": 50.0412227, "lon": 13.297737, "tags": {"ele": "410", "hiking": "yes", "information": "guidepost", "name": "Pod hrab\u011bc\u00edm k\u0159\u00ed\u017eem", "operator": "cz:K\u010cT", "ref": "PS262", "tourism": "information"}}, {"type": "node", "id": 946080822, "lat": 50.0447634, "lon": 13.2931783, "tags": {"ele": "439", "hiking": "yes", "information": "guidepost", "name": "Stavby lidov\u00e9 architektury", "operator": "cz:K\u010cT", "ref": "PS325", "tourism": "information"}}, {"type": "node", "id": 946080852, "lat": 50.0582895, "lon": 13.3560846, "tags": {"ele": "530", "hiking": "yes", "information": "guidepost", "name": "B\u00e1ba - \u017eulov\u00fd balvan", "operator": "cz:K\u010cT", "ref": "PS279", "tourism": "information"}}, {"type": "node", "id": 946080909, "lat": 50.0467278, "lon": 13.295581, "tags": {"ele": "416", "hiking": "yes", "information": "guidepost", "name": "Rab\u0161tejn nad St\u0159elou (most)", "operator": "cz:K\u010cT", "ref": "PS076", "short_name": "Rab\u0161tejn n. St\u0159. (most)", "tourism": "information"}}, {"type": "node", "id": 1705954400, "lat": 50.0160583, "lon": 13.3994493, "tags": {"ele": "524", "hiking": "yes", "information": "guidepost", "name": "Potvorov", "operator": "cz:K\u010cT", "ref": "PS092", "tourism": "information"}}, {"type": "node", "id": 1705954435, "lat": 50.0642372, "lon": 13.331896, "tags": {"ele": "584", "hiking": "yes", "information": "guidepost", "name": "Uhl\u00ed\u0159sk\u00e1 louka", "operator": "cz:K\u010cT", "ref": "PS078", "source": "survey", "tourism": "information"}}, {"type": "node", "id": 1705971300, "lat": 49.9949903, "lon": 13.3877066, "tags": {"ele": "420", "hiking": "yes", "information": "guidepost", "name": "\u0158eme\u0161\u00edn", "operator": "cz:K\u010cT", "ref": "PS091", "tourism": "information"}}, {"type": "node", "id": 1705971338, "lat": 49.9561452, "lon": 13.3926754, "tags": {"ele": "433", "hiking": "yes", "information": "guidepost", "name": "\u017debnice", "operator": "cz:K\u010cT", "ref": "PS089", "tourism": "information"}}, {"type": "node", "id": 1705971346, "lat": 50.0458705, "lon": 13.3628744, "tags": {"ele": "457", "hiking": "yes", "information": "guidepost", "name": "\u017dihle (vlak)", "official_name": "\u017dihle (\u017dST)", "operator": "cz:K\u010cT", "ref": "PS099", "tourism": "information"}}, {"type": "node", "id": 2020712907, "lat": 50.0770371, "lon": 13.3391001, "tags": {"ele": "590", "hiking": "yes", "information": "guidepost", "name": "Ra\u0161tick\u00e1 louka - jih (rozc.)", "operator": "cz:K\u010cT", "ref": "PS148", "tourism": "information"}}, {"type": "node", "id": 2020712913, "lat": 50.0709166, "lon": 13.3339014, "tags": {"ele": "556", "hiking": "yes", "information": "guidepost", "name": "Skl\u00e1rna (mysl.)", "operator": "cz:K\u010cT", "ref": "PS079", "short_name": "Skl\u00e1rna (mysl.)", "tourism": "information"}}, {"type": "node", "id": 2020712920, "lat": 50.0867362, "lon": 13.3484065, "tags": {"ele": "586", "hiking": "yes", "information": "guidepost", "name": "Tis u Blatna", "operator": "cz:K\u010cT", "ref": "PS080", "tourism": "information"}}, {"type": "node", "id": 2020721775, "lat": 50.0941975, "lon": 13.3513133, "tags": {"description": "sloup rozcestn\u00edku bez tabul\u00ed, jen s p\u00e1sov\u00fdm zna\u010den\u00edm", "disused:information": "guidepost", "hiking": "yes", "information": "route_marker", "old_name": "V luk\u00e1ch", "old_ref": "PS045", "operator": "cz:K\u010cT", "osmc:symbol": "yellow:white:yellow_bar", "tourism": "information"}}, {"type": "node", "id": 2022179537, "lat": 50.0993862, "lon": 13.389793, "tags": {"hiking": "yes", "information": "guidepost", "name": "Blatno (\u017est)", "operator": "cz:K\u010cT", "ref": "RA191", "tourism": "information"}}, {"type": "node", "id": 2022180025, "lat": 50.0993007, "lon": 13.390048, "tags": {"information": "map", "map_size": "region", "map_type": "topo", "name": "St\u0159ela a horn\u00ed Berounka", "operator": "cz:K\u010cT", "tourism": "information"}}, {"type": "node", "id": 2029624043, "lat": 49.9908958, "lon": 13.2318901}, {"type": "node", "id": 2029624086, "lat": 49.9909215, "lon": 13.232008}, {"type": "node", "id": 2029624389, "lat": 49.9912421, "lon": 13.2320586}, {"type": "node", "id": 2029624418, "lat": 49.991258, "lon": 13.2318293}, {"type": "node", "id": 2029624428, "lat": 49.9912605, "lon": 13.2321597}, {"type": "node", "id": 2029624438, "lat": 49.9912688, "lon": 13.2313401}, {"type": "node", "id": 2029624458, "lat": 49.9912729, "lon": 13.2319927}, {"type": "node", "id": 2029624460, "lat": 49.9912917, "lon": 13.2316007}, {"type": "node", "id": 2029624474, "lat": 49.9912818, "lon": 13.2320354}, {"type": "node", "id": 2029624476, "lat": 49.9912849, "lon": 13.2322428}, {"type": "node", "id": 2029624487, "lat": 49.9912923, "lon": 13.2319824}, {"type": "node", "id": 2029624493, "lat": 49.991298, "lon": 13.2312954}, {"type": "node", "id": 2029624508, "lat": 49.9913056, "lon": 13.2313553}, {"type": "node", "id": 2029624515, "lat": 49.991307, "lon": 13.2315124}, {"type": "node", "id": 2029624520, "lat": 49.9913076, "lon": 13.2316769}, {"type": "node", "id": 2029624528, "lat": 49.9913191, "lon": 13.2313343}, {"type": "node", "id": 2029624541, "lat": 49.9913237, "lon": 13.2315839}, {"type": "node", "id": 2029624563, "lat": 49.9913401, "lon": 13.231509}, {"type": "node", "id": 2029624600, "lat": 49.9913546, "lon": 13.2323935}, {"type": "node", "id": 2029624638, "lat": 49.9913675, "lon": 13.2311893}, {"type": "node", "id": 2029624799, "lat": 49.9914305, "lon": 13.2320736}, {"type": "node", "id": 2029624811, "lat": 49.9914332, "lon": 13.2320715}, {"type": "node", "id": 2029624826, "lat": 49.9914444, "lon": 13.2325147}, {"type": "node", "id": 2029624868, "lat": 49.9914662, "lon": 13.2325121}, {"type": "node", "id": 2029624900, "lat": 49.9914827, "lon": 13.2325218}, {"type": "node", "id": 2029624931, "lat": 49.9914873, "lon": 13.2329151}, {"type": "node", "id": 2029624966, "lat": 49.9915012, "lon": 13.2327323}, {"type": "node", "id": 2029624991, "lat": 49.9915133, "lon": 13.2330081}, {"type": "node", "id": 2029625001, "lat": 49.9915182, "lon": 13.2327124}, {"type": "node", "id": 2029625031, "lat": 49.99154, "lon": 13.2328812}, {"type": "node", "id": 2029625033, "lat": 49.9915396, "lon": 13.2329887}, {"type": "node", "id": 2029625116, "lat": 49.9915897, "lon": 13.233218}, {"type": "node", "id": 2029625129, "lat": 49.991598, "lon": 13.2332128}, {"type": "node", "id": 2029625136, "lat": 49.9915991, "lon": 13.2332543}, {"type": "node", "id": 2029625188, "lat": 49.991626, "lon": 13.2332197}, {"type": "node", "id": 2029625193, "lat": 49.9916298, "lon": 13.2332332}, {"type": "node", "id": 2029625283, "lat": 49.9917099, "lon": 13.233162}, {"type": "node", "id": 2033272758, "lat": 49.9915262, "lon": 13.2326844}, {"type": "node", "id": 2043110110, "lat": 50.0357392, "lon": 13.2877594, "tags": {"hiking": "yes", "information": "guidepost", "name": "Hor\u016fv ml\u00fdn", "operator": "cz:K\u010cT", "ref": "PS245", "tourism": "information"}}, {"type": "node", "id": 2043110144, "lat": 50.0297554, "lon": 13.2974208, "tags": {"information": "board", "name": "Vodn\u00ed hamr na St\u0159ele", "tourism": "information"}}, {"type": "node", "id": 2043111570, "lat": 50.0418356, "lon": 13.2893657, "tags": {"information": "board", "tourism": "information"}}, {"type": "node", "id": 2043111576, "lat": 50.0418462, "lon": 13.2893271, "tags": {"information": "map", "tourism": "information"}}, {"type": "node", "id": 2043111676, "lat": 50.0447245, "lon": 13.2930995, "tags": {"board_type": "history", "information": "board", "name": "lidov\u00e1 architektura", "ref": "4", "tourism": "information"}}, {"type": "node", "id": 2043111679, "lat": 50.0458181, "lon": 13.2945872, "tags": {"information": "board", "tourism": "information"}}, {"type": "node", "id": 2082383249, "lat": 50.0553491, "lon": 13.3565912, "tags": {"ele": "532", "hiking": "yes", "information": "guidepost", "name": "D\u011bdek - \u017eulov\u00fd balvan", "operator": "cz:K\u010cT", "ref": "PS278", "source": "survey", "tourism": "information"}}, {"type": "node", "id": 2082383255, "lat": 50.0610149, "lon": 13.3422508, "tags": {"ele": "575", "hiking": "yes", "information": "guidepost", "name": "H\u0159ib (\u017eulov\u00e9 balvany)", "operator": "cz:K\u010cT", "ref": "PS282", "tourism": "information"}}, {"type": "node", "id": 2082383288, "lat": 50.0558454, "lon": 13.3415806, "tags": {"bicycle": "yes", "hiking": "yes", "information": "map", "map_type": "topo", "source": "survey", "tourism": "information"}}, {"type": "node", "id": 2125485128, "lat": 49.9756938, "lon": 13.2603869}, {"type": "node", "id": 2125485129, "lat": 49.9756955, "lon": 13.2603391}, {"type": "node", "id": 2125485132, "lat": 49.975717, "lon": 13.2603889}, {"type": "node", "id": 2125485133, "lat": 49.9757187, "lon": 13.2603411}, {"type": "node", "id": 2167027662, "lat": 50.0517858, "lon": 13.29003, "tags": {"ele": "422", "fixme": "what is the exact position of this?", "hiking": "yes", "information": "guidepost", "name": "St\u0159ela (turistick\u00e1 l\u00e1vka)", "official_name": "St\u0159ela (tur. l\u00e1vka)", "operator": "cz:K\u010cT", "ref": "PS253", "tourism": "information"}}, {"type": "node", "id": 2202410996, "lat": 49.9976491, "lon": 13.3070174, "tags": {"information": "board", "name": "\u00dadol\u00ed St\u0159ely", "tourism": "information"}}, {"type": "node", "id": 2202411002, "lat": 50.0183691, "lon": 13.3017297, "tags": {"information": "board", "tourism": "information"}}, {"type": "node", "id": 2394225055, "lat": 50.043483, "lon": 13.2922534, "tags": {"information": "office", "name": "Info Caf\u00e9 \u010cetnick\u00e1 stanice", "opening_hours": "Tu-Su 10:00-17:00", "tourism": "information"}}, {"type": "node", "id": 2394253991, "lat": 50.0367945, "lon": 13.2814314, "tags": {"board_type": "notice", "information": "board", "name": "l\u00e1vka p\u0159es \u0159eku St\u0159elu na Rab\u0161tejn\u011b", "ref": "11", "source": "survey", "tourism": "information"}}, {"type": "node", "id": 2394254000, "lat": 50.0381143, "lon": 13.2825766, "tags": {"amenity": "shelter", "shelter_type": "picnic_shelter"}}, {"type": "node", "id": 2394280540, "lat": 50.0401342, "lon": 13.286863, "tags": {"information": "board", "ref": "12", "tourism": "information"}}, {"type": "node", "id": 2394323582, "lat": 50.0414613, "lon": 13.2914765, "tags": {"board_type": "nature", "information": "board", "name": "Str\u00e1n\u011b teplomiln\u00e9 vegetace", "ref": "13", "tourism": "information"}}, {"type": "node", "id": 2394323590, "lat": 50.0415346, "lon": 13.292773, "tags": {"board_type": "history", "information": "board", "name": "Lomy na b\u0159idlici", "ref": "14", "tourism": "information"}}, {"type": "node", "id": 2395290695, "lat": 50.0746342, "lon": 13.2070021, "tags": {"information": "board", "name": "Nau\u010dn\u00e1 stezka Vlada\u0159", "tourism": "information"}}, {"type": "node", "id": 2395290699, "lat": 50.0752628, "lon": 13.2046009, "tags": {"amenity": "shelter", "shelter_type": "picnic_shelter"}}, {"type": "node", "id": 2609883397, "lat": 49.9561983, "lon": 13.3924091, "tags": {"information": "map", "source": "survey", "tourism": "information"}}, {"type": "node", "id": 2659640563, "lat": 50.0593303, "lon": 13.3137622, "tags": {"ele": "555", "hiking": "yes", "information": "guidepost", "name": "\u010cern\u00fd rybn\u00edk", "operator": "cz:K\u010cT", "ref": "PS077", "source": "survey", "tourism": "information"}}, {"type": "node", "id": 2847607710, "lat": 49.972321, "lon": 13.3457821, "tags": {"ele": "360", "hiking": "yes", "information": "guidepost", "name": "Mladotice - zast\u00e1vka (vlak)", "official_name": "Mladotice - zast. (\u017dST)", "operator": "cz:K\u010cT", "ref": "PS134", "tourism": "information"}}, {"type": "node", "id": 2847607711, "lat": 49.9730036, "lon": 13.3904862, "tags": {"ele": "390", "hiking": "yes", "information": "guidepost", "name": "U \u0160eb\u00edkova", "operator": "cz:K\u010cT", "ref": "PS090", "tourism": "information"}}, {"type": "node", "id": 2924033161, "lat": 49.9997037, "lon": 13.2321274, "tags": {"name": "Chlumsk\u00e1 hora", "tourism": "viewpoint"}}, {"type": "node", "id": 2924033162, "lat": 49.9830977, "lon": 13.2261038, "tags": {"ele": "486", "hiking": "yes", "information": "guidepost", "name": "Vomastk\u016fv vrch", "operator": "cz:K\u010cT", "ref": "PS256", "tourism": "information"}}, {"type": "node", "id": 2924034250, "lat": 49.9917939, "lon": 13.2310588, "tags": {"information": "office", "tourism": "information"}}, {"type": "node", "id": 2946361424, "lat": 50.0183776, "lon": 13.3017041, "tags": {"ele": "380", "hiking": "yes", "information": "guidepost", "name": "Kozi\u010dk\u016fv ml\u00fdn", "operator": "cz:K\u010cT", "ref": "PS243", "tourism": "information"}}, {"type": "node", "id": 2946361425, "lat": 49.9911328, "lon": 13.3295422, "tags": {"ele": "435", "hiking": "yes", "information": "guidepost", "name": "Str\u00e1\u017ei\u0161t\u011b", "operator": "cz:K\u010cT", "ref": "3637/12", "tourism": "information"}}, {"type": "node", "id": 2946361779, "lat": 50.0034099, "lon": 13.3131767, "tags": {"ele": "427", "hiking": "yes", "information": "guidepost", "name": "\u010cern\u00e1 Ha\u0165", "operator": "cz:K\u010cT", "ref": "PS242", "tourism": "information"}}, {"type": "node", "id": 2946361780, "lat": 49.9977561, "lon": 13.3078564, "tags": {"ele": "364", "hiking": "yes", "information": "guidepost", "name": "\u010coub\u016fv ml\u00fdn", "operator": "cz:K\u010cT", "ref": "PS241", "tourism": "information"}}, {"type": "node", "id": 2946414046, "lat": 50.0390091, "lon": 13.2847264, "tags": {"ele": "411", "hiking": "yes", "information": "guidepost", "name": "Rab\u0161tejn nad St\u0159elou (\u00fadol\u00ed)", "operator": "cz:K\u010cT", "ref": "PS103", "short_name": "Rab\u0161tejn n. St\u0159. (\u00fadol\u00ed)", "tourism": "information"}}, {"type": "node", "id": 2949115036, "lat": 49.9811901, "lon": 13.2177168, "tags": {"ele": "504", "hiking": "yes", "information": "guidepost", "name": "V Obc\u00edch", "operator": "cz:K\u010cT", "ref": "PS257", "tourism": "information"}}, {"type": "node", "id": 3107903523, "lat": 50.0800704, "lon": 13.2157389, "tags": {"ele": "693.2", "name": "Vlada\u0159", "natural": "peak", "wikidata": "Q1591405", "wikipedia": "cs:Vlada\u0159 (Tepelsk\u00e1 vrchovina)"}}, {"type": "node", "id": 3310970254, "lat": 50.0885648, "lon": 13.3197564, "tags": {"ele": "570", "hiking": "yes", "horse": "yes", "information": "guidepost", "name": "Kra\u010d\u00edn", "operator": "cz:K\u010cT", "ref": "PS250", "tourism": "information"}}, {"type": "node", "id": 3315764716, "lat": 50.0709717, "lon": 13.3339826}, {"type": "node", "id": 3315764717, "lat": 50.0710686, "lon": 13.3341569}, {"type": "node", "id": 3315764718, "lat": 50.0713844, "lon": 13.333383}, {"type": "node", "id": 3315764719, "lat": 50.0714221, "lon": 13.3336747}, {"type": "node", "id": 3668207839, "lat": 50.000551, "lon": 13.2320129, "tags": {"ele": "596", "hiking": "yes", "information": "guidepost", "name": "Chlumsk\u00e1 hora (odb.)", "operator": "cz:K\u010cT", "ref": "PS215", "tourism": "information"}}, {"type": "node", "id": 3668207840, "lat": 49.991505, "lon": 13.2316139, "tags": {"bicycle": "no", "ele": "413", "hiking": "yes", "information": "guidepost", "name": "Man\u011bt\u00edn (z\u00e1mek)", "official_name": "Man\u011bt\u00edn (z\u00e1m.)", "operator": "cz:K\u010cT", "ref": "PS130", "tourism": "information"}}, {"type": "node", "id": 3668207891, "lat": 50.0004823, "lon": 13.2319496, "tags": {"amenity": "shelter", "shelter_type": "picnic_shelter"}}, {"type": "node", "id": 3668257560, "lat": 50.0183246, "lon": 13.2044505, "tags": {"ele": "545", "hiking": "yes", "information": "guidepost", "name": "Chlum", "operator": "cz:K\u010cT", "ref": "PS216", "tourism": "information"}}, {"type": "node", "id": 3668257561, "lat": 49.9997636, "lon": 13.232095, "tags": {"ele": "610", "hiking": "yes", "information": "guidepost", "name": "Chlumsk\u00e1 hora (vyhl.)", "operator": "cz:K\u010cT", "ref": "PS354", "tourism": "information"}}, {"type": "node", "id": 3668257562, "lat": 50.0054786, "lon": 13.2052806, "tags": {"name": "Chlumsk\u00e1 hora", "tourism": "viewpoint"}}, {"type": "node", "id": 3668257587, "lat": 50.0057396, "lon": 13.2158129, "tags": {"amenity": "shelter"}}, {"type": "node", "id": 3668258136, "lat": 50.0162642, "lon": 13.2040931, "tags": {"amenity": "shelter", "shelter_type": "picnic_shelter"}}, {"type": "node", "id": 3668262572, "lat": 50.0118106, "lon": 13.2145614, "tags": {"amenity": "shelter", "shelter_type": "picnic_shelter"}}, {"type": "node", "id": 3732171127, "lat": 49.9681766, "lon": 13.2251025, "tags": {"ele": "485", "hiking": "yes", "information": "guidepost", "name": "Lip\u00ed", "operator": "cz:K\u010cT", "ref": "PS214", "tourism": "information"}}, {"type": "node", "id": 3732294756, "lat": 49.9632674, "lon": 13.2302602, "tags": {"ele": "462", "hiking": "yes", "information": "guidepost", "name": "H\u00e1jovna Lip\u00ed", "operator": "cz:K\u010cT", "ref": "PS345", "tourism": "information"}}, {"type": "node", "id": 3732294757, "lat": 49.954559, "lon": 13.2187813, "tags": {"ele": "598", "hiking": "yes", "information": "guidepost", "name": "Na Kamenici", "operator": "cz:K\u010cT", "ref": "PS347", "tourism": "information"}}, {"type": "node", "id": 3940863646, "lat": 49.9938197, "lon": 13.2932513, "tags": {"ele": "372", "hiking": "yes", "information": "guidepost", "name": "Frant\u016fv ml\u00fdn", "operator": "cz:K\u010cT", "ref": "PS131", "tourism": "information"}}, {"type": "node", "id": 4124862000, "lat": 49.9940522, "lon": 13.2493457, "tags": {"ele": "398", "hiking": "yes", "information": "guidepost", "name": "Vur\u0161\u016fv ml\u00fdn", "operator": "cz:K\u010cT", "ref": "PS107", "tourism": "information"}}, {"type": "node", "id": 4124881560, "lat": 50.0029391, "lon": 13.2620587, "tags": {"hiking": "yes", "information": "guidepost", "name": "Brdo", "operator": "cz:K\u010cT", "ref": "PS106", "tourism": "information"}}, {"type": "node", "id": 4126447561, "lat": 50.0415122, "lon": 13.2973505, "tags": {"board_type": "nature", "information": "board", "name": "Lesy", "ref": "7", "tourism": "information"}}, {"type": "node", "id": 4126449023, "lat": 50.0466696, "lon": 13.2955912, "tags": {"board_type": "plants", "check_date": "2021-09-25", "information": "board", "ref": "6", "tourism": "information"}}, {"type": "node", "id": 4126465671, "lat": 50.0398989, "lon": 13.2961734, "tags": {"board_type": "notice", "check_date": "2021-09-25", "information": "board", "ref": "8", "tourism": "information"}}, {"type": "node", "id": 4126465672, "lat": 50.0399504, "lon": 13.2961781, "tags": {"ele": "484", "hiking": "yes", "information": "guidepost", "name": "Skaln\u00ed vyhl\u00eddka u K\u0159\u00ed\u017ee", "operator": "cz:K\u010cT", "ref": "328", "tourism": "information"}}, {"type": "node", "id": 4126709126, "lat": 50.0357384, "lon": 13.2878418, "tags": {"board_type": "history", "information": "board", "name": "Ml\u00fdny na S\u0159ele u Rab\u0161tejna", "ref": "10", "tourism": "information"}}, {"type": "node", "id": 4126709127, "lat": 50.0379685, "lon": 13.2896322, "tags": {"board_type": "history", "information": "board", "name": "Opevn\u011bn\u00ed z\u00a0let 1936-1938", "ref": "9", "tourism": "information"}}, {"type": "node", "id": 4172793521, "lat": 50.0928296, "lon": 13.37157, "tags": {"ele": "545", "hiking": "yes", "information": "guidepost", "name": "Blatensk\u00fd svah", "operator": "cz:K\u010cT", "ref": "PS081", "tourism": "information"}}, {"type": "node", "id": 4172793522, "lat": 50.0818927, "lon": 13.3438506, "tags": {"ele": "590", "hiking": "yes", "information": "guidepost", "name": "Ra\u0161tick\u00e1 louka - sever", "operator": "cz:K\u010cT", "ref": "PS237", "tourism": "information"}}, {"type": "node", "id": 4172793712, "lat": 50.0985108, "lon": 13.3699034, "tags": {"natural": "rock", "tourism": "viewpoint"}}, {"type": "node", "id": 4173537761, "lat": 50.0708801, "lon": 13.3339019, "tags": {"information": "board", "ref": "1", "tourism": "information"}}, {"type": "node", "id": 4173537764, "lat": 50.0709548, "lon": 13.3338957}, {"type": "node", "id": 4173537765, "lat": 50.0710441, "lon": 13.3337598}, {"type": "node", "id": 4173537773, "lat": 50.071332, "lon": 13.3333249}, {"type": "node", "id": 4173537775, "lat": 50.0713861, "lon": 13.3335259}, {"type": "node", "id": 4173556841, "lat": 50.0709591, "lon": 13.3338442}, {"type": "node", "id": 4173556842, "lat": 50.0709905, "lon": 13.333794}, {"type": "node", "id": 4173556843, "lat": 50.0710163, "lon": 13.3337987}, {"type": "node", "id": 4272161938, "lat": 49.974053, "lon": 13.3416853, "tags": {"ele": "355", "hiking": "yes", "information": "guidepost", "name": "Mladotice (rozc.)", "operator": "cz:K\u010cT", "ref": "PS133", "tourism": "information"}}, {"type": "node", "id": 4272161940, "lat": 49.9928779, "lon": 13.3156011, "tags": {"hiking": "yes", "information": "guidepost", "name": "Pod Martinem", "operator": "local", "ref": "none", "tourism": "information"}}, {"type": "node", "id": 4272161941, "lat": 49.9723431, "lon": 13.3458052, "tags": {"hiking": "yes", "information": "map", "map_size": "region", "map_type": "topo", "name": "St\u0159ela horn\u00ed Berounka", "operator": "cz:K\u010cT", "tourism": "information"}}, {"type": "node", "id": 4272161942, "lat": 49.9784974, "lon": 13.3398811, "tags": {"hiking": "yes", "information": "guidepost", "name": "Mladotice", "operator": "local", "ref": "none", "tourism": "information"}}, {"type": "node", "id": 4272161943, "lat": 49.9915118, "lon": 13.23165, "tags": {"bicycle": "yes", "information": "guidepost", "name": "Man\u011bt\u00edn (z\u00e1mek)", "official_name": "Man\u011bt\u00edn (z\u00e1m.)", "operator": "cz:K\u010cT", "ref": "none", "tourism": "information"}}, {"type": "node", "id": 4286032054, "lat": 50.086879, "lon": 13.2087455, "tags": {"amenity": "shelter", "shelter_type": "weather_shelter"}}, {"type": "node", "id": 4337118228, "lat": 49.9566848, "lon": 13.2991091, "tags": {"ele": "434", "hiking": "yes", "information": "guidepost", "name": "Osojensk\u00fd potok", "operator": "cz:K\u010cT", "ref": "PS269", "tourism": "information"}}, {"type": "node", "id": 4337133990, "lat": 49.955318, "lon": 13.2443333, "tags": {"ele": "500", "hiking": "yes", "information": "guidepost", "name": "Rad\u011bjov", "operator": "cz:K\u010cT", "ref": "PS346", "tourism": "information"}}, {"type": "node", "id": 4337170418, "lat": 49.9708567, "lon": 13.2282604, "tags": {"ele": "485", "hiking": "yes", "information": "guidepost", "name": "Lip\u00ed rozcest\u00ed", "operator": "cz:K\u010cT", "ref": "PS349", "tourism": "information"}}, {"type": "node", "id": 4363336862, "lat": 49.9875746, "lon": 13.2464154, "tags": {"natural": "peak"}}, {"type": "node", "id": 4371511191, "lat": 50.0133087, "lon": 13.3744344, "tags": {"ele": "423", "hiking": "yes", "information": "guidepost", "name": "Odlezelsk\u00e9 jezero (odbo\u010dka)", "official_name": "Odlezelsk\u00e9 jezero (odb.)", "operator": "cz:K\u010cT", "ref": "PS094", "tourism": "information"}}, {"type": "node", "id": 4371511193, "lat": 50.028778, "lon": 13.3789175, "tags": {"ele": "430", "hiking": "yes", "information": "guidepost", "name": "P\u0159eho\u0159ov", "operator": "cz:K\u010cT", "ref": "PS095", "tourism": "information"}}, {"type": "node", "id": 4371760457, "lat": 50.0752526, "lon": 13.2399727, "tags": {"bicycle": "yes", "ele": "556", "hiking": "yes", "information": "guidepost", "inscription": "Chov kon\u00ed", "name": "Bohuslav", "operator": "cz:K\u010cT", "ref": "KV044", "tourism": "information"}}, {"type": "node", "id": 4371760466, "lat": 50.0719231, "lon": 13.2551909, "tags": {"ele": "572", "hiking": "yes", "information": "guidepost", "inscription": "Prvn\u00ed p\u00edsemn\u00e1 zm\u00ednka o vsi v roce 1474. Dnes p\u0159ev\u00e1\u017en\u011b rekrea\u010dn\u00ed obec.", "name": "Radot\u00edn", "operator": "cz:K\u010cT", "ref": "KV045", "tourism": "information"}}, {"type": "node", "id": 4371760468, "lat": 50.0733586, "lon": 13.2169426, "tags": {"ele": "556", "hiking": "yes", "information": "guidepost", "name": "U Stud\u00e1nky", "operator": "cz:K\u010cT", "ref": "KV302", "tourism": "information"}}, {"type": "node", "id": 4371760469, "lat": 50.078892, "lon": 13.204558, "tags": {"ele": "592", "hiking": "yes", "information": "guidepost", "name": "Vlada\u0159 (vyhl\u00eddka, odbo\u010dka)", "operator": "cz:K\u010cT", "ref": "KV042", "short_name": "Vlada\u0159 (vyhl., odb.)", "tourism": "information"}}, {"type": "node", "id": 4371760470, "lat": 50.0733612, "lon": 13.2105684, "tags": {"ele": "548", "hiking": "yes", "information": "guidepost", "name": "Vlado\u0159ice", "operator": "cz:K\u010cT", "ref": "KV043", "tourism": "information"}}, {"type": "node", "id": 4392214907, "lat": 50.0001627, "lon": 13.2921675, "tags": {"ele": "486", "natural": "peak", "source": "\u010c\u00daZK"}}, {"type": "node", "id": 4392214925, "lat": 49.9992596, "lon": 13.292331, "tags": {"ele": "490", "name": "V\u00fdrovec", "natural": "peak", "source": "\u010c\u00daZK"}}, {"type": "node", "id": 4510278641, "lat": 50.0973881, "lon": 13.3878395, "tags": {"check_date": "2025-05-08", "hiking": "yes", "information": "route_marker", "note": "rozcestn\u00edk nenalezen", "old_name": "Blatno", "old_ref": "RA165", "operator": "cz:K\u010cT", "removed:information": "guidepost", "tourism": "information"}}, {"type": "node", "id": 4578732744, "lat": 50.1013617, "lon": 13.2663777, "tags": {"ele": "541", "hiking": "yes", "information": "guidepost", "name": "Vyhl\u00eddka", "operator": "cz:K\u010cT", "ref": "PS165;6716/8", "tourism": "information"}}, {"type": "node", "id": 4578732789, "lat": 50.0911016, "lon": 13.232142, "tags": {"ele": "465", "hiking": "yes", "information": "guidepost", "name": "Ml\u00fdnce (h\u0159eb\u010d\u00edn)", "operator": "cz:K\u010cT", "ref": "KV242;6716/3", "tourism": "information"}}, {"type": "node", "id": 4578821218, "lat": 50.0773385, "lon": 13.3168787, "tags": {"ele": "542", "hiking": "yes", "information": "guidepost", "name": "Balkovsk\u00fd potok", "operator": "cz:K\u010cT", "ref": "PS251", "tourism": "information"}}, {"type": "node", "id": 4578821219, "lat": 50.068225, "lon": 13.2831473, "tags": {"ele": "432", "hiking": "yes", "information": "guidepost", "name": "Jablonn\u00e1", "operator": "cz:K\u010cT", "ref": "PS252", "tourism": "information"}}, {"type": "node", "id": 4711561170, "lat": 49.9920244, "lon": 13.2330578, "tags": {"hiking": "yes", "information": "guidepost", "name": "Man\u011bt\u00edn", "operator": "cz:K\u010cT", "ref": "PS130", "tourism": "information"}}, {"type": "node", "id": 4908605783, "lat": 50.0511443, "lon": 13.328856, "tags": {"ele": "574", "hiking": "yes", "information": "guidepost", "name": "U Nov\u00e9ho Dvora", "operator": "cz:K\u010cT", "ref": "PS101", "source": "surwey;gps", "tourism": "information"}}, {"type": "node", "id": 4919026419, "lat": 49.9541331, "lon": 13.3582039, "tags": {"ele": "338", "hiking": "yes", "information": "guidepost", "name": "Nad Tunelem", "operator": "cz:K\u010cT", "ref": "PS239", "tourism": "information"}}, {"type": "node", "id": 4919450001, "lat": 49.9852031, "lon": 13.3009436, "tags": {"ele": "473", "hiking": "yes", "information": "guidepost", "name": "V Hlavi\u010dk\u00e1ch", "operator": "cz:K\u010cT", "ref": "PS132", "tourism": "information"}}, {"type": "node", "id": 5052018715, "lat": 50.0079672, "lon": 13.205043, "tags": {"ele": "652", "name": "Chlumsk\u00e1 hora", "natural": "peak", "wikidata": "Q21874934"}}, {"type": "node", "id": 5072896075, "lat": 49.970273, "lon": 13.216889, "tags": {"ele": "532", "name": "Kn\u011b\u017e\u00ed hora", "natural": "peak"}}, {"type": "node", "id": 5072924937, "lat": 49.9607274, "lon": 13.2810474, "tags": {"ele": "532", "name": "H\u016frka", "natural": "peak"}}, {"type": "node", "id": 5072925852, "lat": 49.97007, "lon": 13.2847022, "tags": {"ele": "532", "name": "H\u016frky", "natural": "peak"}}, {"type": "node", "id": 5074168739, "lat": 49.9559786, "lon": 13.3815374, "tags": {"ele": "481", "name": "Na H\u016frce", "natural": "peak"}}, {"type": "node", "id": 5095120080, "lat": 49.9918928, "lon": 13.3298519, "tags": {"ele": "435", "hiking": "yes", "information": "guidepost", "name": "Str\u00e1\u017ei\u0161t\u011b", "operator": "cz:K\u010cT", "ref": "PS240", "tourism": "information"}}, {"type": "node", "id": 5095177399, "lat": 50.0436443, "lon": 13.3685161, "tags": {"ele": "444", "hiking": "yes", "information": "guidepost", "inscription": "Pam\u00e1tn\u00edk ob\u011bt\u00ed pochodu smrti. 273 ob\u011bt\u00ed z dubna 1945", "name": "\u017dihle (pam\u00e1tn\u00edk ob\u011bt\u00ed)", "official_name": "\u017dihle (pam. ob\u011bt\u00ed)", "operator": "cz:K\u010cT", "ref": "PS098", "tourism": "information"}}, {"type": "node", "id": 5095177824, "lat": 50.0449287, "lon": 13.3700876, "tags": {"ele": "444", "hiking": "yes", "information": "guidepost", "name": "\u017dihle (odbo\u010dka k\u00a0pam\u00e1tn\u00edku)", "official_name": "\u017dihle (odb. k\u00a0pam.)", "operator": "cz:K\u010cT", "ref": "PS097", "tourism": "information"}}, {"type": "node", "id": 5216254558, "lat": 50.0994021, "lon": 13.343896, "tags": {"ele": "585", "hiking": "yes", "information": "guidepost", "name": "U Kapli\u010dky sv. Jilj\u00ed", "operator": "cz:K\u010cT", "ref": "LN124", "tourism": "information"}}, {"type": "node", "id": 5222878397, "lat": 49.9679438, "lon": 13.3371878, "tags": {"ele": "426", "hiking": "yes", "information": "guidepost", "name": "Ond\u0159ejov", "operator": "cz:K\u010cT", "ref": "PS270", "tourism": "information"}}, {"type": "node", "id": 5222878398, "lat": 49.9679921, "lon": 13.3372575, "tags": {"bicycle": "yes", "hiking": "yes", "information": "map", "map_size": "region", "map_type": "topo", "tourism": "information"}}, {"type": "node", "id": 5277484011, "lat": 49.991683, "lon": 13.2330581}, {"type": "node", "id": 5277484012, "lat": 49.9916188, "lon": 13.2328331}, {"type": "node", "id": 5277484013, "lat": 49.9915656, "lon": 13.2326209}, {"type": "node", "id": 5277484014, "lat": 49.9915681, "lon": 13.2326181}, {"type": "node", "id": 5277484015, "lat": 49.9915437, "lon": 13.2325252}, {"type": "node", "id": 5277484016, "lat": 49.9915407, "lon": 13.2325256}, {"type": "node", "id": 5277484017, "lat": 49.9914896, "lon": 13.2323349}, {"type": "node", "id": 5277484018, "lat": 49.9914136, "lon": 13.2319784}, {"type": "node", "id": 5277484019, "lat": 49.9914109, "lon": 13.2319793}, {"type": "node", "id": 5277484020, "lat": 49.9913831, "lon": 13.2318453}, {"type": "node", "id": 5277484022, "lat": 49.9913722, "lon": 13.2312521}, {"type": "node", "id": 5277484023, "lat": 49.9912817, "lon": 13.2315915}, {"type": "node", "id": 5277484024, "lat": 49.991266, "lon": 13.2315982}, {"type": "node", "id": 5277484025, "lat": 49.9912692, "lon": 13.2316113}, {"type": "node", "id": 5277484026, "lat": 49.9912392, "lon": 13.2320687}, {"type": "node", "id": 5277484027, "lat": 49.9912665, "lon": 13.2321632}, {"type": "node", "id": 5277484028, "lat": 49.9913202, "lon": 13.2322253}, {"type": "node", "id": 5277484029, "lat": 49.9914046, "lon": 13.2323689}, {"type": "node", "id": 5277484030, "lat": 49.9914549, "lon": 13.2325112}, {"type": "node", "id": 5277484031, "lat": 49.9914748, "lon": 13.2325158}, {"type": "node", "id": 5277484032, "lat": 49.991491, "lon": 13.2325324}, {"type": "node", "id": 5277484033, "lat": 49.9914982, "lon": 13.2325475}, {"type": "node", "id": 5277484034, "lat": 49.9915006, "lon": 13.232546}, {"type": "node", "id": 5277484035, "lat": 49.9915261, "lon": 13.2326495}, {"type": "node", "id": 5277484036, "lat": 49.9915236, "lon": 13.2326509}, {"type": "node", "id": 5277484037, "lat": 49.9915263, "lon": 13.232668}, {"type": "node", "id": 5277484038, "lat": 49.991523, "lon": 13.2327005}, {"type": "node", "id": 5277484039, "lat": 49.9915103, "lon": 13.2327244}, {"type": "node", "id": 5367497447, "lat": 50.0784781, "lon": 13.2125945, "tags": {"ele": "693", "hiking": "yes", "information": "guidepost", "name": "Vlada\u0159 (vyhl\u00eddka)", "official_name": "Vlada\u0159 (vyhl.)", "operator": "cz:K\u010cT", "ref": "KV261", "tourism": "information"}}, {"type": "node", "id": 5367497448, "lat": 50.0777177, "lon": 13.2148399, "tags": {"direction": "135", "tourism": "viewpoint"}}, {"type": "node", "id": 5367497450, "lat": 50.0712551, "lon": 13.2041186, "tags": {"amenity": "shelter", "bin": "yes", "ele": "518", "shelter_type": "picnic_shelter"}}, {"type": "node", "id": 5426231655, "lat": 50.0297298, "lon": 13.2975179, "tags": {"ele": "390", "hiking": "yes", "information": "guidepost", "name": "b\u00fdval\u00fd \u017eelezn\u00fd hamr", "operator": "cz:K\u010cT", "ref": "PS244", "tourism": "information"}}, {"type": "node", "id": 5426410889, "lat": 50.0739912, "lon": 13.3411092, "tags": {"hiking": "yes", "information": "guidepost", "name": "Lid\u010dina sk\u00e1la", "operator": "cz:K\u010cT", "ref": "PS372", "tourism": "information"}}, {"type": "node", "id": 5426410896, "lat": 50.0733714, "lon": 13.3405405, "tags": {"ele": "587", "hiking": "yes", "information": "guidepost", "name": "Lid\u010dina sk\u00e1la odbo\u010dka", "operator": "cz:K\u010cT", "ref": "PS331", "tourism": "information"}}, {"type": "node", "id": 5864567988, "lat": 50.042517, "lon": 13.291038, "tags": {"board_type": "history", "information": "board", "name": "Are\u00e1l hradu, kostel a kl\u00e1\u0161ter", "ref": "2", "tourism": "information"}}, {"type": "node", "id": 7417467758, "lat": 50.0166254, "lon": 13.2053225, "tags": {"amenity": "shelter", "bench": "yes", "shelter_type": "picnic_shelter"}}, {"type": "node", "id": 7627654996, "lat": 50.0342371, "lon": 13.2526901, "tags": {"board_type": "history", "information": "board", "tourism": "information"}}, {"type": "node", "id": 7633714555, "lat": 50.0994388, "lon": 13.2117891, "tags": {"board_type": "history", "information": "board", "tourism": "information"}}, {"type": "node", "id": 7649037900, "lat": 50.0638328, "lon": 13.3475336, "tags": {"amenity": "shelter"}}, {"type": "node", "id": 7773945884, "lat": 50.0418692, "lon": 13.2896342, "tags": {"board_type": "history", "information": "board", "tourism": "information"}}, {"type": "node", "id": 7774000485, "lat": 50.0432123, "lon": 13.2919597, "tags": {"board_type": "history", "information": "board", "name": "Pam\u00e1tky m\u011bsta", "ref": "3", "tourism": "information"}}, {"type": "node", "id": 7774000486, "lat": 50.043199, "lon": 13.2919476, "tags": {"board_type": "history", "information": "board", "name": "Rab\u0161tejn nad St\u0159elou", "tourism": "information"}}, {"type": "node", "id": 7774000489, "lat": 50.0419463, "lon": 13.2891266, "tags": {"board_type": "nature", "information": "board", "name": "P\u0159\u00edrodn\u00ed park Horn\u00ed St\u0159ela", "tourism": "information"}}, {"type": "node", "id": 7793844863, "lat": 49.9997454, "lon": 13.2320956, "tags": {"board_type": "geology", "information": "board", "name": "Chlumsk\u00e1 hora", "tourism": "information"}}, {"type": "node", "id": 8690800900, "lat": 49.9912764, "lon": 13.2319115}, {"type": "node", "id": 8895941308, "lat": 50.0613721, "lon": 13.3447634, "tags": {"amenity": "shelter"}}, {"type": "node", "id": 8895941309, "lat": 50.0582217, "lon": 13.3562417, "tags": {"information": "board", "tourism": "information"}}, {"type": "node", "id": 8904691579, "lat": 50.0458459, "lon": 13.3628658, "tags": {"board_type": "nature", "information": "board", "name": "PP Horn\u00ed St\u0159ela", "ref": "none", "tourism": "information"}}, {"type": "node", "id": 9111873003, "lat": 50.0949369, "lon": 13.2426321, "tags": {"amenity": "shelter"}}, {"type": "node", "id": 9315162381, "lat": 50.0399463, "lon": 13.2961388, "tags": {"description": "Vyhl\u00eddka na Rab\u0161tejn, p\u0159edev\u0161\u00edm pak na rab\u0161tejnsk\u00fd z\u00e1mek", "name": "Hrab\u011bc\u00ed k\u0159\u00ed\u017e", "tourism": "viewpoint"}}, {"type": "node", "id": 9481481919, "lat": 50.0896925, "lon": 13.2070541}, {"type": "node", "id": 9481481920, "lat": 50.0896747, "lon": 13.2070611}, {"type": "node", "id": 9481481921, "lat": 50.0896655, "lon": 13.2070046}, {"type": "node", "id": 9481481922, "lat": 50.0896834, "lon": 13.2069976}, {"type": "node", "id": 9646726786, "lat": 50.0903519, "lon": 13.3156678}, {"type": "node", "id": 9646726787, "lat": 50.0903414, "lon": 13.3156826}, {"type": "node", "id": 9646726788, "lat": 50.0903273, "lon": 13.3156815}, {"type": "node", "id": 9646726789, "lat": 50.0903178, "lon": 13.3156651}, {"type": "node", "id": 9646726790, "lat": 50.0903185, "lon": 13.3156431}, {"type": "node", "id": 9646726791, "lat": 50.090329, "lon": 13.3156283}, {"type": "node", "id": 9646726792, "lat": 50.0903431, "lon": 13.3156294}, {"type": "node", "id": 9646726793, "lat": 50.0903526, "lon": 13.3156458}, {"type": "node", "id": 9715983277, "lat": 50.0890842, "lon": 13.2588817, "tags": {"ele": "600.9", "name": "Nad St\u0159elou", "natural": "peak", "source": "\u010c\u00daZK"}}, {"type": "node", "id": 9715983278, "lat": 50.0842911, "lon": 13.2512149, "tags": {"ele": "601.2", "natural": "peak", "source": "\u010c\u00daZK"}}, {"type": "node", "id": 9715983279, "lat": 50.073963, "lon": 13.2940879, "tags": {"ele": "562.1", "name": "Nad Dvorcem", "natural": "peak", "source": "\u010c\u00daZK"}}, {"type": "node", "id": 9715983280, "lat": 50.063898, "lon": 13.2550179, "tags": {"ele": "606.8", "natural": "peak"}}, {"type": "node", "id": 9715983281, "lat": 50.055135, "lon": 13.2681299, "tags": {"ele": "569.1", "natural": "peak"}}, {"type": "node", "id": 9715983283, "lat": 49.965446, "lon": 13.3288848, "tags": {"ele": "441.1", "natural": "peak"}}, {"type": "node", "id": 9715983284, "lat": 49.977188, "lon": 13.246118, "tags": {"ele": "479", "name": "V\u00edtovka", "natural": "peak"}}, {"type": "node", "id": 9725197065, "lat": 49.9918803, "lon": 13.242554, "tags": {"information": "map", "tourism": "information"}}, {"type": "node", "id": 9725197066, "lat": 49.9924678, "lon": 13.2420309, "tags": {"board_type": "nature", "information": "board", "name": "Horn\u00ed St\u0159ela", "tourism": "information"}}, {"type": "node", "id": 9780464128, "lat": 50.0734033, "lon": 13.2103226, "tags": {"hiking": "yes", "information": "guidepost", "material": "wood", "operator": "local", "ref": "none", "tourism": "information"}}, {"type": "node", "id": 9874191387, "lat": 50.0990093, "lon": 13.3436757, "tags": {"board_type": "history", "information": "board", "name": "Velk\u00fd malm\u011b\u0159ick\u00fd les - kapli\u010dka sv. Jilj\u00ed", "ref": "none", "tourism": "information"}}, {"type": "node", "id": 9955447446, "lat": 49.9919948, "lon": 13.2150276, "tags": {"amenity": "shelter", "shelter_type": "weather_shelter"}}, {"type": "node", "id": 10266992209, "lat": 49.9691546, "lon": 13.3510072, "tags": {"description": "Stezka po dn\u011b Mladotick\u00e9ho rybn\u00edka", "information": "board", "name": "Zk\u00e1za Mladotick\u00e9ho rybn\u00edka v roce 1872", "ref": "7", "tourism": "information"}}, {"type": "node", "id": 10266992210, "lat": 49.9701054, "lon": 13.3509467, "tags": {"description": "Stezka po dn\u011b Mladotick\u00e9ho rybn\u00edka", "information": "board", "name": "Pokus o obnovu rybn\u00edka", "ref": "6", "tourism": "information"}}, {"type": "node", "id": 10266992211, "lat": 49.9726867, "lon": 13.3525172, "tags": {"description": "Stezka po dn\u011b Mladotick\u00e9ho rybn\u00edka", "information": "board", "name": "Povode\u0148 na St\u0159ele v roce 1872", "ref": "5", "tourism": "information"}}, {"type": "node", "id": 10266992212, "lat": 49.9770806, "lon": 13.354995, "tags": {"description": "Stezka po dn\u011b Mladotick\u00e9ho rybn\u00edka", "information": "board", "name": "Rekordn\u00ed sr\u00e1\u017eky na severn\u00edm Plze\u0148sku", "ref": "4", "tourism": "information"}}, {"type": "node", "id": 10266992213, "lat": 49.9827317, "lon": 13.3599579, "tags": {"description": "Stezka po dn\u011b Mladotick\u00e9ho rybn\u00edka", "information": "board", "name": "Nejv\u011bt\u0161\u00ed rybn\u00edk v kraji", "ref": "2", "tourism": "information"}}, {"type": "node", "id": 10599317510, "lat": 49.9940112, "lon": 13.2498389, "tags": {"board_type": "history", "description": "Po stop\u00e1ch Man\u011bt\u00ednsk\u00fdch mlyn\u00e1\u0159\u016f", "information": "board", "name": "Bur\u0161\u016fv ml\u00fdn", "tourism": "information"}}, {"type": "node", "id": 11066735832, "lat": 50.0314436, "lon": 13.3969406, "tags": {"description": "Cesta slovansk\u00fdch boh\u016f", "information": "board", "name": "Lada", "ref": "10", "tourism": "information"}}, {"type": "node", "id": 11066736772, "lat": 50.0160751, "lon": 13.3994408, "tags": {"information": "map", "map_size": "region", "name": "Severn\u00ed Plze\u0148sko", "tourism": "information"}}, {"type": "node", "id": 11066769464, "lat": 50.016006, "lon": 13.3996355, "tags": {"description": "Nau\u010dn\u00e1 stezka Odlezelsk\u00e9 jezero", "information": "board", "name": "Jak vzniklo Odlozelsk\u00e9 jezero?", "ref": "1", "tourism": "information"}}, {"type": "node", "id": 11066771869, "lat": 50.0183194, "lon": 13.3958478, "tags": {"description": "Cesta slovansk\u00fdch boh\u016f", "information": "board", "name": "Vesna", "ref": "11", "tourism": "information"}}, {"type": "node", "id": 11066776875, "lat": 50.0152781, "lon": 13.3996542, "tags": {"information": "board", "name": "Jak spr\u00e1vn\u011b t\u0159\u00eddit odpady", "tourism": "information"}}, {"type": "node", "id": 11066779702, "lat": 50.0120886, "lon": 13.3888897, "tags": {"description": "Cesta slovansk\u00fdch boh\u016f", "information": "board", "name": "Veles, Volos", "ref": "12", "tourism": "information"}}, {"type": "node", "id": 11066782814, "lat": 50.0112492, "lon": 13.3776756, "tags": {"description": "Cesta slovansk\u00fdch boh\u016f", "information": "board", "name": "Triglav", "ref": "14", "tourism": "information"}}, {"type": "node", "id": 11066786349, "lat": 50.0096806, "lon": 13.3793467, "tags": {"description": "Cesta slovansk\u00fdch boh\u016f", "information": "board", "name": "Tur", "ref": "13", "tourism": "information"}}, {"type": "node", "id": 11066800814, "lat": 50.0112336, "lon": 13.3777856, "tags": {"description": "Nau\u010dn\u00e1 stezka Odlezelsk\u00e9 jezero", "information": "board", "name": "Odlu\u010dn\u00e1 st\u011bna sesuvu", "ref": "9", "tourism": "information"}}, {"type": "node", "id": 11066857314, "lat": 50.0167487, "lon": 13.3875326, "tags": {"description": "Cesta slovansk\u00fdch boh\u016f", "information": "board", "name": "B\u011blobog", "ref": "16", "tourism": "information"}}, {"type": "node", "id": 11066970165, "lat": 50.0164935, "lon": 13.3818302, "tags": {"description": "Cesta jedin\u00e9ho Boha", "information": "board", "name": "V\u011btrobohov\u00e9", "ref": "15", "tourism": "information"}}, {"type": "node", "id": 11067068072, "lat": 50.0205444, "lon": 13.3701381, "tags": {"description": "Nau\u010dn\u00e1 stezka Odlezelsk\u00e9 jezero", "information": "board", "name": "Jak vzniklo Odlozelsk\u00e9 jezero?", "ref": "1", "tourism": "information"}}, {"type": "node", "id": 11067088389, "lat": 50.0186861, "lon": 13.3741267, "tags": {"description": "Nau\u010dn\u00e1 stezka Odlezelsk\u00e9 jezero", "information": "board", "name": "Zan\u00e1\u0161en\u00ed jezern\u00ed p\u00e1nve", "ref": "7", "tourism": "information"}}, {"type": "node", "id": 11067095980, "lat": 50.0101861, "lon": 13.3712111, "tags": {"description": "Nau\u010dn\u00e1 stezka Odlezelsk\u00e9 jezero", "information": "board", "name": "P\u0159\u00edvalov\u00fd d\u00e9\u0161\u0165 v kv\u011btnu 1872", "ref": "4", "tourism": "information"}}, {"type": "node", "id": 11067103341, "lat": 50.0107897, "lon": 13.37509, "tags": {"description": "Nau\u010dn\u00e1 stezka Odlezelsk\u00e9 jezero", "information": "board", "name": "Historie l\u00e1m\u00e1n\u00ed kamene", "ref": "2a", "tourism": "information"}}, {"type": "node", "id": 11067118870, "lat": 50.0098942, "lon": 13.3708611, "tags": {"description": "Nau\u010dn\u00e1 stezka Odlezelsk\u00e9 jezero", "information": "board", "name": "Historie stavby \u017eeleznice", "ref": "3", "tourism": "information"}}, {"type": "node", "id": 11067123015, "lat": 50.0183669, "lon": 13.3743611, "tags": {"description": "N\u00e1rodn\u00ed p\u0159\u00edrodn\u00ed pam\u00e1tka Odlozelsk\u00e9 jezero", "information": "board", "name": "Nejmlad\u0161\u00ed p\u0159irozen\u011b hrazen\u00e9 jezero", "tourism": "information"}}, {"type": "node", "id": 11067225244, "lat": 50.0136944, "lon": 13.3735028, "tags": {"description": "Nau\u010dn\u00e1 stezka Odlezelsk\u00e9 jezero", "information": "board", "name": "Geofyzik\u00e1ln\u00ed v\u00fdzkum jezera", "ref": "8", "tourism": "information"}}, {"type": "node", "id": 11067228898, "lat": 50.0169217, "lon": 13.3733367, "tags": {"information": "board", "name": "U k\u0159\u00ed\u017eku", "tourism": "information"}}, {"type": "node", "id": 11067234974, "lat": 50.0137659, "lon": 13.3726891, "tags": {"description": "Nau\u010dn\u00e1 stezka Odlezelsk\u00e9 jezero", "information": "board", "name": "Sesuv svahu a hr\u00e1z jezera", "ref": "5", "tourism": "information"}}, {"type": "node", "id": 11068212180, "lat": 49.9858261, "lon": 13.3667428, "tags": {"information": "board", "name": "Dubov\u00fd ro\u0161t z Mladotick\u00e9ho rybn\u00edka", "tourism": "information"}}, {"type": "node", "id": 11068220996, "lat": 49.9854732, "lon": 13.3656004, "tags": {"description": "P\u0159\u00edrodn\u00ed park", "information": "board", "name": "Horn\u00ed St\u0159ela", "tourism": "information"}}, {"type": "node", "id": 11068220997, "lat": 49.9854797, "lon": 13.3656205, "tags": {"information": "board", "name": "Kaple jm\u00e9na panny Marie", "tourism": "information"}}, {"type": "node", "id": 11068220998, "lat": 49.9854844, "lon": 13.3656417, "tags": {"information": "map", "name": "Na kole po barokn\u00edch perl\u00e1ch", "tourism": "information"}}, {"type": "node", "id": 11068235782, "lat": 49.9853919, "lon": 13.3647561, "tags": {"information": "board", "name": "Husova pou\u0165", "tourism": "information"}}, {"type": "node", "id": 11068237083, "lat": 49.9855317, "lon": 13.3659356, "tags": {"description": "Stezka po dn\u011b Mladotick\u00e9ho rybn\u00edka", "information": "board", "name": "Dv\u011b p\u0159\u00edrodn\u00ed katastrofy na Mladotick\u00e9m potoce", "ref": "1", "tourism": "information"}}, {"type": "node", "id": 11068242084, "lat": 49.9855761, "lon": 13.3640367, "tags": {"information": "board", "name": "Transporty smrti Mladotice 1945", "tourism": "information"}}, {"type": "node", "id": 11068256861, "lat": 50.0218185, "lon": 13.3787501, "tags": {"description": "Nau\u010dn\u00e1 stezka Odlezelsk\u00e9 jezero", "information": "board", "name": "Historick\u00e9 stavby", "ref": "2b", "tourism": "information"}}, {"type": "node", "id": 11068258212, "lat": 49.98078, "lon": 13.3590903, "tags": {"description": "Stezka po dn\u011b Mladotick\u00e9ho rybn\u00edka", "information": "board", "name": "Vodn\u00ed hospoda\u0159en\u00ed plask\u00e9ho kl\u00e1\u0161tera", "ref": "3", "tourism": "information"}}, {"type": "node", "id": 11118335053, "lat": 50.0132786, "lon": 13.3732925, "tags": {"description": "Nau\u010dn\u00e1 stezka Odlezelsk\u00e9 jezero", "information": "board", "name": "Sou\u010dasn\u00fd v\u00fdzkum jezera", "ref": "6", "tourism": "information"}}, {"type": "node", "id": 11459106308, "lat": 50.0434943, "lon": 13.2922117, "tags": {"hiking": "yes", "information": "guidepost", "name": "Rab\u0161tejn nad St\u0159elou", "operator": "Via Czechia", "tourism": "information"}}, {"type": "node", "id": 11593939755, "lat": 49.9864236, "lon": 13.3643875, "tags": {"information": "board", "name": "Mladotice", "tourism": "information"}}, {"type": "node", "id": 11847301005, "lat": 50.0287335, "lon": 13.3259859, "tags": {"amenity": "shelter", "shelter_type": "public_transport"}}, {"type": "node", "id": 11903228937, "lat": 49.9915613, "lon": 13.2318825, "tags": {"information": "board", "name": "Na kole po barokn\u00edch perl\u00e1ch", "tourism": "information"}}, {"type": "node", "id": 11903402890, "lat": 49.9902948, "lon": 13.2204321, "tags": {"information": "board", "name": "Druid", "tourism": "information"}}, {"type": "node", "id": 11903420306, "lat": 49.9894963, "lon": 13.2228928, "tags": {"information": "board", "name": "Vikingov\u00e9", "tourism": "information"}}, {"type": "node", "id": 11903470007, "lat": 49.9914127, "lon": 13.2266579, "tags": {"information": "board", "name": "Man\u011bt\u00ednsko - ne\u010dtinsk\u00fd region", "tourism": "information"}}, {"type": "node", "id": 11903501290, "lat": 49.9902056, "lon": 13.2431645, "tags": {"information": "board", "name": "Nau\u010dn\u00e1 stezka Na Skalce o kamenictv\u00ed a lukost\u0159elb\u011b", "tourism": "information"}}, {"type": "node", "id": 11903502628, "lat": 49.9912923, "lon": 13.2320065, "tags": {"information": "board", "name": "V\u00e1clav \u017dalman", "tourism": "information"}}, {"type": "node", "id": 11903506068, "lat": 49.9885954, "lon": 13.2450228, "tags": {"description": "Nau\u010dn\u00e1 stezka Na Skalce o kamenictv\u00ed a lukost\u0159elb\u011b", "information": "board", "name": "Kamenick\u00e9 n\u00e1stroje", "tourism": "information"}}, {"type": "node", "id": 11903515641, "lat": 49.9893759, "lon": 13.2448234, "tags": {"description": "Nau\u010dn\u00e1 stezka Na Skalce o kamenictv\u00ed a lukost\u0159elb\u011b", "information": "board", "name": "Historie kamenictv\u00ed, historie t\u011b\u017eby kamene", "tourism": "information"}}, {"type": "node", "id": 11903529754, "lat": 49.9866103, "lon": 13.2445617, "tags": {"board_type": "nature", "description": "Nau\u010dn\u00e1 stezka Na Skalce o kamenictv\u00ed a lukost\u0159elb\u011b", "information": "board", "name": "Lomy v Man\u011bt\u00edn\u011b a okol\u00ed", "tourism": "information"}}, {"type": "node", "id": 11903567054, "lat": 49.9853379, "lon": 13.2449027, "tags": {"description": "Nau\u010dn\u00e1 stezka Na Skalce o kamenictv\u00ed a lukost\u0159elb\u011b", "information": "board", "name": "Man\u011bt\u00edn - barokn\u00ed socha\u0159sk\u00e1 v\u00fdzdoba", "tourism": "information"}}, {"type": "node", "id": 11903577499, "lat": 49.9848269, "lon": 13.2451154, "tags": {"information": "board", "name": "Nau\u010dn\u00e1 stezka Na Skalce o kamenictv\u00ed a lukost\u0159elb\u011b", "tourism": "information"}}, {"type": "node", "id": 12025689857, "lat": 50.0740856, "lon": 13.2094564, "tags": {"board_type": "nature", "information": "board", "name": "Louky pod Vlada\u0159em", "tourism": "information"}}, {"type": "node", "id": 12025709546, "lat": 50.0831823, "lon": 13.2045223, "tags": {"information": "board", "name": "Jak Vlada\u0159 porou\u010d\u00ed v\u011btru i de\u0161ti", "tourism": "information"}}, {"type": "node", "id": 12025728914, "lat": 50.07493, "lon": 13.205883, "tags": {"board_type": "nature", "information": "board", "name": "P\u0159\u00edrodn\u00ed rezervace Vlada\u0159", "tourism": "information"}}, {"type": "node", "id": 12025735769, "lat": 50.0744526, "lon": 13.2081876, "tags": {"information": "board", "name": "Pozemkov\u00fd spolek Vlada\u0159", "tourism": "information"}}, {"type": "node", "id": 12028842923, "lat": 50.1038023, "lon": 13.2475984, "tags": {"board_type": "history", "information": "board", "name": "Hus\u00ed V\u00edska: Zbytky synagogy", "tourism": "information"}}, {"type": "node", "id": 12029032995, "lat": 50.0711774, "lon": 13.2040994, "tags": {"information": "board", "name": "Nau\u010dn\u00e1 tabule Pieta - Vlada\u0159", "tourism": "information"}}, {"type": "node", "id": 12029044886, "lat": 50.0723824, "lon": 13.20543, "tags": {"information": "board", "name": "Husiti na Vlada\u0159i", "tourism": "information"}}, {"type": "node", "id": 12029048728, "lat": 50.0733114, "lon": 13.2167189, "tags": {"description": "Nau\u010dn\u00e1 stezka Cesta za pov\u011bst\u00ed", "information": "board", "name": "O v\u00edle Irmulce", "tourism": "information"}}, {"type": "node", "id": 12029048742, "lat": 50.0779769, "lon": 13.2183185, "tags": {"information": "board", "name": "O tom, jak Rohovic z Vr\u0161ovc\u016f o hlavu a hora Vlada\u0159 a Sm\u00edchov v Praze k sv\u00e9mu jm\u00e9nu p\u0159i\u0161li", "tourism": "information"}}, {"type": "node", "id": 12029061571, "lat": 50.0785582, "lon": 13.2130089, "tags": {"board_type": "nature", "information": "board", "name": "Vlada\u0159", "tourism": "information"}}, {"type": "node", "id": 12029064434, "lat": 50.0759194, "lon": 13.2049162, "tags": {"information": "board", "name": "Tajemstv\u00ed minulosti Vlada\u0159e", "tourism": "information"}}, {"type": "node", "id": 12029072572, "lat": 50.0786586, "lon": 13.2050238, "tags": {"information": "board", "name": "Husitstv\u00ed", "tourism": "information"}}, {"type": "node", "id": 12029073396, "lat": 50.0766142, "lon": 13.2048967, "tags": {"information": "board", "name": "Archeologick\u00e9 objevy na Vlada\u0159i", "tourism": "information"}}, {"type": "node", "id": 12029721486, "lat": 50.0752663, "lon": 13.2047339, "tags": {"board_type": "nature", "information": "board", "name": "Natura 2000 - lokalita Vlada\u0159", "tourism": "information"}}, {"type": "node", "id": 12161692530, "lat": 50.0789031, "lon": 13.2052787, "tags": {"information": "map", "map_size": "region", "map_type": "topo", "name": "Zaj\u00edmav\u00e1 m\u00edsta v okoli", "tourism": "information"}}, {"type": "node", "id": 12222562313, "lat": 49.9916382, "lon": 13.2307712, "tags": {"amenity": "shelter", "shelter_type": "public_transport"}}, {"type": "node", "id": 12229441183, "lat": 50.1024194, "lon": 13.2686795, "tags": {"ele": "546", "name": "Vyhl\u00eddka", "natural": "peak", "source": "\u010c\u00daZK"}}, {"type": "node", "id": 12229441184, "lat": 50.0775156, "lon": 13.2646876, "tags": {"ele": "572", "name": "Nad Luby", "natural": "peak", "source": "\u010c\u00daZK"}}, {"type": "node", "id": 12229441185, "lat": 50.0862041, "lon": 13.2881988, "tags": {"ele": "582", "name": "\u010c\u00edhan\u00e1", "natural": "peak", "source": "\u010c\u00daZK"}}, {"type": "node", "id": 12229441186, "lat": 50.0968463, "lon": 13.301484, "tags": {"ele": "601", "name": "Horka", "natural": "peak"}}, {"type": "node", "id": 12229441187, "lat": 50.0454961, "lon": 13.2730851, "tags": {"ele": "538", "name": "Gamberk", "natural": "peak", "source": "\u010c\u00daZK"}}, {"type": "node", "id": 12229441188, "lat": 50.0475362, "lon": 13.2544389, "tags": {"ele": "538", "name": "Za lesem", "natural": "peak", "source": "\u010c\u00daZK"}}, {"type": "node", "id": 12229441189, "lat": 50.038641, "lon": 13.2403501, "tags": {"ele": "479", "name": "U V\u00edsky", "natural": "peak", "source": "\u010c\u00daZK"}}, {"type": "node", "id": 12229441190, "lat": 50.0270525, "lon": 13.22296, "tags": {"ele": "495", "name": "\u010cerven\u00fd vrch", "natural": "peak", "source": "\u010c\u00daZK"}}, {"type": "node", "id": 12229441194, "lat": 50.0621311, "lon": 13.3027936, "tags": {"ele": "597", "name": "Poustky", "natural": "peak", "source": "\u010c\u00daZK"}}, {"type": "node", "id": 12229441195, "lat": 50.0663527, "lon": 13.3186667, "tags": {"ele": "607", "name": "Ko\u010di\u010d\u00ed vrch", "natural": "peak", "source": "\u010c\u00daZK"}}, {"type": "node", "id": 12229441196, "lat": 50.0396206, "lon": 13.3284272, "tags": {"ele": "588", "name": "Hajka", "natural": "peak", "source": "\u010c\u00daZK"}}, {"type": "node", "id": 12229441197, "lat": 50.024395, "lon": 13.3186375, "tags": {"ele": "554", "name": "Str\u00e1\u017en\u00fd vrch", "natural": "peak", "source": "\u010c\u00daZK"}}, {"type": "node", "id": 12229441198, "lat": 50.0112151, "lon": 13.2746315, "tags": {"ele": "548", "name": "\u00davratec", "natural": "peak", "source": "\u010c\u00daZK"}}, {"type": "node", "id": 12229441199, "lat": 50.018717, "lon": 13.2679921, "tags": {"ele": "518", "name": "\u00davratce", "natural": "peak", "source": "\u010c\u00daZK"}}, {"type": "node", "id": 12229441200, "lat": 50.0268413, "lon": 13.2812934, "tags": {"ele": "505", "name": "Na sp\u00e1len\u00e9m", "natural": "peak", "source": "\u010c\u00daZK"}}, {"type": "node", "id": 12229474501, "lat": 50.0354075, "lon": 13.2636063, "tags": {"ele": "525", "name": "\u010cel\u00edn", "natural": "peak", "source": "\u010c\u00daZK"}}, {"type": "node", "id": 12229474502, "lat": 49.9858551, "lon": 13.2691986, "tags": {"ele": "555", "name": "Doubravick\u00fd vrch", "natural": "peak", "source": "\u010c\u00daZK"}}, {"type": "node", "id": 12241988018, "lat": 50.0408554, "lon": 13.2955416, "tags": {"board_type": "history", "information": "board", "name": "Nau\u010dn\u00e1 stezka Rab\u0161tejn", "tourism": "information"}}, {"type": "node", "id": 12241989598, "lat": 50.0401496, "lon": 13.286888, "tags": {"board_type": "history", "information": "board", "name": "\u017didovsk\u00fd h\u0159bitov", "tourism": "information"}}, {"type": "node", "id": 12242020229, "lat": 50.0073591, "lon": 13.3520153, "tags": {"board_type": "history", "information": "board", "name": "D\u016fl Karel", "tourism": "information"}}, {"type": "node", "id": 12242021691, "lat": 50.0455438, "lon": 13.3668776, "tags": {"information": "map", "name": "Cyklotrasy mikroregionu Kralovicko", "tourism": "information"}}, {"type": "node", "id": 12242039389, "lat": 50.0395651, "lon": 13.2960353, "tags": {"board_type": "history", "information": "board", "name": "P\u0159\u00edrodn\u00ed rezervace St\u0159ela", "tourism": "information"}}, {"type": "node", "id": 12242041843, "lat": 50.0434821, "lon": 13.2922092, "tags": {"information": "board", "tourism": "information"}}, {"type": "node", "id": 12242046727, "lat": 50.0073706, "lon": 13.3520251, "tags": {"board_type": "history", "information": "board", "name": "Chr\u00e1\u0161t'ovick\u00e9 doly", "tourism": "information"}}, {"type": "node", "id": 12242055486, "lat": 50.0808142, "lon": 13.3316972, "tags": {"information": "board", "name": "Nau\u010dn\u00e1 stezka \u010d.8", "tourism": "information"}}, {"type": "node", "id": 12242057129, "lat": 50.0074866, "lon": 13.3523525, "tags": {"board_type": "history", "information": "board", "tourism": "information"}}, {"type": "node", "id": 12242060835, "lat": 50.0461084, "lon": 13.3629313, "tags": {"description": "Turistick\u00e1 v\u00fdv\u011bsn\u00ed mapa", "information": "map", "map_size": "region", "map_type": "topo", "name": "Povod\u00ed St\u0159ely", "operator": "cz:K\u010cT", "tourism": "information"}}, {"type": "node", "id": 12242073825, "lat": 50.073516, "lon": 13.3443356, "tags": {"board_type": "nature", "information": "board", "name": "Nau\u010dn\u00e1 stezka skl\u00e1rna", "tourism": "information"}}, {"type": "node", "id": 12242075722, "lat": 50.0733281, "lon": 13.3405036, "tags": {"board_type": "history", "information": "board", "name": "Nau\u010dn\u00e1 stezka Lid\u010d\u00edna sk\u00e1la", "tourism": "information"}}, {"type": "node", "id": 12242080625, "lat": 50.0794007, "lon": 13.3419194, "tags": {"board_type": "nature", "information": "board", "name": "Nau\u010dn\u00e1 stezka Ra\u0161elini\u0161t\u011b- Slatini\u0161t\u011b", "tourism": "information"}}, {"type": "node", "id": 12242081452, "lat": 50.081356, "lon": 13.3342231, "tags": {"information": "board", "name": "Nau\u010dn\u00e1 stezka Ra\u0161tick\u00e1 Louka", "tourism": "information"}}, {"type": "node", "id": 12246832111, "lat": 50.0702942, "lon": 13.335015, "tags": {"board_type": "nature", "description": "Nau\u010dn\u00e1 stezka Skl\u00e1rna", "information": "board", "name": "Skl\u00e1rna", "ref": "13", "tourism": "information"}}, {"type": "node", "id": 12246832112, "lat": 50.0715966, "lon": 13.3311091, "tags": {"board_type": "nature", "information": "board", "name": "Nau\u010dn\u00e1 stezka Skl\u00e1rna", "tourism": "information"}}, {"type": "node", "id": 12246832113, "lat": 50.0708769, "lon": 13.3305996, "tags": {"board_type": "nature", "information": "board", "name": "Nau\u010dn\u00e1 stezka Skl\u00e1rna", "ref": "1", "tourism": "information"}}, {"type": "node", "id": 12246832114, "lat": 50.070965, "lon": 13.3243186, "tags": {"board_type": "nature", "description": "Nau\u010dn\u00e1 stezka Skl\u00e1rna", "information": "board", "name": "Rybn\u00edk Petr\u00e1k", "ref": "3", "tourism": "information"}}, {"type": "node", "id": 12246832115, "lat": 50.0710536, "lon": 13.3257561, "tags": {"board_type": "nature", "description": "Nau\u010dn\u00e1 stezka Skl\u00e1rna", "information": "board", "name": "Vodn\u00ed a pob\u0159e\u017en\u00ed \u017eivot", "ref": "2", "tourism": "information"}}, {"type": "node", "id": 12246832116, "lat": 50.0767167, "lon": 13.3307461, "tags": {"board_type": "nature", "description": "Nau\u010dn\u00e1 stezka Skl\u00e1rna", "information": "board", "name": "Mraven\u010d\u00ed stezka", "ref": "4", "tourism": "information"}}, {"type": "node", "id": 12246832117, "lat": 50.0756667, "lon": 13.3216978, "tags": {"board_type": "nature", "description": "Nau\u010dn\u00e1 stezka Skl\u00e1rna", "information": "board", "name": "\u017divot v lese", "ref": "5", "tourism": "information"}}, {"type": "node", "id": 12246832118, "lat": 50.0773731, "lon": 13.3241417, "tags": {"board_type": "wildlife", "description": "Nau\u010dn\u00e1 stezka Skl\u00e1rna", "information": "board", "name": "Ptactvo", "ref": "6", "tourism": "information"}}, {"type": "node", "id": 12246832119, "lat": 50.0805178, "lon": 13.3301187, "tags": {"board_type": "plants", "description": "Nau\u010dn\u00e1 stezka Skl\u00e1rna", "information": "board", "name": "Houba\u0159en\u00ed", "ref": "7", "tourism": "information"}}, {"type": "node", "id": 12301216304, "lat": 49.9634007, "lon": 13.3539035, "tags": {"tourism": "viewpoint"}}, {"type": "node", "id": 12301216306, "lat": 49.9637023, "lon": 13.3606406, "tags": {"ele": "464", "natural": "peak"}}, {"type": "node", "id": 12827139134, "lat": 50.1031641, "lon": 13.2475872, "tags": {"amenity": "shelter", "shelter_type": "picnic_shelter"}}, {"type": "node", "id": 12827468705, "lat": 50.0802469, "lon": 13.2730079, "tags": {"horse": "yes", "information": "route_marker", "tourism": "information"}}, {"type": "node", "id": 12827468706, "lat": 50.0805046, "lon": 13.2727477, "tags": {"information": "map", "tourism": "information"}}, {"type": "node", "id": 12827468707, "lat": 50.0804835, "lon": 13.272684, "tags": {"amenity": "shelter", "shelter_type": "picnic_shelter"}}, {"type": "node", "id": 12827468708, "lat": 50.0880851, "lon": 13.2557297, "tags": {"amenity": "shelter", "shelter_type": "picnic_shelter"}}, {"type": "node", "id": 12827468713, "lat": 50.0893607, "lon": 13.2483503, "tags": {"amenity": "shelter", "shelter_type": "picnic_shelter"}}, {"type": "node", "id": 12828374903, "lat": 50.09697, "lon": 13.3894803, "tags": {"information": "map", "map_size": "region", "name": "Podbo\u0159ansko", "tourism": "information"}}, {"type": "node", "id": 12828374904, "lat": 50.0969705, "lon": 13.3894839, "tags": {"information": "board", "ref": "none", "tourism": "information"}}, {"type": "node", "id": 12828374905, "lat": 50.0929529, "lon": 13.3715791, "tags": {"board_type": "nature", "information": "board", "name": "P\u0159\u00edrodn\u00ed rezervace Blatensk\u00fd svah", "ref": "none", "tourism": "information"}}, {"type": "node", "id": 12828374906, "lat": 50.0863358, "lon": 13.3483403, "tags": {"board_type": "nature", "information": "board", "name": "P\u0159\u00edrodn\u00ed park Horn\u00ed St\u0159ela", "ref": "none", "tourism": "information"}}, {"type": "node", "id": 12828374909, "lat": 50.0861928, "lon": 13.3480408, "tags": {"bicycle": "yes", "information": "guidepost", "operator": "cz:K\u010cT", "ref": "none", "tourism": "information"}}, {"type": "node", "id": 12828374910, "lat": 50.0848983, "lon": 13.347299, "tags": {"information": "map", "map_size": "region", "name": "Cyklotrasy mikroregionu Kralovicko", "tourism": "information"}}, {"type": "node", "id": 12828374911, "lat": 50.0847611, "lon": 13.3449945, "tags": {"information": "map", "map_size": "region", "map_type": "topo", "name": "St\u0159ela a horn\u00ed Berounka", "tourism": "information"}}, {"type": "node", "id": 12828374912, "lat": 50.1032066, "lon": 13.3004938, "tags": {"amenity": "shelter", "shelter_type": "picnic_shelter"}}, {"type": "node", "id": 13046677269, "lat": 50.0448402, "lon": 13.3742445, "tags": {"information": "map", "map_size": "region", "name": "Cyklotrasy mikroregionu Kralovicko", "tourism": "information"}}, {"type": "node", "id": 13046677271, "lat": 50.0258665, "lon": 13.2749712, "tags": {"ele": "492", "hiking": "yes", "information": "guidepost", "name": "U Kotan\u010de", "operator": "cz:K\u010cT", "ref": "PS104", "tourism": "information"}}, {"type": "node", "id": 13046677272, "lat": 50.0436839, "lon": 13.3767852, "tags": {"bicycle": "yes", "information": "guidepost", "operator": "cz:K\u010cT", "ref": "none", "tourism": "information"}}, {"type": "node", "id": 13046753468, "lat": 50.028949, "lon": 13.3802607, "tags": {"information": "map", "map_size": "region", "map_type": "topo", "name": "Na kole po barokn\u00edch perl\u00e1ch", "tourism": "information"}}, {"type": "node", "id": 13048555411, "lat": 49.9952857, "lon": 13.3877189, "tags": {"information": "map", "map_size": "region", "name": "Cyklotrasy mikroregionu Kralovicko", "tourism": "information"}}, {"type": "node", "id": 13048555524, "lat": 50.0138358, "lon": 13.3726251, "tags": {"information": "route_marker", "operator": "cz:K\u010cT", "osmc:symbol": "blue:white:blue_rectangle", "tourism": "information"}}, {"type": "node", "id": 13048555579, "lat": 50.0218423, "lon": 13.3787737, "tags": {"board_type": "nature", "information": "board", "name": "N\u00e1rodn\u00ed p\u0159\u00edrodn\u00ed pam\u00e1tka Odlezelsk\u00e9 jezero", "ref": "none", "tourism": "information"}}, {"type": "node", "id": 13157086267, "lat": 50.0026007, "lon": 13.3796061, "tags": {"ele": "471", "name": "Pod B\u0159ezinou", "natural": "peak"}}, {"type": "node", "id": 13157086280, "lat": 50.0125582, "lon": 13.386938, "tags": {"ele": "546", "name": "Potvorovsk\u00fd kopec", "natural": "peak"}}, {"type": "node", "id": 13157086281, "lat": 50.004089, "lon": 13.3413822, "tags": {"ele": "514", "name": "Vrkou\u0161e", "natural": "peak"}}, {"type": "node", "id": 13157086282, "lat": 50.0141276, "lon": 13.3448648, "tags": {"ele": "527", "name": "Ko\u0161ovka", "natural": "peak"}}, {"type": "node", "id": 13157086284, "lat": 50.0435707, "lon": 13.3484284, "tags": {"ele": "574", "name": "Nad \u017dihl\u00ed", "natural": "peak"}}, {"type": "node", "id": 13157086285, "lat": 50.0533526, "lon": 13.330989, "tags": {"ele": "604", "name": "Nad Myslivnou", "natural": "peak"}}, {"type": "node", "id": 13157086286, "lat": 50.0706921, "lon": 13.357877, "tags": {"ele": "594", "name": "Ka\u010der", "natural": "peak"}}, {"type": "node", "id": 13157086287, "lat": 50.0461136, "lon": 13.3175469, "tags": {"ele": "599", "name": "Kuchy\u0148ka", "natural": "peak"}}, {"type": "node", "id": 13157086288, "lat": 50.004813, "lon": 13.328279, "tags": {"ele": "530", "name": "T\u0159i K\u0159\u00ed\u017ee", "natural": "peak"}}, {"type": "node", "id": 13157086290, "lat": 49.9943622, "lon": 13.3220371, "tags": {"ele": "484", "name": "V Ol\u0161\u00ed", "natural": "peak"}}, {"type": "node", "id": 13266850585, "lat": 50.0783377, "lon": 13.2156221, "tags": {"direction": "135", "tourism": "viewpoint"}}, {"type": "node", "id": 13266850595, "lat": 50.0801998, "lon": 13.2157543, "tags": {"direction": "135", "tourism": "viewpoint"}}, {"type": "way", "id": 202582325, "nodes": [2125485133, 2125485132, 2125485128, 2125485129, 2125485133], "tags": {"amenity": "shelter", "building": "yes", "shelter_type": "public_transport"}}, {"type": "way", "id": 324900272, "nodes": [3315764718, 4173537773, 4173537765, 4173556843, 4173556842, 4173556841, 4173537764, 3315764716, 3315764717, 3315764719, 4173537775, 3315764718], "tags": {"contact:email": "tomas.pesek@sklarna.eu", "contact:phone": "+420 737 116 861;+420 373 395 201", "name": "lanov\u00e9 centrum", "opening_hours": "Jul-Aug Sa-Su 10:00-18:00; Mo-Fr \"dle dohody\"", "tourism": "attraction", "website": "http://www.sklarna.eu"}}, {"type": "way", "id": 1028426097, "nodes": [9481481919, 9481481920, 9481481921, 9481481922, 9481481919], "tags": {"amenity": "shelter", "building": "yes", "shelter_type": "public_transport"}}, {"type": "way", "id": 1049710521, "nodes": [9646726793, 9646726792, 9646726791, 9646726790, 9646726789, 9646726788, 9646726787, 9646726786, 9646726793], "tags": {"amenity": "shelter", "shelter_type": "public_transport"}}, {"type": "way", "id": 1100672194, "nodes": [2029624638, 5277484022, 2029624528, 2029624508, 2029624563, 2029624541, 5277484020, 5277484019, 5277484018, 2029624811, 2029624799, 5277484017, 5277484016, 5277484015, 5277484014, 5277484013, 5277484012, 5277484011, 2029625283, 2029625188, 2029625193, 2029625136, 2029625116, 2029625129, 2029625033, 2029624991, 2029624931, 2029625031, 2029624966, 5277484039, 2029625001, 5277484038, 2033272758, 5277484037, 5277484036, 5277484035, 5277484034, 5277484033, 5277484032, 2029624900, 5277484031, 2029624868, 5277484030, 2029624826, 5277484029, 2029624600, 5277484028, 2029624476, 5277484027, 2029624428, 5277484026, 2029624389, 2029624474, 2029624458, 2029624487, 8690800900, 2029624418, 2029624086, 2029624043, 2029624520, 2029624460, 5277484025, 5277484024, 5277484023, 2029624515, 2029624438, 2029624493, 2029624638]}, {"type": "relation", "id": 14651140, "members": [{"type": "way", "ref": 1100672194, "role": "outer"}], "tags": {"building": "yes", "building:flats": "3", "building:levels": "3", "building:ruian:type": "19", "castle_type": "stately", "email": "manetin@npu.cz", "historic": "castle", "name": "z\u00e1mek Man\u011bt\u00edn", "name:en": "Chateau Man\u011bt\u00edn", "phone": "+420 373 392 283", "ref:ruian:building": "660515", "sorting_name": "Man\u011bt\u00edn", "source": "cuzk:ruian", "tourism": "attraction", "type": "multipolygon", "website": "https://www.zamek-manetin.cz/", "wikidata": "Q1104565", "wikipedia": "cs:Man\u011bt\u00edn (z\u00e1mek)"}}]}