{"version": 0.6, "generator": "Overpass API 0.7.62.8 e802775f", "osm3s": {"timestamp_osm_base": "2026-01-05T16:51:44Z", "copyright": "The data included in this document is from www.openstreetmap.org. The data is made available under ODbL."}, "elements": [{"type": "node", "id": 461975630, "lat": 48.7893761, "lon": 14.7747144, "tags": {"castle_type": "defensive", "castle_type:cs": "hrad", "email": "novehrady@npu.cz", "fax": "+420 386 361 311", "historic": "castle", "name": "Hrad Nov\u00e9 Hrady", "name:de": "Burg Gratzen", "name:en": "Nov\u00e9 Hrady Castle", "phone": "+420 386 362 135", "tourism": "attraction", "website": "https://www.hrad-novehrady.eu/", "wikidata": "Q1013354", "wikipedia": "cs:Nov\u00e9 Hrady (hrad)"}}, {"type": "node", "id": 718086781, "lat": 48.7836727, "lon": 14.7690087, "tags": {"ele": "478", "hiking": "yes", "information": "guidepost", "name": "Tereziino \u00fadol\u00ed (vstup)", "operator": "cz:K\u010cT", "ref": "CB285", "tourism": "information"}}, {"type": "node", "id": 913749566, "lat": 48.9330622, "lon": 14.6196117, "tags": {"information": "map", "tourism": "information"}}, {"type": "node", "id": 1279662475, "lat": 48.854817, "lon": 14.7991692, "tags": {"description": "v minulosti t\u011b\u017eba ra\u0161eliny, nyn\u00ed p\u0159\u00edrodn\u00ed rezervace", "ele": "478", "hiking": "yes", "information": "guidepost", "name": "\u010cerven\u00e9 Blato (rozc.)", "operator": "cz:K\u010cT", "ref": "CB267", "tourism": "information"}}, {"type": "node", "id": 1480367450, "lat": 48.8961522, "lon": 14.675561}, {"type": "node", "id": 1480367452, "lat": 48.8961634, "lon": 14.6756147}, {"type": "node", "id": 1480367462, "lat": 48.8962046, "lon": 14.6755358}, {"type": "node", "id": 1480367470, "lat": 48.8962158, "lon": 14.6755895}, {"type": "node", "id": 1495758408, "lat": 48.76172, "lon": 14.7361257, "tags": {"addr:city": "Horn\u00ed Stropnice", "addr:conscriptionnumber": "68", "addr:country": "CZ", "addr:housenumber": "68", "addr:place": "Horn\u00ed Stropnice", "addr:postcode": "37335", "information": "office", "name": "Informa\u010dn\u00ed centrum Horn\u00ed Stropnice", "ref:ruian:addr": "19985819", "tourism": "information"}}, {"type": "node", "id": 1890844920, "lat": 48.7903605, "lon": 14.7815572, "tags": {"hiking": "yes", "information": "guidepost", "name": "Nov\u00e9 Hrady", "operator": "cz:K\u010cT", "ref": "CB161", "source": "survey", "tourism": "information"}}, {"type": "node", "id": 1918184699, "lat": 48.9431305, "lon": 14.6555513, "tags": {"ele": "462", "hiking": "yes", "information": "guidepost", "name": "U Adamce", "operator": "cz:K\u010cT", "ref": "CB097", "tourism": "information"}}, {"type": "node", "id": 2266966592, "lat": 48.7563349, "lon": 14.6081393, "tags": {"ele": "865", "hiking": "yes", "information": "guidepost", "name": "Vysok\u00fd k\u00e1men (Slepice)", "operator": "cz:K\u010cT", "ref": "CB182", "tourism": "information"}}, {"type": "node", "id": 2266966597, "lat": 48.7575456, "lon": 14.607597, "tags": {"ele": "869", "name": "Vysok\u00fd k\u00e1men", "name:de": "Henne", "natural": "peak", "source": "\u010c\u00daZK"}}, {"type": "node", "id": 2266966738, "lat": 48.7552007, "lon": 14.6085973, "tags": {"tourism": "viewpoint"}}, {"type": "node", "id": 2266966784, "lat": 48.7575567, "lon": 14.6075849, "tags": {"tourism": "viewpoint"}}, {"type": "node", "id": 2359381466, "lat": 48.9279842, "lon": 14.7725447}, {"type": "node", "id": 2359381467, "lat": 48.9279942, "lon": 14.7726033}, {"type": "node", "id": 2359381471, "lat": 48.9280141, "lon": 14.7725339}, {"type": "node", "id": 2359381479, "lat": 48.9280227, "lon": 14.7725925}, {"type": "node", "id": 2360511481, "lat": 48.9405465, "lon": 14.7011109}, {"type": "node", "id": 2360511493, "lat": 48.9405701, "lon": 14.7009789}, {"type": "node", "id": 2360511502, "lat": 48.9405842, "lon": 14.7011267}, {"type": "node", "id": 2360511509, "lat": 48.9406081, "lon": 14.7009944}, {"type": "node", "id": 2363187720, "lat": 48.8840951, "lon": 14.7260957}, {"type": "node", "id": 2363187726, "lat": 48.8841166, "lon": 14.7260518}, {"type": "node", "id": 2363187727, "lat": 48.8841267, "lon": 14.726131}, {"type": "node", "id": 2363187729, "lat": 48.8841482, "lon": 14.7260871}, {"type": "node", "id": 2363389340, "lat": 48.8240314, "lon": 14.6320744, "tags": {"hiking": "yes", "information": "guidepost", "name": "U Svat\u00e9 Trojice", "operator": "cz:K\u010cT", "ref": "CB146", "tourism": "information"}}, {"type": "node", "id": 2363389344, "lat": 48.8406138, "lon": 14.6372421, "tags": {"ele": "453", "hiking": "yes", "information": "guidepost", "name": "Trhov\u00e9 Sviny (n\u00e1m\u011bst\u00ed)", "official_name": "Trhov\u00e9 Sviny (n\u00e1m.)", "operator": "cz:K\u010cT", "ref": "CB144", "tourism": "information"}}, {"type": "node", "id": 2363416726, "lat": 48.8918717, "lon": 14.6294476, "tags": {"ele": "476", "hiking": "yes", "information": "guidepost", "name": "Borovany (skanzen)", "operator": "cz:K\u010cT", "ref": "CB138", "tourism": "information"}}, {"type": "node", "id": 2363416727, "lat": 48.8777451, "lon": 14.6136081, "tags": {"ele": "448", "hiking": "yes", "information": "guidepost", "name": "U \u0160\u00edrk\u016f (chaty)", "operator": "cz:K\u010cT", "ref": "CB436", "tourism": "information"}}, {"type": "node", "id": 2363416728, "lat": 48.8814659, "lon": 14.6092298, "tags": {"ele": "463", "hiking": "yes", "information": "guidepost", "name": "U \u0160\u00edrk\u016f (rozcest\u00ed)", "operator": "cz:K\u010cT", "ref": "CB434", "short_name": "U \u0160\u00edrk\u016f (rozc.)", "tourism": "information"}}, {"type": "node", "id": 2363416731, "lat": 48.8988136, "lon": 14.6425593, "tags": {"hiking": "yes", "information": "guidepost", "name": "Borovany (n\u00e1m\u011bst\u00ed)", "official_name": "Borovany (n\u00e1m.)", "operator": "cz:K\u010cT", "ref": "CB137", "tourism": "information"}}, {"type": "node", "id": 2363416736, "lat": 48.8858465, "lon": 14.6450354, "tags": {"ele": "450", "hiking": "yes", "information": "guidepost", "name": "Borovany (u mostu)", "operator": "cz:K\u010cT", "ref": "CB435", "tourism": "information"}}, {"type": "node", "id": 2379002918, "lat": 48.8802318, "lon": 14.6461577, "tags": {"ele": "513", "name": "Borovansk\u00fd vrch", "natural": "peak"}}, {"type": "node", "id": 2407312261, "lat": 48.9449033, "lon": 14.7581659, "tags": {"ele": "450", "hiking": "yes", "information": "guidepost", "name": "Ruda (rozcest\u00ed)", "operator": "cz:K\u010cT", "ref": "JH072", "short_name": "Ruda (rozc.)", "tourism": "information"}}, {"type": "node", "id": 2407312265, "lat": 48.8695617, "lon": 14.7808985, "tags": {"ele": "476", "hiking": "yes", "information": "guidepost", "name": "Xerr", "operator": "cz:K\u010cT", "ref": "CB378", "tourism": "information"}}, {"type": "node", "id": 2407313056, "lat": 48.9474983, "lon": 14.7500449, "tags": {"amenity": "shelter", "shelter_type": "picnic_shelter"}}, {"type": "node", "id": 2422417144, "lat": 48.7613279, "lon": 14.7364185, "tags": {"board_type": "history", "description": "Via Verde", "information": "board", "name": "Zast\u00e1vka Horn\u00ed Stropnice", "ref": "8", "source": "survey", "tourism": "information"}}, {"type": "node", "id": 2422417145, "lat": 48.76129, "lon": 14.7364443, "tags": {"information": "map", "map_size": "region", "map_type": "topo", "name": "Turistick\u00e1 mapa", "source": "survey", "tourism": "information"}}, {"type": "node", "id": 2422417146, "lat": 48.762146, "lon": 14.7373652, "tags": {"horse": "yes", "information": "guidepost", "name": "Horn\u00ed Stropnice", "operator": "cz:K\u010cT", "ref": "CB045", "source": "survey", "tourism": "information"}}, {"type": "node", "id": 2422417147, "lat": 48.7615698, "lon": 14.7364729, "tags": {"hiking": "yes", "information": "guidepost", "name": "Horn\u00ed Stropnice", "operator": "cz:K\u010cT", "ref": "CB165", "source": "survey", "tourism": "information"}}, {"type": "node", "id": 2422423464, "lat": 48.7610676, "lon": 14.7341217, "tags": {"board_type": "history", "description": "NS Pam\u011bti Novohradska", "information": "board", "name": "Horn\u00ed Stropnice", "source": "survey", "tourism": "information"}}, {"type": "node", "id": 2422500722, "lat": 48.8915841, "lon": 14.6425589, "tags": {"information": "map", "map_size": "region", "map_type": "topo", "source": "survey", "tourism": "information"}}, {"type": "node", "id": 2422500799, "lat": 48.8916354, "lon": 14.6432835, "tags": {"board_type": "history", "information": "board", "name": "Stalet\u00ed dobr\u00e9ho sousedstv\u00ed a spolupr\u00e1ce", "ref": "1", "source": "survey", "tourism": "information"}}, {"type": "node", "id": 2422639785, "lat": 48.7893197, "lon": 14.7813125, "tags": {"board_type": "history", "information": "board", "name": "Pam\u011bt\u00ed Vitorazska", "name:de": "Radweg Vitorazsko", "source": "survey", "tourism": "information"}}, {"type": "node", "id": 2422639786, "lat": 48.790555, "lon": 14.7814093, "tags": {"information": "map", "map_size": "region", "map_type": "topo", "name": "Nov\u00e9 Hrady", "source": "survey", "tourism": "information"}}, {"type": "node", "id": 2422639787, "lat": 48.7905278, "lon": 14.7813969, "tags": {"check_date": "2021-11-17", "information": "map", "map_size": "city", "map_type": "street", "name": "Nov\u00e9 Hrady", "source": "survey", "tourism": "information"}}, {"type": "node", "id": 2423390252, "lat": 48.7958177, "lon": 14.6827362, "tags": {"ele": "538", "hiking": "yes", "information": "guidepost", "name": "\u017dumberk", "operator": "cz:K\u010cT", "ref": "CB027", "tourism": "information"}}, {"type": "node", "id": 2423783516, "lat": 48.7564409, "lon": 14.6769049, "tags": {"hiking": "yes", "information": "guidepost", "name": "Rychnov u Nov\u00fdch Hrad\u016f", "operator": "cz:K\u010cT", "ref": "CB029", "tourism": "information"}}, {"type": "node", "id": 2423783517, "lat": 48.7979934, "lon": 14.6546417, "tags": {"hiking": "yes", "information": "guidepost", "name": "Vyhl\u00eddka u Kla\u017ear", "operator": "cz:K\u010cT", "ref": "CB025", "tourism": "information"}}, {"type": "node", "id": 2426385765, "lat": 48.7886159, "lon": 14.7908536}, {"type": "node", "id": 2426385767, "lat": 48.7886209, "lon": 14.7910629}, {"type": "node", "id": 2426385768, "lat": 48.7886263, "lon": 14.790727}, {"type": "node", "id": 2426385771, "lat": 48.7886344, "lon": 14.7908636}, {"type": "node", "id": 2426385773, "lat": 48.7886467, "lon": 14.7911118}, {"type": "node", "id": 2426385774, "lat": 48.7886542, "lon": 14.7907976}, {"type": "node", "id": 2426385775, "lat": 48.78866, "lon": 14.7907317}, {"type": "node", "id": 2426385777, "lat": 48.7887017, "lon": 14.7911202}, {"type": "node", "id": 2426385780, "lat": 48.788734, "lon": 14.7908096}, {"type": "node", "id": 2426385781, "lat": 48.788738, "lon": 14.7907441}, {"type": "node", "id": 2426385782, "lat": 48.7887358, "lon": 14.7910715}, {"type": "node", "id": 2426385785, "lat": 48.7887486, "lon": 14.7908736}, {"type": "node", "id": 2426385786, "lat": 48.7887646, "lon": 14.7908765}, {"type": "node", "id": 2426385788, "lat": 48.7887718, "lon": 14.7907494}, {"type": "node", "id": 2435153989, "lat": 48.8905207, "lon": 14.6480006, "tags": {"board_type": "history", "information": "board", "name": "Prvn\u00ed za\u010d\u00e1tky bari\u00e9r", "ref": "2", "source": "survey", "tourism": "information"}}, {"type": "node", "id": 2435153990, "lat": 48.8859116, "lon": 14.6448684, "tags": {"board_type": "notice", "information": "board", "name": "Kudy kam v\u00a0okol\u00ed Borovan", "source": "survey", "tourism": "information"}}, {"type": "node", "id": 2435157219, "lat": 48.8820418, "lon": 14.6241366, "tags": {"board_type": "history", "information": "board", "name": "Zrazen\u00e1 republika", "ref": "5", "source": "survey", "tourism": "information"}}, {"type": "node", "id": 2435161919, "lat": 48.8795087, "lon": 14.6116637, "tags": {"board_type": "history", "information": "board", "name": "Dal\u0161\u00ed osud opevn\u011bn\u00ed", "ref": "6", "source": "survey", "tourism": "information"}}, {"type": "node", "id": 2435166713, "lat": 48.8843081, "lon": 14.6162447, "tags": {"board_type": "history", "information": "board", "name": "O stavb\u011b bunkru", "ref": "7", "source": "survey", "tourism": "information"}}, {"type": "node", "id": 2435174727, "lat": 48.8867359, "lon": 14.6276549, "tags": {"board_type": "history", "information": "board", "name": "Borovany b\u011bhem 2. sv\u011btov\u00e9 v\u00e1lky", "ref": "8", "source": "survey", "tourism": "information"}}, {"type": "node", "id": 2435178659, "lat": 48.8920519, "lon": 14.629548, "tags": {"board_type": "history", "information": "board", "name": "Nacistick\u00e1 okupace v Borovanech", "ref": "9", "source": "survey", "tourism": "information"}}, {"type": "node", "id": 2441104851, "lat": 48.8001394, "lon": 14.7671775, "tags": {"ele": "482", "hiking": "yes", "information": "guidepost", "name": "Ba\u017eantnice", "operator": "cz:K\u010cT", "ref": "CB035", "tourism": "information"}}, {"type": "node", "id": 2441104855, "lat": 48.8179092, "lon": 14.7677317, "tags": {"ele": "482", "hiking": "yes", "information": "guidepost", "name": "U \u010certova rybn\u00edka", "operator": "cz:K\u010cT", "ref": "CB034", "tourism": "information"}}, {"type": "node", "id": 2441104856, "lat": 48.8678854, "lon": 14.782113, "tags": {"hiking": "yes", "information": "guidepost", "name": "Xerr (ryb.)", "operator": "cz:K\u010cT", "ref": "CB378", "tourism": "information"}}, {"type": "node", "id": 2441693774, "lat": 48.918786, "lon": 14.6976203, "tags": {"ele": "470", "hiking": "yes", "information": "guidepost", "name": "Lhota", "operator": "cz:K\u010cT", "ref": "CB371", "tourism": "information"}}, {"type": "node", "id": 2451281508, "lat": 48.916438, "lon": 14.6642621}, {"type": "node", "id": 2451281510, "lat": 48.9164471, "lon": 14.6643434}, {"type": "node", "id": 2451281516, "lat": 48.9164024, "lon": 14.6642738}, {"type": "node", "id": 2451281517, "lat": 48.9164105, "lon": 14.6643551}, {"type": "node", "id": 2455467751, "lat": 48.7808927, "lon": 14.7545073, "tags": {"name": "Modr\u00fd d\u016fm", "tourism": "attraction"}}, {"type": "node", "id": 2455467753, "lat": 48.7817015, "lon": 14.7591548, "tags": {"name": "Tereziiny l\u00e1zni\u010dky", "tourism": "attraction"}}, {"type": "node", "id": 2479335571, "lat": 48.8562135, "lon": 14.7877029, "tags": {"ele": "487", "hiking": "yes", "information": "guidepost", "name": "Ji\u0159\u00edkovo \u00dadol\u00ed (rozc.)", "operator": "cz:K\u010cT", "ref": "CB268", "tourism": "information"}}, {"type": "node", "id": 2479335572, "lat": 48.8775667, "lon": 14.7047962, "tags": {"hiking": "yes", "information": "guidepost", "name": "J\u00edlovice (\u017eelezni\u010dn\u00ed stanice)", "operator": "cz:K\u010cT", "ref": "CB389", "short_name": "J\u00edlovice (\u017dST)", "tourism": "information"}}, {"type": "node", "id": 2479335574, "lat": 48.8620539, "lon": 14.738021, "tags": {"ele": "468", "hiking": "yes", "information": "guidepost", "name": "T\u011b\u0161\u00ednov (kaple)", "operator": "cz:K\u010cT", "ref": "CB172", "tourism": "information"}}, {"type": "node", "id": 2479335575, "lat": 48.8541073, "lon": 14.7692256, "tags": {"ele": "506", "hiking": "yes", "information": "guidepost", "name": "U Obelisku", "operator": "cz:K\u010cT", "ref": "CB379", "tourism": "information"}}, {"type": "node", "id": 2479335576, "lat": 48.8745557, "lon": 14.7267268, "tags": {"ele": "462", "hiking": "yes", "information": "guidepost", "name": "U Vesk\u00e9ho rybn\u00edka", "operator": "cz:K\u010cT", "ref": "CB075", "tourism": "information"}}, {"type": "node", "id": 2479335585, "lat": 48.8536777, "lon": 14.7917483, "tags": {"information": "map", "map_size": "region", "map_type": "topo", "name": "Ji\u0159\u00edkovo \u00fadol\u00ed", "tourism": "information"}}, {"type": "node", "id": 2488616649, "lat": 48.8063571, "lon": 14.7386209, "tags": {"ele": "492", "hiking": "yes", "information": "guidepost", "name": "Janovka", "operator": "cz:K\u010cT", "ref": "CB312", "tourism": "information"}}, {"type": "node", "id": 2488618324, "lat": 48.8067676, "lon": 14.7082886, "tags": {"ele": "520", "hiking": "yes", "information": "guidepost", "name": "\u017d\u00e1r", "operator": "cz:K\u010cT", "ref": "CB313", "tourism": "information"}}, {"type": "node", "id": 2489646272, "lat": 48.8277813, "lon": 14.6846074, "tags": {"description": "Nad penzionem Martinsk\u00fd ml\u00fdn nepatrn\u00e9 zbytky st\u0159edov\u011bk\u00e9ho hr\u00e1dku", "ele": "493", "hiking": "yes", "information": "guidepost", "name": "Hr\u00e1dek", "operator": "cz:K\u010cT", "ref": "CB090", "tourism": "information"}}, {"type": "node", "id": 2489646273, "lat": 48.8286925, "lon": 14.6950724, "tags": {"hiking": "yes", "information": "guidepost", "name": "Kostel\u00ed\u010dek", "operator": "cz:K\u010cT", "ref": "CB493", "tourism": "information"}}, {"type": "node", "id": 2489646274, "lat": 48.8163967, "lon": 14.6715956, "tags": {"ele": "488", "hiking": "yes", "information": "guidepost", "name": "P\u011b\u010d\u00edn", "operator": "cz:K\u010cT", "ref": "CB092", "tourism": "information"}}, {"type": "node", "id": 2489682805, "lat": 48.8411248, "lon": 14.7046599, "tags": {"ele": "495", "hiking": "yes", "information": "guidepost", "name": "Ole\u0161nice", "operator": "cz:K\u010cT", "ref": "CB173", "tourism": "information"}}, {"type": "node", "id": 2489682808, "lat": 48.8495101, "lon": 14.7407424, "tags": {"ele": "458", "hiking": "yes", "information": "guidepost", "name": "U Koudel\u016f", "operator": "cz:K\u010cT", "ref": "CB178", "tourism": "information"}}, {"type": "node", "id": 2499666219, "lat": 48.7821295, "lon": 14.7591304, "tags": {"hiking": "yes", "information": "guidepost", "name": "U l\u00e1zni\u010dek", "operator": "cz:K\u010cT", "ref": "CB163", "tourism": "information"}}, {"type": "node", "id": 2499666236, "lat": 48.7802003, "lon": 14.7528465, "tags": {"board_type": "nature", "check_date": "2025-10-16", "information": "board", "name": "Vodop\u00e1d", "ref": "5", "tourism": "information"}}, {"type": "node", "id": 2499666241, "lat": 48.7808913, "lon": 14.7546438, "tags": {"board_type": "nature", "check_date": "2025-11-16", "information": "board", "name": "Modr\u00fd d\u016fm", "ref": "4", "tourism": "information"}}, {"type": "node", "id": 2499666249, "lat": 48.7820664, "lon": 14.759508, "tags": {"board_type": "nature", "information": "board", "name": "L\u00e1zni\u010dky", "ref": "3", "tourism": "information"}}, {"type": "node", "id": 2499666257, "lat": 48.7836855, "lon": 14.7689707, "tags": {"board_type": "nature", "information": "board", "name": "Nau\u010dn\u00e1 stezka - park Ter\u010dino \u00fadol\u00ed", "ref": "1", "tourism": "information"}}, {"type": "node", "id": 2499666263, "lat": 48.784445, "lon": 14.763605, "tags": {"board_type": "nature", "information": "board", "name": "Hamr", "ref": "2", "tourism": "information"}}, {"type": "node", "id": 2499734546, "lat": 48.7744554, "lon": 14.7515322, "tags": {"hiking": "yes", "horse": "yes", "information": "guidepost", "name": "Cukn\u0161tejn tvrz", "operator": "cz:K\u010cT", "ref": "CB164", "tourism": "information"}}, {"type": "node", "id": 2499734547, "lat": 48.7735746, "lon": 14.7558061, "tags": {"board_type": "history", "information": "board", "name": "Romantick\u00e9 stavby", "ref": "9", "tourism": "information"}}, {"type": "node", "id": 2499734549, "lat": 48.7763808, "lon": 14.7525669, "tags": {"board_type": "history", "check_date": "2025-11-16", "information": "board", "name": "Tvrz Cukn\u0161tejn", "ref": "8", "tourism": "information"}}, {"type": "node", "id": 2499734551, "lat": 48.7776084, "lon": 14.745412, "tags": {"board_type": "nature", "information": "board", "name": "Lesy", "ref": "6", "tourism": "information"}}, {"type": "node", "id": 2499734552, "lat": 48.777985, "lon": 14.7576539, "tags": {"board_type": "nature", "check_date": "2025-11-16", "information": "board", "name": "Louky", "ref": "10", "tourism": "information"}}, {"type": "node", "id": 2499734553, "lat": 48.7787023, "lon": 14.7590181, "tags": {"board_type": "nature", "check_date": "2025-11-16", "information": "board", "name": "D\u0159eviny a byliny", "ref": "11", "tourism": "information"}}, {"type": "node", "id": 2499734554, "lat": 48.7796444, "lon": 14.7558539, "tags": {"board_type": "nature", "information": "board", "name": "Pr\u016fhledy", "ref": "7", "tourism": "information"}}, {"type": "node", "id": 2499734557, "lat": 48.7814209, "lon": 14.7636824, "tags": {"board_type": "history", "check_date": "2025-11-16", "information": "board", "name": "\u0160v\u00fdcarsk\u00fd d\u016fm", "ref": "12", "tourism": "information"}}, {"type": "node", "id": 2503013241, "lat": 48.7926071, "lon": 14.657254, "tags": {"board_type": "history", "information": "board", "name": "Lev Nikolajevi\u010d Tolstoj", "ref": "2", "tourism": "information"}}, {"type": "node", "id": 2503047868, "lat": 48.7842217, "lon": 14.6519292, "tags": {"ele": "578", "hiking": "yes", "information": "guidepost", "name": "Kondra\u010d", "note": "sloup ve\u0159ejn\u00e9ho osv\u011btlen\u00ed", "operator": "cz:K\u010cT", "ref": "CB315", "tourism": "information"}}, {"type": "node", "id": 2503047878, "lat": 48.7821449, "lon": 14.6425745, "tags": {"board_type": "history", "information": "board", "ref": "3", "tourism": "information"}}, {"type": "node", "id": 2503047894, "lat": 48.7834513, "lon": 14.6288295, "tags": {"board_type": "history", "information": "board", "ref": "4", "tourism": "information"}}, {"type": "node", "id": 2503047903, "lat": 48.7906276, "lon": 14.6276109, "tags": {"board_type": "history", "information": "board", "ref": "5", "tourism": "information"}}, {"type": "node", "id": 2503047917, "lat": 48.7963363, "lon": 14.6355325, "tags": {"board_type": "history", "information": "board", "ref": "7", "tourism": "information"}}, {"type": "node", "id": 2503047923, "lat": 48.7971926, "lon": 14.6352142, "tags": {"information": "map", "tourism": "information"}}, {"type": "node", "id": 2506778880, "lat": 48.8985125, "lon": 14.642092, "tags": {"information": "office", "name": "Infocentrum Borovany", "opening_hours": "Mo-Fr 09:00-16:30", "source": "survey", "tourism": "information"}}, {"type": "node", "id": 2506818692, "lat": 48.8172097, "lon": 14.7987459, "tags": {"board_type": "history", "information": "board", "name": "Pam\u011bt\u00ed Vitorazska", "name:de": "Radweg Vitorazsko", "source": "survey", "tourism": "information"}}, {"type": "node", "id": 2506828126, "lat": 48.7889337, "lon": 14.7907898, "tags": {"board_type": "history", "check_date": "2021-11-17", "information": "board", "name": "M\u00edsto \"posledn\u00edho\" odpo\u010dinku", "source": "survey", "tourism": "information"}}, {"type": "node", "id": 2509320975, "lat": 48.8915423, "lon": 14.6429735, "tags": {"ele": "476", "hiking": "yes", "information": "guidepost", "name": "Borovany (vlak)", "official_name": "Borovany (\u017dST)", "operator": "cz:K\u010cT", "ref": "CB142", "source": "survey", "tourism": "information"}}, {"type": "node", "id": 2509324491, "lat": 48.9000589, "lon": 14.6420756, "tags": {"board_type": "notice", "information": "board", "name": "\u00da\u0159edn\u00ed deska M\u00da", "source": "survey", "tourism": "information"}}, {"type": "node", "id": 2509416126, "lat": 48.7666716, "lon": 14.7945938, "tags": {"board_type": "history", "information": "board", "name": "Veve\u0159\u00ed aneb o zanikl\u00fdch osad\u00e1ch", "name:de": "Piberschlag", "source": "survey", "tourism": "information"}}, {"type": "node", "id": 2514831045, "lat": 48.7684979, "lon": 14.7995389, "tags": {"amenity": "shelter", "board_type": "nature", "fireplace": "no", "information": "board", "name": "Veversk\u00fd rybn\u00edk", "ref": "5", "shelter_type": "picnic_shelter", "source": "survey", "tourism": "information"}}, {"type": "node", "id": 2522516177, "lat": 48.7888982, "lon": 14.7814048, "tags": {"board_type": "nature", "information": "board", "name": "Novohradsk\u00e9 p\u0159\u00edhrani\u010dn\u00ed rybn\u00edky", "ref": "1", "source": "survey", "tourism": "information"}}, {"type": "node", "id": 2522518445, "lat": 48.7805345, "lon": 14.7924336, "tags": {"board_type": "nature", "information": "board", "name": "Zevl\u016fv rybn\u00edk", "ref": "2", "source": "survey", "tourism": "information"}}, {"type": "node", "id": 2559627364, "lat": 48.8860102, "lon": 14.6287027, "tags": {"board_type": "history", "information": "board", "name": "Kudy kam v\u00a0okol\u00ed Borovan", "source": "survey", "tourism": "information"}}, {"type": "node", "id": 2696372769, "lat": 48.7902047, "lon": 14.7779849, "tags": {"addr:city": "Nov\u00e9 Hrady", "addr:housenumber": "46", "addr:postcode": "37333", "addr:street": "n\u00e1m. Republiky", "information": "office", "name": "Kulturn\u00ed a informa\u010dn\u00ed centrum Nov\u00e9 Hrady", "opening_hours": "Mo-Sa 09:00-16:30", "tourism": "information", "website": "https://www.kicnovehrady.cz/"}}, {"type": "node", "id": 2973651618, "lat": 48.8920414, "lon": 14.6054161, "tags": {"hiking": "yes", "horse": "yes", "information": "guidepost", "name": "Trocnov (rodi\u0161t\u011b)", "operator": "cz:K\u010cT", "ref": "0130/25;1235/12;CB008;CB139", "tourism": "information"}}, {"type": "node", "id": 2995380532, "lat": 48.9204045, "lon": 14.6931973}, {"type": "node", "id": 2995380535, "lat": 48.9204317, "lon": 14.6932407}, {"type": "node", "id": 2995380537, "lat": 48.920435, "lon": 14.6931564}, {"type": "node", "id": 2995380539, "lat": 48.9204618, "lon": 14.6932006}, {"type": "node", "id": 3041531720, "lat": 48.7803906, "lon": 14.7799638, "tags": {"board_type": "nature", "information": "board", "name": "10. zast\u00e1vka", "ref": "10", "tourism": "information"}}, {"type": "node", "id": 3041536034, "lat": 48.7813139, "lon": 14.7804081, "tags": {"board_type": "nature", "information": "board", "name": "11. zast\u00e1vka", "ref": "11", "tourism": "information"}}, {"type": "node", "id": 3041536039, "lat": 48.7820051, "lon": 14.7779449, "tags": {"board_type": "nature", "information": "board", "name": "9. zast\u00e1vka", "ref": "9", "tourism": "information"}}, {"type": "node", "id": 3041536063, "lat": 48.78352, "lon": 14.7807986, "tags": {"board_type": "nature", "information": "board", "name": "12. zast\u00e1vka", "ref": "12", "tourism": "information"}}, {"type": "node", "id": 3041536066, "lat": 48.7835346, "lon": 14.7789806, "tags": {"board_type": "nature", "information": "board", "name": "8. zast\u00e1vka", "ref": "8", "tourism": "information"}}, {"type": "node", "id": 3041536089, "lat": 48.7845272, "lon": 14.7807204, "tags": {"board_type": "nature", "information": "board", "name": "13. zast\u00e1vka", "ref": "13", "tourism": "information"}}, {"type": "node", "id": 3041536109, "lat": 48.7856914, "lon": 14.7773037, "tags": {"board_type": "nature", "information": "board", "name": "7. zast\u00e1vka", "ref": "7", "tourism": "information"}}, {"type": "node", "id": 3041536113, "lat": 48.7862267, "lon": 14.7799558, "tags": {"board_type": "nature", "check_date": "2025-11-17", "information": "board", "name": "14. zast\u00e1vka", "ref": "14", "tourism": "information"}}, {"type": "node", "id": 3041536119, "lat": 48.7867043, "lon": 14.7761783, "tags": {"board_type": "nature", "information": "board", "name": "6. zast\u00e1vka", "ref": "6", "tourism": "information"}}, {"type": "node", "id": 3041536128, "lat": 48.7869338, "lon": 14.77561, "tags": {"board_type": "nature", "information": "board", "name": "5. zast\u00e1vka", "ref": "5", "tourism": "information"}}, {"type": "node", "id": 3041536239, "lat": 48.7877071, "lon": 14.7785314, "tags": {"board_type": "nature", "information": "board", "name": "15. zast\u00e1vka", "ref": "15", "tourism": "information"}}, {"type": "node", "id": 3041536248, "lat": 48.7880795, "lon": 14.777122, "tags": {"board_type": "nature", "check_date": "2025-11-17", "information": "board", "name": "3. zast\u00e1vka", "ref": "3", "tourism": "information"}}, {"type": "node", "id": 3041536253, "lat": 48.7883089, "lon": 14.7759897, "tags": {"board_type": "nature", "check_date": "2025-11-17", "information": "board", "name": "4. zast\u00e1vka", "ref": "4", "tourism": "information"}}, {"type": "node", "id": 3041536263, "lat": 48.7884869, "lon": 14.7777031, "tags": {"board_type": "nature", "information": "board", "name": "2. zast\u00e1vka", "ref": "2", "tourism": "information"}}, {"type": "node", "id": 3041536265, "lat": 48.7886736, "lon": 14.7758102, "tags": {"board_type": "nature", "information": "board", "name": "1. zast\u00e1vka", "ref": "1", "tourism": "information"}}, {"type": "node", "id": 3492843482, "lat": 48.7886167, "lon": 14.7910033}, {"type": "node", "id": 3492843483, "lat": 48.7886172, "lon": 14.7909931}, {"type": "node", "id": 3492843484, "lat": 48.7886183, "lon": 14.7910521}, {"type": "node", "id": 3492843485, "lat": 48.7886212, "lon": 14.7910511}, {"type": "node", "id": 3492843486, "lat": 48.7886232, "lon": 14.7909115}, {"type": "node", "id": 3492843487, "lat": 48.7886233, "lon": 14.7909014}, {"type": "node", "id": 3492843488, "lat": 48.7886241, "lon": 14.791062}, {"type": "node", "id": 3492843489, "lat": 48.7886243, "lon": 14.7910056}, {"type": "node", "id": 3492843490, "lat": 48.7886253, "lon": 14.7909942}, {"type": "node", "id": 3492843491, "lat": 48.7886313, "lon": 14.7909125}, {"type": "node", "id": 3492843492, "lat": 48.7886314, "lon": 14.7909025}, {"type": "node", "id": 3492843793, "lat": 48.7886319, "lon": 14.790863}, {"type": "node", "id": 3492843794, "lat": 48.7886322, "lon": 14.7908561}, {"type": "node", "id": 3492843795, "lat": 48.7886482, "lon": 14.791107}, {"type": "node", "id": 3492843796, "lat": 48.7886529, "lon": 14.7911167}, {"type": "node", "id": 3492843797, "lat": 48.7886546, "lon": 14.7911121}, {"type": "node", "id": 3492843798, "lat": 48.7886605, "lon": 14.7907985}, {"type": "node", "id": 3492843799, "lat": 48.7886613, "lon": 14.7907861}, {"type": "node", "id": 3492843800, "lat": 48.7886678, "lon": 14.7907996}, {"type": "node", "id": 3492843801, "lat": 48.7886687, "lon": 14.7907873}, {"type": "node", "id": 3492843802, "lat": 48.7886743, "lon": 14.7908007}, {"type": "node", "id": 3492843803, "lat": 48.7886746, "lon": 14.7907955}, {"type": "node", "id": 3492843804, "lat": 48.7886822, "lon": 14.7908032}, {"type": "node", "id": 3492843805, "lat": 48.7886826, "lon": 14.7907967}, {"type": "node", "id": 3492843806, "lat": 48.7886927, "lon": 14.7911178}, {"type": "node", "id": 3492843807, "lat": 48.7886934, "lon": 14.7911226}, {"type": "node", "id": 3492843808, "lat": 48.7886999, "lon": 14.7911144}, {"type": "node", "id": 3492843809, "lat": 48.788706, "lon": 14.7908068}, {"type": "node", "id": 3492843810, "lat": 48.7887065, "lon": 14.7908003}, {"type": "node", "id": 3492843811, "lat": 48.788714, "lon": 14.7908066}, {"type": "node", "id": 3492843812, "lat": 48.7887143, "lon": 14.7908014}, {"type": "node", "id": 3492843813, "lat": 48.7887205, "lon": 14.7908076}, {"type": "node", "id": 3492843814, "lat": 48.7887213, "lon": 14.7907951}, {"type": "node", "id": 3492843815, "lat": 48.7887279, "lon": 14.7908086}, {"type": "node", "id": 3492843816, "lat": 48.7887287, "lon": 14.7907962}, {"type": "node", "id": 3492843817, "lat": 48.78873, "lon": 14.7910771}, {"type": "node", "id": 3492843818, "lat": 48.7887325, "lon": 14.7910806}, {"type": "node", "id": 3492843819, "lat": 48.7887332, "lon": 14.7910682}, {"type": "node", "id": 3492843820, "lat": 48.7887363, "lon": 14.7910218}, {"type": "node", "id": 3492843821, "lat": 48.7887373, "lon": 14.7910103}, {"type": "node", "id": 3492843822, "lat": 48.7887421, "lon": 14.79093}, {"type": "node", "id": 3492843823, "lat": 48.7887433, "lon": 14.790919}, {"type": "node", "id": 3492843824, "lat": 48.7887445, "lon": 14.7910228}, {"type": "node", "id": 3492843825, "lat": 48.7887452, "lon": 14.7910121}, {"type": "node", "id": 3492843826, "lat": 48.7887456, "lon": 14.7908796}, {"type": "node", "id": 3492843827, "lat": 48.7887482, "lon": 14.7908796}, {"type": "node", "id": 3492843828, "lat": 48.7887506, "lon": 14.7909313}, {"type": "node", "id": 3492843829, "lat": 48.7887511, "lon": 14.7909201}, {"type": "node", "id": 3687991642, "lat": 48.9408106, "lon": 14.6986043, "tags": {"ele": "475", "hiking": "yes", "information": "guidepost", "name": "Mlado\u0161ovice (kostel)", "operator": "cz:K\u010cT", "ref": "JH176", "tourism": "information"}}, {"type": "node", "id": 3687991672, "lat": 48.8963067, "lon": 14.6756021, "tags": {"ele": "464", "hiking": "yes", "information": "guidepost", "name": "Hlubok\u00e1 u Borovan (vlak)", "official_name": "Hlubok\u00e1 u Borovan (\u017dST)", "operator": "cz:K\u010cT", "ref": "CB372", "tourism": "information"}}, {"type": "node", "id": 3694803087, "lat": 48.7896038, "lon": 14.7766437, "tags": {"check_date": "2023-12-28", "craft": "blacksmith", "email": "cerna@rozmberk.org", "name": "Novohradsk\u00e1 kov\u00e1rna", "opening_hours": "Jun-Sep Mo-Su 10:00-17:00 || \"po domluv\u011b\"", "phone": "+420 602 471 653", "tourism": "attraction", "website": "https://www.kovarnanovehrady.cz/"}}, {"type": "node", "id": 3695856864, "lat": 48.8237124, "lon": 14.6323778}, {"type": "node", "id": 3695856865, "lat": 48.8237136, "lon": 14.6323325}, {"type": "node", "id": 3695856866, "lat": 48.8237215, "lon": 14.632421}, {"type": "node", "id": 3695856867, "lat": 48.8237249, "lon": 14.6322905}, {"type": "node", "id": 3695856868, "lat": 48.8237398, "lon": 14.6324568}, {"type": "node", "id": 3695856869, "lat": 48.823745, "lon": 14.6322569}, {"type": "node", "id": 3695856870, "lat": 48.8237651, "lon": 14.632481}, {"type": "node", "id": 3695856871, "lat": 48.8237714, "lon": 14.6322358}, {"type": "node", "id": 3695856872, "lat": 48.8237943, "lon": 14.6324906}, {"type": "node", "id": 3695856873, "lat": 48.823801, "lon": 14.6322297}, {"type": "node", "id": 3695856874, "lat": 48.8238238, "lon": 14.6324845}, {"type": "node", "id": 3695856875, "lat": 48.8238302, "lon": 14.6322393}, {"type": "node", "id": 3695856876, "lat": 48.8238503, "lon": 14.6324634}, {"type": "node", "id": 3695856877, "lat": 48.8238554, "lon": 14.6322635}, {"type": "node", "id": 3695856878, "lat": 48.8238703, "lon": 14.6324298}, {"type": "node", "id": 3695856879, "lat": 48.8238737, "lon": 14.6322994}, {"type": "node", "id": 3695856880, "lat": 48.8238816, "lon": 14.6323879}, {"type": "node", "id": 3695856881, "lat": 48.8238828, "lon": 14.6323426}, {"type": "node", "id": 3941581022, "lat": 48.8929288, "lon": 14.6018345, "tags": {"board_type": "history", "information": "board", "name": "Mohyla Jana \u017di\u017eky", "ref": "5", "tourism": "information"}}, {"type": "node", "id": 3941581027, "lat": 48.8946144, "lon": 14.6022582, "tags": {"board_type": "history", "information": "board", "name": "Pam\u011btn\u00ed k\u00e1men", "ref": "6", "tourism": "information"}}, {"type": "node", "id": 3941581030, "lat": 48.8941171, "lon": 14.6036862, "tags": {"board_type": "history", "information": "board", "name": "Slavn\u00ed vojev\u016fdci", "ref": "7", "tourism": "information"}}, {"type": "node", "id": 3941581047, "lat": 48.8925316, "lon": 14.6016701, "tags": {"board_type": "history", "information": "board", "name": "V\u00fdpravy husit\u016f", "ref": "4", "tourism": "information"}}, {"type": "node", "id": 3941586363, "lat": 48.8914574, "lon": 14.6062769, "tags": {"bicycle": "yes", "hiking": "yes", "information": "map", "map_size": "region", "map_type": "topo", "tourism": "information"}}, {"type": "node", "id": 3941586364, "lat": 48.8915079, "lon": 14.6062794, "tags": {"board_type": "history", "information": "board", "name": "Pam\u00e1tn\u00edk Jana \u017di\u017eky z\u00a0Trocnova", "ref": "2", "tourism": "information"}}, {"type": "node", "id": 3941586367, "lat": 48.8922026, "lon": 14.6056358, "tags": {"amenity": "shelter", "shelter_type": "picnic_shelter"}}, {"type": "node", "id": 3941586472, "lat": 48.891897, "lon": 14.6057233, "tags": {"board_type": "history", "information": "board", "name": "\u017di\u017ek\u016fv dvorec", "ref": "3", "tourism": "information", "wikidata": "Q96481433"}}, {"type": "node", "id": 3942932799, "lat": 48.7842956, "lon": 14.7636875, "tags": {"ele": "480", "hiking": "yes", "information": "guidepost", "name": "U Hamru", "operator": "cz:K\u010cT", "ref": "CB286", "tourism": "information"}}, {"type": "node", "id": 3942932835, "lat": 48.7872783, "lon": 14.7718721, "tags": {"hiking": "yes", "information": "guidepost", "name": "\u00dadol\u00ed u Nov\u00fdch Hrad\u016f", "operator": "cz:K\u010cT", "ref": "CB162", "tourism": "information"}}, {"type": "node", "id": 3943046488, "lat": 48.7804403, "lon": 14.7582047, "tags": {"ele": "505", "hiking": "yes", "information": "guidepost", "name": "Nad L\u00e1zni\u010dkami", "operator": "cz:K\u010cT", "ref": "CB288", "tourism": "information"}}, {"type": "node", "id": 3945282963, "lat": 48.8903492, "lon": 14.7261124, "tags": {"ele": "498", "hiking": "yes", "information": "guidepost", "name": "J\u00edlovice", "operator": "cz:K\u010cT", "ref": "CB086", "tourism": "information"}}, {"type": "node", "id": 3954736396, "lat": 48.8122302, "lon": 14.6438588, "tags": {"hiking": "yes", "information": "guidepost", "name": "Meziles\u00ed", "operator": "cz:K\u010cT", "ref": "CB024", "tourism": "information"}}, {"type": "node", "id": 4012432717, "lat": 48.8235886, "lon": 14.6323204}, {"type": "node", "id": 4012432718, "lat": 48.8236365, "lon": 14.6323157}, {"type": "node", "id": 4012432719, "lat": 48.8236587, "lon": 14.6326121}, {"type": "node", "id": 4012432720, "lat": 48.8236951, "lon": 14.6325487}, {"type": "node", "id": 4012432721, "lat": 48.8237124, "lon": 14.6320703}, {"type": "node", "id": 4012432722, "lat": 48.8237431, "lon": 14.6321286}, {"type": "node", "id": 4012432723, "lat": 48.8238569, "lon": 14.6325853}, {"type": "node", "id": 4012432724, "lat": 48.8238781, "lon": 14.6326537}, {"type": "node", "id": 4012432726, "lat": 48.8239029, "lon": 14.6321677}, {"type": "node", "id": 4012432727, "lat": 48.8239073, "lon": 14.6324896}, {"type": "node", "id": 4012432728, "lat": 48.8239316, "lon": 14.6321043}, {"type": "node", "id": 4012432729, "lat": 48.8239458, "lon": 14.6325367}, {"type": "node", "id": 4012432730, "lat": 48.8239576, "lon": 14.632397}, {"type": "node", "id": 4012432731, "lat": 48.8240044, "lon": 14.6324253}, {"type": "node", "id": 4097034487, "lat": 48.8976135, "lon": 14.679796}, {"type": "node", "id": 4097034488, "lat": 48.8976327, "lon": 14.67973}, {"type": "node", "id": 4097034489, "lat": 48.8976541, "lon": 14.6798261}, {"type": "node", "id": 4097034490, "lat": 48.8976755, "lon": 14.6797589}, {"type": "node", "id": 4251630700, "lat": 48.8346579, "lon": 14.701329, "tags": {"tourism": "viewpoint"}}, {"type": "node", "id": 4278766221, "lat": 48.9299531, "lon": 14.7410785, "tags": {"ele": "478", "hiking": "yes", "information": "guidepost", "name": "Koj\u00e1kovice (bus)", "operator": "cz:K\u010cT", "ref": "JH073", "tourism": "information"}}, {"type": "node", "id": 4278766224, "lat": 48.9406134, "lon": 14.7809181, "tags": {"ele": "450", "hiking": "yes", "information": "guidepost", "name": "\u010cin\u00e1tl (h\u00e1jovna)", "operator": "cz:K\u010cT", "ref": "JH257", "short_name": "\u010cin\u00e1tl (h\u00e1j.)", "tourism": "information"}}, {"type": "node", "id": 4340384234, "lat": 48.786407, "lon": 14.7707889, "tags": {"amenity": "shelter", "shelter_type": "picnic_shelter"}}, {"type": "node", "id": 4402286512, "lat": 48.891408, "lon": 14.6069135, "tags": {"board_type": "history", "information": "board", "name": "V\u00fdznamn\u00e9 miln\u00edky husitstv\u00ed", "ref": "1", "tourism": "information"}}, {"type": "node", "id": 4402286513, "lat": 48.8924948, "lon": 14.6079308, "tags": {"board_type": "history", "information": "board", "name": "Husit\u0161t\u00ed bojovn\u00edci a zbran\u011b", "ref": "10", "tourism": "information"}}, {"type": "node", "id": 4402286514, "lat": 48.8937508, "lon": 14.6070641, "tags": {"board_type": "history", "information": "board", "name": "Mik\u0161\u016fv dvorec a ohlasy husitstv\u00ed v\u00a0zahrani\u010d\u00ed", "ref": "8", "tourism": "information", "wikidata": "Q96480182"}}, {"type": "node", "id": 4402286515, "lat": 48.8934414, "lon": 14.6074694, "tags": {"board_type": "history", "information": "board", "name": "Husitstv\u00ed a jeho v\u00fdznam", "ref": "9", "tourism": "information"}}, {"type": "node", "id": 4423817689, "lat": 48.9329801, "lon": 14.6188932, "tags": {"ele": "490", "hiking": "yes", "information": "guidepost", "name": "LEDENICE", "operator": "cz:K\u010cT", "ref": "CB098", "tourism": "information"}}, {"type": "node", "id": 4468166451, "lat": 48.9097552, "lon": 14.7167512, "tags": {"amenity": "shelter", "shelter_type": "picnic_shelter"}}, {"type": "node", "id": 4790141327, "lat": 48.7695756, "lon": 14.7554478}, {"type": "node", "id": 4790141328, "lat": 48.7695397, "lon": 14.7554358}, {"type": "node", "id": 4790141329, "lat": 48.7695304, "lon": 14.7554978}, {"type": "node", "id": 4790141330, "lat": 48.7695664, "lon": 14.755509}, {"type": "node", "id": 4797626490, "lat": 48.8554754, "lon": 14.7999343, "tags": {"board_type": "nature", "information": "board", "name": "N\u00e1rodn\u00ed p\u0159\u00edrodn\u00ed rezervace \u010cerven\u00e9 blato", "ref": "2", "source": "survey", "tourism": "information"}}, {"type": "node", "id": 4797626498, "lat": 48.8538745, "lon": 14.7948867, "tags": {"amenity": "shelter", "shelter_type": "picnic_shelter", "source": "survey"}}, {"type": "node", "id": 4797626500, "lat": 48.8538732, "lon": 14.7948431, "tags": {"board_type": "history", "information": "board", "name": "Z historie skl\u00e1rny v Ji\u0159\u00edkov\u011b \u00fadol\u00ed", "ref": "1", "tourism": "information"}}, {"type": "node", "id": 4797626504, "lat": 48.8536681, "lon": 14.7928816, "tags": {"board_type": "nature", "information": "board", "name": "Unik\u00e1tn\u00ed prales borovice blatky", "tourism": "information"}}, {"type": "node", "id": 4836098262, "lat": 48.9098515, "lon": 14.7372391, "tags": {"ele": "498", "hiking": "yes", "information": "guidepost", "name": "Kramol\u00edn", "operator": "cz:K\u010cT", "ref": "CB388", "tourism": "information"}}, {"type": "node", "id": 4836264571, "lat": 48.8684765, "lon": 14.6450329, "tags": {"ele": "501", "hiking": "yes", "information": "guidepost", "name": "Pansk\u00fd les", "operator": "cz:K\u010cT", "ref": "CB143", "tourism": "information"}}, {"type": "node", "id": 4836349268, "lat": 48.8680548, "lon": 14.6152203, "tags": {"hiking": "yes", "information": "guidepost", "name": "\u010ce\u0159ejov", "note": "CB021; 511 m", "operator": "cz:K\u010cT", "ref": "1235/15,5", "tourism": "information"}}, {"type": "node", "id": 4836378708, "lat": 48.9007251, "lon": 14.6114194, "tags": {"hiking": "yes", "information": "guidepost", "name": "Radostice (zast. \u017dST)", "official_name": "Radostice (\u017dST)", "operator": "cz:K\u010cT", "ref": "CB141", "tourism": "information"}}, {"type": "node", "id": 4843857786, "lat": 48.7893976, "lon": 14.7756032, "tags": {"board_type": "history", "information": "board", "name": "Hrad", "ref": "2", "tourism": "information"}}, {"type": "node", "id": 4885134931, "lat": 48.7620083, "lon": 14.6224495, "tags": {"ele": "629", "hiking": "yes", "information": "guidepost", "name": "Klen\u00ed", "operator": "cz:K\u010cT", "ref": "6325/24", "tourism": "information"}}, {"type": "node", "id": 4885337159, "lat": 48.7798035, "lon": 14.671049, "tags": {"ele": "560", "hiking": "yes", "information": "guidepost", "name": "Kamenn\u00e1", "operator": "cz:K\u010cT", "ref": "CB028", "tourism": "information"}}, {"type": "node", "id": 4936477548, "lat": 48.7722196, "lon": 14.7109011}, {"type": "node", "id": 4936477549, "lat": 48.7722455, "lon": 14.710937}, {"type": "node", "id": 4936477550, "lat": 48.7722633, "lon": 14.7109073}, {"type": "node", "id": 4936477551, "lat": 48.7722375, "lon": 14.7108715}, {"type": "node", "id": 4936477575, "lat": 48.779549, "lon": 14.7104077, "tags": {"amenity": "shelter", "shelter_type": "lean_to"}}, {"type": "node", "id": 5113281245, "lat": 48.8870527, "lon": 14.6452152, "tags": {"board_type": "history", "information": "board", "name": "Opevn\u011bn\u00ed proti nep\u0159\u00edteli", "ref": "3", "source": "survey", "tourism": "information"}}, {"type": "node", "id": 5113281248, "lat": 48.8832779, "lon": 14.6347643, "tags": {"board_type": "history", "information": "board", "name": "Lehk\u00e9 opevn\u011bn\u00ed vzor 37C", "ref": "4", "source": "survey", "tourism": "information"}}, {"type": "node", "id": 5113716262, "lat": 48.9311708, "lon": 14.6855844}, {"type": "node", "id": 5113716263, "lat": 48.9311938, "lon": 14.6856276}, {"type": "node", "id": 5113716264, "lat": 48.9311647, "lon": 14.6856633}, {"type": "node", "id": 5113716265, "lat": 48.9311402, "lon": 14.6856218}, {"type": "node", "id": 5121623491, "lat": 48.8371079, "lon": 14.6284627, "tags": {"board_type": "nature", "description": "NS Trhosvinensko", "information": "board", "name": "Skautsk\u00fd park", "ref": "11", "tourism": "information"}}, {"type": "node", "id": 5533303497, "lat": 48.8238257, "lon": 14.6326754}, {"type": "node", "id": 5533303498, "lat": 48.8238126, "lon": 14.6326723}, {"type": "node", "id": 5533303499, "lat": 48.8238145, "lon": 14.6326478}, {"type": "node", "id": 5533303500, "lat": 48.8238287, "lon": 14.6326512}, {"type": "node", "id": 5533303501, "lat": 48.8237744, "lon": 14.6326638}, {"type": "node", "id": 5533303502, "lat": 48.8237585, "lon": 14.6326604}, {"type": "node", "id": 5533303503, "lat": 48.8237605, "lon": 14.6326356}, {"type": "node", "id": 5533303504, "lat": 48.8237776, "lon": 14.6326398}, {"type": "node", "id": 5533303505, "lat": 48.8237208, "lon": 14.6326511}, {"type": "node", "id": 5533303506, "lat": 48.8237084, "lon": 14.6326486}, {"type": "node", "id": 5533303507, "lat": 48.8237102, "lon": 14.6326238}, {"type": "node", "id": 5533303508, "lat": 48.8237239, "lon": 14.6326272}, {"type": "node", "id": 5533303509, "lat": 48.8236116, "lon": 14.6322099}, {"type": "node", "id": 5533303510, "lat": 48.8236031, "lon": 14.6322242}, {"type": "node", "id": 5533303511, "lat": 48.8236159, "lon": 14.6322415}, {"type": "node", "id": 5533303512, "lat": 48.8236243, "lon": 14.6322264}, {"type": "node", "id": 5533303513, "lat": 48.8236447, "lon": 14.632147}, {"type": "node", "id": 5533303514, "lat": 48.8236357, "lon": 14.6321616}, {"type": "node", "id": 5533303515, "lat": 48.8236498, "lon": 14.6321809}, {"type": "node", "id": 5533303516, "lat": 48.823659, "lon": 14.6321646}, {"type": "node", "id": 5533303517, "lat": 48.823676, "lon": 14.6320885}, {"type": "node", "id": 5533303518, "lat": 48.823668, "lon": 14.6321061}, {"type": "node", "id": 5533303519, "lat": 48.8236816, "lon": 14.6321246}, {"type": "node", "id": 5533303520, "lat": 48.8236913, "lon": 14.6321075}, {"type": "node", "id": 5533303621, "lat": 48.8237006, "lon": 14.632053}, {"type": "node", "id": 5533303622, "lat": 48.8237422, "lon": 14.632024}, {"type": "node", "id": 5533303623, "lat": 48.82372, "lon": 14.632022}, {"type": "node", "id": 5533303624, "lat": 48.8237426, "lon": 14.632055}, {"type": "node", "id": 5533303625, "lat": 48.8235731, "lon": 14.6323298}, {"type": "node", "id": 5533303626, "lat": 48.8235829, "lon": 14.6322643}, {"type": "node", "id": 5533303627, "lat": 48.8235663, "lon": 14.6322941}, {"type": "node", "id": 5533303628, "lat": 48.8235936, "lon": 14.6322814}, {"type": "node", "id": 5533303629, "lat": 48.8238637, "lon": 14.6326799}, {"type": "node", "id": 5533303630, "lat": 48.8238884, "lon": 14.6326673}, {"type": "node", "id": 5533303631, "lat": 48.8238779, "lon": 14.6326841}, {"type": "node", "id": 5533303632, "lat": 48.8238654, "lon": 14.6326597}, {"type": "node", "id": 5533303633, "lat": 48.8240174, "lon": 14.6324394}, {"type": "node", "id": 5533303634, "lat": 48.8240223, "lon": 14.6323982}, {"type": "node", "id": 5533303635, "lat": 48.8240265, "lon": 14.632422}, {"type": "node", "id": 5533303636, "lat": 48.8240087, "lon": 14.6324049}, {"type": "node", "id": 5533303637, "lat": 48.8239338, "lon": 14.6320854}, {"type": "node", "id": 5533303638, "lat": 48.8239542, "lon": 14.6321119}, {"type": "node", "id": 5533303639, "lat": 48.8239495, "lon": 14.6320895}, {"type": "node", "id": 5533303640, "lat": 48.823942, "lon": 14.6321189}, {"type": "node", "id": 5557336126, "lat": 48.9490806, "lon": 14.6684276, "tags": {"board_type": "nature", "information": "board", "name": "\u010ceskomoravsk\u00fd belgick\u00fd k\u016f\u0148", "ref": "1", "tourism": "information"}}, {"type": "node", "id": 5633577060, "lat": 48.8298315, "lon": 14.6483116, "tags": {"board_type": "history", "information": "board", "name": "Na Ml\u00fdnech", "tourism": "information"}}, {"type": "node", "id": 5633577076, "lat": 48.7981155, "lon": 14.665604, "tags": {"board_type": "history", "information": "board", "name": "Kla\u017eary", "tourism": "information"}}, {"type": "node", "id": 5633577078, "lat": 48.7995997, "lon": 14.6673527, "tags": {"ele": "530", "hiking": "yes", "information": "guidepost", "name": "Kla\u017eary", "operator": "cz:K\u010cT", "ref": "1235", "tourism": "information"}}, {"type": "node", "id": 5633577079, "lat": 48.7958038, "lon": 14.6825839, "tags": {"board_type": "history", "check_date": "2025-05-10", "information": "board", "name": "\u017dumberk - opevn\u011bn\u00e1 ves", "tourism": "information"}}, {"type": "node", "id": 5633577080, "lat": 48.7958035, "lon": 14.6825554, "tags": {"check_date": "2025-05-10", "information": "board", "tourism": "information"}}, {"type": "node", "id": 5633577083, "lat": 48.7716667, "lon": 14.7275683, "tags": {"amenity": "shelter", "shelter_type": "public_transport"}}, {"type": "node", "id": 5633577086, "lat": 48.7816993, "lon": 14.757212, "tags": {"board_type": "history", "check_date": "2025-11-16", "information": "board", "name": "Kr\u00e1sn\u00e9 \u00dadol\u00ed", "ref": "17", "tourism": "information"}}, {"type": "node", "id": 5633577087, "lat": 48.7854703, "lon": 14.7621685, "tags": {"board_type": "history", "information": "board", "name": "Hamr", "ref": "16", "tourism": "information"}}, {"type": "node", "id": 5633577088, "lat": 48.793828, "lon": 14.7806336, "tags": {"board_type": "history", "information": "board", "name": "D\u016fm na K\u0159enovsk\u00e9 louce", "ref": "11", "tourism": "information"}}, {"type": "node", "id": 5633577089, "lat": 48.7946946, "lon": 14.7755605, "tags": {"board_type": "nature", "information": "board", "name": "Sokol\u00ed hn\u00edzdo a Ba\u017eantnice", "tourism": "information"}}, {"type": "node", "id": 5633577090, "lat": 48.7955691, "lon": 14.7742832, "tags": {"board_type": "history", "information": "board", "name": "Ba\u017eantnice", "ref": "12", "tourism": "information"}}, {"type": "node", "id": 5633577091, "lat": 48.8349994, "lon": 14.7669108, "tags": {"board_type": "nature", "information": "board", "name": "Lejskovn\u00edk", "tourism": "information"}}, {"type": "node", "id": 5633577092, "lat": 48.8371266, "lon": 14.7598581, "tags": {"board_type": "nature", "information": "board", "name": "Holub doup\u0148\u00e1k a kachny", "tourism": "information"}}, {"type": "node", "id": 5633577093, "lat": 48.8373465, "lon": 14.7575715, "tags": {"board_type": "nature", "information": "board", "name": "Mal\u00fd s\u00fdkorn\u00edk", "tourism": "information"}}, {"type": "node", "id": 5633577094, "lat": 48.836337, "lon": 14.7548945, "tags": {"board_type": "nature", "information": "board", "name": "Velk\u00fd s\u00fdkorn\u00edk", "tourism": "information"}}, {"type": "node", "id": 5633577095, "lat": 48.8429943, "lon": 14.7539941, "tags": {"board_type": "history", "information": "board", "name": "Pet\u0159\u00edkov", "tourism": "information"}}, {"type": "node", "id": 5633577099, "lat": 48.8925814, "lon": 14.7019327, "tags": {"board_type": "plants", "information": "board", "name": "Na kole okolo Bor\u016fvkovan", "tourism": "information"}}, {"type": "node", "id": 5633577102, "lat": 48.9203446, "lon": 14.6933294, "tags": {"information": "map", "name": "Lhota", "tourism": "information"}}, {"type": "node", "id": 5760395729, "lat": 48.7798678, "lon": 14.7529807, "tags": {"man_made": "yes", "name": "Vodop\u00e1d", "note": "Vodop\u00e1d se podle m\u00edstn\u00edho zna\u010den\u00ed fakt jmenuje \"Vodop\u00e1d\".", "tourism": "attraction", "waterway": "waterfall"}}, {"type": "node", "id": 5831951278, "lat": 48.9332674, "lon": 14.6197276, "tags": {"historic": "pillory", "name": "Pran\u00fd\u0159", "tourism": "attraction", "wikidata": "Q37454474"}}, {"type": "node", "id": 5859581339, "lat": 48.936345, "lon": 14.7011628, "tags": {"board_type": "history", "information": "board", "name": "Star\u00fd h\u0159bitov", "tourism": "information"}}, {"type": "node", "id": 5859581344, "lat": 48.9097483, "lon": 14.7168033, "tags": {"board_type": "history", "information": "board", "name": "Vlachnovice", "tourism": "information"}}, {"type": "node", "id": 5859581348, "lat": 48.8809, "lon": 14.7292564, "tags": {"amenity": "shelter", "shelter_type": "picnic_shelter"}}, {"type": "node", "id": 5859581349, "lat": 48.8808456, "lon": 14.7292192, "tags": {"board_type": "history", "check_date": "2023-07-02", "information": "board", "name": "J\u00edlovice", "tourism": "information"}}, {"type": "node", "id": 5859581355, "lat": 48.827638, "lon": 14.6842514, "tags": {"board_type": "history", "information": "board", "name": "Hr\u00e1dek", "tourism": "information"}}, {"type": "node", "id": 5859581356, "lat": 48.8276363, "lon": 14.6841737, "tags": {"amenity": "shelter", "shelter_type": "picnic_shelter"}}, {"type": "node", "id": 5859581359, "lat": 48.8357562, "lon": 14.6390617, "tags": {"board_type": "history", "information": "board", "name": "Weyszer\u016fv park", "ref": "3", "tourism": "information"}}, {"type": "node", "id": 5859581360, "lat": 48.8317121, "lon": 14.6365161, "tags": {"board_type": "history", "information": "board", "name": "Svatotroji\u010dn\u00ed cesta", "ref": "4", "tourism": "information"}}, {"type": "node", "id": 5859581362, "lat": 48.8246039, "lon": 14.6325793, "tags": {"amenity": "shelter", "shelter_type": "picnic_shelter"}}, {"type": "node", "id": 5859581371, "lat": 48.8240008, "lon": 14.6320451, "tags": {"board_type": "history", "description": "NS Trhosvinensko", "information": "board", "name": "Kostel Nejsv\u011bt\u011bj\u0161\u00ed Trojice", "ref": "5", "tourism": "information"}}, {"type": "node", "id": 5859581372, "lat": 48.8265699, "lon": 14.625017, "tags": {"board_type": "history", "description": "NS Trhovosvinensko", "information": "board", "name": "U Trajer\u016f ml\u00fdna", "ref": "6", "tourism": "information"}}, {"type": "node", "id": 5859581374, "lat": 48.8296931, "lon": 14.6240049, "tags": {"board_type": "history", "description": "NS Trhosvinensko", "information": "board", "name": "Valcha, historie vodojem\u016f", "ref": "7", "tourism": "information"}}, {"type": "node", "id": 5859581375, "lat": 48.8317245, "lon": 14.6194757, "tags": {"board_type": "history", "description": "NS Trhosvinensko", "information": "board", "name": "U lome\u010dku", "ref": "8", "tourism": "information"}}, {"type": "node", "id": 5859581380, "lat": 48.8349688, "lon": 14.6220859, "tags": {"board_type": "history", "description": "Stezka kov\u00e1\u0159stv\u00ed", "information": "board", "name": "Kov\u00e1rna Bu\u0161k\u016fv hamr", "tourism": "information"}}, {"type": "node", "id": 5859581381, "lat": 48.8349893, "lon": 14.6221178, "tags": {"board_type": "history", "description": "NS Trhosvinensko", "information": "board", "name": "Bu\u0161k\u016fv hamr", "ref": "9", "tourism": "information"}}, {"type": "node", "id": 5859581383, "lat": 48.8358893, "lon": 14.6239904, "tags": {"board_type": "history", "description": "NS Trhosvinensko", "information": "board", "name": "Pod vodojemem", "ref": "10", "tourism": "information"}}, {"type": "node", "id": 5859581887, "lat": 48.8387096, "lon": 14.6366181, "tags": {"board_type": "history", "description": "NS Trhosvinensko", "information": "board", "name": "Kostel C\u00edrkve \u010deskoslovensk\u00e9 husitsk\u00e9", "ref": "2", "tourism": "information"}}, {"type": "node", "id": 5859581888, "lat": 48.8387131, "lon": 14.6366605, "tags": {"board_type": "history", "information": "board", "name": "Trhov\u00e9 Sviny", "tourism": "information"}}, {"type": "node", "id": 5859581890, "lat": 48.8416228, "lon": 14.6361547, "tags": {"board_type": "history", "information": "board", "name": "Kostel Nanebevzet\u00ed Panny Marie", "ref": "12", "tourism": "information"}}, {"type": "node", "id": 5979978194, "lat": 48.8541299, "lon": 14.7908364, "tags": {"board_type": "nature", "information": "board", "name": "Ji\u0159\u00edkovo \u00fadol\u00ed - m\u00edsto zrodu hyalitu", "tourism": "information"}}, {"type": "node", "id": 5979978214, "lat": 48.826463, "lon": 14.7427973, "tags": {"board_type": "history", "check_date": "2023-07-21", "information": "board", "name": "Kapli\u010dka u Bukov\u00e9", "tourism": "information"}}, {"type": "node", "id": 5979978220, "lat": 48.7828696, "lon": 14.7890715, "tags": {"board_type": "history", "information": "board", "name": "Zevl\u016fv ml\u00fdn", "tourism": "information"}}, {"type": "node", "id": 5979978221, "lat": 48.7824238, "lon": 14.7897874, "tags": {"name": "Expozice historick\u00fdch zm\u011bd\u011blsk\u00fdch stroj\u016f", "tourism": "attraction"}}, {"type": "node", "id": 6037358409, "lat": 48.7930559, "lon": 14.78807, "tags": {"amenity": "shelter", "shelter_type": "picnic_shelter"}}, {"type": "node", "id": 6037358410, "lat": 48.7931636, "lon": 14.7893763, "tags": {"board_type": "history", "information": "board", "name": "Vesni\u010dka I", "ref": "8", "tourism": "information"}}, {"type": "node", "id": 6037358413, "lat": 48.7938981, "lon": 14.7895414, "tags": {"board_type": "history", "information": "board", "name": "Vesni\u010dka II", "ref": "9", "tourism": "information"}}, {"type": "node", "id": 6037358420, "lat": 48.7937623, "lon": 14.7883178, "tags": {"board_type": "history", "information": "board", "name": "Vesni\u010dka III", "ref": "10", "tourism": "information"}}, {"type": "node", "id": 6037358426, "lat": 48.7923039, "lon": 14.7820616, "tags": {"board_type": "history", "information": "board", "name": "Obelisk - Kapinos", "ref": "7", "tourism": "information"}}, {"type": "node", "id": 6037358429, "lat": 48.7912842, "lon": 14.7831098, "tags": {"board_type": "history", "information": "board", "name": "Z\u00e1meck\u00e1 zahrada", "ref": "6", "tourism": "information"}}, {"type": "node", "id": 6037358430, "lat": 48.7911701, "lon": 14.7830803, "tags": {"board_type": "history", "information": "board", "name": "Z\u00e1meck\u00e9 interi\u00e9ry", "ref": "5", "tourism": "information"}}, {"type": "node", "id": 6037358439, "lat": 48.7894088, "lon": 14.7766904, "tags": {"board_type": "information", "check_date": "2025-11-17", "information": "board", "name": "Sokol\u00ed hn\u00edzdo - Nov\u00e9 Hrady", "tourism": "information"}}, {"type": "node", "id": 6037358440, "lat": 48.7894154, "lon": 14.7766644, "tags": {"board_type": "information", "check_date": "2025-11-17", "information": "board", "name": "Pam\u011bt\u00ed Novohradska", "tourism": "information"}}, {"type": "node", "id": 6037358441, "lat": 48.7894113, "lon": 14.7766402, "tags": {"board_type": "history", "check_date": "2025-11-17", "information": "board", "name": "Buquoysk\u00e1 krajina", "ref": "1", "tourism": "information"}}, {"type": "node", "id": 6037358448, "lat": 48.7871831, "lon": 14.7717751, "tags": {"board_type": "information", "information": "board", "name": "Nau\u010dn\u00e1 stezka Ter\u010dino \u00fadol\u00ed", "ref": "1", "tourism": "information"}}, {"type": "node", "id": 6037358449, "lat": 48.7871659, "lon": 14.7717483, "tags": {"board_type": "information", "information": "board", "name": "P\u0159eshrani\u010dn\u00ed stezka zdrav\u00ed", "tourism": "information"}}, {"type": "node", "id": 6037358450, "lat": 48.7864243, "lon": 14.7708994, "tags": {"board_type": "history", "information": "board", "name": "D\u016fm dvorn\u00edho kol\u00e1\u0159e", "ref": "15", "tourism": "information"}}, {"type": "node", "id": 6037358456, "lat": 48.7824786, "lon": 14.759092, "tags": {"board_type": "information", "information": "board", "name": "P\u0159eshrani\u010dn\u00ed stezka zdrav\u00ed", "tourism": "information"}}, {"type": "node", "id": 6037358463, "lat": 48.7849905, "lon": 14.7693093, "tags": {"board_type": "information", "information": "board", "name": "P\u0159ivad\u011b\u010d pro Kapinosk\u00e9 rybn\u00edky", "tourism": "information"}}, {"type": "node", "id": 6037593058, "lat": 48.81142, "lon": 14.7779672, "tags": {"board_type": "history", "information": "board", "name": "Obelisk - Kapinos", "ref": "13", "tourism": "information"}}, {"type": "node", "id": 6037626228, "lat": 48.7871835, "lon": 14.7702512, "tags": {"board_type": "history", "information": "board", "name": "Poplu\u017en\u00ed dv\u016fr", "ref": "14", "tourism": "information"}}, {"type": "node", "id": 6037626229, "lat": 48.7897022, "lon": 14.7792244, "tags": {"board_type": "history", "check_date": "2025-11-17", "information": "board", "name": "Rezidence", "ref": "3", "tourism": "information"}}, {"type": "node", "id": 6037626230, "lat": 48.7896978, "lon": 14.7834939, "tags": {"board_type": "history", "information": "board", "name": "J\u00edzd\u00e1rna", "ref": "20", "tourism": "information"}}, {"type": "node", "id": 6037660931, "lat": 48.7799942, "lon": 14.7526175, "tags": {"board_type": "history", "check_date": "2025-10-16", "information": "board", "name": "Vodop\u00e1d", "ref": "18", "tourism": "information"}}, {"type": "node", "id": 6037660932, "lat": 48.781526, "lon": 14.7639283, "tags": {"board_type": "history", "check_date": "2025-11-16", "information": "board", "name": "\u0160v\u00fdcarsk\u00e1 chata", "ref": "19", "tourism": "information"}}, {"type": "node", "id": 6051476352, "lat": 48.7776584, "lon": 14.7454927, "tags": {"information": "guidepost", "operator": "cz:K\u010cT", "tourism": "information"}}, {"type": "node", "id": 6051476355, "lat": 48.7775867, "lon": 14.756548, "tags": {"hiking": "yes", "information": "guidepost", "name": "U odpo\u010d\u00edvadla", "operator": "cz:K\u010cT", "ref": "CB287", "tourism": "information"}}, {"type": "node", "id": 6051476369, "lat": 48.774871, "lon": 14.7507437, "tags": {"board_type": "nature", "check_date": "2025-10-19", "information": "board", "name": "Romanticky upraven\u00e1 krajina", "tourism": "information"}}, {"type": "node", "id": 6051476375, "lat": 48.7779322, "lon": 14.7576428, "tags": {"hiking": "yes", "information": "guidepost", "name": "U pam\u00e1tn\u00e9ho dubu", "operator": "cz:K\u010cT", "ref": "CB166", "tourism": "information"}}, {"type": "node", "id": 6516859535, "lat": 48.8377654, "lon": 14.7727469, "tags": {"board_type": "history", "information": "board", "name": "\u0160irok\u00e1 alej", "tourism": "information"}}, {"type": "node", "id": 6700927766, "lat": 48.9070206, "lon": 14.7381201, "tags": {"information": "map", "tourism": "information"}}, {"type": "node", "id": 6700936392, "lat": 48.9300679, "lon": 14.7412247, "tags": {"information": "map", "tourism": "information"}}, {"type": "node", "id": 6702593406, "lat": 48.9083894, "lon": 14.739892}, {"type": "node", "id": 6702593407, "lat": 48.9083597, "lon": 14.739889}, {"type": "node", "id": 6702593408, "lat": 48.9083615, "lon": 14.739847}, {"type": "node", "id": 6702593409, "lat": 48.9083913, "lon": 14.73985}, {"type": "node", "id": 6841557843, "lat": 48.7631045, "lon": 14.7962292, "tags": {"board_type": "nature", "information": "board", "name": "Lesn\u00ed rybn\u00edky", "tourism": "information"}}, {"type": "node", "id": 7247910861, "lat": 48.8729695, "lon": 14.655211, "tags": {"attraction": "animal", "name": "Medv\u011bd hn\u011bd\u00fd", "tourism": "attraction"}}, {"type": "node", "id": 7247910867, "lat": 48.8731459, "lon": 14.655278, "tags": {"attraction": "animal", "name": "Lvi", "tourism": "attraction"}}, {"type": "node", "id": 7247916534, "lat": 48.8732643, "lon": 14.6554338, "tags": {"attraction": "animal", "name": "Lvi", "tourism": "attraction"}}, {"type": "node", "id": 7247916535, "lat": 48.873402, "lon": 14.6556127, "tags": {"attraction": "animal", "name": "Tyg\u0159i", "tourism": "attraction"}}, {"type": "node", "id": 7247916536, "lat": 48.8735691, "lon": 14.6557733, "tags": {"attraction": "animal", "name": "Vlci", "tourism": "attraction"}}, {"type": "node", "id": 7247916537, "lat": 48.873763, "lon": 14.6557123, "tags": {"attraction": "animal", "name": "Opi\u010dky", "tourism": "attraction"}}, {"type": "node", "id": 7247916538, "lat": 48.8739314, "lon": 14.6558668, "tags": {"attraction": "animal", "name": "Zv\u00ed\u0159ata Ameriky", "tourism": "attraction"}}, {"type": "node", "id": 7247916539, "lat": 48.8740397, "lon": 14.6561046, "tags": {"attraction": "animal", "name": "Lamy", "tourism": "attraction"}}, {"type": "node", "id": 7247916540, "lat": 48.8738458, "lon": 14.655444, "tags": {"attraction": "animal", "name": "\u0160akali", "tourism": "attraction"}}, {"type": "node", "id": 7248222708, "lat": 48.8732794, "lon": 14.6550287, "tags": {"attraction": "animal", "name": "\u017delvy", "tourism": "attraction"}}, {"type": "node", "id": 7248222714, "lat": 48.8735312, "lon": 14.6553107, "tags": {"attraction": "animal", "name": "Levharti", "tourism": "attraction"}}, {"type": "node", "id": 7248222723, "lat": 48.87372, "lon": 14.6553465, "tags": {"attraction": "animal", "name": "Lvi", "tourism": "attraction"}}, {"type": "node", "id": 7248222728, "lat": 48.8737904, "lon": 14.6555883, "tags": {"attraction": "animal", "name": "Rys ostrovid", "tourism": "attraction"}}, {"type": "node", "id": 7248222737, "lat": 48.8735757, "lon": 14.6551263, "tags": {"attraction": "animal", "name": "Hroch", "tourism": "attraction"}}, {"type": "node", "id": 7248222744, "lat": 48.8733772, "lon": 14.6548916, "tags": {"attraction": "animal", "name": "Lemu\u0159i, ibisi, pelik\u00e1ni", "tourism": "attraction"}}, {"type": "node", "id": 7248222745, "lat": 48.873305, "lon": 14.6547615, "tags": {"attraction": "animal", "name": "Nos\u00e1l \u010derven\u00fd", "tourism": "attraction"}}, {"type": "node", "id": 7248222767, "lat": 48.8739956, "lon": 14.6554929, "tags": {"attraction": "animal", "name": "Buvoli", "tourism": "attraction"}}, {"type": "node", "id": 7248222772, "lat": 48.8737474, "lon": 14.6559042, "tags": {"attraction": "animal", "name": "Prase kade\u0159av\u00e9", "tourism": "attraction"}}, {"type": "node", "id": 7248222777, "lat": 48.8736988, "lon": 14.6558149, "tags": {"attraction": "animal", "name": "Zoboro\u017eec", "tourism": "attraction"}}, {"type": "node", "id": 7248232890, "lat": 48.874709, "lon": 14.6554546, "tags": {"attraction": "animal", "name": "Dom\u00e1c\u00ed zv\u00ed\u0159ata", "tourism": "attraction"}}, {"type": "node", "id": 7248232891, "lat": 48.8745186, "lon": 14.6561691, "tags": {"attraction": "animal", "name": "Africk\u00fd v\u00fdb\u011bh", "tourism": "attraction"}}, {"type": "node", "id": 7248250461, "lat": 48.8729927, "lon": 14.6549955, "tags": {"attraction": "animal", "name": "Hadi", "tourism": "attraction"}}, {"type": "node", "id": 7248250465, "lat": 48.873183, "lon": 14.6549225, "tags": {"attraction": "animal", "name": "Giboni", "tourism": "attraction"}}, {"type": "node", "id": 7248250470, "lat": 48.8731166, "lon": 14.6549773, "tags": {"attraction": "animal", "name": "\u0160impanzi", "tourism": "attraction"}}, {"type": "node", "id": 7248250475, "lat": 48.8730515, "lon": 14.6550316, "tags": {"attraction": "animal", "name": "Pavi\u00e1ni", "tourism": "attraction"}}, {"type": "node", "id": 7248250480, "lat": 48.8732224, "lon": 14.654845, "tags": {"attraction": "animal", "name": "Ov\u00edje\u010di", "tourism": "attraction"}}, {"type": "node", "id": 7248267829, "lat": 48.8731031, "lon": 14.6549054, "tags": {"attraction": "animal", "name": "Akvater\u00e1ria", "tourism": "attraction"}}, {"type": "node", "id": 7248268085, "lat": 48.8731849, "lon": 14.6547505, "tags": {"attraction": "animal", "name": "Papou\u0161ci", "tourism": "attraction"}}, {"type": "node", "id": 7706766955, "lat": 48.7664568, "lon": 14.7908871, "tags": {"board_type": "history", "description": "Stezkou p\u00e1tera Bonfilia", "information": "board", "name": "Veve\u0159\u00ed", "tourism": "information"}}, {"type": "node", "id": 7706800839, "lat": 48.7685901, "lon": 14.7996353, "tags": {"board_type": "nature", "information": "board", "name": "Kraj pod Mandlsteinem: Skaleck\u00e1 vrchovina", "tourism": "information"}}, {"type": "node", "id": 7926119613, "lat": 48.8797469, "lon": 14.644432, "tags": {"board_type": "information", "information": "board", "name": "Kudy kam v okol\u00ed Borovan", "tourism": "information"}}, {"type": "node", "id": 7926119615, "lat": 48.8978036, "lon": 14.6421786, "tags": {"board_type": "information", "information": "board", "name": "Kudy kam v okol\u00ed Borovan", "tourism": "information"}}, {"type": "node", "id": 7934650866, "lat": 48.8774021, "lon": 14.7049998}, {"type": "node", "id": 7934650867, "lat": 48.8773225, "lon": 14.7051651}, {"type": "node", "id": 8006943002, "lat": 48.8399404, "lon": 14.6368381, "tags": {"information": "board", "name": "Trhov\u00e9 Sviny", "tourism": "information"}}, {"type": "node", "id": 8064908972, "lat": 48.8913891, "lon": 14.64248}, {"type": "node", "id": 8064908973, "lat": 48.8914096, "lon": 14.6424871}, {"type": "node", "id": 8064908974, "lat": 48.8914242, "lon": 14.6423896}, {"type": "node", "id": 8064908975, "lat": 48.8914037, "lon": 14.6423826}, {"type": "node", "id": 8064950514, "lat": 48.8458848, "lon": 14.7550494, "tags": {"information": "board", "tourism": "information"}}, {"type": "node", "id": 8064970858, "lat": 48.877302, "lon": 14.7051422}, {"type": "node", "id": 8064970859, "lat": 48.8773815, "lon": 14.7049769}, {"type": "node", "id": 8064970867, "lat": 48.8776471, "lon": 14.7042083}, {"type": "node", "id": 8064970868, "lat": 48.8776333, "lon": 14.7041931}, {"type": "node", "id": 8064970869, "lat": 48.8776613, "lon": 14.7041343}, {"type": "node", "id": 8064970870, "lat": 48.8776751, "lon": 14.7041495}, {"type": "node", "id": 8605291914, "lat": 48.8902182, "lon": 14.726442, "tags": {"bicycle": "yes", "hiking": "yes", "information": "map", "map_size": "region", "map_type": "topo", "name": "J\u00edlovice", "tourism": "information"}}, {"type": "node", "id": 8809711442, "lat": 48.8386856, "lon": 14.7530344, "tags": {"board_type": "nature", "information": "board", "name": "Trasa pta\u010d\u00edch budek - Budka typu Lejskovn\u00edk", "tourism": "information"}}, {"type": "node", "id": 8874526748, "lat": 48.7633467, "lon": 14.782645, "tags": {"alt_name": "Krop\u0161l\u00e1k", "board_type": "history", "information": "board", "name": "M\u00fdtiny", "tourism": "information"}}, {"type": "node", "id": 8874560886, "lat": 48.7589183, "lon": 14.7666946, "tags": {"board_type": "history", "information": "board", "name": "Vyhl\u00eddky", "name:de": "Eckersee", "tourism": "information"}}, {"type": "node", "id": 8893069721, "lat": 48.7889527, "lon": 14.7813995, "tags": {"check_date": "2025-11-17", "information": "board", "name": "Nov\u00e9 Hrady", "tourism": "information"}}, {"type": "node", "id": 8893069722, "lat": 48.7897488, "lon": 14.7865372, "tags": {"board_type": "history", "information": "board", "name": "Nov\u00e9 Hrady", "tourism": "information"}}, {"type": "node", "id": 8893069723, "lat": 48.7794212, "lon": 14.770235, "tags": {"information": "board", "name": "Jetzkobrunn", "tourism": "information"}}, {"type": "node", "id": 8901543604, "lat": 48.7610588, "lon": 14.734094, "tags": {"information": "board", "name": "Novohradsko-Doudlebsko", "tourism": "information"}}, {"type": "node", "id": 8901564442, "lat": 48.8033878, "lon": 14.7873115, "tags": {"board_type": "history", "description": "Historicko nau\u010dn\u00e1 stezka Pam\u011bti Novohradska", "information": "board", "name": "\u0160tipto\u0148", "tourism": "information"}}, {"type": "node", "id": 9404148806, "lat": 48.8873287, "lon": 14.6190019, "tags": {"bicycle": "yes", "information": "guidepost", "operator": "cz:K\u010cT", "ref": "none", "tourism": "information"}}, {"type": "node", "id": 9741827105, "lat": 48.831114, "lon": 14.6462731, "tags": {"board_type": "history", "information": "board", "name": "Ml\u00fdny", "ref": "2", "tourism": "information"}}, {"type": "node", "id": 9741827106, "lat": 48.8278659, "lon": 14.6495119, "tags": {"board_type": "history", "information": "board", "name": "Poldr", "ref": "3", "tourism": "information"}}, {"type": "node", "id": 9741827107, "lat": 48.8232946, "lon": 14.6482452, "tags": {"board_type": "history", "information": "board", "name": "Vierkant", "ref": "4", "tourism": "information"}}, {"type": "node", "id": 9741827108, "lat": 48.8211909, "lon": 14.6527117, "tags": {"board_type": "history", "information": "board", "name": "Prel\u00e1t", "ref": "5", "tourism": "information"}}, {"type": "node", "id": 9741827110, "lat": 48.8209314, "lon": 14.6616879, "tags": {"board_type": "nature", "information": "board", "name": "Velk\u00fd P\u011b\u010d\u00ednsk\u00fd rybn\u00edk", "ref": "6", "tourism": "information"}}, {"type": "node", "id": 9741827112, "lat": 48.8174243, "lon": 14.6693894, "tags": {"board_type": "history", "information": "board", "name": "P\u011b\u010d\u00edn", "ref": "7", "tourism": "information"}}, {"type": "node", "id": 9741859574, "lat": 48.7926061, "lon": 14.6995124, "tags": {"board_type": "history", "information": "board", "name": "Bo\u017eejov", "tourism": "information"}}, {"type": "node", "id": 9750976237, "lat": 48.7905149, "lon": 14.7815774, "tags": {"bicycle": "yes", "information": "guidepost", "operator": "cz:K\u010cT", "ref": "none", "tourism": "information"}}, {"type": "node", "id": 10968667665, "lat": 48.8413591, "lon": 14.7048397, "tags": {"board_type": "notice", "information": "board", "tourism": "information"}}, {"type": "node", "id": 10968667680, "lat": 48.8411503, "lon": 14.7049144, "tags": {"board_type": "history", "information": "board", "name": "Novohradsko", "tourism": "information"}}, {"type": "node", "id": 11139049932, "lat": 48.7806503, "lon": 14.7188175, "tags": {"description": "Historicko nau\u010dn\u00e1 stezka Pam\u011bti Novohradska", "information": "board", "name": "Historie tvrze ve Sv\u00e9boh\u00e1ch", "tourism": "information"}}, {"type": "node", "id": 11150907195, "lat": 48.7905382, "lon": 14.7817812, "tags": {"board_type": "history", "direction": "15", "information": "board", "name": "Z\u00e1mek", "operator": "\u00dastav d\u011bjin um\u011bn\u00ed AV \u010cR, v.v.i.", "tourism": "information"}}, {"type": "node", "id": 11150907196, "lat": 48.7905502, "lon": 14.7818354, "tags": {"board_type": "history", "direction": "345", "information": "board", "name": "Nov\u00fd z\u00e1mek", "operator": "Novohradsk\u00e1 ob\u010dansk\u00e1 spole\u010dnost o.s.", "tourism": "information"}}, {"type": "node", "id": 11151589734, "lat": 48.7565846, "lon": 14.6766328, "tags": {"board_type": "history", "direction": "165", "information": "board", "name": "Rychnov u Nov\u00fdch Hrad\u016f", "operator": "Novohradsk\u00e1 ob\u010dansk\u00e1 spole\u010dnost o.s.", "tourism": "information"}}, {"type": "node", "id": 11151633123, "lat": 48.7800857, "lon": 14.6693828, "tags": {"board_type": "history", "direction": "330", "information": "board", "name": "Kamenn\u00e1", "operator": "Novohradsk\u00e1 ob\u010dansk\u00e1 spole\u010dnost o.s.", "tourism": "information"}}, {"type": "node", "id": 11151638145, "lat": 48.756592, "lon": 14.6766714, "tags": {"board_type": "history", "direction": "150", "information": "board", "name": "Rychnov u Nov\u00fdch Hrad\u016f", "operator": "Ministerstvo pro m\u00edstn\u00ed rozvoj \u010cR", "tourism": "information"}}, {"type": "node", "id": 11151656910, "lat": 48.7953356, "lon": 14.681837, "tags": {"board_type": "history", "direction": "285", "information": "board", "name": "\u017dumberk u Nov\u00fdch Hrad\u016f v Ji\u017en\u00edch \u010cech\u00e1ch", "tourism": "information"}}, {"type": "node", "id": 11463083939, "lat": 48.7897714, "lon": 14.7783739, "tags": {"information": "guidepost", "tourism": "information"}}, {"type": "node", "id": 11988836624, "lat": 48.7980277, "lon": 14.6532484, "tags": {"board_type": "history", "information": "board", "name": "Romain Rolland", "tourism": "information"}}, {"type": "node", "id": 11988836626, "lat": 48.8978138, "lon": 14.7212005, "tags": {"amenity": "shelter", "shelter_type": "picnic_shelter"}}, {"type": "node", "id": 12051785263, "lat": 48.7719852, "lon": 14.6843242, "tags": {"ele": "624", "natural": "peak"}}, {"type": "node", "id": 12051805210, "lat": 48.7579137, "lon": 14.6838493, "tags": {"ele": "620", "natural": "peak"}}, {"type": "node", "id": 12051805211, "lat": 48.7608492, "lon": 14.6806537, "tags": {"ele": "595", "natural": "peak"}}, {"type": "node", "id": 12051808496, "lat": 48.7792543, "lon": 14.6860495, "tags": {"ele": "601", "natural": "peak"}}, {"type": "node", "id": 12051822581, "lat": 48.7762305, "lon": 14.6847427, "tags": {"ele": "631", "name": "Kamenn\u00e1 hora", "natural": "peak"}}, {"type": "node", "id": 12052842458, "lat": 48.7629862, "lon": 14.6562552, "tags": {"ele": "619", "natural": "peak"}}, {"type": "node", "id": 12052903974, "lat": 48.7684856, "lon": 14.6635565, "tags": {"ele": "615", "natural": "peak"}}, {"type": "node", "id": 12053431149, "lat": 48.7537632, "lon": 14.6074371, "tags": {"tourism": "viewpoint"}}, {"type": "node", "id": 12054590427, "lat": 48.7639247, "lon": 14.6755303, "tags": {"ele": "585", "natural": "peak"}}, {"type": "node", "id": 12054932059, "lat": 48.7625576, "lon": 14.6761961, "tags": {"ele": "586", "natural": "peak"}}, {"type": "node", "id": 12061539213, "lat": 48.8388863, "lon": 14.6379214, "tags": {"board_type": "history", "description": "NS Trhov\u00e9 Sviny zbo\u017en\u00e9 i h\u0159\u00ed\u0161n\u00e9", "information": "board", "name": "Kol\u00edn\u016f ml\u00fdn", "ref": "1", "tourism": "information"}}, {"type": "node", "id": 12061774067, "lat": 48.845256, "lon": 14.6013634, "tags": {"board_type": "history", "description": "NS Trhov\u00e9 Sviny mezi nebem a zem\u00ed", "information": "board", "name": "B\u0159ez\u00ed", "ref": "5", "tourism": "information"}}, {"type": "node", "id": 12061873230, "lat": 48.7608369, "lon": 14.6229041, "tags": {"board_type": "history", "information": "board", "name": "Kostel sv. Vav\u0159ince", "tourism": "information"}}, {"type": "node", "id": 12063345012, "lat": 48.7892158, "lon": 14.7756233, "tags": {"amenity": "shelter"}}, {"type": "node", "id": 12529533109, "lat": 48.8349029, "lon": 14.7667433, "tags": {"access": "yes", "amenity": "shelter", "bench": "yes", "capacity": "4", "fee": "no", "fireplace": "no", "name": "\u00datulna Pl\u00e1\u0148sk\u00e1 rybn\u00edk", "note": "https://lesycr.cz/tiskova-zprava/jedenatricet-pristresku-ve-kterych-se-da-v-nouzi-i-prespat-za-rok-postavily-u-dalkovych-turistickych-tras-lesy-ceske-republiky/", "operator": "Lesy \u010cR", "shelter_type": "basic_hut"}}, {"type": "node", "id": 12544036568, "lat": 48.8416987, "lon": 14.6353762, "tags": {"board_type": "history", "description": "Trhov\u00e9 Sviny mezi nebem a zem\u00ed", "information": "board", "name": "Okresn\u00ed m\u011bsto", "ref": "1", "tourism": "information"}}, {"type": "node", "id": 12544176401, "lat": 48.8341174, "lon": 14.6271267, "tags": {"board_type": "history", "description": "Trhov\u00e9 Sviny mezi nebem a zem\u00ed", "information": "board", "name": "Vodojem", "ref": "10", "tourism": "information"}}, {"type": "node", "id": 12544176418, "lat": 48.8282099, "lon": 14.6239036, "tags": {"board_type": "history", "description": "Trhov\u00e9 Sviny mezi nebem a zem\u00ed", "information": "board", "name": "Po\u010d\u00e1tky svinensk\u00e9ho pr\u016fmyslu", "ref": "9", "tourism": "information"}}, {"type": "node", "id": 12544176421, "lat": 48.8292574, "lon": 14.616406, "tags": {"board_type": "history", "description": "Trhov\u00e9 Sviny mezi nebem a zem\u00ed", "information": "board", "name": "Lni\u0161t\u011b", "ref": "8", "tourism": "information"}}, {"type": "node", "id": 12544176422, "lat": 48.8310706, "lon": 14.6112919, "tags": {"board_type": "history", "description": "Trhov\u00e9 Sviny mezi nebem a zem\u00ed", "information": "board", "name": "V\u00fdhledy do krajiny: co je vid\u011bt", "ref": "7", "tourism": "information"}}, {"type": "node", "id": 12544176426, "lat": 48.8414268, "lon": 14.6029568, "tags": {"board_type": "history", "description": "Trhov\u00e9 Sviny mezi nebem a zem\u00ed", "information": "board", "name": "K\u0159\u00ed\u017eky na cest\u011b", "ref": "6", "tourism": "information"}}, {"type": "node", "id": 12544176431, "lat": 48.8425856, "lon": 14.6068942, "tags": {"board_type": "history", "description": "Trhov\u00e9 Sviny mezi nebem a zem\u00ed", "information": "board", "name": "Pt\u00e1ci", "ref": "4", "tourism": "information"}}, {"type": "node", "id": 12544176433, "lat": 48.8422305, "lon": 14.6085839, "tags": {"board_type": "history", "description": "Trhov\u00e9 Sviny mezi nebem a zem\u00ed", "information": "board", "name": "\u00davozy a star\u00e9 cesty", "ref": "3", "tourism": "information"}}, {"type": "node", "id": 12544176434, "lat": 48.8432453, "lon": 14.6168004, "tags": {"board_type": "history", "description": "Trhov\u00e9 Sviny mezi nebem a zem\u00ed", "information": "board", "name": "St\u0159elnice", "ref": "2", "tourism": "information"}}, {"type": "node", "id": 12702451909, "lat": 48.9406824, "lon": 14.6993535, "tags": {"information": "map", "map_type": "scheme", "name": "\u010ceskobud\u011bjovicko", "tourism": "information"}}, {"type": "node", "id": 12827181129, "lat": 48.7949415, "lon": 14.6817036, "tags": {"tourism": "viewpoint"}}, {"type": "node", "id": 12853894594, "lat": 48.8978048, "lon": 14.7210447, "tags": {"board_type": "nature", "information": "board", "name": "Nau\u010dn\u00e1 stezka \"V lou\u010dk\u00e1ch\" J\u00edlovice", "tourism": "information"}}, {"type": "node", "id": 12853894595, "lat": 48.8978197, "lon": 14.7215803, "tags": {"board_type": "nature", "information": "board", "name": "P\u0159\u00edroda je d\u016fmysln\u00e1", "ref": "1", "tourism": "information"}}, {"type": "node", "id": 12853894597, "lat": 48.8980489, "lon": 14.7219309, "tags": {"board_type": "nature", "information": "board", "name": "Mot\u00fdli", "ref": "2", "tourism": "information"}}, {"type": "node", "id": 12853894598, "lat": 48.8981664, "lon": 14.7213477, "tags": {"board_type": "nature", "information": "board", "name": "Pot\u00e1pn\u00edci", "ref": "3", "tourism": "information"}}, {"type": "node", "id": 12853894599, "lat": 48.898956, "lon": 14.7208149, "tags": {"board_type": "nature", "information": "board", "name": "Louka", "ref": "4", "tourism": "information"}}, {"type": "node", "id": 12853894600, "lat": 48.8995825, "lon": 14.7208135, "tags": {"board_type": "nature", "information": "board", "ref": "5", "tourism": "information"}}, {"type": "node", "id": 12853952101, "lat": 48.8998502, "lon": 14.7208831, "tags": {"board_type": "nature", "information": "board", "name": "\u017d\u00e1by", "ref": "6", "tourism": "information"}}, {"type": "node", "id": 12853952102, "lat": 48.900048, "lon": 14.7203538, "tags": {"board_type": "nature", "information": "board", "name": "Vodn\u00ed \u017eivo\u010dichov\u00e9", "ref": "7", "tourism": "information"}}, {"type": "node", "id": 12853952103, "lat": 48.8993704, "lon": 14.7204138, "tags": {"board_type": "nature", "information": "board", "name": "Hladiny t\u016fn\u00ed", "ref": "8", "tourism": "information"}}, {"type": "node", "id": 12853952104, "lat": 48.8991911, "lon": 14.7204966, "tags": {"board_type": "nature", "information": "board", "name": "Obna\u017een\u00e9 dno", "ref": "9", "tourism": "information"}}, {"type": "node", "id": 12853952105, "lat": 48.8986651, "lon": 14.7206217, "tags": {"board_type": "nature", "information": "board", "name": "Louka", "ref": "10", "tourism": "information"}}, {"type": "node", "id": 12853952106, "lat": 48.8979521, "lon": 14.7208062, "tags": {"board_type": "nature", "information": "board", "name": "\u010colci", "ref": "11", "tourism": "information"}}, {"type": "node", "id": 12853952107, "lat": 48.8978722, "lon": 14.7209953, "tags": {"board_type": "nature", "information": "board", "name": "Hadi", "ref": "12", "tourism": "information"}}, {"type": "node", "id": 12856302196, "lat": 48.8911959, "lon": 14.7254677, "tags": {"name": "betl\u00e9m", "tourism": "attraction"}}, {"type": "node", "id": 12913878139, "lat": 48.7822735, "lon": 14.6415917, "tags": {"board_type": "history", "description": "NS Krajinou Humanity", "information": "board", "name": "Bertha von Suttner, roz. Kinsk\u00e1", "ref": "4", "tourism": "information"}}, {"type": "node", "id": 12913878140, "lat": 48.7827278, "lon": 14.6489406, "tags": {"board_type": "history", "description": "NS Krajinou Humanity", "information": "board", "name": "Mohand\u00e1s Karam\u010dand G\u00e1nd\u00ed", "ref": "3", "tourism": "information"}}, {"type": "node", "id": 12913878143, "lat": 48.8376577, "lon": 14.7724477, "tags": {"amenity": "shelter", "shelter_type": "picnic_shelter"}}, {"type": "node", "id": 12913878144, "lat": 48.837576, "lon": 14.7724772, "tags": {"board_type": "history", "information": "board", "name": "Posezen\u00ed na trase Pta\u010d\u00edch budek", "tourism": "information"}}, {"type": "node", "id": 12918879840, "lat": 48.7979076, "lon": 14.6149588, "tags": {"hiking": "yes", "information": "guidepost", "name": "Slav\u010de", "operator": "cz:K\u010cT", "ref": "CB148", "tourism": "information"}}, {"type": "node", "id": 13119615457, "lat": 48.7567724, "lon": 14.7894335, "tags": {"ele": "584", "natural": "peak"}}, {"type": "node", "id": 13119627046, "lat": 48.7613269, "lon": 14.7941712, "tags": {"ele": "573", "natural": "peak"}}, {"type": "node", "id": 13119627048, "lat": 48.7572711, "lon": 14.795078, "tags": {"ele": "590", "natural": "peak"}}, {"type": "node", "id": 13119627440, "lat": 48.7585175, "lon": 14.8000426, "tags": {"ele": "598", "natural": "peak"}}, {"type": "node", "id": 13119658540, "lat": 48.7523868, "lon": 14.7944526, "tags": {"ele": "583", "natural": "peak"}}, {"type": "node", "id": 13123030095, "lat": 48.7667875, "lon": 14.7896439, "tags": {"amenity": "shelter", "fireplace": "yes", "picnic_table": "yes"}}, {"type": "node", "id": 13125219288, "lat": 48.758917, "lon": 14.6907136, "tags": {"ele": "639", "name": "Vl\u010dk\u016fv vrch", "natural": "peak"}}, {"type": "node", "id": 13125244476, "lat": 48.7807333, "lon": 14.6850846, "tags": {"ele": "588", "natural": "peak"}}, {"type": "node", "id": 13125247911, "lat": 48.7664968, "lon": 14.7882981, "tags": {"ele": "551", "natural": "peak"}}, {"type": "node", "id": 13125247912, "lat": 48.7692769, "lon": 14.7909569, "tags": {"ele": "549", "natural": "peak"}}, {"type": "node", "id": 13125270873, "lat": 48.781151, "lon": 14.6307583, "tags": {"ele": "634", "natural": "peak"}}, {"type": "node", "id": 13125270874, "lat": 48.7855615, "lon": 14.6291255, "tags": {"ele": "633", "natural": "peak"}}, {"type": "node", "id": 13125270875, "lat": 48.7882223, "lon": 14.625897, "tags": {"ele": "617", "natural": "peak"}}, {"type": "node", "id": 13125270876, "lat": 48.7878961, "lon": 14.6299469, "tags": {"ele": "632", "natural": "peak"}}, {"type": "node", "id": 13125270878, "lat": 48.7921189, "lon": 14.6245194, "tags": {"ele": "608", "natural": "peak"}}, {"type": "node", "id": 13125355888, "lat": 48.7646951, "lon": 14.6408489, "tags": {"ele": "628", "natural": "peak"}}, {"type": "node", "id": 13125355890, "lat": 48.7771534, "lon": 14.6319721, "tags": {"ele": "675", "natural": "peak"}}, {"type": "node", "id": 13125355898, "lat": 48.7626005, "lon": 14.6407973, "tags": {"ele": "628", "natural": "peak"}}, {"type": "node", "id": 13125355900, "lat": 48.7652095, "lon": 14.6644132, "tags": {"ele": "610", "natural": "peak"}}, {"type": "node", "id": 13125387301, "lat": 48.76843, "lon": 14.6541176, "tags": {"ele": "591", "natural": "peak"}}, {"type": "node", "id": 13125387311, "lat": 48.7782594, "lon": 14.6304541, "tags": {"ele": "655", "natural": "peak"}}, {"type": "node", "id": 13125387319, "lat": 48.7623795, "lon": 14.6523183, "tags": {"ele": "599", "natural": "peak"}}, {"type": "node", "id": 13130574820, "lat": 48.7600519, "lon": 14.7320591}, {"type": "node", "id": 13130574821, "lat": 48.7600338, "lon": 14.732101}, {"type": "node", "id": 13130574822, "lat": 48.7600276, "lon": 14.7320986}, {"type": "node", "id": 13130574823, "lat": 48.7600538, "lon": 14.7320673}, {"type": "node", "id": 13130574824, "lat": 48.7600539, "lon": 14.732076}, {"type": "node", "id": 13130574825, "lat": 48.7600524, "lon": 14.7320843}, {"type": "node", "id": 13130574826, "lat": 48.7600492, "lon": 14.7320916}, {"type": "node", "id": 13130574827, "lat": 48.7600448, "lon": 14.7320971}, {"type": "node", "id": 13130574828, "lat": 48.7600395, "lon": 14.7321003}, {"type": "node", "id": 13130574829, "lat": 48.7600222, "lon": 14.7320931}, {"type": "node", "id": 13130574830, "lat": 48.7600183, "lon": 14.7320851}, {"type": "node", "id": 13130574831, "lat": 48.7600165, "lon": 14.7320757}, {"type": "node", "id": 13130574832, "lat": 48.7600169, "lon": 14.7320659}, {"type": "node", "id": 13130574833, "lat": 48.7600195, "lon": 14.7320568}, {"type": "node", "id": 13130574834, "lat": 48.7600239, "lon": 14.7320497}, {"type": "node", "id": 13130574835, "lat": 48.7600297, "lon": 14.7320452}, {"type": "node", "id": 13130574836, "lat": 48.7600361, "lon": 14.7320439}, {"type": "node", "id": 13130574837, "lat": 48.7600424, "lon": 14.7320461}, {"type": "node", "id": 13130574838, "lat": 48.7600479, "lon": 14.7320513}, {"type": "node", "id": 13136735721, "lat": 48.8354678, "lon": 14.6392882, "tags": {"amenity": "shelter", "shelter_type": "picnic_shelter"}}, {"type": "node", "id": 13136735780, "lat": 48.8349393, "lon": 14.6221431, "tags": {"name": "hamr", "tourism": "attraction"}}, {"type": "node", "id": 13163172373, "lat": 48.7886953, "lon": 14.7908052}, {"type": "node", "id": 13163193685, "lat": 48.7874031, "lon": 14.7806519}, {"type": "node", "id": 13163193686, "lat": 48.7874112, "lon": 14.780725}, {"type": "node", "id": 13163193687, "lat": 48.7873508, "lon": 14.7807402}, {"type": "node", "id": 13163193688, "lat": 48.7873546, "lon": 14.7807749}, {"type": "node", "id": 13163193689, "lat": 48.787367, "lon": 14.7808084}, {"type": "node", "id": 13163193690, "lat": 48.7873573, "lon": 14.7808554}, {"type": "node", "id": 13163193691, "lat": 48.7873255, "lon": 14.7808661}, {"type": "node", "id": 13163193692, "lat": 48.7872981, "lon": 14.7808326}, {"type": "node", "id": 13163193693, "lat": 48.7873069, "lon": 14.780799}, {"type": "node", "id": 13163193694, "lat": 48.7873021, "lon": 14.7807548}, {"type": "node", "id": 13163193695, "lat": 48.7872882, "lon": 14.7807583}, {"type": "node", "id": 13163193696, "lat": 48.78728, "lon": 14.780683}, {"type": "node", "id": 13163305782, "lat": 48.78252, "lon": 14.7921444}, {"type": "node", "id": 13163305783, "lat": 48.7825025, "lon": 14.7920999}, {"type": "node", "id": 13163305784, "lat": 48.7824527, "lon": 14.7921449}, {"type": "node", "id": 13163305785, "lat": 48.7824702, "lon": 14.7921895}, {"type": "node", "id": 13163375045, "lat": 48.7929832, "lon": 14.7878324}, {"type": "node", "id": 13163375046, "lat": 48.7929844, "lon": 14.787878}, {"type": "node", "id": 13163375047, "lat": 48.792949, "lon": 14.7878802}, {"type": "node", "id": 13163375048, "lat": 48.7929478, "lon": 14.7878346}, {"type": "way", "id": 134677218, "nodes": [1480367470, 1480367452, 1480367450, 1480367462, 1480367470], "tags": {"amenity": "shelter", "building": "transportation", "building:ruian:type": "5", "ref:ruian:building": "40505481", "shelter_type": "public_transport", "source": "cuzk:ruian"}}, {"type": "way", "id": 212874378, "nodes": [3695856879, 3695856881, 3695856880, 3695856878, 3695856876, 3695856874, 3695856872, 3695856870, 3695856868, 3695856866, 3695856864, 3695856865, 3695856867, 3695856869, 3695856871, 3695856873, 3695856875, 3695856877, 3695856879], "tags": {"amenity": "place_of_worship", "building": "church", "building:ruian:type": "5", "historic": "building", "name": "Nejsv\u011bt\u011bj\u0161\u00ed Trojice", "ref:ruian:building": "40570797", "religion": "christian", "since": "1710", "source": "cuzk:ruian", "tourism": "attraction", "wikidata": "Q15406844", "wikipedia": "cs:Kostel Nejsv\u011bt\u011bj\u0161\u00ed Trojice (Trhov\u00e9 Sviny)"}}, {"type": "way", "id": 227223297, "nodes": [2359381471, 2359381466, 2359381467, 2359381479, 2359381471], "tags": {"amenity": "shelter", "building": "residential", "building:levels": "1", "roof:levels": "0", "shelter_type": "public_transport"}}, {"type": "way", "id": 227351720, "nodes": [2360511509, 2360511502, 2360511481, 2360511493, 2360511509], "tags": {"amenity": "shelter", "building": "transportation", "building:ruian:type": "5", "ref:ruian:building": "46943391", "shelter_type": "public_transport", "source": "cuzk:ruian"}}, {"type": "way", "id": 227670795, "nodes": [2363187726, 2363187729, 2363187727, 2363187720, 2363187726], "tags": {"amenity": "shelter", "building": "yes", "shelter_type": "public_transport", "source": "cuzk:ruian"}}, {"type": "way", "id": 234383666, "nodes": [2426385782, 3492843818, 3492843817, 3492843808, 2426385777, 3492843807, 3492843806, 3492843797, 3492843796, 2426385773, 3492843795, 3492843488, 2426385767, 3492843484, 3492843485, 3492843489, 3492843482, 3492843483, 3492843490, 3492843491, 3492843486, 3492843487, 3492843492, 2426385771, 3492843793, 3492843794, 2426385765, 2426385768, 2426385775, 2426385774, 3492843798, 3492843799, 3492843801, 3492843800, 3492843802, 3492843803, 3492843805, 3492843804, 13163172373, 3492843809, 3492843810, 3492843812, 3492843811, 3492843813, 3492843814, 3492843816, 3492843815, 2426385780, 2426385781, 2426385788, 2426385786, 2426385785, 3492843827, 3492843826, 3492843823, 3492843829, 3492843828, 3492843822, 3492843821, 3492843825, 3492843824, 3492843820, 3492843819, 2426385782], "tags": {"building": "yes", "building:material": "brick", "building:ruian:type": "5", "historic": "tomb", "name": "Buquoysk\u00e1 hrobka", "ref:ruian:building": "46918558", "source": "cuzk:ruian", "tourism": "attraction", "wikidata": "Q21012480", "wikimedia_commons": "Category:Buquoysk\u00e1 hrobka (Nov\u00e9 Hrady)", "wikipedia": "cs:Buquoysk\u00e1 hrobka (Nov\u00e9 Hrady)"}}, {"type": "way", "id": 237180250, "nodes": [2451281517, 2451281516, 2451281508, 2451281510, 2451281517], "tags": {"amenity": "shelter", "building": "transportation", "building:ruian:type": "5", "ref:ruian:building": "46903861", "shelter_type": "public_transport", "source": "cuzk:ruian"}}, {"type": "way", "id": 295777752, "nodes": [2995380537, 2995380539, 2995380535, 2995380532, 2995380537], "tags": {"amenity": "shelter", "building": "transportation", "building:ruian:type": "15", "ref:ruian:building": "41756967", "shelter_type": "public_transport", "source": "cuzk:ruian"}}, {"type": "way", "id": 398491674, "nodes": [4012432728, 5533303637, 5533303639, 5533303638, 5533303640, 5533303636, 5533303634, 5533303635, 5533303633, 4012432731, 4012432729, 4012432724, 5533303630, 5533303631, 5533303629, 5533303632, 5533303500, 5533303497, 5533303498, 5533303499, 5533303504, 5533303501, 5533303502, 5533303503, 5533303508, 5533303505, 5533303506, 5533303507, 4012432719, 4012432717, 5533303625, 5533303627, 5533303626, 5533303628, 5533303511, 5533303510, 5533303509, 5533303512, 5533303515, 5533303514, 5533303513, 5533303516, 5533303519, 5533303518, 5533303517, 5533303520, 4012432721, 5533303621, 5533303623, 5533303622, 5533303624, 4012432728]}, {"type": "way", "id": 398491675, "nodes": [4012432726, 4012432730, 4012432727, 4012432723, 4012432720, 4012432718, 4012432722, 4012432726]}, {"type": "way", "id": 407674996, "nodes": [4097034488, 4097034490, 4097034489, 4097034487, 4097034488], "tags": {"amenity": "shelter", "building": "transportation", "building:ruian:type": "5", "ref:ruian:building": "46888659", "shelter_type": "public_transport", "source": "cuzk:ruian"}}, {"type": "way", "id": 486397812, "nodes": [4790141330, 4790141329, 4790141328, 4790141327, 4790141330], "tags": {"amenity": "shelter", "building": "civic", "building:ruian:type": "5", "ref:ruian:building": "41608976", "shelter_type": "public_transport", "source": "cuzk:ruian"}}, {"type": "way", "id": 503316360, "nodes": [4936477551, 4936477550, 4936477549, 4936477548, 4936477551], "tags": {"amenity": "shelter", "bench": "yes", "shelter_type": "public_transport"}}, {"type": "way", "id": 525707724, "nodes": [5113716262, 5113716263, 5113716264, 5113716265, 5113716262], "tags": {"amenity": "shelter", "building": "transportation", "building:levels": "1", "building:ruian:type": "19", "ref:ruian:building": "102615748", "shelter_type": "public_transport", "source": "cuzk:ruian", "start_date": "2020-09-21"}}, {"type": "way", "id": 712977347, "nodes": [6702593409, 6702593406, 6702593407, 6702593408, 6702593409], "tags": {"amenity": "shelter", "building": "yes"}}, {"type": "way", "id": 865264208, "nodes": [8064908972, 8064908973, 8064908974, 8064908975, 8064908972], "tags": {"amenity": "shelter", "bench": "yes", "bin": "yes", "building": "yes", "shelter_type": "public_transport"}}, {"type": "way", "id": 865267345, "nodes": [8064970858, 8064970859, 7934650866, 7934650867, 8064970858], "tags": {"amenity": "shelter", "building": "roof", "shelter_type": "public_transport"}}, {"type": "way", "id": 865267347, "nodes": [8064970867, 8064970868, 8064970869, 8064970870, 8064970867], "tags": {"amenity": "shelter", "bench": "yes", "building": "yes", "shelter_type": "public_transport"}}, {"type": "way", "id": 1428240862, "nodes": [13130574829, 13130574830, 13130574831, 13130574832, 13130574833, 13130574834, 13130574835, 13130574836, 13130574837, 13130574838, 13130574820, 13130574823, 13130574824, 13130574825, 13130574826, 13130574827, 13130574828, 13130574821, 13130574822, 13130574829], "tags": {"amenity": "shelter", "building": "yes", "shelter_type": "gazebo"}}, {"type": "way", "id": 1432094890, "nodes": [13163193685, 13163193686, 13163193687, 13163193688, 13163193689, 13163193690, 13163193691, 13163193692, 13163193693, 13163193694, 13163193695, 13163193696, 13163193685], "tags": {"amenity": "shelter", "building": "yes", "shelter_type": "gazebo"}}, {"type": "way", "id": 1432108740, "nodes": [13163305782, 13163305783, 13163305784, 13163305785, 13163305782], "tags": {"amenity": "shelter", "building": "yes"}}, {"type": "way", "id": 1432116318, "nodes": [13163375045, 13163375046, 13163375047, 13163375048, 13163375045], "tags": {"amenity": "shelter", "building": "yes"}}, {"type": "relation", "id": 5987619, "members": [{"type": "way", "ref": 398491674, "role": "perimeter"}, {"type": "way", "ref": 398491675, "role": ""}, {"type": "way", "ref": 212874378, "role": ""}], "tags": {"amenity": "place_of_worship", "name": "Nejsv\u011bt\u011bj\u0161\u00ed Trojice", "religion": "christian", "tourism": "attraction", "type": "site", "wikidata": "Q15406844", "wikipedia": "cs:Kostel Nejsv\u011bt\u011bj\u0161\u00ed Trojice (Trhov\u00e9 Sviny)"}}]}