{"version": 0.6, "generator": "Overpass API 0.7.62.8 e802775f", "osm3s": {"timestamp_osm_base": "2026-01-04T12:14:30Z", "copyright": "The data included in this document is from www.openstreetmap.org. The data is made available under ODbL."}, "elements": [{"type": "node", "id": 24600267, "lat": 49.6670501, "lon": 14.6241937, "tags": {"name": "Olbramovice", "public_transport": "station", "railway": "station", "wheelchair": "yes", "wikidata": "Q15886961", "wikipedia": "cs:Olbramovice (n\u00e1dra\u017e\u00ed)"}}, {"type": "node", "id": 32546542, "lat": 49.3795422, "lon": 14.6973048, "tags": {"name": "Sezimovo \u00dast\u00ed", "name:de": "Alttabor", "operator": "cz:S\u017dDC", "railway": "halt", "railway:ref": "736124", "wikidata": "Q16600722"}}, {"type": "node", "id": 32546556, "lat": 49.3531406, "lon": 14.7065955, "tags": {"name": "Plan\u00e1 nad Lu\u017enic\u00ed", "operator": "cz:S\u017dDC", "public_transport": "station", "railway": "station", "railway:ref": "736025", "wheelchair": "yes", "wikidata": "Q15886983"}}, {"type": "node", "id": 252677689, "lat": 49.4477959, "lon": 14.5810946, "tags": {"name": "Mezi\u0159\u00ed\u010d\u00ed", "railway": "halt", "wikidata": "Q19400963"}}, {"type": "node", "id": 264548010, "lat": 49.6587131, "lon": 14.5794894, "tags": {"name": "Vrchotovy Janovice", "note": "nz", "railway": "halt", "wikidata": "Q66888167"}}, {"type": "node", "id": 264548124, "lat": 49.6669912, "lon": 14.5393916, "tags": {"name": "Minartice", "railway": "halt", "wikidata": "Q66888168"}}, {"type": "node", "id": 266073195, "lat": 49.5308473, "lon": 14.8081269}, {"type": "node", "id": 266073196, "lat": 49.5309153, "lon": 14.8083339}, {"type": "node", "id": 275111629, "lat": 49.3954819, "lon": 14.6425879, "tags": {"name": "Horky u T\u00e1bora", "operator": "cz:S\u017dDC", "railway": "halt", "railway:ref": "753723", "wikidata": "Q29946170"}}, {"type": "node", "id": 275111710, "lat": 49.3849903, "lon": 14.6291098, "tags": {"name": "Slapy", "operator": "cz:S\u017dDC", "public_transport": "station", "railway": "station", "railway:ref": "753822", "wikidata": "Q25411594"}}, {"type": "node", "id": 275111751, "lat": 49.3815989, "lon": 14.6196996, "tags": {"name": "Lib\u011bjice", "operator": "cz:S\u017dDC", "railway": "halt", "railway:ref": "753921", "wikidata": "Q19400887"}}, {"type": "node", "id": 275407724, "lat": 49.3602204, "lon": 14.5859063, "tags": {"name": "Mal\u0161ice", "operator": "cz:S\u017dDC", "public_transport": "station", "railway": "station", "railway:ref": "754028", "wikidata": "Q15886917"}}, {"type": "node", "id": 275408587, "lat": 49.3490359, "lon": 14.5798188, "tags": {"name": "\u010cenkov u Mal\u0161ic", "operator": "cz:S\u017dDC", "railway": "halt", "railway:ref": "754127", "wikidata": "Q18817282"}}, {"type": "node", "id": 275678584, "lat": 49.3337872, "lon": 14.5727206, "tags": {"name": "T\u0159ebelice", "operator": "cz:S\u017dDC", "railway": "halt", "railway:ref": "754226", "wikidata": "Q18817256"}}, {"type": "node", "id": 281623941, "lat": 49.4137498, "lon": 14.6745804}, {"type": "node", "id": 281623942, "lat": 49.4142108, "lon": 14.6739928}, {"type": "node", "id": 281623943, "lat": 49.4146661, "lon": 14.6748226}, {"type": "node", "id": 281623944, "lat": 49.4146942, "lon": 14.6749315}, {"type": "node", "id": 281623945, "lat": 49.4146631, "lon": 14.6752913}, {"type": "node", "id": 288467264, "lat": 49.4155925, "lon": 14.8106345, "tags": {"name": "Ch\u00fdnov", "public_transport": "station", "railway": "station", "source": "uhul:ortofoto", "wikidata": "Q15886763"}}, {"type": "node", "id": 306693496, "lat": 49.4477842, "lon": 14.492584, "tags": {"name": "Bo\u017eejovice", "public_transport": "station", "railway": "station", "wikidata": "Q15886733"}}, {"type": "node", "id": 306693636, "lat": 49.4405856, "lon": 14.4205146, "tags": {"name": "Sepekov", "railway": "halt", "wheelchair": "no", "wikidata": "Q19401391"}}, {"type": "node", "id": 306693689, "lat": 49.4417394, "lon": 14.3778402, "tags": {"name": "Milevsko", "operator": "cz:S\u017dDC", "public_transport": "station", "railway": "station", "railway:ref": "755520", "wikidata": "Q15886927"}}, {"type": "node", "id": 306693753, "lat": 49.4214595, "lon": 14.3714335, "tags": {"name": "L\u00ed\u0161nice", "railway": "halt", "wikidata": "Q19400895"}}, {"type": "node", "id": 306693768, "lat": 49.4030764, "lon": 14.3461687, "tags": {"name": "Branice", "railway": "station", "wikidata": "Q15886735"}}, {"type": "node", "id": 309475129, "lat": 49.3622876, "lon": 14.9653939, "tags": {"name": "Dobe\u0161ov", "operator": "cz:JHMD", "railway": "halt", "railway:ref": "745927", "wikidata": "Q19400563"}}, {"type": "node", "id": 309492937, "lat": 49.3869069, "lon": 14.9385029, "tags": {"name": "K\u0159e\u010d", "operator": "cz:JHMD", "public_transport": "station", "railway": "station", "railway:ref": "746123"}}, {"type": "node", "id": 309493466, "lat": 49.422403, "lon": 14.9490137, "tags": {"name": "Obrata\u0148 zast\u00e1vka", "operator": "cz:JHMD", "railway": "halt", "railway:ref": "746529", "uic_ref": "5474652"}}, {"type": "node", "id": 444517619, "lat": 49.4504503, "lon": 14.6400616, "tags": {"name": "Nasavrky", "railway": "halt", "wikidata": "Q19401013"}}, {"type": "node", "id": 472105464, "lat": 49.4066301, "lon": 14.9458096, "tags": {"name": "Sudk\u016fv D\u016fl", "operator": "cz:JHMD", "railway": "halt", "railway:ref": "746222"}}, {"type": "node", "id": 637680398, "lat": 49.5305273, "lon": 14.8081267}, {"type": "node", "id": 637680458, "lat": 49.5312883, "lon": 14.8080275}, {"type": "node", "id": 637680488, "lat": 49.5307285, "lon": 14.8082074}, {"type": "node", "id": 659915098, "lat": 49.4216443, "lon": 14.8664947, "tags": {"name": "Po\u0159\u00edn", "railway": "halt", "wikidata": "Q18614027"}}, {"type": "node", "id": 659923762, "lat": 49.4200987, "lon": 14.7699723, "tags": {"name": "Dobronice u Ch\u00fdnova", "railway": "halt", "wikidata": "Q19400569"}}, {"type": "node", "id": 660477284, "lat": 49.6615976, "lon": 14.5564947, "tags": {"name": "Vora\u010dice", "railway": "halt", "wikidata": "Q66888264"}}, {"type": "node", "id": 674807357, "lat": 49.4458265, "lon": 14.598722, "tags": {"name": "Balkova Lhota", "operator": "cz:S\u017dDC", "public_transport": "station", "railway": "station", "railway:ref": "755025", "wikidata": "Q15886695"}}, {"type": "node", "id": 803803779, "lat": 49.638898, "lon": 14.6427914}, {"type": "node", "id": 803803788, "lat": 49.6388938, "lon": 14.6432783}, {"type": "node", "id": 803803793, "lat": 49.6388192, "lon": 14.6432917}, {"type": "node", "id": 803803795, "lat": 49.638642, "lon": 14.6431522}, {"type": "node", "id": 803803800, "lat": 49.6383502, "lon": 14.6430289}, {"type": "node", "id": 803803807, "lat": 49.6383633, "lon": 14.6428353}, {"type": "node", "id": 948899386, "lat": 49.6667854, "lon": 14.5169221, "tags": {"name": "\u0160t\u011btkovice", "railway": "station", "wikidata": "Q15887224"}}, {"type": "node", "id": 972859196, "lat": 49.6581178, "lon": 14.4283267}, {"type": "node", "id": 972859932, "lat": 49.6580765, "lon": 14.4282031}, {"type": "node", "id": 978391468, "lat": 49.4478343, "lon": 14.5354695, "tags": {"name": "Pada\u0159ov", "railway": "halt", "wikidata": "Q19401081"}}, {"type": "node", "id": 1123339097, "lat": 49.5429329, "lon": 14.51126, "tags": {"aerialway": "station", "name": "Javorov\u00e1 sk\u00e1la", "public_transport": "station"}}, {"type": "node", "id": 1123339132, "lat": 49.5498686, "lon": 14.5213173, "tags": {"aerialway": "station", "name": "Mon\u00ednec", "public_transport": "station"}}, {"type": "node", "id": 1123339193, "lat": 49.545856, "lon": 14.5165108, "tags": {"aerialway": "station", "aerialway:access": "entry", "public_transport": "station"}}, {"type": "node", "id": 1129228269, "lat": 49.4143216, "lon": 14.6756435}, {"type": "node", "id": 2768352800, "lat": 49.4289295, "lon": 14.9534616, "tags": {"name": "Obrata\u0148", "operator": "cz:S\u017dDC", "railway": "station", "railway:ref": "746321", "wikidata": "Q15886959"}}, {"type": "node", "id": 2818216853, "lat": 49.6378568, "lon": 14.6195865, "tags": {"name": "Votice", "name:de": "Wotitz", "railway": "station", "wikidata": "Q15887135", "wikipedia": "cs:Votice (n\u00e1dra\u017e\u00ed)"}}, {"type": "node", "id": 2867491002, "lat": 49.6583186, "lon": 14.4290549}, {"type": "node", "id": 2867491003, "lat": 49.6583282, "lon": 14.4290326}, {"type": "node", "id": 2867491004, "lat": 49.6583337, "lon": 14.4290085}, {"type": "node", "id": 2867491005, "lat": 49.6583287, "lon": 14.4289555}, {"type": "node", "id": 2867491006, "lat": 49.6580391, "lon": 14.4280945}, {"type": "node", "id": 2867491007, "lat": 49.6576927, "lon": 14.4282051}, {"type": "node", "id": 2867491008, "lat": 49.6577009, "lon": 14.4284208}, {"type": "node", "id": 2867491009, "lat": 49.6577029, "lon": 14.4284631}, {"type": "node", "id": 2867491011, "lat": 49.6576215, "lon": 14.4284725}, {"type": "node", "id": 2867491012, "lat": 49.6575056, "lon": 14.4284772}, {"type": "node", "id": 2867491013, "lat": 49.6574874, "lon": 14.4283256}, {"type": "node", "id": 2867491014, "lat": 49.6572773, "lon": 14.4283927}, {"type": "node", "id": 2867491015, "lat": 49.6575645, "lon": 14.4286693}, {"type": "node", "id": 2867491016, "lat": 49.6575851, "lon": 14.4286991}, {"type": "node", "id": 2867491017, "lat": 49.6575963, "lon": 14.4287407}, {"type": "node", "id": 2867491018, "lat": 49.657604, "lon": 14.4288197}, {"type": "node", "id": 2867491019, "lat": 49.6576372, "lon": 14.4294025}, {"type": "node", "id": 2867491021, "lat": 49.6583012, "lon": 14.4290742}, {"type": "node", "id": 3592022757, "lat": 49.4186143, "lon": 14.740168, "tags": {"name": "Smyslov", "railway": "halt"}}, {"type": "node", "id": 3751759456, "lat": 49.4147048, "lon": 14.67514}, {"type": "node", "id": 3914861209, "lat": 49.638241, "lon": 14.6428297}, {"type": "node", "id": 3914861210, "lat": 49.6382803, "lon": 14.6426541}, {"type": "node", "id": 3914861211, "lat": 49.6385375, "lon": 14.6426935}, {"type": "node", "id": 3914861246, "lat": 49.6384148, "lon": 14.642663}, {"type": "node", "id": 4017722752, "lat": 49.4723968, "lon": 14.6693219, "tags": {"name": "Chotoviny", "operator": "cz:S\u017dDC", "public_transport": "station", "railway": "station", "railway:ref": "552760"}}, {"type": "node", "id": 4386802893, "lat": 49.3846978, "lon": 14.9426485, "tags": {"name": "St\u0159\u00edte\u017e u \u010cernovic", "operator": "cz:JHMD", "railway": "halt", "railway:ref": "746032"}}, {"type": "node", "id": 4387222159, "lat": 49.4285224, "lon": 14.9534152, "tags": {"name": "Obrata\u0148-JHMD", "operator": "cz:JHMD", "railway": "station", "railway:ref": "007021"}}, {"type": "node", "id": 4677885964, "lat": 49.6592868, "lon": 14.4801135, "tags": {"name": "Kosova Hora", "operator": "Spr\u00e1va \u017eeleznic", "operator:wikidata": "Q1848025", "public_transport": "station", "railway": "station", "wikidata": "Q15886864"}}, {"type": "node", "id": 5648125890, "lat": 49.4140224, "lon": 14.6768475, "tags": {"departures_board": "realtime", "departures_board:speech_output": "no", "ele": "440", "name": "T\u00e1bor", "operator": "Spr\u00e1va \u017eeleznic", "public_transport": "station", "railway": "station", "railway:ref": "736223", "railway:ref:db": "XTT", "start_date": "1871", "uic_ref": "5473622", "wheelchair": "yes", "wikidata": "Q12041537", "wikipedia": "cs:T\u00e1bor (n\u00e1dra\u017e\u00ed)"}}, {"type": "node", "id": 5685683781, "lat": 49.3739481, "lon": 14.9654838, "tags": {"name": "\u010cernovice u T\u00e1bora", "name:cs": "\u010cernovice u T\u00e1bora", "name:de": "Tschernowitz bei Tabor", "operator": "cz:JHMD", "public_transport": "station", "railway": "station", "railway:ref": "746024", "wikidata": "Q56324904"}}, {"type": "node", "id": 5685802409, "lat": 49.3930373, "lon": 14.6930596, "tags": {"name": "T\u00e1bor-\u010c\u00e1p\u016fv Dv\u016fr", "operator": "cz:S\u017dDC", "railway": "halt", "railway:ref": "736132", "wikidata": "Q16612322"}}, {"type": "node", "id": 6969751577, "lat": 49.5313039, "lon": 14.8081592}, {"type": "node", "id": 6969751578, "lat": 49.5312185, "lon": 14.808487}, {"type": "node", "id": 7474358254, "lat": 49.6582696, "lon": 14.4290902}, {"type": "node", "id": 7474358257, "lat": 49.6581561, "lon": 14.4291573}, {"type": "node", "id": 7474358258, "lat": 49.6580794, "lon": 14.429198}, {"type": "node", "id": 7990799059, "lat": 49.5303947, "lon": 14.8080777}, {"type": "node", "id": 7990799060, "lat": 49.5306663, "lon": 14.8080897}, {"type": "node", "id": 7990799061, "lat": 49.5304182, "lon": 14.8079744}, {"type": "node", "id": 9632057107, "lat": 49.5366126, "lon": 14.6545159, "tags": {"name": "Mezno", "operator": "Spr\u00e1va \u017eeleznic", "railway": "halt", "start_date": "2022-07-01", "wikidata": "Q111685698"}}, {"type": "node", "id": 9632057113, "lat": 49.5436258, "lon": 14.6213401, "tags": {"name": "St\u0159ezim\u00ed\u0159", "operator": "Spr\u00e1va \u017eeleznic", "railway": "halt", "start_date": "2022-07-01", "wikidata": "Q111685697"}}, {"type": "node", "id": 9632081819, "lat": 49.5602314, "lon": 14.6137478, "tags": {"name": "\u010cerven\u00fd \u00dajezd u Votic zast\u00e1vka", "operator": "Spr\u00e1va \u017eeleznic", "railway": "halt", "start_date": "2022-07-01", "wikidata": "Q111685695"}}, {"type": "node", "id": 9632081825, "lat": 49.5776661, "lon": 14.5969715, "tags": {"name": "Je\u0161etice", "operator": "Spr\u00e1va \u017eeleznic", "railway": "halt", "start_date": "2022-07-01", "wikidata": "Q111685694"}}, {"type": "node", "id": 9632081828, "lat": 49.6010553, "lon": 14.5844095, "tags": {"name": "He\u0159mani\u010dky", "operator": "Spr\u00e1va \u017eeleznic", "railway": "halt", "start_date": "2022-07-01", "wikidata": "Q111685693"}}, {"type": "node", "id": 9778998459, "lat": 49.5071881, "lon": 14.6595754, "tags": {"name": "Sudom\u011b\u0159ice u T\u00e1bora", "operator": "Spr\u00e1va \u017eeleznic", "railway": "halt", "wikidata": "Q15887100"}}, {"type": "node", "id": 12996850293, "lat": 49.6583335, "lon": 14.4289787}, {"type": "node", "id": 12996866030, "lat": 49.6576302, "lon": 14.4292807}, {"type": "node", "id": 12996866031, "lat": 49.6576357, "lon": 14.4293769}, {"type": "node", "id": 12996866046, "lat": 49.6581367, "lon": 14.42917}, {"type": "node", "id": 13004456092, "lat": 49.6576299, "lon": 14.4292754}, {"type": "node", "id": 13429532570, "lat": 49.5428478, "lon": 14.5114804, "tags": {"aerialway": "station", "aerialway:access": "exit", "public_transport": "station"}}, {"type": "way", "id": 24474341, "nodes": [6969751577, 637680458, 266073195, 7990799060, 7990799061, 7990799059, 637680398, 637680488, 266073196, 6969751578, 6969751577], "tags": {"amenity": "bus_station", "bus": "yes", "name": "Autobusov\u00e9 n\u00e1dra\u017e\u00ed Mlad\u00e1 Vo\u017eice", "public_transport": "station"}}, {"type": "way", "id": 25819652, "nodes": [281623941, 281623942, 281623943, 281623944, 3751759456, 281623945, 1129228269, 281623941], "tags": {"amenity": "bus_station", "bus": "yes", "name": "T\u00e1bor, autobusov\u00e9 n\u00e1dra\u017e\u00ed", "official_name": "T\u00e1bor, aut.n\u00e1dr.", "operator": "Comettplus", "public_transport": "station", "wheelchair": "no"}}, {"type": "way", "id": 66311763, "nodes": [803803779, 803803788, 803803793, 803803795, 803803800, 803803807, 3914861209, 3914861210, 3914861246, 3914861211, 803803779], "tags": {"amenity": "bus_station", "bus": "yes", "name": "Votice, aut.st.", "public_transport": "station"}}, {"type": "way", "id": 282802933, "nodes": [2867491002, 2867491003, 2867491004, 12996850293, 2867491005, 972859196, 972859932, 2867491006, 2867491007, 2867491008, 2867491009, 2867491011, 2867491012, 2867491013, 2867491014, 2867491015, 2867491016, 2867491017, 2867491018, 13004456092, 12996866030, 12996866031, 2867491019, 7474358258, 12996866046, 7474358257, 7474358254, 2867491021, 2867491002], "tags": {"area": "yes", "bus": "yes", "name": "Autobusov\u00e9 n\u00e1dra\u017e\u00ed", "public_transport": "station"}}]}