{"version": 0.6, "generator": "Overpass API 0.7.62.8 e802775f", "osm3s": {"timestamp_osm_base": "2026-01-05T16:31:11Z", "copyright": "The data included in this document is from www.openstreetmap.org. The data is made available under ODbL."}, "elements": [{"type": "node", "id": 478793988, "lat": 49.9164036, "lon": 13.8839567, "tags": {"hiking": "yes", "information": "guidepost", "name": "\u00dadol\u00ed ticha", "operator": "cz:K\u010cT", "ref": "BE014;6047/4", "tourism": "information"}}, {"type": "node", "id": 500082907, "lat": 49.8368193, "lon": 13.9031271, "tags": {"ele": "370", "hiking": "yes", "information": "guidepost", "name": "Ho\u0159ovice (n\u00e1m\u011bst\u00ed)", "official_name": "Ho\u0159ovice (n\u00e1m.)", "operator": "cz:K\u010cT", "ref": "BE134", "tourism": "information"}}, {"type": "node", "id": 568376446, "lat": 49.8687497, "lon": 13.93036, "tags": {"hiking": "yes", "information": "guidepost", "name": "Praskolesy (vlak)", "official_name": "Praskolesy (\u017dST)", "operator": "cz:K\u010cT", "ref": "BE169", "tourism": "information"}}, {"type": "node", "id": 616345172, "lat": 49.7818228, "lon": 13.9872112, "tags": {"ele": "388", "hiking": "yes", "information": "guidepost", "name": "Jince (\u017est)", "operator": "cz:K\u010cT", "ref": "BD055", "tourism": "information"}}, {"type": "node", "id": 759849792, "lat": 49.9276765, "lon": 13.9410991, "tags": {"direction": "0-360", "ele": "536", "name": "Vran\u00ed sk\u00e1la", "natural": "peak", "tourism": "viewpoint", "wheelchair": "no", "wikidata": "Q11937816", "wikipedia": "cs:Vran\u00ed sk\u00e1la"}}, {"type": "node", "id": 766008490, "lat": 49.8110725, "lon": 13.9887387, "tags": {"ele": "654", "name": "Ple\u0161ivec", "natural": "peak", "wikidata": "Q10817265", "wikipedia": "cs:Ple\u0161ivec (Brdsk\u00e1 vrchovina)"}}, {"type": "node", "id": 941960773, "lat": 49.7691687, "lon": 13.9424903, "tags": {"ele": "666.6", "name": "Kon\u00ed\u010dek", "natural": "peak", "source": "gps"}}, {"type": "node", "id": 941960797, "lat": 49.7626162, "lon": 13.9235376, "tags": {"name": "Pozorovatelny", "tourism": "viewpoint"}}, {"type": "node", "id": 941960816, "lat": 49.7636888, "lon": 13.9264614, "tags": {"name": "Pozorovatelny", "tourism": "viewpoint"}}, {"type": "node", "id": 941960926, "lat": 49.7680334, "lon": 13.8818151, "tags": {"name": "Jind\u0159ichova sk\u00e1la", "tourism": "viewpoint"}}, {"type": "node", "id": 1021359834, "lat": 49.8100537, "lon": 13.9884056, "tags": {"ele": "638", "hiking": "yes", "information": "guidepost", "inscription": "\u010certova kazatelna", "name": "Ple\u0161ivec (vyhl.)", "operator": "cz:K\u010cT", "ref": "BE212", "tourism": "information"}}, {"type": "node", "id": 1021359862, "lat": 49.8053643, "lon": 13.9930542, "tags": {"ele": "589", "hiking": "yes", "information": "guidepost", "name": "Ple\u0161ivec (sedlo)", "operator": "cz:K\u010cT", "ref": "BE213", "tourism": "information"}}, {"type": "node", "id": 1021359874, "lat": 49.7972912, "lon": 13.9992434, "tags": {"ele": "472", "hiking": "yes", "information": "guidepost", "name": "Kl\u00ednek", "operator": "cz:K\u010cT", "ref": "BE215", "tourism": "information"}}, {"type": "node", "id": 1107618298, "lat": 49.9328814, "lon": 13.8034049, "tags": {"ele": "612", "name": "Vlastec", "natural": "peak"}}, {"type": "node", "id": 1482302893, "lat": 49.8963268, "lon": 13.8193891, "tags": {"name": "\u010certova sk\u00e1la", "natural": "peak"}}, {"type": "node", "id": 1683597258, "lat": 49.9458056, "lon": 13.8131714, "tags": {"ele": "433", "hiking": "yes", "information": "guidepost", "name": "Bu\u0161ohrad (h\u00e1j.)", "operator": "cz:K\u010cT", "ref": "RA136", "tourism": "information"}}, {"type": "node", "id": 1683597277, "lat": 49.9037272, "lon": 13.9223602, "tags": {"hiking": "yes", "information": "guidepost", "name": "H\u0159edle", "operator": "cz:K\u010cT", "ref": "BE020", "tourism": "information"}}, {"type": "node", "id": 1683597318, "lat": 49.9373077, "lon": 13.9427987, "tags": {"hiking": "yes", "information": "guidepost", "name": "Myslivna Kr\u00e1l", "operator": "cz:K\u010cT", "ref": "BE017", "tourism": "information"}}, {"type": "node", "id": 1683597339, "lat": 49.9412933, "lon": 13.9208725, "tags": {"ele": "503", "hiking": "yes", "information": "guidepost", "name": "U Zelen\u00e9ho k\u0159\u00ed\u017ee", "operator": "cz:K\u010cT", "ref": "BE022", "tourism": "information"}}, {"type": "node", "id": 1683597902, "lat": 49.9032412, "lon": 13.9132417, "tags": {"hiking": "yes", "information": "guidepost", "tourism": "information"}}, {"type": "node", "id": 1725902369, "lat": 49.8908436, "lon": 13.8874589, "tags": {"information": "guidepost", "name": "To\u010dn\u00edk (hrad)", "tourism": "information"}}, {"type": "node", "id": 1725902792, "lat": 49.8984327, "lon": 13.9057637, "tags": {"ele": "452", "name": "Z\u00e1meck\u00fd vrch", "natural": "peak"}}, {"type": "node", "id": 1726605041, "lat": 49.9110237, "lon": 13.95191, "tags": {"hiking": "yes", "information": "guidepost", "name": "Kn\u00ed\u017ekovice", "operator": "cz:K\u010cT", "ref": "1021/4;BE025", "tourism": "information"}}, {"type": "node", "id": 1726605046, "lat": 49.9167878, "lon": 13.9453575, "tags": {"hiking": "yes", "information": "guidepost", "name": "H\u0159eben (rozc.)", "operator": "cz:K\u010cT", "ref": "BE013;1021/5;3056/14", "tourism": "information"}}, {"type": "node", "id": 1726605051, "lat": 49.9312043, "lon": 13.9455088, "tags": {"ele": "470", "hiking": "yes", "information": "guidepost", "name": "Pod Vran\u00ed sk\u00e1lou", "operator": "cz:K\u010cT", "ref": "BE018;1021/7;6047/16", "tourism": "information"}}, {"type": "node", "id": 1726605056, "lat": 49.9387812, "lon": 13.9555325, "tags": {"hiking": "yes", "information": "guidepost", "name": "Svat\u00e1", "operator": "cz:K\u010cT", "ref": "BE027", "tourism": "information"}}, {"type": "node", "id": 1726605061, "lat": 49.9305838, "lon": 13.9464893, "tags": {"hiking": "yes", "information": "guidepost", "name": "Vran\u00ed sk\u00e1la (rozcest\u00ed)", "operator": "cz:K\u010cT", "ref": "BE026", "short_name": "Vran\u00ed sk\u00e1la (rozc.)", "tourism": "information"}}, {"type": "node", "id": 1726605063, "lat": 49.9073812, "lon": 13.9803899, "tags": {"hiking": "yes", "information": "guidepost", "name": "Zdice - \u017est", "operator": "cz:K\u010cT", "ref": "BE023", "tourism": "information"}}, {"type": "node", "id": 1726707814, "lat": 49.9392934, "lon": 13.9036844, "tags": {"ele": "466", "hiking": "yes", "information": "guidepost", "name": "Kolna (h\u00e1j.)", "operator": "cz:K\u010cT", "ref": "BE010", "tourism": "information"}}, {"type": "node", "id": 1726707822, "lat": 49.9434362, "lon": 13.8762676, "tags": {"hiking": "yes", "information": "guidepost", "name": "Kublov", "operator": "cz:K\u010cT", "ref": "BE009;3056/6;6047/8", "tourism": "information"}}, {"type": "node", "id": 1726707826, "lat": 49.9217739, "lon": 13.9417156, "tags": {"hiking": "yes", "information": "guidepost", "name": "V Potoc\u00edch (rozc.)", "operator": "cz:K\u010cT", "ref": "3056/13", "tourism": "information"}}, {"type": "node", "id": 1726707829, "lat": 49.9313055, "lon": 13.9210029, "tags": {"hiking": "yes", "information": "guidepost", "name": "Rozcest\u00ed v poles\u00ed Jest\u0159\u00e1b", "operator": "cz:K\u010cT", "ref": "0035/12;3056/11", "tourism": "information"}}, {"type": "node", "id": 1727111071, "lat": 49.8708056, "lon": 13.997793}, {"type": "node", "id": 1727111072, "lat": 49.8708233, "lon": 13.9977218}, {"type": "node", "id": 1727111073, "lat": 49.870844, "lon": 13.9978136}, {"type": "node", "id": 1727111075, "lat": 49.8708621, "lon": 13.9977437}, {"type": "node", "id": 1949066612, "lat": 49.9400754, "lon": 13.9608606, "tags": {"ele": "481.3", "name": "Obecn\u00e1 sk\u00e1la", "name:cs": "Obecn\u00e1 sk\u00e1la", "natural": "peak", "source": "bing:bing;uhul:ortofoto;knowledge"}}, {"type": "node", "id": 1987610263, "lat": 49.9240834, "lon": 13.8040983, "tags": {"hiking": "yes", "information": "guidepost", "name": "Vlastec (h\u00e1jovna)", "official_name": "Vlastec (h\u00e1j.)", "old_ref": "3057/6", "operator": "cz:K\u010cT", "ref": "RA134", "tourism": "information"}}, {"type": "node", "id": 2062239355, "lat": 49.8208568, "lon": 13.8110259, "tags": {"amenity": "shelter", "shelter_type": "picnic_shelter"}}, {"type": "node", "id": 2083940046, "lat": 49.8749669, "lon": 13.8177532, "tags": {"ele": "518", "hiking": "yes", "information": "guidepost", "name": "Na Chr\u00e1stech", "operator": "cz:K\u010cT", "ref": "RO168", "tourism": "information"}}, {"type": "node", "id": 2098825172, "lat": 49.9226429, "lon": 13.9544929, "tags": {"amenity": "shelter", "name": "Bouda v lese"}}, {"type": "node", "id": 2098825173, "lat": 49.9260995, "lon": 13.9253294, "tags": {"amenity": "shelter", "name": "Bouda v lese", "shelter_type": "wildlife_hide"}}, {"type": "node", "id": 2138505396, "lat": 49.7647921, "lon": 13.8410115}, {"type": "node", "id": 2159874964, "lat": 49.937086, "lon": 13.8027452, "tags": {"ele": "566", "name": "Mal\u00fd Vlastec", "natural": "peak"}}, {"type": "node", "id": 2159905435, "lat": 49.935552, "lon": 13.8132406, "tags": {"ele": "510", "name": "\u010cerven\u00e1 skalka", "natural": "peak"}}, {"type": "node", "id": 2163339273, "lat": 49.9320465, "lon": 13.8442923, "tags": {"ele": "543", "name": "Dlouh\u00e1 sk\u00e1la", "natural": "peak"}}, {"type": "node", "id": 2163339274, "lat": 49.9445069, "lon": 13.9824637, "tags": {"ele": "455", "name": "Dubov\u00e1", "natural": "peak"}}, {"type": "node", "id": 2163339277, "lat": 49.9219187, "lon": 13.8239225, "tags": {"ele": "542", "name": "H\u0159ebeny", "natural": "peak"}}, {"type": "node", "id": 2163339279, "lat": 49.9244297, "lon": 13.9169542, "tags": {"ele": "491", "name": "Jezev\u010d\u00ed sk\u00e1la", "natural": "peak"}}, {"type": "node", "id": 2163339281, "lat": 49.9317004, "lon": 13.8392206, "tags": {"access": "yes", "ele": "563", "hiking": "yes", "name": "Jouglovka", "natural": "peak", "note": "V\u00fdstup n\u00e1ro\u010dn\u011bj\u0161\u00ed: strm\u00fd svah pln\u00fd kamen\u016f.", "old_name": "Jehla", "summit:cross": "no", "wheelchair": "no"}}, {"type": "node", "id": 2163339283, "lat": 49.9493617, "lon": 13.8687279, "tags": {"ele": "466", "name": "Kopaniny", "natural": "peak"}}, {"type": "node", "id": 2163339286, "lat": 49.9490988, "lon": 13.9166992, "tags": {"name": "Mal\u00e9 \u010cih\u00e1tko", "natural": "peak"}}, {"type": "node", "id": 2163339290, "lat": 49.9321618, "lon": 13.9660656, "tags": {"ele": "459", "name": "Prav\u00e1 hora", "natural": "peak"}}, {"type": "node", "id": 2163339291, "lat": 49.9321203, "lon": 13.879006, "tags": {"ele": "447", "name": "P\u00edska\u010dka", "natural": "peak"}}, {"type": "node", "id": 2163339292, "lat": 49.9250444, "lon": 13.9566242, "tags": {"ele": "505", "name": "Tkalce", "natural": "peak"}}, {"type": "node", "id": 2163339294, "lat": 49.945484, "lon": 13.888721, "tags": {"ele": "595", "name": "Veliz", "natural": "peak"}}, {"type": "node", "id": 2163339295, "lat": 49.9465087, "lon": 13.916252, "tags": {"ele": "534", "name": "Velk\u00e9 \u010cih\u00e1tko", "natural": "peak"}}, {"type": "node", "id": 2163339296, "lat": 49.9179935, "lon": 13.849397, "tags": {"ele": "519", "name": "V\u00fdrovka", "natural": "peak"}}, {"type": "node", "id": 2163339297, "lat": 49.9205953, "lon": 13.8490807, "tags": {"ele": "504", "natural": "peak"}}, {"type": "node", "id": 2163339298, "lat": 49.9220997, "lon": 13.8286309, "tags": {"ele": "553", "natural": "peak"}}, {"type": "node", "id": 2222887613, "lat": 49.7758228, "lon": 13.8960385, "tags": {"ele": "543", "hiking": "yes", "information": "guidepost", "name": "Valdek (z\u0159\u00edcenina)", "official_name": "Valdek (z\u0159\u00edc.)", "operator": "cz:K\u010cT", "ref": "6157/6,5;BE269", "tourism": "information"}}, {"type": "node", "id": 2229363008, "lat": 49.7936363, "lon": 13.878191, "tags": {"hiking": "yes", "information": "guidepost", "inscription": "Vodn\u00ed n\u00e1dr\u017e z r. 1959, 14,8 ha, max hloubka 13,4 m", "name": "Z\u00e1skalsk\u00e1", "operator": "cz:K\u010cT", "ref": "BE201;3058/8;3058/9", "tourism": "information"}}, {"type": "node", "id": 2247001137, "lat": 49.8120721, "lon": 13.8913411, "tags": {"ele": "480", "hiking": "yes", "information": "guidepost", "name": "U Krejc\u00e1rk\u016f", "operator": "cz:K\u010cT", "ref": "BD028", "tourism": "information"}}, {"type": "node", "id": 2247065948, "lat": 49.8167771, "lon": 13.8905451, "tags": {"hiking": "yes", "information": "guidepost", "name": "U Krejc\u00e1rk\u016f (h\u00e1jovna)", "official_name": "U Krejc\u00e1rk\u016f (h\u00e1j.)", "operator": "cz:K\u010cT", "ref": "3058/4", "tourism": "information"}}, {"type": "node", "id": 2247677493, "lat": 49.7806054, "lon": 13.9143169, "tags": {"ele": "595", "hiking": "yes", "information": "guidepost", "name": "Krej\u010dovka", "operator": "cz:K\u010cT", "ref": "6157/4,5;BE131", "tourism": "information"}}, {"type": "node", "id": 2248088731, "lat": 49.815854, "lon": 13.9129461, "tags": {"ele": "399", "hiking": "yes", "information": "guidepost", "inscription": "Obec zalo\u017eena v r. 1331 na pot\u016f\u010dku Ku\u0148atka, dnes Podlu\u017esk\u00fd potok", "name": "Podluhy", "operator": "cz:K\u010cT", "ref": "BD027", "tourism": "information"}}, {"type": "node", "id": 2288672269, "lat": 49.9284643, "lon": 13.9541737, "tags": {"ele": "450", "hiking": "yes", "information": "guidepost", "name": "U boudy (rozc.)", "operator": "cz:K\u010cT", "ref": "BE250", "tourism": "information"}}, {"type": "node", "id": 2288672270, "lat": 49.9273367, "lon": 13.9415565, "tags": {"hiking": "yes", "information": "guidepost", "name": "Vran\u00ed sk\u00e1la (odbo\u010dka k\u00a0vyhl\u00eddce)", "operator": "cz:K\u010cT", "ref": "BE019", "short_name": "Vran\u00ed sk\u00e1la (odb. k vyhl\u00eddce)", "tourism": "information"}}, {"type": "node", "id": 2288672271, "lat": 49.927312, "lon": 13.9415415, "tags": {"board_type": "nature", "check_date": "2025-06-11", "information": "board", "name": "p\u0159\u00edrodn\u00ed pam\u00e1tka Vran\u00ed sk\u00e1la", "tourism": "information"}}, {"type": "node", "id": 2415174387, "lat": 49.7771277, "lon": 13.9624594, "tags": {"name": "Vystrkov", "natural": "peak", "source": "survey;gps"}}, {"type": "node", "id": 2416626669, "lat": 49.8099032, "lon": 13.9883196, "tags": {"source": "survey", "tourism": "viewpoint"}}, {"type": "node", "id": 2416635111, "lat": 49.8060188, "lon": 13.9945576, "tags": {"source": "survey", "tourism": "viewpoint"}}, {"type": "node", "id": 2416681119, "lat": 49.8285737, "lon": 13.9385698, "tags": {"description": "mapa \u0161ir\u0161\u00edho okol\u00ed Ho\u0159ovic, v\u010detn\u011b \u010d\u00e1sti Brd", "hiking": "yes", "information": "map", "map_size": "region", "tourism": "information"}}, {"type": "node", "id": 2416681133, "lat": 49.8292713, "lon": 13.9437466, "tags": {"description": "mapa \u0161ir\u0161\u00edho okol\u00ed Ho\u0159ovic, v\u010detn\u011b \u010d\u00e1sti Brd", "hiking": "yes", "information": "map", "map_size": "region", "map_type": "topo", "tourism": "information"}}, {"type": "node", "id": 2517727993, "lat": 49.9165606, "lon": 13.9861136, "tags": {"board_type": "history", "check_date": "2025-09-13", "description": "Informa\u010dn\u00ed tabule s informacemi o v\u00fdznamn\u00fdch osobnostech spojen\u00fdch se Zdicemi.", "information": "board", "name": "Lesopark Knihov - Informa\u010dn\u00ed tabule", "tourism": "information"}}, {"type": "node", "id": 2517727994, "lat": 49.91695, "lon": 13.9911559, "tags": {"board_type": "nature", "check_date": "2025-09-13", "description": "Informa\u010dn\u00ed tabule s informacemi o kopci Knihov.", "information": "board", "name": "Lesopark Knihov - Informa\u010dn\u00ed tabule", "tourism": "information"}}, {"type": "node", "id": 2517727995, "lat": 49.9169971, "lon": 13.9853679, "tags": {"board_type": "history", "check_date": "2025-09-13", "description": "Informa\u010dn\u00ed tabule popisuj\u00edc\u00ed historii vzniku Zdic.", "information": "board", "name": "Lesopark Knihov - Informa\u010dn\u00ed tabule", "tourism": "information"}}, {"type": "node", "id": 2517727996, "lat": 49.917548, "lon": 13.9922679, "tags": {"board_type": "nature", "description": "Informa\u010dn\u00ed tabule s informacemi o d\u0159evin\u00e1ch roustouc\u00edch na svaz\u00edch kopce Knihov.", "information": "board", "name": "Lesopark Knihov - Informa\u010dn\u00ed tabule", "tourism": "information"}}, {"type": "node", "id": 2517727997, "lat": 49.9181593, "lon": 13.9865782, "tags": {"board_type": "wildlife", "description": "Informa\u010dn\u00ed tabule s informacemi o pt\u00e1c\u00edch ob\u00fdvaj\u00edc\u00edch Knihov.", "information": "board", "name": "Lesopark Knihov - Informa\u010dn\u00ed tabule", "tourism": "information"}}, {"type": "node", "id": 2517727998, "lat": 49.9169651, "lon": 13.9911818, "tags": {"amenity": "shelter", "name": "Lesopark Knihov - P\u0159\u00edst\u0159e\u0161ek", "shelter_type": "weather_shelter"}}, {"type": "node", "id": 2517727999, "lat": 49.917052, "lon": 13.985433, "tags": {"amenity": "shelter", "name": "Lesopark Knihov - P\u0159\u00edst\u0159e\u0161ek", "shelter_type": "weather_shelter"}}, {"type": "node", "id": 2517728000, "lat": 49.9165599, "lon": 13.9861709, "tags": {"description": "V\u00fdhled na Zdice z Lesoparku Knihov", "name": "Zdice", "tourism": "viewpoint"}}, {"type": "node", "id": 2584247891, "lat": 49.8065889, "lon": 13.8227585, "tags": {"hiking": "yes", "information": "guidepost", "name": "Dlouh\u00e1 Le\u010d (rozcest\u00ed)", "official_name": "Dlouh\u00e1 Le\u010d (rozc.)", "operator": "cz:K\u010cT", "ref": "BE143;1017/29", "tourism": "information"}}, {"type": "node", "id": 2604832196, "lat": 49.8142102, "lon": 13.9395783, "tags": {"information": "map", "map_size": "region", "map_type": "topo", "name": "Fabi\u00e1nova nau\u010dn\u00e1 stezka", "source": "survey", "tourism": "information"}}, {"type": "node", "id": 2655846991, "lat": 49.7661342, "lon": 13.8996484}, {"type": "node", "id": 2655846993, "lat": 49.7661568, "lon": 13.8995428}, {"type": "node", "id": 2655847000, "lat": 49.766215, "lon": 13.8996898}, {"type": "node", "id": 2655847002, "lat": 49.7662377, "lon": 13.8995841}, {"type": "node", "id": 2939679118, "lat": 49.9001328, "lon": 13.8101606, "tags": {"name": "Dehetnick\u00e1 sk\u00e1la", "natural": "peak", "source": "Bing"}}, {"type": "node", "id": 2951299565, "lat": 49.7903695, "lon": 13.9773304}, {"type": "node", "id": 2951299566, "lat": 49.7903766, "lon": 13.9772953}, {"type": "node", "id": 2951299567, "lat": 49.7904079, "lon": 13.9773501}, {"type": "node", "id": 2951299568, "lat": 49.7904154, "lon": 13.9773162}, {"type": "node", "id": 3127524383, "lat": 49.8151088, "lon": 13.9975375, "tags": {"amenity": "shelter", "backcountry": "yes", "camp_site": "basic", "caravans": "no", "fireplace": "yes", "group_only": "no", "scout": "no", "shelter": "yes", "shelter_type": "basic_hut", "static_caravans": "no", "tourism": "wilderness_hut"}}, {"type": "node", "id": 3257004905, "lat": 49.8145341, "lon": 13.8069656, "tags": {"ele": "516", "hiking": "yes", "information": "guidepost", "name": "U Ka\u0159\u00edzku", "operator": "cz:K\u010cT", "ref": "RO171", "tourism": "information"}}, {"type": "node", "id": 3257004906, "lat": 49.8110517, "lon": 13.8140083, "tags": {"hiking": "yes", "information": "guidepost", "name": "Na \u010cer\u0148\u00e1ku", "note": "rozcestn\u00edk po\u0161kozen, chyb\u00ed tabule, mo\u017en\u00e1 bude zru\u0161en", "operator": "cz:K\u010cT", "ref": "BE144", "tourism": "information"}}, {"type": "node", "id": 3257148390, "lat": 49.8073099, "lon": 13.858174, "tags": {"city": "yes", "hiking": "yes", "information": "guidepost", "name": "Kom\u00e1rov", "operator": "cz:K\u010cT", "ref": "BE157", "tourism": "information"}}, {"type": "node", "id": 3257161811, "lat": 49.7997528, "lon": 13.873886, "tags": {"ele": "430", "hiking": "yes", "information": "guidepost", "name": "Mrtn\u00edk", "operator": "cz:K\u010cT", "ref": "BD063", "tourism": "information"}}, {"type": "node", "id": 3257402919, "lat": 49.877445, "lon": 13.9201442, "tags": {"hiking": "yes", "information": "guidepost", "name": "Chlustina", "operator": "cz:K\u010cT", "ref": "BE170", "tourism": "information"}}, {"type": "node", "id": 3257402920, "lat": 49.8677613, "lon": 13.9478213, "tags": {"hiking": "yes", "information": "guidepost", "name": "Otm\u00ed\u010de", "operator": "cz:K\u010cT", "ref": "BE168", "tourism": "information"}}, {"type": "node", "id": 3700710076, "lat": 49.7927171, "lon": 13.8872009, "tags": {"alt_name": "D\u011bdova hora", "ele": "537.7", "name": "Jedov\u00e1 hora", "natural": "peak"}}, {"type": "node", "id": 3821363771, "lat": 49.7946782, "lon": 13.9168369, "tags": {"ele": "579", "name": "\u0160pi\u010d\u00e1k", "natural": "peak"}}, {"type": "node", "id": 3822221869, "lat": 49.8514154, "lon": 13.9524209, "tags": {"hiking": "yes", "information": "guidepost", "name": "Netolice", "operator": "cz:K\u010cT", "ref": "BE165", "tourism": "information"}}, {"type": "node", "id": 3822233436, "lat": 49.8519813, "lon": 13.9783087, "tags": {"ele": "306", "hiking": "yes", "information": "guidepost", "name": "Lochovice (z\u00e1mek)", "operator": "cz:K\u010cT", "ref": "BE164", "tourism": "information"}}, {"type": "node", "id": 3901870506, "lat": 49.8335721, "lon": 13.9020713, "tags": {"check_date": "2024-01-17", "information": "map", "tourism": "information"}}, {"type": "node", "id": 3901870507, "lat": 49.8337057, "lon": 13.9024747, "tags": {"hiking": "yes", "information": "guidepost", "name": "Ho\u0159ovice (bus)", "operator": "cz:K\u010cT", "ref": "BE135", "tourism": "information"}}, {"type": "node", "id": 3902104994, "lat": 49.8328606, "lon": 13.8999045, "tags": {"tourism": "information"}}, {"type": "node", "id": 3903482509, "lat": 49.9352089, "lon": 13.8303815, "tags": {"amenity": "shelter", "shelter_type": "picnic_shelter"}}, {"type": "node", "id": 3910033522, "lat": 49.8364036, "lon": 13.9030621, "tags": {"board_type": "notice", "check_date": "2024-03-08", "description": "M\u011b\u00da Ho\u0159ovice", "information": "board", "tourism": "information"}}, {"type": "node", "id": 3910033523, "lat": 49.8358269, "lon": 13.9024667, "tags": {"board_type": "notice", "information": "board", "name": "\u010cRS MO Ho\u0159ovice", "tourism": "information"}}, {"type": "node", "id": 4082755011, "lat": 49.7649126, "lon": 13.9288592, "tags": {"tourism": "viewpoint"}}, {"type": "node", "id": 4088358228, "lat": 49.8853313, "lon": 13.8822646}, {"type": "node", "id": 4088358230, "lat": 49.8853364, "lon": 13.8823084}, {"type": "node", "id": 4088358232, "lat": 49.8853499, "lon": 13.8822594}, {"type": "node", "id": 4088358233, "lat": 49.885355, "lon": 13.8823033}, {"type": "node", "id": 4160785559, "lat": 49.8814073, "lon": 13.8397129, "tags": {"hiking": "yes", "information": "guidepost", "name": "Pod Hol\u00fdm vrchem", "operator": "cz:K\u010cT", "ref": "BE173", "ref:old": "0035/2", "tourism": "information"}}, {"type": "node", "id": 4166959213, "lat": 49.8851729, "lon": 13.8046292, "tags": {"ele": "528", "hiking": "yes", "information": "guidepost", "name": "L\u00ed\u0161n\u00e1", "operator": "cz:K\u010cT", "ref": "RO263", "tourism": "information"}}, {"type": "node", "id": 4166959215, "lat": 49.8875774, "lon": 13.8843202, "tags": {"hiking": "yes", "information": "guidepost", "name": "To\u010dn\u00edk (pod hradem)", "old_ref": "0035/6", "operator": "cz:K\u010cT", "ref": "BE004", "tourism": "information"}}, {"type": "node", "id": 4166959216, "lat": 49.8908852, "lon": 13.8892616, "tags": {"hiking": "yes", "information": "guidepost", "operator": "cz:K\u010cT", "ref": "BE021", "tourism": "information"}}, {"type": "node", "id": 4166959218, "lat": 49.7835721, "lon": 13.8426066, "tags": {"hiking": "yes", "information": "guidepost", "name": "U Hude\u010dk\u016f", "operator": "cz:K\u010cT", "ref": "BE141", "tourism": "information"}}, {"type": "node", "id": 4177397300, "lat": 49.7670769, "lon": 13.8412325, "tags": {"ele": "465", "hiking": "yes", "information": "guidepost", "name": "Svat\u00e1 dobrotiv\u00e1", "operator": "cz:K\u010cT", "ref": "RO285", "tourism": "information"}}, {"type": "node", "id": 4285864108, "lat": 49.7850325, "lon": 13.9951051, "tags": {"hiking": "yes", "historic": "yes", "information": "guidepost", "name": "Nad Kopa\u010dovem rozcest\u00ed", "note": "zapomenut\u00fd rozcestn\u00edk, neodpov\u00edd\u00e1 barva zna\u010dky", "operator": "cz:K\u010cT", "ref": "3050/1", "source": "survey", "start_date": "1976", "tourism": "information"}}, {"type": "node", "id": 4285864111, "lat": 49.8022752, "lon": 13.9972145, "tags": {"ele": "528", "hiking": "yes", "information": "guidepost", "name": "Nad Kl\u00ednkem", "operator": "cz:K\u010cT", "ref": "BE214", "tourism": "information"}}, {"type": "node", "id": 4285864113, "lat": 49.8040181, "lon": 13.9994199, "tags": {"board_type": "geology", "description": "NS Z Jinec na Olymp Brd", "information": "board", "name": "Ple\u0161iveck\u00fd viklan", "ref": "10", "tourism": "information"}}, {"type": "node", "id": 4285864116, "lat": 49.8136742, "lon": 13.9997816, "tags": {"tourism": "viewpoint"}}, {"type": "node", "id": 4285864117, "lat": 49.8157991, "lon": 13.9975294, "tags": {"tourism": "viewpoint"}}, {"type": "node", "id": 4285864124, "lat": 49.8101467, "lon": 13.9883038, "tags": {"board_type": "history;nature", "check_date": "2024-03-08", "information": "board", "name": "Ple\u0161ivec - Brdsk\u00fd Olymp", "ref": "11", "tourism": "information"}}, {"type": "node", "id": 4285864125, "lat": 49.8171513, "lon": 13.9916041, "tags": {"ele": "585", "hiking": "yes", "information": "guidepost", "name": "Ple\u0161iveck\u00fd h\u0159eben", "operator": "cz:K\u010cT", "ref": "BE211", "tourism": "information"}}, {"type": "node", "id": 4285864126, "lat": 49.8158222, "lon": 13.9934988, "tags": {"ele": "584", "hiking": "yes", "information": "guidepost", "name": "Nad jez\u00edrkem", "operator": "cz:K\u010cT", "ref": "BE226", "tourism": "information"}}, {"type": "node", "id": 4285864130, "lat": 49.8212623, "lon": 13.9948754, "tags": {"ele": "475", "hiking": "yes", "information": "guidepost", "name": "Smaragdov\u00e9 jez\u00edrko", "operator": "cz:K\u010cT", "ref": "BE204", "tourism": "information"}}, {"type": "node", "id": 4285932291, "lat": 49.8320909, "lon": 13.9964763, "tags": {"information": "map", "map_size": "region", "map_type": "topo", "name": "Ple\u0161ivec a okol\u00ed", "tourism": "information"}}, {"type": "node", "id": 4285932293, "lat": 49.8321179, "lon": 13.9965383, "tags": {"ele": "402", "hiking": "yes", "information": "guidepost", "name": "Lhotka", "operator": "cz:K\u010cT", "ref": "BE160", "tourism": "information"}}, {"type": "node", "id": 4285932295, "lat": 49.8341673, "lon": 13.9834763, "tags": {"ele": "373", "hiking": "yes", "information": "guidepost", "name": "U Lhotky [M]", "official_name": "U Lhotky", "operator": "cz:K\u010cT", "ref": "BE146", "tourism": "information"}}, {"type": "node", "id": 4285932312, "lat": 49.8463851, "lon": 13.9754511, "tags": {"ele": "319", "hiking": "yes", "information": "guidepost", "name": "Lochovice (\u017est)", "operator": "cz:K\u010cT", "ref": "BE159", "tourism": "information"}}, {"type": "node", "id": 4295038370, "lat": 49.8989915, "lon": 13.9001808, "tags": {"hiking": "yes", "information": "guidepost", "name": "U Stroup\u00edna", "operator": "cz:K\u010cT", "ref": "0035/9", "tourism": "information"}}, {"type": "node", "id": 4296853983, "lat": 49.8504276, "lon": 13.8141232, "tags": {"natural": "peak"}}, {"type": "node", "id": 4296854757, "lat": 49.8461424, "lon": 13.8017907, "tags": {"natural": "peak"}}, {"type": "node", "id": 4296854780, "lat": 49.8477227, "lon": 13.810319, "tags": {"natural": "peak"}}, {"type": "node", "id": 4296854976, "lat": 49.7908938, "lon": 13.8332913, "tags": {"ele": "612", "name": "Jivina", "natural": "peak"}}, {"type": "node", "id": 4296854983, "lat": 49.7878383, "lon": 13.8276182, "tags": {"ele": "620", "name": "Jivina", "natural": "peak"}}, {"type": "node", "id": 4296855098, "lat": 49.77103, "lon": 13.822719, "tags": {"alt_name": "Milina", "ele": "577", "name": "Hromovka", "natural": "peak"}}, {"type": "node", "id": 4309440504, "lat": 49.7756691, "lon": 13.8952418, "tags": {"board_type": "history", "information": "board", "name": "Hrad Valdek", "tourism": "information"}}, {"type": "node", "id": 4404850343, "lat": 49.8428837, "lon": 13.8994011, "tags": {"hiking": "yes", "information": "guidepost", "name": "Ho\u0159ovice (vlak)", "official_name": "Ho\u0159ovice (\u017dST)", "operator": "cz:K\u010cT", "ref": "BE167", "tourism": "information"}}, {"type": "node", "id": 4404850349, "lat": 49.8364438, "lon": 13.9030841, "tags": {"check_date": "2024-03-09", "information": "map", "map_size": "region", "map_type": "topo", "name": "Ho\u0159ovice a okol\u00ed", "tourism": "information"}}, {"type": "node", "id": 4404942154, "lat": 49.7911157, "lon": 13.8726991, "tags": {"hiking": "yes", "information": "guidepost", "name": "Chaloupky", "operator": "cz:K\u010cT", "ref": "BE139", "tourism": "information"}}, {"type": "node", "id": 4404942155, "lat": 49.7911187, "lon": 13.8719717, "tags": {"description": "NS Okol\u00edm Kom\u00e1rova", "information": "board", "name": "Chaloupky", "ref": "9", "tourism": "information"}}, {"type": "node", "id": 4405545345, "lat": 49.7860534, "lon": 13.8830516, "tags": {"description": "NS Okol\u00edm Kom\u00e1rova", "information": "board", "name": "Ne\u0159e\u017e\u00edn", "ref": "8", "tourism": "information"}}, {"type": "node", "id": 4405545355, "lat": 49.7881394, "lon": 13.8835369, "tags": {"hiking": "yes", "information": "guidepost", "name": "Ne\u0159e\u017e\u00edn", "operator": "cz:K\u010cT", "ref": "BE197", "tourism": "information"}}, {"type": "node", "id": 4405545365, "lat": 49.7935974, "lon": 13.8780175, "tags": {"description": "NS Okol\u00edm Kom\u00e1rova", "information": "board", "name": "Z\u00e1skalsk\u00e1 n\u00e1dr\u017e", "ref": "5", "tourism": "information"}}, {"type": "node", "id": 4405545370, "lat": 49.7909596, "lon": 13.8813281, "tags": {"hiking": "yes", "information": "guidepost", "name": "Z\u00e1skalsk\u00e1 - NS", "operator": "cz:K\u010cT", "ref": "BE218", "tourism": "information"}}, {"type": "node", "id": 4405545371, "lat": 49.7909623, "lon": 13.88126, "tags": {"information": "board", "name": "Rozcest\u00ed", "ref": "6", "tourism": "information"}}, {"type": "node", "id": 4405545376, "lat": 49.7756347, "lon": 13.8954884, "tags": {"amenity": "shelter", "shelter_type": "weather_shelter"}}, {"type": "node", "id": 4405545385, "lat": 49.7749004, "lon": 13.8930351, "tags": {"tourism": "viewpoint"}}, {"type": "node", "id": 4405621687, "lat": 49.7909212, "lon": 13.9029325, "tags": {"ele": "525", "hiking": "yes", "information": "guidepost", "name": "Hrachovi\u0161t\u011b", "operator": "cz:K\u010cT", "ref": "BE260", "tourism": "information"}}, {"type": "node", "id": 4405624089, "lat": 49.7732691, "lon": 13.8985403, "tags": {"ele": "550", "hiking": "yes", "information": "guidepost", "name": "Na Hl\u00edn\u011b", "operator": "cz:K\u010cT", "ref": "BE261", "tourism": "information"}}, {"type": "node", "id": 4407082930, "lat": 49.7895264, "lon": 13.9295582, "tags": {"ele": "518", "hiking": "yes", "information": "guidepost", "name": "S\u00fdkorky", "operator": "cz:K\u010cT", "ref": "BE262", "tourism": "information"}}, {"type": "node", "id": 4407082958, "lat": 49.780525, "lon": 13.9144124, "tags": {"amenity": "shelter", "shelter_type": "picnic_shelter"}}, {"type": "node", "id": 4407766949, "lat": 49.7606616, "lon": 13.8513212, "tags": {"ele": "520", "hiking": "yes", "information": "guidepost", "name": "Doln\u00ed Kva\u0148", "operator": "cz:K\u010cT", "ref": "BE234", "tourism": "information"}}, {"type": "node", "id": 4407766951, "lat": 49.7519321, "lon": 13.8718408, "tags": {"ele": "620", "hiking": "yes", "information": "guidepost", "name": "U B\u00edl\u00e9ho K\u0159\u00ed\u017eku", "operator": "cz:K\u010cT", "ref": "BE258", "tourism": "information"}}, {"type": "node", "id": 4415271654, "lat": 49.7645183, "lon": 13.891951, "tags": {"ele": "615", "name": "Krkav\u010dina", "natural": "peak"}}, {"type": "node", "id": 4426306858, "lat": 49.8379318, "lon": 13.9070842, "tags": {"information": "office", "name": "Informa\u010dn\u00ed centrum Ho\u0159ovice", "operator": "M\u011bsto Ho\u0159ovice", "tourism": "information"}}, {"type": "node", "id": 4431303781, "lat": 49.8429896, "lon": 13.8996072, "tags": {"check_date": "2024-11-17", "information": "board", "tourism": "information"}}, {"type": "node", "id": 4539051220, "lat": 49.8489942, "lon": 13.8838408}, {"type": "node", "id": 4539051221, "lat": 49.8490254, "lon": 13.8838851}, {"type": "node", "id": 4539051222, "lat": 49.8490398, "lon": 13.8838608}, {"type": "node", "id": 4539051223, "lat": 49.8490086, "lon": 13.8838165}, {"type": "node", "id": 4543402147, "lat": 49.8521974, "lon": 13.8874605}, {"type": "node", "id": 4543402148, "lat": 49.8521569, "lon": 13.8875091}, {"type": "node", "id": 4543402149, "lat": 49.8521436, "lon": 13.8874823}, {"type": "node", "id": 4543402150, "lat": 49.8521841, "lon": 13.8874337}, {"type": "node", "id": 4580414848, "lat": 49.8488013, "lon": 13.8835402, "tags": {"information": "board", "tourism": "information"}}, {"type": "node", "id": 4621772534, "lat": 49.784904, "lon": 13.9807111, "tags": {"ele": "389", "hiking": "yes", "information": "guidepost", "name": "Jince (most)", "operator": "cz:K\u010cT", "ref": "BD024", "tourism": "information"}}, {"type": "node", "id": 4658759561, "lat": 49.9228379, "lon": 13.8282934, "tags": {"hiking": "yes", "information": "guidepost", "name": "H\u0159ebeny (h\u00e1jovna)", "official_name": "H\u0159ebeny (h\u00e1j.)", "old_ref": "3057/8;6127/6", "operator": "cz:K\u010cT", "ref": "BE001", "tourism": "information"}}, {"type": "node", "id": 4672528005, "lat": 49.7730562, "lon": 13.9609408, "tags": {"information": "board", "operator": "CHKO BRDY", "tourism": "information"}}, {"type": "node", "id": 4701271783, "lat": 49.8758756, "lon": 13.8961742, "tags": {"hiking": "yes", "information": "guidepost", "name": "\u017debr\u00e1k (n\u00e1m\u011bst\u00ed)", "note": "na m\u00edst\u011b nenalezen 03/2017", "official_name": "\u017debr\u00e1k (n\u00e1m.)", "operator": "cz:K\u010cT", "ref": "BE171", "tourism": "information"}}, {"type": "node", "id": 4701271784, "lat": 49.9045809, "lon": 13.8808848, "tags": {"hiking": "yes", "information": "guidepost", "name": "B\u0159ezov\u00e1", "operator": "cz:K\u010cT", "ref": "BE003;3057/13;6047/2", "tourism": "information"}}, {"type": "node", "id": 4703187618, "lat": 49.9118959, "lon": 13.9790011, "tags": {"hiking": "yes", "information": "guidepost", "name": "Zdice", "operator": "cz:K\u010cT", "ref": "BE024", "tourism": "information"}}, {"type": "node", "id": 4703253681, "lat": 49.907666, "lon": 13.9707457, "tags": {"hiking": "yes", "information": "guidepost", "name": "Zdice sportovn\u00ed hala", "operator": "cz:K\u010cT", "ref": "BE236", "tourism": "information"}}, {"type": "node", "id": 4703405715, "lat": 49.9452431, "lon": 13.8869346, "tags": {"ele": "573", "hiking": "yes", "information": "guidepost", "name": "Vel\u00edz", "operator": "cz:K\u010cT", "ref": "BE015;6047/9", "tourism": "information"}}, {"type": "node", "id": 4704789262, "lat": 49.8295693, "lon": 13.814865, "tags": {"ele": "453", "hiking": "yes", "information": "guidepost", "name": "Doubravka (h\u00e1jovna)", "official_name": "Doubravka (h\u00e1j.)", "operator": "cz:K\u010cT", "ref": "BE153", "tourism": "information"}}, {"type": "node", "id": 4704789263, "lat": 49.8374789, "lon": 13.8355078, "tags": {"hiking": "yes", "information": "guidepost", "name": "Cerhovice (vlak)", "official_name": "Cerhovice (\u017dST)", "operator": "cz:K\u010cT", "ref": "BE083", "tourism": "information"}}, {"type": "node", "id": 4704789264, "lat": 49.8499317, "lon": 13.8350445, "tags": {"hiking": "yes", "information": "guidepost", "name": "Cerhovice", "operator": "cz:K\u010cT", "ref": "BE091", "tourism": "information"}}, {"type": "node", "id": 4704789265, "lat": 49.8543311, "lon": 13.822876, "tags": {"hiking": "yes", "information": "guidepost", "name": "T\u0159enick\u00e1 hora (rozhledna)", "official_name": "T\u0159enick\u00e1 hora (rozhl.)", "operator": "cz:K\u010cT", "ref": "BE120", "tourism": "information"}}, {"type": "node", "id": 4706949410, "lat": 49.8312871, "lon": 13.8373886, "tags": {"hiking": "yes", "information": "guidepost", "name": "\u00dajezd", "operator": "cz:K\u010cT", "ref": "BE151", "tourism": "information"}}, {"type": "node", "id": 4706949411, "lat": 49.8331607, "lon": 13.8629694, "tags": {"ele": "412", "hiking": "yes", "information": "guidepost", "name": "Hr\u00e1dek", "operator": "cz:K\u010cT", "ref": "BE150", "tourism": "information"}}, {"type": "node", "id": 4707037663, "lat": 49.8187402, "lon": 13.8151084, "tags": {"ele": "518", "hiking": "yes", "information": "guidepost", "name": "Dubov\u00fd vr\u0161ek (rozc.)", "operator": "cz:K\u010cT", "ref": "BE152", "tourism": "information"}}, {"type": "node", "id": 4707874181, "lat": 49.8076516, "lon": 13.8786945, "tags": {"bicycle": "yes", "ele": "520", "hiking": "yes", "information": "guidepost", "name": "Hvozdec", "operator": "cz:K\u010cT", "ref": "BE156", "tourism": "information"}}, {"type": "node", "id": 4708006653, "lat": 49.7997618, "lon": 13.9467316, "tags": {"bicycle": "yes", "ele": "455", "hiking": "yes", "information": "guidepost", "inscription": "Prvn\u00ed zm\u00ednka o obci z roku 1370. Na n\u00e1vsi kapli\u010dka Neposkvrn\u011bn\u00e9 Panny Marie.", "name": "K\u0159e\u0161\u00edn", "operator": "cz:K\u010cT", "ref": "BD025", "tourism": "information"}}, {"type": "node", "id": 4708006654, "lat": 49.8246115, "lon": 13.9721343, "tags": {"ele": "377", "hiking": "yes", "information": "guidepost", "name": "Nad B\u011blidlem", "operator": "cz:K\u010cT", "ref": "BE148", "tourism": "information"}}, {"type": "node", "id": 4708006656, "lat": 49.8291055, "lon": 13.9380815, "tags": {"ele": "356", "hiking": "yes", "information": "guidepost", "name": "Rpety", "old_ref": "0037/5", "operator": "cz:K\u010cT", "ref": "BE149", "tourism": "information"}}, {"type": "node", "id": 4709431006, "lat": 49.7522948, "lon": 13.9971374, "tags": {"ele": "456", "hiking": "yes", "information": "guidepost", "name": "Dominik\u00e1ln\u00ed Paseky", "operator": "cz:K\u010cT", "ref": "PB012", "tourism": "information"}}, {"type": "node", "id": 4721592417, "lat": 49.8858043, "lon": 13.8819114, "tags": {"hiking": "yes", "information": "guidepost", "name": "To\u010dn\u00edk (bus)", "operator": "cz:K\u010cT", "ref": "0035/5", "ref_1": "BE172", "tourism": "information"}}, {"type": "node", "id": 4721592480, "lat": 49.856449, "lon": 13.9492181, "tags": {"tourism": "viewpoint"}}, {"type": "node", "id": 4853486651, "lat": 49.7617414, "lon": 13.9982879, "tags": {"ele": "575", "hiking": "yes", "information": "guidepost", "name": "Slonovec", "operator": "cz:K\u010cT", "ref": "PB268", "source": "surwey;gps", "tourism": "information"}}, {"type": "node", "id": 4928368150, "lat": 49.7666585, "lon": 13.9344225, "tags": {"ele": "689", "name": "Kom\u00edn", "natural": "peak"}}, {"type": "node", "id": 4928371395, "lat": 49.7633756, "lon": 13.9257169, "tags": {"ele": "720", "name": "H\u0159eben", "natural": "peak"}}, {"type": "node", "id": 4928376506, "lat": 49.7661338, "lon": 13.9266611, "tags": {"ele": "684", "name": "Kan\u010d\u00ed Zub", "natural": "peak"}}, {"type": "node", "id": 4928379151, "lat": 49.7623034, "lon": 13.9176096, "tags": {"ele": "716", "name": "Pec", "natural": "peak"}}, {"type": "node", "id": 4972926978, "lat": 49.7670201, "lon": 13.8416106, "tags": {"information": "map", "map_size": "region", "map_type": "topo", "tourism": "information"}}, {"type": "node", "id": 5024870561, "lat": 49.7648868, "lon": 13.9291456, "tags": {"natural": "peak"}}, {"type": "node", "id": 5024870568, "lat": 49.7659125, "lon": 13.9310126, "tags": {"tourism": "viewpoint"}}, {"type": "node", "id": 5024870570, "lat": 49.7630577, "lon": 13.9196801, "tags": {"tourism": "viewpoint"}}, {"type": "node", "id": 5024870604, "lat": 49.7603892, "lon": 13.8670579, "tags": {"ele": "685", "name": "Beran", "natural": "peak"}}, {"type": "node", "id": 5066973555, "lat": 49.8205754, "lon": 13.995444, "tags": {"amenity": "shelter", "backcountry": "yes", "camp_site": "basic", "caravans": "no", "fireplace": "yes", "group_only": "no", "name": "Chilkoot", "scout": "no", "shelter": "yes", "shelter_type": "basic_hut", "static_caravans": "no", "tourism": "wilderness_hut"}}, {"type": "node", "id": 5079514643, "lat": 49.8354713, "lon": 13.903271, "tags": {"amenity": "shelter", "bin": "yes"}}, {"type": "node", "id": 5079514644, "lat": 49.8370099, "lon": 13.9054167, "tags": {"amenity": "shelter"}}, {"type": "node", "id": 5081030095, "lat": 49.837205, "lon": 13.9101765, "tags": {"amenity": "shelter", "shelter_type": "gazebo"}}, {"type": "node", "id": 5082511247, "lat": 49.8330968, "lon": 13.9030188, "tags": {"information": "visitor_centre", "operator": "Arriva St\u0159edn\u00ed \u010cechy", "tourism": "information"}}, {"type": "node", "id": 5082577978, "lat": 49.8335938, "lon": 13.9021099, "tags": {"check_date": "2024-01-17", "information": "board", "tourism": "information"}}, {"type": "node", "id": 5082577979, "lat": 49.8332301, "lon": 13.9024979, "tags": {"board_type": "public_transport", "check_date": "2024-01-18", "information": "board", "tourism": "information"}}, {"type": "node", "id": 5082577980, "lat": 49.8332538, "lon": 13.9025464, "tags": {"board_type": "public_transport", "check_date": "2024-01-18", "information": "board", "tourism": "information"}}, {"type": "node", "id": 5108999626, "lat": 49.8317558, "lon": 13.9095302, "tags": {"ele": "445", "name": "Dra\u017eovka", "natural": "peak"}}, {"type": "node", "id": 5108999647, "lat": 49.8539821, "lon": 13.8192047, "tags": {"ele": "500", "name": "T\u0159enick\u00e1 hora", "natural": "peak"}}, {"type": "node", "id": 5108999653, "lat": 49.8271802, "lon": 13.89683, "tags": {"ele": "466", "name": "\u0160ibeni\u010dn\u00ed kopec", "natural": "peak"}}, {"type": "node", "id": 5151391724, "lat": 49.8841728, "lon": 13.8042479}, {"type": "node", "id": 5151391725, "lat": 49.8841762, "lon": 13.8042959}, {"type": "node", "id": 5151391726, "lat": 49.8841309, "lon": 13.8043035}, {"type": "node", "id": 5151391727, "lat": 49.8841275, "lon": 13.8042555}, {"type": "node", "id": 5230208483, "lat": 49.7760319, "lon": 13.9232851, "tags": {"ele": "618", "name": "Mal\u00fd Jesk\u0159ipec", "natural": "peak"}}, {"type": "node", "id": 5230208484, "lat": 49.7736124, "lon": 13.9197947, "tags": {"natural": "peak"}}, {"type": "node", "id": 5230208490, "lat": 49.7712333, "lon": 13.9151798, "tags": {"ele": "653", "name": "Velk\u00fd Jesk\u0159ipec", "natural": "peak"}}, {"type": "node", "id": 5489412549, "lat": 49.8580868, "lon": 13.9582135, "tags": {"ele": "418", "name": "Koncip\u016fdy", "natural": "peak"}}, {"type": "node", "id": 5554335846, "lat": 49.8017516, "lon": 13.8806174, "tags": {"tourism": "viewpoint"}}, {"type": "node", "id": 5599018176, "lat": 49.9392312, "lon": 13.9023459, "tags": {"information": "map", "map_size": "region", "map_type": "topo", "name": "Mikroregion K\u0159ivokl\u00e1t", "tourism": "information"}}, {"type": "node", "id": 5599018206, "lat": 49.9264482, "lon": 13.8785221, "tags": {"board_type": "nature;rules", "description": "NS \u00dadol\u00ed ticha", "information": "board", "name": "Chr\u00e1n\u011bn\u00e1 p\u0159\u00edrodn\u00ed stezka \u00dadol\u00ed ticha", "ref": "none", "tourism": "information"}}, {"type": "node", "id": 5760766951, "lat": 49.768843, "lon": 13.8764954, "tags": {"ele": "591", "information": "guidepost", "name": "Jind\u0159ichova sk\u00e1la (odb.)", "operator": "cz:K\u010cT", "tourism": "information"}}, {"type": "node", "id": 5760766952, "lat": 49.768002, "lon": 13.8815342, "tags": {"board_type": "nature", "information": "board", "tourism": "information"}}, {"type": "node", "id": 5760766953, "lat": 49.7860007, "lon": 13.8847866, "tags": {"information": "board", "tourism": "information"}}, {"type": "node", "id": 5768255008, "lat": 49.8201421, "lon": 13.8646489}, {"type": "node", "id": 5768255009, "lat": 49.8201307, "lon": 13.8646788}, {"type": "node", "id": 5768255010, "lat": 49.8201655, "lon": 13.8647106}, {"type": "node", "id": 5768255011, "lat": 49.8201766, "lon": 13.8646813}, {"type": "node", "id": 5768273916, "lat": 49.8532157, "lon": 13.8879954}, {"type": "node", "id": 5768273917, "lat": 49.8532145, "lon": 13.8880627}, {"type": "node", "id": 5768273918, "lat": 49.8532443, "lon": 13.8881118}, {"type": "node", "id": 5768273919, "lat": 49.8532488, "lon": 13.8881125}, {"type": "node", "id": 5768273920, "lat": 49.8532587, "lon": 13.8880794}, {"type": "node", "id": 5768273921, "lat": 49.85328, "lon": 13.88808}, {"type": "node", "id": 5768273922, "lat": 49.8532983, "lon": 13.8880522}, {"type": "node", "id": 5768273923, "lat": 49.8532987, "lon": 13.8880127}, {"type": "node", "id": 5768273924, "lat": 49.8532812, "lon": 13.8879842}, {"type": "node", "id": 5768273925, "lat": 49.8532559, "lon": 13.8879838}, {"type": "node", "id": 5768273926, "lat": 49.8532404, "lon": 13.8880064}, {"type": "node", "id": 5768273927, "lat": 49.8532189, "lon": 13.8879911}, {"type": "node", "id": 5981871230, "lat": 49.9084704, "lon": 13.9733837, "tags": {"information": "map", "tourism": "information"}}, {"type": "node", "id": 5981872586, "lat": 49.9120952, "lon": 13.9792519, "tags": {"information": "map", "name": "Zdice", "tourism": "information"}}, {"type": "node", "id": 5981872587, "lat": 49.9184885, "lon": 13.9887795, "tags": {"ele": "370", "name": "Knihov", "natural": "peak"}}, {"type": "node", "id": 5981872608, "lat": 49.9133816, "lon": 13.9450742, "tags": {"amenity": "shelter"}}, {"type": "node", "id": 5981872610, "lat": 49.9276201, "lon": 13.9410138, "tags": {"ele": "536", "hiking": "yes", "information": "guidepost", "name": "Vran\u00ed sk\u00e1la", "operator": "cz:K\u010cT", "ref": "6047/17", "tourism": "information"}}, {"type": "node", "id": 5981872639, "lat": 49.9415552, "lon": 13.9579638, "tags": {"amenity": "shelter"}}, {"type": "node", "id": 6103601621, "lat": 49.7958966, "lon": 13.831889, "tags": {"hiking": "yes", "information": "guidepost", "name": "J\u00edvina", "operator": "cz:K\u010cT", "ref": "BE142", "tourism": "information"}}, {"type": "node", "id": 6103707447, "lat": 49.7858361, "lon": 13.8667846, "tags": {"hiking": "yes", "information": "guidepost", "name": "Pod Hlavou", "operator": "cz:K\u010cT", "ref": "BE245", "tourism": "information"}}, {"type": "node", "id": 6175183596, "lat": 49.7551546, "lon": 13.9844947, "tags": {"ele": "600", "hiking": "yes", "information": "guidepost", "name": "H\u0159ebenka", "operator": "local", "ref": "none", "tourism": "information"}}, {"type": "node", "id": 6211394732, "lat": 49.815176, "lon": 13.9984449, "tags": {"tourism": "viewpoint"}}, {"type": "node", "id": 6428809822, "lat": 49.7564878, "lon": 13.8278013, "tags": {"hiking": "yes", "information": "guidepost", "name": "Jalov\u00fd potok", "operator": "cz:K\u010cT", "ref": "RO009", "tourism": "information"}}, {"type": "node", "id": 6429235010, "lat": 49.8156895, "lon": 13.9130807, "tags": {"description": "Turistick\u00e1 v\u00fdv\u011bsn\u00ed mapa", "information": "map", "map_size": "region", "map_type": "topo", "name": "Brdy - sever", "operator": "cz:K\u010cT", "tourism": "information"}}, {"type": "node", "id": 6429235215, "lat": 49.8262201, "lon": 13.9072268, "tags": {"information": "map", "tourism": "information"}}, {"type": "node", "id": 6429235417, "lat": 49.8264691, "lon": 13.9143445, "tags": {"amenity": "shelter", "bench": "yes", "shelter_type": "gazebo"}}, {"type": "node", "id": 6429235418, "lat": 49.8280594, "lon": 13.9123838, "tags": {"amenity": "shelter", "bench": "yes", "shelter_type": "gazebo"}}, {"type": "node", "id": 6429235428, "lat": 49.8307469, "lon": 13.9103676, "tags": {"amenity": "shelter", "bench": "yes", "shelter_type": "gazebo"}}, {"type": "node", "id": 6442956226, "lat": 49.7717436, "lon": 13.858238, "tags": {"ele": "560", "hiking": "yes", "information": "guidepost", "name": "Kva\u0148", "operator": "cz:K\u010cT", "ref": "BE140", "tourism": "information"}}, {"type": "node", "id": 6447294952, "lat": 49.7871176, "lon": 13.9593369, "tags": {"hiking": "yes", "information": "guidepost", "name": "Ohrazenice", "operator": "cz:K\u010cT", "tourism": "information"}}, {"type": "node", "id": 6740352668, "lat": 49.762876, "lon": 13.8657895, "tags": {"direction": "330", "tourism": "viewpoint"}}, {"type": "node", "id": 7157927804, "lat": 49.9441313, "lon": 13.996973, "tags": {"ele": "370", "name": "Trub\u00ednsk\u00fd vrch", "natural": "peak", "wikidata": "Q10996023"}}, {"type": "node", "id": 7309198615, "lat": 49.8050555, "lon": 13.8596371, "tags": {"description": "NS Okol\u00edm Kom\u00e1rova", "information": "board", "name": "N\u00e1dr\u017eka", "ref": "12", "tourism": "information"}}, {"type": "node", "id": 7309198616, "lat": 49.8050495, "lon": 13.85964, "tags": {"hiking": "yes", "information": "guidepost", "operator": "cz:K\u010cT", "ref": "BE147", "tourism": "information"}}, {"type": "node", "id": 7416776694, "lat": 49.8147686, "lon": 13.9876683, "tags": {"tourism": "viewpoint"}}, {"type": "node", "id": 7519553487, "lat": 49.7885173, "lon": 13.9900078, "tags": {"board_type": "information", "information": "board", "name": "Ekosyst\u00e9m lidsk\u00fdch s\u00eddel - B\u011b\u0159\u00edn", "ref": "9", "tourism": "information"}}, {"type": "node", "id": 7793844857, "lat": 49.8872354, "lon": 13.8830751, "tags": {"board_type": "history", "information": "board", "name": "Otakar Zachar", "tourism": "information"}}, {"type": "node", "id": 7793844858, "lat": 49.8904642, "lon": 13.8881335, "tags": {"board_type": "geology", "information": "board", "name": "Geologick\u00e9 pam\u011btihodnosti To\u010dn\u00edka", "tourism": "information"}}, {"type": "node", "id": 7793844860, "lat": 49.8910692, "lon": 13.8879235, "tags": {"board_type": "geology", "information": "board", "name": "Geologick\u00e9 zaj\u00edmavosti na z\u00e1meck\u00e9m vrchu", "tourism": "information"}}, {"type": "node", "id": 7794333013, "lat": 49.8863693, "lon": 13.8804951, "tags": {"board_type": "wildlife", "check_date": "2025-02-22", "description": "Evropsky v\u00fdznamn\u00e1 lokalita", "information": "board", "name": "Stroup\u00ednsk\u00fd potok", "tourism": "information"}}, {"type": "node", "id": 7882811232, "lat": 49.7605134, "lon": 13.851368, "tags": {"bicycle": "yes", "check_date": "2024-10-21", "hiking": "yes", "information": "map", "map_size": "region", "map_type": "topo", "name": "Vojensk\u00fd \u00fajezd brdy", "tourism": "information"}}, {"type": "node", "id": 7882811234, "lat": 49.7519447, "lon": 13.8718248, "tags": {"bicycle": "yes", "information": "guidepost", "name": "U B\u00edl\u00e9ho K\u0159\u00ed\u017eku", "operator": "cz:K\u010cT", "ref": "none", "tourism": "information"}}, {"type": "node", "id": 7939906799, "lat": 49.798205, "lon": 13.8714445, "tags": {"bicycle": "yes", "information": "guidepost", "name": "Mrtn\u00edk", "operator": "cz:K\u010cT", "ref": "none", "tourism": "information"}}, {"type": "node", "id": 7939906801, "lat": 49.8003174, "lon": 13.8727294, "tags": {"board_type": "history", "description": "NS Okol\u00edm Kom\u00e1rova", "information": "board", "name": "Mrtn\u00edk", "ref": "4", "tourism": "information"}}, {"type": "node", "id": 7942198947, "lat": 49.835657, "lon": 13.9097582, "tags": {"bicycle": "yes", "information": "guidepost", "name": "Ho\u0159ovice (Sv. Jilj\u00ed)", "operator": "cz:K\u010cT", "ref": "none", "tourism": "information"}}, {"type": "node", "id": 7942198948, "lat": 49.8129887, "lon": 13.9059459, "tags": {"bicycle": "yes", "information": "guidepost", "name": "Podluhy (Na Ol\u0161in\u00e1ch)", "operator": "cz:K\u010cT", "ref": "none", "tourism": "information"}}, {"type": "node", "id": 7942198951, "lat": 49.7806172, "lon": 13.914431, "tags": {"bicycle": "yes", "ele": "595", "information": "guidepost", "name": "Krej\u010dovka", "operator": "cz:K\u010cT", "tourism": "information"}}, {"type": "node", "id": 8039858962, "lat": 49.8371581, "lon": 13.9081114, "tags": {"board_type": "history", "information": "board", "name": "Ka\u0161na", "ref": "none", "tourism": "information"}}, {"type": "node", "id": 8154639338, "lat": 49.8008959, "lon": 13.9893819, "tags": {"tourism": "viewpoint"}}, {"type": "node", "id": 8179225560, "lat": 49.891207, "lon": 13.8882387, "tags": {"board_type": "wildlife", "information": "board", "name": "Medv\u011bdi na To\u010dn\u00edku", "tourism": "information"}}, {"type": "node", "id": 8179234069, "lat": 49.9037778, "lon": 13.9192682, "tags": {"information": "board", "tourism": "information"}}, {"type": "node", "id": 8207533692, "lat": 49.8526335, "lon": 13.95258, "tags": {"amenity": "shelter", "shelter_type": "public_transport"}}, {"type": "node", "id": 8207533699, "lat": 49.8523545, "lon": 13.9794373, "tags": {"amenity": "shelter", "shelter_type": "public_transport"}}, {"type": "node", "id": 8210775771, "lat": 49.9275787, "lon": 13.9744498, "tags": {"amenity": "shelter", "shelter_type": "public_transport"}}, {"type": "node", "id": 8214781317, "lat": 49.8119747, "lon": 13.9123298, "tags": {"amenity": "shelter", "shelter_type": "public_transport"}}, {"type": "node", "id": 8214781387, "lat": 49.8771219, "lon": 13.9199299, "tags": {"amenity": "shelter", "shelter_type": "public_transport"}}, {"type": "node", "id": 8259822710, "lat": 49.8208827, "lon": 13.8106039, "tags": {"board_type": "history", "information": "board", "name": "Partyz\u00e1nsk\u00fd kryt u \u00dajezda", "operator": "Lesy \u010cR, s.p.", "ref": "none", "tourism": "information"}}, {"type": "node", "id": 8259843017, "lat": 49.8208448, "lon": 13.8107863, "tags": {"ele": "518", "hiking": "yes", "information": "guidepost", "name": "Partyz\u00e1nsk\u00fd kryt", "operator": "cz:K\u010cT", "ref": "BE064", "tourism": "information"}}, {"type": "node", "id": 8294433166, "lat": 49.8968875, "lon": 13.8680077, "tags": {"amenity": "shelter", "shelter_type": "public_transport"}}, {"type": "node", "id": 8296679377, "lat": 49.8421842, "lon": 13.8615476, "tags": {"amenity": "shelter", "shelter_type": "public_transport"}}, {"type": "node", "id": 8296679378, "lat": 49.8424419, "lon": 13.8612539, "tags": {"amenity": "shelter", "shelter_type": "public_transport"}}, {"type": "node", "id": 8296679408, "lat": 49.8509506, "lon": 13.8299605, "tags": {"amenity": "shelter", "shelter_type": "public_transport"}}, {"type": "node", "id": 8372578527, "lat": 49.781462, "lon": 13.8116281, "tags": {"board_type": "history", "information": "board", "name": "Ole\u0161n\u00e1", "tourism": "information"}}, {"type": "node", "id": 8463799196, "lat": 49.8295233, "lon": 13.8139998, "tags": {"name": "B\u00fdval\u00e1 tvrz Doubravice", "tourism": "attraction"}}, {"type": "node", "id": 8463860738, "lat": 49.8295148, "lon": 13.8149038, "tags": {"amenity": "shelter", "bench": "yes", "bin": "no", "fee": "no", "internet_access": "no", "lit": "no", "lockable": "no", "material": "wood", "shelter_type": "picnic_shelter"}}, {"type": "node", "id": 8463860769, "lat": 49.8296057, "lon": 13.8142979, "tags": {"board_type": "history", "information": "board", "name": "B\u00fdval\u00e1 tvrz Doubravice", "ref": "none", "tourism": "information"}}, {"type": "node", "id": 8476007697, "lat": 49.75193, "lon": 13.9947024, "tags": {"amenity": "shelter", "bench": "no", "bin": "yes", "shelter_type": "weather_shelter"}}, {"type": "node", "id": 8482403062, "lat": 49.8462385, "lon": 13.861683, "tags": {"amenity": "shelter", "shelter_type": "public_transport"}}, {"type": "node", "id": 8561672715, "lat": 49.7649516, "lon": 13.8408415}, {"type": "node", "id": 8561672716, "lat": 49.7649878, "lon": 13.8409224}, {"type": "node", "id": 8561676917, "lat": 49.7648288, "lon": 13.8410929}, {"type": "node", "id": 8579128060, "lat": 49.7787097, "lon": 13.9052466, "tags": {"ele": "666", "name": "Beranec", "natural": "peak"}}, {"type": "node", "id": 8581944533, "lat": 49.8205355, "lon": 13.9593469, "tags": {"ele": "539", "name": "Ostr\u00fd", "natural": "peak"}}, {"type": "node", "id": 8581977126, "lat": 49.8093281, "lon": 13.9268222, "tags": {"ele": "490", "name": "Podlu\u017esk\u00e1 hora", "natural": "peak"}}, {"type": "node", "id": 8597718276, "lat": 49.7892179, "lon": 13.8551781, "tags": {"ele": "552", "name": "Hlava", "natural": "peak"}}, {"type": "node", "id": 8617740243, "lat": 49.9111784, "lon": 13.9157767, "tags": {"ele": "463", "name": "Chru\u010d", "natural": "peak"}}, {"type": "node", "id": 8653296856, "lat": 49.7686036, "lon": 13.8393335}, {"type": "node", "id": 8653296857, "lat": 49.7686034, "lon": 13.8393638}, {"type": "node", "id": 8653296858, "lat": 49.7685655, "lon": 13.839363}, {"type": "node", "id": 8653296859, "lat": 49.7685657, "lon": 13.8393328}, {"type": "node", "id": 8653296860, "lat": 49.7684321, "lon": 13.8393373}, {"type": "node", "id": 8653296861, "lat": 49.7684319, "lon": 13.8393676}, {"type": "node", "id": 8653296862, "lat": 49.768394, "lon": 13.8393668}, {"type": "node", "id": 8653296863, "lat": 49.7683942, "lon": 13.8393366}, {"type": "node", "id": 8712178663, "lat": 49.846304, "lon": 13.8102703, "tags": {"information": "board", "name": "P\u0159\u00edrodn\u00ed pam\u00e1tka Stud\u00e1nky u Cerhovic", "tourism": "information"}}, {"type": "node", "id": 8971738006, "lat": 49.833962, "lon": 13.9024357, "tags": {"information": "map", "name": "Turistick\u00e1 mapa Brdy - sever", "tourism": "information"}}, {"type": "node", "id": 9000487797, "lat": 49.9321718, "lon": 13.83188, "tags": {"hiking": "yes", "information": "guidepost", "name": "Pod Jehlou (rozcest\u00ed)", "note": "rozcestn\u00edk ji\u017e z\u0159ejm\u011b nen\u00ed v evidenci K\u010cT, nicm\u00e9n\u011b barva zna\u010dky i c\u00edle jsou st\u00e1le platn\u00e9", "operator": "cz:K\u010cT", "ref": "6127/6", "tourism": "information"}}, {"type": "node", "id": 9183244140, "lat": 49.8879633, "lon": 13.887818, "tags": {"information": "board", "name": "Port\u00e1l Jeron\u00fdma Pra\u017esk\u00e9ho", "tourism": "information"}}, {"type": "node", "id": 9186409604, "lat": 49.8910505, "lon": 13.8872905, "tags": {"board_type": "wildlife", "information": "board", "name": "Netop\u00fd\u0159i na hrad\u011b To\u010dn\u00edk", "tourism": "information"}}, {"type": "node", "id": 9186449808, "lat": 49.8916432, "lon": 13.8891173, "tags": {"information": "board", "name": "NS Medv\u011bd\u00ed stezka \u010d. 2: Medv\u011bdi", "tourism": "information"}}, {"type": "node", "id": 9186449809, "lat": 49.8916006, "lon": 13.8889133, "tags": {"information": "board", "name": "NS Medv\u011bd\u00ed stezka \u010d. 3: Medv\u011bd hn\u011bd\u00fd", "tourism": "information"}}, {"type": "node", "id": 9186449810, "lat": 49.8915935, "lon": 13.8886789, "tags": {"information": "board", "name": "NS Medv\u011bd\u00ed stezka \u010d. 4: Medv\u011bd a \u010dlov\u011bk v historii", "tourism": "information"}}, {"type": "node", "id": 9186449811, "lat": 49.8916006, "lon": 13.8881577, "tags": {"information": "board", "name": "NS Medv\u011bd\u00ed stezka \u010d. 5: Historie to\u010dnick\u00fdch medv\u011bd\u016f", "tourism": "information"}}, {"type": "node", "id": 9186449812, "lat": 49.8915171, "lon": 13.8877523, "tags": {"information": "board", "name": "NS Medv\u011bd\u00ed stezka \u010d. 6: Medv\u011bd\u00edn a medv\u011bdi", "tourism": "information"}}, {"type": "node", "id": 9186449813, "lat": 49.8872425, "lon": 13.8831422, "tags": {"information": "map", "name": "CHKO K\u0159ivokl\u00e1tsko", "tourism": "information"}}, {"type": "node", "id": 9186461984, "lat": 49.8915688, "lon": 13.8892623, "tags": {"information": "board", "name": "NS Medv\u011bd\u00ed stezka \u010d. 1: Za\u010d\u00e1tek", "tourism": "information"}}, {"type": "node", "id": 9186479883, "lat": 49.8861457, "lon": 13.8810221, "tags": {"information": "board", "name": "Hrad \u017debr\u00e1k", "tourism": "information"}}, {"type": "node", "id": 9186485094, "lat": 49.8880284, "lon": 13.8872925, "tags": {"information": "map", "name": "Mikroregion Ho\u0159ovicko", "tourism": "information"}}, {"type": "node", "id": 9198242411, "lat": 49.9124367, "lon": 13.979598, "tags": {"information": "map", "tourism": "information"}}, {"type": "node", "id": 9198242412, "lat": 49.9143259, "lon": 13.9805703, "tags": {"information": "board", "name": "NS Zdice 7", "tourism": "information"}}, {"type": "node", "id": 9198242413, "lat": 49.9138936, "lon": 13.9806855, "tags": {"information": "board", "name": "NS Zdice 8", "tourism": "information"}}, {"type": "node", "id": 9198242414, "lat": 49.9149572, "lon": 13.9796406, "tags": {"board_type": "notice", "information": "board", "name": "NS Zdice 5", "tourism": "information"}}, {"type": "node", "id": 9198242617, "lat": 49.9153003, "lon": 13.9867359, "tags": {"ele": "260", "hiking": "yes", "information": "guidepost", "name": "U studny", "operator": "cz:K\u010cT", "ref": "BE140", "tourism": "information"}}, {"type": "node", "id": 9198242629, "lat": 49.9183551, "lon": 13.9885527, "tags": {"information": "board", "tourism": "information"}}, {"type": "node", "id": 9198242635, "lat": 49.9173723, "lon": 13.9873801, "tags": {"information": "map", "map_size": "site", "map_type": "topo", "name": "Lesopark Knihov", "tourism": "information"}}, {"type": "node", "id": 9198242636, "lat": 49.9171708, "lon": 13.9872359, "tags": {"information": "board", "tourism": "information"}}, {"type": "node", "id": 9198242640, "lat": 49.9169528, "lon": 13.9868081, "tags": {"board_type": "history", "information": "board", "name": "Jak se \u017eilo v prav\u011bku pod Knihovem", "tourism": "information"}}, {"type": "node", "id": 9198242648, "lat": 49.917101, "lon": 13.9853873, "tags": {"board_type": "history", "information": "board", "name": "Lesopark Knihov", "tourism": "information"}}, {"type": "node", "id": 9198242649, "lat": 49.9176106, "lon": 13.9847016, "tags": {"information": "map", "map_size": "site", "map_type": "topo", "name": "Lesopark Knihov", "tourism": "information"}}, {"type": "node", "id": 9198242651, "lat": 49.9178569, "lon": 13.9845397, "tags": {"information": "board", "tourism": "information"}}, {"type": "node", "id": 9198242652, "lat": 49.9179122, "lon": 13.9844978, "tags": {"ele": "275", "hiking": "yes", "information": "guidepost", "name": "U l\u00e1vky", "operator": "cz:K\u010cT", "ref": "BE265", "tourism": "information"}}, {"type": "node", "id": 9198242653, "lat": 49.9181535, "lon": 13.98452, "tags": {"information": "map", "tourism": "information"}}, {"type": "node", "id": 9198242711, "lat": 49.931585, "lon": 13.9793067, "tags": {"ele": "381", "natural": "peak"}}, {"type": "node", "id": 9198242715, "lat": 49.9331045, "lon": 13.9832026, "tags": {"tourism": "viewpoint"}}, {"type": "node", "id": 9198242716, "lat": 49.9330318, "lon": 13.9829959, "tags": {"ele": "385", "name": "H\u0159ibce", "natural": "peak"}}, {"type": "node", "id": 9200423823, "lat": 49.927631, "lon": 13.9742065, "tags": {"hiking": "yes", "information": "guidepost", "name": "\u010cern\u00edn", "operator": "cz_K\u010cT", "ref": "BE251", "tourism": "information"}}, {"type": "node", "id": 9212523170, "lat": 49.9181728, "lon": 13.9868202, "tags": {"information": "map", "map_size": "site", "map_type": "topo", "name": "Lesopark Knihov", "tourism": "information"}}, {"type": "node", "id": 9212523171, "lat": 49.9273507, "lon": 13.9745135, "tags": {"information": "map", "map_size": "region", "map_type": "scheme", "name": "Berounsko", "tourism": "information"}}, {"type": "node", "id": 9341804301, "lat": 49.877522, "lon": 13.8382772, "tags": {"name": "Hol\u00fd vrch", "natural": "peak"}}, {"type": "node", "id": 9365312898, "lat": 49.8396079, "lon": 13.892518, "tags": {"tourism": "viewpoint"}}, {"type": "node", "id": 9476158185, "lat": 49.8824664, "lon": 13.9084473, "tags": {"ele": "401.8", "name": "\u015aibenec", "natural": "peak"}}, {"type": "node", "id": 9521819754, "lat": 49.8485733, "lon": 13.8785622}, {"type": "node", "id": 9521819755, "lat": 49.8485477, "lon": 13.878493}, {"type": "node", "id": 9521819756, "lat": 49.8485127, "lon": 13.8785243}, {"type": "node", "id": 9521819757, "lat": 49.8485383, "lon": 13.8785934}, {"type": "node", "id": 9694369347, "lat": 49.8095749, "lon": 13.9378656, "tags": {"board_type": "nature", "description": "Domov vz\u00e1cn\u00e9 \u017eabky ku\u0148ky \u017elutob\u0159ich\u00e9", "information": "board", "name": "Evropsky v\u00fdznamn\u00e1 lokalita Felbabka", "ref": "none", "tourism": "information"}}, {"type": "node", "id": 9694383466, "lat": 49.8067862, "lon": 13.9242526, "tags": {"information": "board", "name": "Liebusovo jez\u00edrko", "operator": "Vojensk\u00e9 lesy a statky \u010cR, s.p.", "ref": "none", "tourism": "information"}}, {"type": "node", "id": 9694389716, "lat": 49.87973, "lon": 13.88033, "tags": {"information": "board", "name": "Dvorsk\u00e1 cesta", "tourism": "information"}}, {"type": "node", "id": 9801148337, "lat": 49.9011803, "lon": 13.8052063, "tags": {"ele": "588", "name": "\u010cern\u00e1 sk\u00e1la", "natural": "peak"}}, {"type": "node", "id": 9814303009, "lat": 49.7660531, "lon": 13.8439672, "tags": {"information": "map", "name": "Brdy sever", "tourism": "information"}}, {"type": "node", "id": 9814303556, "lat": 49.7673503, "lon": 13.8408825, "tags": {"information": "map", "name": "Brdy sever", "tourism": "information"}}, {"type": "node", "id": 10075689063, "lat": 49.9158294, "lon": 13.9852911, "tags": {"information": "map", "name": "Zdice", "tourism": "information"}}, {"type": "node", "id": 10075700750, "lat": 49.912085, "lon": 13.9776292, "tags": {"information": "board", "name": "Budova b\u00fdval\u00e9 po\u0161ty", "tourism": "information"}}, {"type": "node", "id": 10075702955, "lat": 49.9150022, "lon": 13.9797253, "tags": {"board_type": "history", "description": "Nau\u010dn\u00e1 stezka Zdice", "information": "board", "name": "Pomn\u00edky ob\u011btem sv\u011btov\u00fdch v\u00e1lek", "ref": "6", "tourism": "information"}}, {"type": "node", "id": 10075711889, "lat": 49.9119325, "lon": 13.9777117, "tags": {"description": "Nau\u010dn\u00e1 stezka Zdice", "information": "board", "name": "Radnice - budova b\u00fdval\u00e9 po\u0161ty", "ref": "1", "tourism": "information"}}, {"type": "node", "id": 10075711914, "lat": 49.9121706, "lon": 13.9774222, "tags": {"description": "Nau\u010dn\u00e1 stezka Zdice", "information": "board", "name": "Kostel Narozen\u00ed Panny Marie", "ref": "2", "tourism": "information"}}, {"type": "node", "id": 10075721841, "lat": 49.9121814, "lon": 13.9769606, "tags": {"description": "Nau\u010dn\u00e1 stezka Zdice", "information": "board", "name": "Farn\u00ed budova", "ref": "3", "tourism": "information"}}, {"type": "node", "id": 10075724697, "lat": 49.914935, "lon": 13.9795514, "tags": {"information": "map", "name": "Zdice", "tourism": "information"}}, {"type": "node", "id": 10075727819, "lat": 49.9135803, "lon": 13.9758725, "tags": {"description": "Nau\u010dn\u00e1 stezka Zdice", "information": "board", "name": "H\u0159bitov", "ref": "4", "tourism": "information"}}, {"type": "node", "id": 10113345734, "lat": 49.9120689, "lon": 13.9793372, "tags": {"information": "map", "name": "Zdice", "tourism": "information"}}, {"type": "node", "id": 10173612837, "lat": 49.9045231, "lon": 13.8985983, "tags": {"information": "board", "name": "Chr\u00e1n\u011bn\u00e1 p\u0159\u00edrodn\u00ed stezka \u00dadol\u00ed ticha", "tourism": "information"}}, {"type": "node", "id": 10173612838, "lat": 49.9045106, "lon": 13.8986131, "tags": {"information": "board", "name": "Evropsky v\u00fdznamn\u00e1 lokalita Stroup\u00ednsk\u00fd potok", "tourism": "information"}}, {"type": "node", "id": 10223627129, "lat": 49.7888095, "lon": 13.8833423, "tags": {"information": "map", "name": "Mikroregion Ho\u0159ovicko", "tourism": "information"}}, {"type": "node", "id": 10223627130, "lat": 49.7887861, "lon": 13.8833611, "tags": {"description": "Turistick\u00e1 v\u00fdv\u011bsn\u00ed mapa 1:25 000", "information": "map", "name": "Brdy sever", "tourism": "information"}}, {"type": "node", "id": 10227889685, "lat": 49.8064986, "lon": 13.8580243, "tags": {"information": "board", "name": "M\u011bstys Kom\u00e1rov", "tourism": "information"}}, {"type": "node", "id": 10227899632, "lat": 49.7909539, "lon": 13.8813042, "tags": {"information": "board", "name": "Chr\u00e1n\u011bn\u00e1 krajinn\u00e1 oblast Brdy", "tourism": "information"}}, {"type": "node", "id": 10227908138, "lat": 49.8036597, "lon": 13.8652989, "tags": {"description": "NS Okol\u00edm Kom\u00e1rova", "information": "board", "name": "\u010cerven\u00fd rybn\u00edk", "ref": "3", "tourism": "information"}}, {"type": "node", "id": 10227914111, "lat": 49.8065702, "lon": 13.8579874, "tags": {"description": "NS Okol\u00edm Kom\u00e1rova", "information": "board", "name": "N\u00e1m\u011bst\u00ed", "ref": "1", "tourism": "information"}}, {"type": "node", "id": 10227914923, "lat": 49.7971303, "lon": 13.8689047, "tags": {"description": "NS Okol\u00edm Kom\u00e1rova", "information": "board", "name": "Rokle", "ref": "10", "tourism": "information"}}, {"type": "node", "id": 10244485257, "lat": 49.7959581, "lon": 13.8581144, "tags": {"description": "NS Okol\u00edm Kom\u00e1rova", "information": "board", "name": "Kle\u0161t\u011bnice", "ref": "11", "tourism": "information"}}, {"type": "node", "id": 10244798367, "lat": 49.8561006, "lon": 13.8269992, "tags": {"information": "board", "tourism": "information"}}, {"type": "node", "id": 10588707102, "lat": 49.7818319, "lon": 13.9871443, "tags": {"description": "NS Z Jinec na Olymp Brd", "information": "board", "name": "Z Jinec na Olymp Brd", "ref": "1", "tourism": "information"}}, {"type": "node", "id": 10588707103, "lat": 49.7847624, "lon": 13.9866478, "tags": {"board_type": "history;nature", "description": "NS Z Jinec na Olymp Brd", "information": "board", "name": "Litavka", "ref": "6", "tourism": "information"}}, {"type": "node", "id": 10716053384, "lat": 49.7982914, "lon": 13.9629564, "tags": {"board_type": "nature", "description": "NS Z Jinec na Olymp Brd", "information": "board", "name": "Fauna a fl\u00f3ra Brd", "ref": "15", "tourism": "information"}}, {"type": "node", "id": 10918438240, "lat": 49.754455, "lon": 13.9979832, "tags": {"ele": "435", "hiking": "yes", "information": "guidepost", "name": "Dominik\u00e1ln\u00ed Paseky", "operator": "cz:K\u010cT", "ref": "BD003", "tourism": "information"}}, {"type": "node", "id": 11099344699, "lat": 49.8002315, "lon": 13.8728272, "tags": {"board_type": "history", "information": "board", "name": "Kostel Nar. P. Marie v Mrtn\u00edku", "ref": "none", "tourism": "information"}}, {"type": "node", "id": 11099376633, "lat": 49.7958656, "lon": 13.8581519, "tags": {"information": "map", "name": "Mikroregion Ho\u0159ovicko", "tourism": "information"}}, {"type": "node", "id": 11099380141, "lat": 49.8064261, "lon": 13.8580003, "tags": {"information": "map", "name": "Mikroregion Ho\u0159ovicko", "tourism": "information"}}, {"type": "node", "id": 11099382149, "lat": 49.805683, "lon": 13.8581551, "tags": {"description": "NS Okol\u00edm Kom\u00e1rova", "information": "board", "name": "Muzeum", "ref": "2", "tourism": "information"}}, {"type": "node", "id": 11099392938, "lat": 49.7918781, "lon": 13.8868911, "tags": {"description": "NS Okol\u00edm Kom\u00e1rova", "information": "board", "name": "Jedov\u00e1 (D\u011bdova) hora", "ref": "7", "tourism": "information"}}, {"type": "node", "id": 11099413977, "lat": 49.7910314, "lon": 13.8719253, "tags": {"information": "map", "name": "Mikroregion Ho\u0159ovicko", "tourism": "information"}}, {"type": "node", "id": 11187862157, "lat": 49.8633668, "lon": 13.9484585, "tags": {"ele": "401", "name": "Otm\u00ed\u010dsk\u00e1 hora", "natural": "peak"}}, {"type": "node", "id": 11481146267, "lat": 49.9451351, "lon": 13.804725, "tags": {"board_type": "nature", "description": "Lesnick\u00fd park K\u0159ivokl\u00e1tsko", "information": "board", "name": "Cest\u00e1\u0159sk\u00e1 bouda", "ref": "7", "tourism": "information"}}, {"type": "node", "id": 11482820636, "lat": 49.9130242, "lon": 13.8512594, "tags": {"hiking": "yes", "information": "guidepost", "name": "V\u011b\u0159ovice (rozc.)", "operator": "cz:K\u010cT", "ref": "BE002", "tourism": "information"}}, {"type": "node", "id": 11482820637, "lat": 49.9135152, "lon": 13.8494305, "tags": {"horse": "yes", "information": "guidepost", "name": "Pod V\u00fdrovkou (rozc.)", "operator": "cz:K\u010cT", "ref": "592;601;609;625", "tourism": "information"}}, {"type": "node", "id": 11482820638, "lat": 49.913553, "lon": 13.8495311, "tags": {"check_date": "2023-12-31", "hiking": "yes", "historic": "yes", "information": "guidepost", "note": "tabule ji\u017e z\u0159ejm\u011b nen\u00ed v evidenci K\u010cT, nicm\u00e9n\u011b barva zna\u010dky i c\u00edle jsou st\u00e1le platn\u00e9", "operator": "cz:K\u010cT", "ref": "3057/10", "start_date": "1971", "tourism": "information"}}, {"type": "node", "id": 11482918540, "lat": 49.9265403, "lon": 13.8784562, "tags": {"board_type": "nature", "description": "Lesnick\u00fd park K\u0159ivokl\u00e1tsko", "information": "board", "name": "Rozcest\u00ed pod Kamencem", "ref": "5", "tourism": "information"}}, {"type": "node", "id": 11482918541, "lat": 49.913712, "lon": 13.8859032, "tags": {"board_type": "wildlife", "description": "NS \u00dadol\u00ed ticha", "information": "board", "name": "Chr\u00e1n\u011bn\u00e1 p\u0159\u00edrodn\u00ed stezka \u00dadol\u00ed ticha - potok a fauna", "ref": "none", "tourism": "information"}}, {"type": "node", "id": 11483271401, "lat": 49.9329968, "lon": 13.9212857, "tags": {"bicycle": "yes", "information": "guidepost", "operator": "cz:K\u010cT", "ref": "none", "tourism": "information"}}, {"type": "node", "id": 11483498526, "lat": 49.9456663, "lon": 13.8864039, "tags": {"board_type": "history;map", "information": "board", "name": "Kublov, Josef Leopold Zvona\u0159", "ref": "none", "tourism": "information"}}, {"type": "node", "id": 11483498527, "lat": 49.9435935, "lon": 13.877379, "tags": {"board_type": "history", "information": "board", "name": "Josef Leopold Zvona\u0159", "ref": "none", "tourism": "information"}}, {"type": "node", "id": 11483499705, "lat": 49.9457067, "lon": 13.8866202, "tags": {"board_type": "history", "information": "board", "name": "Pam\u00e1tky na ho\u0159e Vel\u00edz", "ref": "none", "tourism": "information"}}, {"type": "node", "id": 11483499706, "lat": 49.9462035, "lon": 13.8881256, "tags": {"board_type": "history", "information": "board", "name": "Archeologick\u00fd v\u00fdzkum na Vel\u00edzi", "ref": "none", "tourism": "information"}}, {"type": "node", "id": 11483499737, "lat": 49.9509874, "lon": 13.8914773, "tags": {"board_type": "nature", "information": "board", "name": "NS Lesn\u00ed panorama", "ref": "none", "tourism": "information"}}, {"type": "node", "id": 11483976231, "lat": 49.9392272, "lon": 13.9023815, "tags": {"board_type": "nature", "description": "Lesnick\u00fd park K\u0159ivokl\u00e1tsko", "information": "board", "name": "H\u00e1jovna Kolna", "operator": "Lesy \u010cR, s.p.", "ref": "4", "tourism": "information"}}, {"type": "node", "id": 11483976232, "lat": 49.9386391, "lon": 13.8351063, "tags": {"board_type": "nature", "description": "Lesnick\u00fd park K\u0159ivokl\u00e1tsko", "information": "board", "name": "Zakopalovy plochy", "operator": "Lesy \u010cR, s.p.", "ref": "10", "tourism": "information"}}, {"type": "node", "id": 11483976235, "lat": 49.9306521, "lon": 13.8335761, "tags": {"board_type": "nature", "description": "Lesnick\u00fd park K\u0159ivokl\u00e1tsko", "information": "board", "name": "Stanovi\u0161t\u011b Jouglovka", "operator": "Lesy \u010cR, s.p.", "ref": "none", "tourism": "information"}}, {"type": "node", "id": 11483976236, "lat": 49.941822, "lon": 13.8403152, "tags": {"hiking": "yes", "information": "guidepost", "name": "Luk\u00e1rna (h\u00e1j.)", "operator": "cz:K\u010cT", "ref": "6127/3", "tourism": "information"}}, {"type": "node", "id": 11486113182, "lat": 49.8051717, "lon": 13.9742864, "tags": {"board_type": "geology", "description": "Nau\u010dn\u00e1 stezka Geoparku Barrandien z Jinec na Olymp Brd", "information": "board", "name": "Prvohory - ordovik, silur, devon", "ref": "12", "tourism": "information"}}, {"type": "node", "id": 11530358415, "lat": 49.7741709, "lon": 13.8091063, "tags": {"information": "board", "tourism": "information"}}, {"type": "node", "id": 11530358416, "lat": 49.7741813, "lon": 13.8090654, "tags": {"information": "board", "tourism": "information"}}, {"type": "node", "id": 11530358417, "lat": 49.7741633, "lon": 13.8091413, "tags": {"information": "board", "tourism": "information"}}, {"type": "node", "id": 11709234585, "lat": 49.8518179, "lon": 13.9783242, "tags": {"board_type": "history", "information": "board", "name": "Lochovice", "ref": "none", "tourism": "information"}}, {"type": "node", "id": 11709234586, "lat": 49.8514998, "lon": 13.9273103, "tags": {"hiking": "yes", "information": "guidepost", "name": "Tihava", "operator": "cz:K\u010cT", "ref": "BE166", "tourism": "information"}}, {"type": "node", "id": 11709234587, "lat": 49.8206726, "lon": 13.958095, "tags": {"ele": "522", "hiking": "yes", "information": "guidepost", "name": "Ostr\u00fd", "operator": "cz:K\u010cT", "ref": "BE158", "tourism": "information"}}, {"type": "node", "id": 11709234588, "lat": 49.8341396, "lon": 13.9827043, "tags": {"ele": "373", "hiking": "yes", "information": "guidepost", "name": "U Lhotky [\u010c]", "official_name": "U Lhotky", "operator": "cz:K\u010cT", "ref": "BE146", "tourism": "information"}}, {"type": "node", "id": 11709234590, "lat": 49.8099221, "lon": 13.9883832, "tags": {"information": "map", "map_type": "toposcope", "tourism": "information"}}, {"type": "node", "id": 11709234591, "lat": 49.8099231, "lon": 13.9883899, "tags": {"board_type": "history;nature", "information": "board", "name": "Ple\u0161ivec, Olymp Brd", "ref": "none", "tourism": "information"}}, {"type": "node", "id": 11709234592, "lat": 49.8040551, "lon": 13.9993786, "tags": {"ele": "525", "hiking": "yes", "information": "guidepost", "name": "Ple\u0161iveck\u00fd viklan", "operator": "cz:K\u010cT", "ref": "BE183", "tourism": "information"}}, {"type": "node", "id": 11709234598, "lat": 49.7916614, "lon": 13.9768145, "tags": {"description": "NS Z Jinec na Olymp Brd", "information": "board", "name": "Geopark Barandien", "ref": "16", "tourism": "information"}}, {"type": "node", "id": 11709234599, "lat": 49.7854873, "lon": 13.9857328, "tags": {"board_type": "history", "description": "NS Z Jinec na Olymp Brd", "information": "board", "name": "Geologick\u00fd \u010das", "ref": "5", "tourism": "information"}}, {"type": "node", "id": 11709234600, "lat": 49.7880429, "lon": 13.9809384, "tags": {"board_type": "history", "description": "NS Z Jinec na Olymp Brd", "information": "board", "name": "Vysok\u00e1 pec Barbora (po r. 1951)", "ref": "4", "tourism": "information"}}, {"type": "node", "id": 11709234601, "lat": 49.7877077, "lon": 13.9804081, "tags": {"board_type": "history", "description": "NS Z Jinec na Olymp Brd", "information": "board", "name": "Vysok\u00e1 pec Barbora (do r. 1951)", "ref": "3", "tourism": "information"}}, {"type": "node", "id": 11709234602, "lat": 49.7882114, "lon": 13.9790647, "tags": {"board_type": "history", "description": "NS Z Jinec na Olymp Brd", "information": "board", "name": "Josef Slav\u00edk", "ref": "2", "tourism": "information"}}, {"type": "node", "id": 11709234603, "lat": 49.8367761, "lon": 13.9031094, "tags": {"board_type": "sight;history", "information": "board", "name": "Mikroregion Ho\u0159ovicko", "ref": "none", "tourism": "information"}}, {"type": "node", "id": 11709234604, "lat": 49.8286082, "lon": 13.9385447, "tags": {"board_type": "sight;history;map", "information": "board", "name": "Mikroregion Ho\u0159ovicko", "note": "nen\u00ed jen mapa, t\u00e9\u017e texty o obc\u00edch v regionu", "ref": "none", "tourism": "information"}}, {"type": "node", "id": 11709234605, "lat": 49.8096408, "lon": 13.9382433, "tags": {"bicycle": "yes", "information": "guidepost", "name": "Felbabka (Placy)", "operator": "cz:K\u010cT", "ref": "none", "tourism": "information"}}, {"type": "node", "id": 11709234606, "lat": 49.8095648, "lon": 13.9379077, "tags": {"ele": "448", "hiking": "yes", "information": "guidepost", "inscription": "Prvn\u00ed p\u00edsemn\u00e1 zm\u00ednka o obci z roku 1657. Rod\u00e1k J. V\u00e1\u0148a, objevitel uhl\u00ed na Kladensku", "name": "Felbabka - Placy", "operator": "cz:K\u010cT", "ref": "BD026", "tourism": "information"}}, {"type": "node", "id": 11709234607, "lat": 49.8095046, "lon": 13.9378524, "tags": {"description": "Turistick\u00e1 v\u00fdv\u011bsn\u00ed mapa", "information": "map", "map_size": "region", "map_type": "topo", "name": "Brdy - sever", "operator": "cz:K\u010cT", "tourism": "information"}}, {"type": "node", "id": 11709234611, "lat": 49.8141964, "lon": 13.9396133, "tags": {"information": "map", "map_size": "site", "map_type": "scheme", "name": "Orienta\u010dn\u00ed pl\u00e1n obce Felbabka", "tourism": "information"}}, {"type": "node", "id": 11709234612, "lat": 49.7880451, "lon": 13.9776792, "tags": {"description": "Turistick\u00e1 v\u00fdv\u011bsn\u00ed mapa", "information": "map", "map_size": "region", "map_type": "topo", "name": "P\u0159\u00edbramsko", "operator": "cz:K\u010cT", "tourism": "information"}}, {"type": "node", "id": 11709234613, "lat": 49.7914757, "lon": 13.9766978, "tags": {"description": "Turistick\u00e1 v\u00fdv\u011bsn\u00ed mapa", "information": "map", "map_size": "region", "map_type": "topo", "name": "Brdy - sever", "operator": "cz:K\u010cT", "tourism": "information"}}, {"type": "node", "id": 11709234614, "lat": 49.8089646, "lon": 13.9706612, "tags": {"ele": "351", "hiking": "yes", "information": "guidepost", "name": "Rejkovice (\u017est)", "operator": "cz:K\u010cT", "ref": "BE229", "tourism": "information"}}, {"type": "node", "id": 11739250739, "lat": 49.8076041, "lon": 13.8787157, "tags": {"information": "board", "name": "Obec Hvozdec", "ref": "none", "tourism": "information"}}, {"type": "node", "id": 11739250740, "lat": 49.8075814, "lon": 13.8787298, "tags": {"information": "board", "name": "Mikroregion Ho\u0159ovicko", "ref": "none", "tourism": "information"}}, {"type": "node", "id": 11739250741, "lat": 49.8065687, "lon": 13.8580003, "tags": {"description": "NS Okol\u00edm Kom\u00e1rova", "hiking": "yes", "information": "guidepost", "operator": "cz:K\u010cT", "ref": "BE144", "tourism": "information"}}, {"type": "node", "id": 11739250788, "lat": 49.7958031, "lon": 13.8752469}, {"type": "node", "id": 11739250789, "lat": 49.7956174, "lon": 13.8753482}, {"type": "node", "id": 11739250790, "lat": 49.7957468, "lon": 13.8754059}, {"type": "node", "id": 11739250791, "lat": 49.7958001, "lon": 13.8753227}, {"type": "node", "id": 11739250792, "lat": 49.7955797, "lon": 13.8752952}, {"type": "node", "id": 11739250793, "lat": 49.7955962, "lon": 13.8749016}, {"type": "node", "id": 11739250794, "lat": 49.7955776, "lon": 13.8751772}, {"type": "node", "id": 11739250795, "lat": 49.7955624, "lon": 13.8751195}, {"type": "node", "id": 11739250796, "lat": 49.795533, "lon": 13.875076}, {"type": "node", "id": 11739250797, "lat": 49.7955238, "lon": 13.8750421}, {"type": "node", "id": 11739250798, "lat": 49.7955239, "lon": 13.8749841}, {"type": "node", "id": 11739250799, "lat": 49.7955295, "lon": 13.8749465}, {"type": "node", "id": 11739250800, "lat": 49.7955603, "lon": 13.8748996}, {"type": "node", "id": 11739250801, "lat": 49.7956295, "lon": 13.8749459}, {"type": "node", "id": 11739250802, "lat": 49.7957598, "lon": 13.8751356}, {"type": "node", "id": 11739250806, "lat": 49.8156148, "lon": 13.9129345, "tags": {"information": "board", "name": "Mikroregion Ho\u0159ovicko", "ref": "none", "tourism": "information"}}, {"type": "node", "id": 11739250807, "lat": 49.815655, "lon": 13.9130178, "tags": {"information": "board", "name": "Podluhy", "ref": "none", "tourism": "information"}}, {"type": "node", "id": 11739250818, "lat": 49.799379, "lon": 13.9483345, "tags": {"description": "NS Z Jinec na Olymp Brd", "information": "board", "name": "CHKO Brdy", "ref": "14", "tourism": "information"}}, {"type": "node", "id": 11739250843, "lat": 49.8105113, "lon": 13.9434498, "tags": {"board_type": "nature", "information": "board", "name": "\u017divot v krajin\u011b", "ref": "none", "tourism": "information"}}, {"type": "node", "id": 11739250864, "lat": 49.8130673, "lon": 13.9053326, "tags": {"information": "map", "map_size": "region", "map_type": "scheme", "name": "Berounsko", "tourism": "information"}}, {"type": "node", "id": 11739250898, "lat": 49.8149456, "lon": 13.8915588, "tags": {"information": "route_marker", "note": "zelen\u00e1 odbo\u010dka ke stud\u00e1nce", "operator": "cz:K\u010cT", "tourism": "information"}}, {"type": "node", "id": 11739250899, "lat": 49.8152325, "lon": 13.8912423, "tags": {"information": "route_marker", "note": "koncov\u00e1 zna\u010dka zelen\u00e9 odbo\u010dky ke stud\u00e1nce", "operator": "cz:K\u010cT", "tourism": "information"}}, {"type": "node", "id": 11739569398, "lat": 49.7857383, "lon": 13.9897089, "tags": {"description": "NS Z Jinec na Olymp Brd", "fixme": "position", "information": "board", "name": "Prvohory - kambrium", "ref": "7", "tourism": "information"}}, {"type": "node", "id": 11739569399, "lat": 49.7871817, "lon": 13.9860906, "tags": {"description": "NS Z Jinec na Olymp Brd", "information": "board", "name": "Na dn\u011b kambrick\u00e9ho mo\u0159e - PP Vinice", "ref": "8", "tourism": "information"}}, {"type": "node", "id": 11739569400, "lat": 49.8016698, "lon": 13.9495763, "tags": {"board_type": "nature", "description": "NS Z Jinec na Olymp Brd", "information": "board", "name": "PP Na Hor\u00e1ch", "ref": "13", "tourism": "information"}}, {"type": "node", "id": 12050767481, "lat": 49.8796559, "lon": 13.9197002}, {"type": "node", "id": 12050767482, "lat": 49.8796699, "lon": 13.9196116}, {"type": "node", "id": 12050767483, "lat": 49.8796375, "lon": 13.9196329}, {"type": "node", "id": 12050767484, "lat": 49.8796883, "lon": 13.9196789}, {"type": "node", "id": 12071458705, "lat": 49.7950744, "lon": 13.8338891, "tags": {"board_type": "sight", "information": "board", "name": "Obec Jivina", "tourism": "information"}}, {"type": "node", "id": 12163513340, "lat": 49.9380761, "lon": 13.8443292, "tags": {"board_type": "plants", "information": "board", "name": "Stanovi\u0161t\u011b s\u00ed\u010dka", "tourism": "information"}}, {"type": "node", "id": 12351514389, "lat": 49.9475772, "lon": 13.8953481, "tags": {"board_type": "nature", "information": "board", "name": "NS Lesn\u00ed panorama", "tourism": "information"}}, {"type": "node", "id": 12351523246, "lat": 49.9440465, "lon": 13.886357, "tags": {"board_type": "history", "information": "board", "name": "NS J.L.Zvona\u0159e \u010d.8", "tourism": "information"}}, {"type": "node", "id": 12351539674, "lat": 49.9451992, "lon": 13.8749075, "tags": {"information": "map", "map_type": "topo", "name": "Obec Kublov a Okol\u00ed", "tourism": "information"}}, {"type": "node", "id": 12351540456, "lat": 49.9462133, "lon": 13.879101, "tags": {"board_type": "history", "information": "board", "name": "NS Lesn\u00ed panorama", "tourism": "information"}}, {"type": "node", "id": 12351540457, "lat": 49.9463607, "lon": 13.8898047, "tags": {"board_type": "history", "information": "board", "name": "NS J.L.Zvona\u0159e \u010d.7", "tourism": "information"}}, {"type": "node", "id": 12351542271, "lat": 49.9448102, "lon": 13.879636, "tags": {"board_type": "history", "information": "board", "name": "NS J.L.Zvona\u0159e \u010d.4", "tourism": "information"}}, {"type": "node", "id": 12351544602, "lat": 49.9437718, "lon": 13.8963833, "tags": {"board_type": "history", "information": "board", "name": "NS Lesn\u00ed panorama", "tourism": "information"}}, {"type": "node", "id": 12351550008, "lat": 49.9427871, "lon": 13.8791191, "tags": {"board_type": "history", "information": "board", "name": "NS J.L.Zvona\u0159e \u010d.11", "tourism": "information"}}, {"type": "node", "id": 12351552507, "lat": 49.9451007, "lon": 13.8933467, "tags": {"board_type": "history", "information": "board", "name": "NS Lesn\u00ed panorama", "tourism": "information"}}, {"type": "node", "id": 12351553907, "lat": 49.9422302, "lon": 13.8995159, "tags": {"board_type": "welcome_sign", "information": "board", "name": "NS Lesn\u00ed panorama", "tourism": "information"}}, {"type": "node", "id": 12351553915, "lat": 49.9419715, "lon": 13.8846328, "tags": {"board_type": "history", "information": "board", "name": "NS J.L.Zvona\u0159e \u010d.10", "tourism": "information"}}, {"type": "node", "id": 12351558346, "lat": 49.9451922, "lon": 13.8749257, "tags": {"board_type": "welcome_sign", "information": "board", "name": "NS J.L.Zvona\u0159e \u010d.1", "tourism": "information"}}, {"type": "node", "id": 12351565763, "lat": 49.9422662, "lon": 13.8857481, "tags": {"board_type": "nature", "information": "board", "name": "NS J.L.Zvona\u0159e \u010d.9", "tourism": "information"}}, {"type": "node", "id": 12351573852, "lat": 49.9457366, "lon": 13.8866445, "tags": {"board_type": "history", "information": "board", "name": "NS J.L.Zvona\u0159e \u010d.5", "tourism": "information"}}, {"type": "node", "id": 12351575166, "lat": 49.9435658, "lon": 13.8777368, "tags": {"board_type": "history", "information": "board", "name": "NS J.L.Zvona\u0159e \u010d.3", "tourism": "information"}}, {"type": "node", "id": 12351584660, "lat": 49.9456691, "lon": 13.8750534, "tags": {"board_type": "history", "information": "board", "name": "NS J.L.Zvona\u0159e \u010d.2", "tourism": "information"}}, {"type": "node", "id": 12351584661, "lat": 49.9460896, "lon": 13.8880233, "tags": {"board_type": "history", "information": "board", "name": "NS J.L.Zvona\u0159e \u010d.6", "tourism": "information"}}, {"type": "node", "id": 12478876308, "lat": 49.8521559, "lon": 13.9794023, "tags": {"information": "board", "name": "Lochovice", "tourism": "information"}}, {"type": "node", "id": 12486739585, "lat": 49.8900684, "lon": 13.886633, "tags": {"tourism": "viewpoint"}}, {"type": "node", "id": 12541143460, "lat": 49.9316856, "lon": 13.8392517, "tags": {"direction": "N", "tourism": "viewpoint"}}, {"type": "node", "id": 12558814217, "lat": 49.7908529, "lon": 13.9028587, "tags": {"board_type": "tourism", "information": "board", "name": "Evropsky v\u00fdznamn\u00e1 lokalita Hrachovi\u0161t\u011b", "tourism": "information"}}, {"type": "node", "id": 12590218412, "lat": 49.9314685, "lon": 13.838626, "tags": {"board_type": "welcome_sign", "information": "board", "name": "PR Jouglovka", "operator": "AOPK \u010cR", "subject:wikidata": "Q12026930", "subject:wikipedia": "cs:Jouglovka", "tourism": "information"}}, {"type": "node", "id": 12800501121, "lat": 49.9117402, "lon": 13.9788821, "tags": {"amenity": "shelter", "shelter_type": "public_transport"}}, {"type": "node", "id": 12800501122, "lat": 49.9118979, "lon": 13.9792527}, {"type": "node", "id": 12967251805, "lat": 49.7567173, "lon": 13.833868, "tags": {"ele": "528", "name": "Hrbek", "natural": "peak"}}, {"type": "node", "id": 13000980160, "lat": 49.8903246, "lon": 13.887118, "tags": {"tourism": "viewpoint"}}, {"type": "node", "id": 13042158641, "lat": 49.7576435, "lon": 13.8044066, "tags": {"ele": "587", "name": "Kopaniny", "natural": "peak"}}, {"type": "node", "id": 13107789569, "lat": 49.8066681, "lon": 13.8224119, "tags": {"amenity": "shelter", "shelter_type": "sun_shelter"}}, {"type": "node", "id": 13116975149, "lat": 49.7752414, "lon": 13.8416324, "tags": {"amenity": "shelter", "shelter_type": "public_transport"}}, {"type": "node", "id": 13116975150, "lat": 49.7707827, "lon": 13.8418566, "tags": {"amenity": "shelter", "shelter_type": "public_transport"}}, {"type": "node", "id": 13116975151, "lat": 49.7674814, "lon": 13.8411995, "tags": {"amenity": "shelter", "shelter_type": "public_transport"}}, {"type": "node", "id": 13116975152, "lat": 49.7694852, "lon": 13.8486336, "tags": {"amenity": "shelter", "shelter_type": "public_transport"}}, {"type": "node", "id": 13116975153, "lat": 49.7776796, "lon": 13.8717582, "tags": {"amenity": "shelter", "shelter_type": "public_transport"}}, {"type": "node", "id": 13116975154, "lat": 49.8170797, "lon": 13.9148001, "tags": {"bicycle": "yes", "information": "guidepost", "tourism": "information"}}, {"type": "node", "id": 13116975155, "lat": 49.8178657, "lon": 13.913727, "tags": {"bicycle": "yes", "information": "guidepost", "tourism": "information"}}, {"type": "node", "id": 13116975156, "lat": 49.8163513, "lon": 13.9137442, "tags": {"bicycle": "yes", "information": "guidepost", "tourism": "information"}}, {"type": "node", "id": 13116975157, "lat": 49.8163665, "lon": 13.8855511, "tags": {"ele": "496", "name": "Kamenn\u00fd vrch", "natural": "peak"}}, {"type": "node", "id": 13116975158, "lat": 49.8075731, "lon": 13.8710934, "tags": {"ele": "537", "name": "Chlum", "natural": "peak"}}, {"type": "node", "id": 13116975159, "lat": 49.8074967, "lon": 13.8754027, "tags": {"ele": "541", "name": "\u010cihadla", "natural": "peak"}}, {"type": "node", "id": 13116975160, "lat": 49.7930942, "lon": 13.9524427, "tags": {"ele": "505", "name": "Ve Vr\u0161k\u00e1ch", "natural": "peak"}}, {"type": "node", "id": 13116975161, "lat": 49.7840967, "lon": 13.9456373, "tags": {"ele": "487", "name": "Hromov\u00fd vrch", "natural": "peak"}}, {"type": "node", "id": 13116975162, "lat": 49.7771545, "lon": 13.8568607, "tags": {"ele": "577", "name": "Nad Kozojedy", "natural": "peak"}}, {"type": "node", "id": 13116975163, "lat": 49.779494, "lon": 13.8340081, "tags": {"ele": "504", "name": "Velk\u00e1 Tr\u0161ina", "natural": "peak"}}, {"type": "node", "id": 13127442701, "lat": 49.7707227, "lon": 13.9007609, "tags": {"bicycle": "yes", "information": "guidepost", "tourism": "information"}}, {"type": "node", "id": 13127442702, "lat": 49.7744928, "lon": 13.9026936, "tags": {"bicycle": "yes", "information": "guidepost", "tourism": "information"}}, {"type": "node", "id": 13127442703, "lat": 49.7894284, "lon": 13.929584, "tags": {"bicycle": "yes", "information": "guidepost", "tourism": "information"}}, {"type": "node", "id": 13163940883, "lat": 49.8145921, "lon": 13.9112401, "tags": {"bicycle": "yes", "information": "guidepost", "tourism": "information"}}, {"type": "node", "id": 13163940884, "lat": 49.8330679, "lon": 13.9038867, "tags": {"bicycle": "yes", "information": "guidepost", "tourism": "information"}}, {"type": "node", "id": 13163940885, "lat": 49.7581945, "lon": 13.8981415, "tags": {"bicycle": "yes", "information": "guidepost", "tourism": "information"}}, {"type": "node", "id": 13163940886, "lat": 49.7584716, "lon": 13.897302, "tags": {"bicycle": "yes", "information": "guidepost", "tourism": "information"}}, {"type": "node", "id": 13163940887, "lat": 49.7591169, "lon": 13.8983253, "tags": {"bicycle": "yes", "information": "guidepost", "tourism": "information"}}, {"type": "node", "id": 13163940888, "lat": 49.7586764, "lon": 13.8763716, "tags": {"bicycle": "yes", "information": "guidepost", "tourism": "information"}}, {"type": "node", "id": 13163940889, "lat": 49.7592158, "lon": 13.8744701, "tags": {"bicycle": "yes", "information": "guidepost", "tourism": "information"}}, {"type": "node", "id": 13163940890, "lat": 49.7578325, "lon": 13.8745859, "tags": {"bicycle": "yes", "information": "guidepost", "tourism": "information"}}, {"type": "node", "id": 13173343214, "lat": 49.8145383, "lon": 13.9116264, "tags": {"bicycle": "yes", "information": "guidepost", "tourism": "information"}}, {"type": "node", "id": 13267526752, "lat": 49.8858838, "lon": 13.9594427}, {"type": "node", "id": 13267526753, "lat": 49.8858693, "lon": 13.9594598}, {"type": "node", "id": 13267526754, "lat": 49.885905, "lon": 13.9595328}, {"type": "node", "id": 13267526755, "lat": 49.8859195, "lon": 13.9595158}, {"type": "node", "id": 13267526756, "lat": 49.8859935, "lon": 13.9593206}, {"type": "node", "id": 13267526757, "lat": 49.885979, "lon": 13.9593377}, {"type": "node", "id": 13267526758, "lat": 49.8860147, "lon": 13.9594108}, {"type": "node", "id": 13267526759, "lat": 49.8860291, "lon": 13.9593937}, {"type": "node", "id": 13267674001, "lat": 49.8687615, "lon": 13.9295743}, {"type": "node", "id": 13267674002, "lat": 49.8687442, "lon": 13.9295912}, {"type": "node", "id": 13267674013, "lat": 49.8688107, "lon": 13.9292546}, {"type": "node", "id": 13267674014, "lat": 49.8687919, "lon": 13.9292726}, {"type": "node", "id": 13267674022, "lat": 49.8687609, "lon": 13.9291952}, {"type": "node", "id": 13267674034, "lat": 49.8687285, "lon": 13.9294929}, {"type": "node", "id": 13267674035, "lat": 49.8687112, "lon": 13.9295098}, {"type": "node", "id": 13267674037, "lat": 49.8687797, "lon": 13.9291771}, {"type": "node", "id": 13270403731, "lat": 49.836404, "lon": 13.8371641}, {"type": "node", "id": 13270403732, "lat": 49.8363935, "lon": 13.837137}, {"type": "node", "id": 13270403733, "lat": 49.8363395, "lon": 13.8371877}, {"type": "node", "id": 13270403734, "lat": 49.8363501, "lon": 13.8372148}, {"type": "node", "id": 13270403735, "lat": 49.8363291, "lon": 13.8369849}, {"type": "node", "id": 13270403736, "lat": 49.8363185, "lon": 13.8369578}, {"type": "node", "id": 13270403737, "lat": 49.8362645, "lon": 13.8370085}, {"type": "node", "id": 13270403738, "lat": 49.8362751, "lon": 13.8370356}, {"type": "node", "id": 13280857067, "lat": 49.9118889, "lon": 13.9792751}, {"type": "node", "id": 13280857068, "lat": 49.9118508, "lon": 13.979238}, {"type": "node", "id": 13280857069, "lat": 49.9118598, "lon": 13.9792157}, {"type": "node", "id": 13344327851, "lat": 49.791209, "lon": 13.9772179, "tags": {"amenity": "shelter", "shelter_type": "public_transport"}}, {"type": "node", "id": 13346852438, "lat": 49.8275533, "lon": 13.8211224, "tags": {"ele": "512", "name": "V Hrobi\u0161t\u00edch", "natural": "peak"}}, {"type": "node", "id": 13346852439, "lat": 49.8169653, "lon": 13.8178785, "tags": {"ele": "533", "name": "Dubov\u00fd vr\u0161ek", "natural": "peak"}}, {"type": "node", "id": 13346852440, "lat": 49.8125161, "lon": 13.8308507, "tags": {"ele": "472", "name": "U Sokolovic", "natural": "peak"}}, {"type": "node", "id": 13346852441, "lat": 49.7564571, "lon": 13.8868832, "tags": {"ele": "642", "name": "P\u00edskov\u00fd vrch", "natural": "peak"}}, {"type": "node", "id": 13346852443, "lat": 49.7658349, "lon": 13.9856139, "tags": {"ele": "564", "name": "Za Kr\u00e1lovkou", "natural": "peak"}}, {"type": "node", "id": 13373689446, "lat": 49.7870576, "lon": 13.9548356, "tags": {"amenity": "shelter", "shelter_type": "picnic_shelter"}}, {"type": "node", "id": 13382162285, "lat": 49.9502942, "lon": 13.9579496, "tags": {"amenity": "shelter"}}, {"type": "way", "id": 160675439, "nodes": [1727111075, 1727111073, 1727111071, 1727111072, 1727111075], "tags": {"amenity": "shelter", "building": "yes", "shelter_type": "public_transport"}}, {"type": "way", "id": 260097045, "nodes": [2655847000, 2655846991, 2655846993, 2655847002, 2655847000], "tags": {"amenity": "shelter", "backcountry": "yes", "building": "forestry", "building:use": "forestry", "group_only": "no", "leisure": "wildlife_hide", "man_made": "hunting_lodge", "name": "Loveck\u00e1 chata Pod Valdekem", "ruian_id": "41496001", "scout": "no", "shelter_type": "basic_hut", "source": "cuzk:ruian", "tourism": "hunting_lodge"}}, {"type": "way", "id": 291663817, "nodes": [2951299566, 2951299568, 2951299567, 2951299565, 2951299566], "tags": {"amenity": "shelter", "building": "yes", "building:ruian:type": "19", "ref:ruian:building": "38640872", "shelter_type": "public_transport", "source": "cuzk:ruian"}}, {"type": "way", "id": 406782964, "nodes": [4088358232, 4088358233, 4088358230, 4088358228, 4088358232], "tags": {"amenity": "shelter", "building": "yes", "building:ruian:type": "19", "ref:ruian:building": "40588874", "shelter_type": "public_transport", "source": "cuzk:ruian"}}, {"type": "way", "id": 457827483, "nodes": [4539051223, 4539051222, 4539051221, 4539051220, 4539051223], "tags": {"amenity": "shelter", "bench": "yes", "bin": "yes", "building": "yes", "building:ruian:type": "5", "lit": "no", "ref:ruian:building": "40590119", "shelter_type": "public_transport", "source": "cuzk:ruian"}}, {"type": "way", "id": 458311722, "nodes": [4543402147, 4543402148, 4543402149, 4543402150, 4543402147], "tags": {"amenity": "shelter", "building": "yes", "building:levels": "1", "shelter_type": "gazebo", "source": "bing"}}, {"type": "way", "id": 530503453, "nodes": [5151391724, 5151391725, 5151391726, 5151391727, 5151391724], "tags": {"amenity": "shelter", "building": "transportation", "shelter_type": "public_transport"}}, {"type": "way", "id": 608943487, "nodes": [5768255011, 5768255010, 5768255009, 5768255008, 5768255011], "tags": {"amenity": "shelter", "building": "transportation", "building:ruian:type": "15", "ref:ruian:building": "48162698", "shelter_type": "public_transport", "source": "cuzk:ruian"}}, {"type": "way", "id": 608946077, "nodes": [5768273927, 5768273926, 5768273925, 5768273924, 5768273923, 5768273922, 5768273921, 5768273920, 5768273919, 5768273918, 5768273917, 5768273916, 5768273927], "tags": {"amenity": "shelter", "bench": "yes", "building": "yes", "building:levels": "1", "building:ruian:type": "19", "lit": "yes", "ref:ruian:building": "87803101", "shelter_type": "gazebo", "source": "cuzk:ruian", "start_date": "2016-12-06"}}, {"type": "way", "id": 922239347, "nodes": [2138505396, 8561672715, 8561672716, 8561676917, 2138505396], "tags": {"amenity": "shelter", "building": "yes"}}, {"type": "way", "id": 933608439, "nodes": [8653296856, 8653296857, 8653296858, 8653296859, 8653296856], "tags": {"amenity": "shelter", "building": "yes"}}, {"type": "way", "id": 933608440, "nodes": [8653296860, 8653296861, 8653296862, 8653296863, 8653296860], "tags": {"amenity": "shelter", "building": "yes"}}, {"type": "way", "id": 1033508004, "nodes": [9521819754, 9521819755, 9521819756, 9521819757, 9521819754], "tags": {"amenity": "shelter", "building": "yes", "shelter_type": "gazebo"}}, {"type": "way", "id": 1263517095, "nodes": [11739250795, 11739250794, 11739250792, 11739250789, 11739250790, 11739250791, 11739250788, 11739250802, 11739250801, 11739250793, 11739250800, 11739250799, 11739250798, 11739250797, 11739250796, 11739250795], "tags": {"name": "Mrtnick\u00e1 sk\u00e1la", "natural": "bare_rock", "tourism": "attraction"}}, {"type": "way", "id": 1301059988, "nodes": [12050767483, 12050767482, 12050767484, 12050767481, 12050767483], "tags": {"amenity": "shelter", "building": "yes", "fireplace": "no", "shelter_type": "weather_shelter"}}, {"type": "way", "id": 1446045254, "nodes": [13267526752, 13267526753, 13267526754, 13267526755, 13267526752], "tags": {"amenity": "shelter", "building": "transportation", "shelter_type": "public_transport"}}, {"type": "way", "id": 1446045255, "nodes": [13267526756, 13267526757, 13267526758, 13267526759, 13267526756], "tags": {"amenity": "shelter", "building": "transportation", "shelter_type": "public_transport"}}, {"type": "way", "id": 1446062327, "nodes": [13267674034, 13267674001, 13267674002, 13267674035, 13267674034], "tags": {"amenity": "shelter", "building": "transportation", "shelter_type": "public_transport"}}, {"type": "way", "id": 1446062328, "nodes": [13267674037, 13267674013, 13267674014, 13267674022, 13267674037], "tags": {"amenity": "shelter", "building": "transportation", "shelter_type": "public_transport"}}, {"type": "way", "id": 1446294929, "nodes": [13270403731, 13270403732, 13270403733, 13270403734, 13270403731], "tags": {"amenity": "shelter", "building": "transportation", "shelter_type": "public_transport"}}, {"type": "way", "id": 1446294930, "nodes": [13270403735, 13270403736, 13270403737, 13270403738, 13270403735], "tags": {"amenity": "shelter", "building": "transportation", "shelter_type": "public_transport"}}, {"type": "way", "id": 1447486549, "nodes": [12800501122, 13280857067, 13280857068, 13280857069, 12800501122], "tags": {"amenity": "shelter", "bench": "yes", "building": "yes", "shelter_type": "public_transport"}}]}