{"version": 0.6, "generator": "Overpass API 0.7.62.8 e802775f", "osm3s": {"timestamp_osm_base": "2026-01-05T15:46:15Z", "copyright": "The data included in this document is from www.openstreetmap.org. The data is made available under ODbL."}, "elements": [{"type": "node", "id": 1361788790, "lat": 49.9602671, "lon": 13.0343224, "tags": {"ele": "618", "hiking": "yes", "information": "guidepost", "name": "U Sv\u011btce", "operator": "cz:K\u010cT", "ref": "PS272", "source": "survey", "tourism": "information"}}, {"type": "node", "id": 1361899215, "lat": 49.9949317, "lon": 13.0603607, "tags": {"ele": "687", "hiking": "yes", "information": "guidepost", "name": "Bezv\u011brov", "operator": "cz:K\u010cT", "ref": "PS222", "source": "survey", "tourism": "information"}}, {"type": "node", "id": 1504484814, "lat": 50.0141672, "lon": 13.0019487, "tags": {"check_date": "2025-07-17", "description": "NEJVY\u0160\u0160\u00cd VRCH TEPELSK\u00c9 PLO\u0160INY. \nT\u0158ETIHORN\u00cd VYV\u0158EL\u00c1 KUPA.", "ele": "824", "hiking": "yes", "information": "guidepost", "inscription": "NEJVY\u0160\u0160\u00cd VRCH TEPELSK\u00c9 PLO\u0160INY.  T\u0158ETIHORN\u00cd VYV\u0158EL\u00c1 KUPA.", "name": "T\u0159ebou\u0148sk\u00fd vrch", "operator": "cz:K\u010cT", "ref": "PS703", "source": "mavit Garmin Edge 705;survey", "source:description": "My photo of K\u010cT guidepost", "tourism": "information"}}, {"type": "node", "id": 1907734714, "lat": 49.9610473, "lon": 13.1613102, "tags": {"ele": "580", "natural": "peak"}}, {"type": "node", "id": 2949070781, "lat": 49.960573, "lon": 13.1612425, "tags": {"ele": "582", "hiking": "yes", "information": "guidepost", "name": "Hrad Ne\u010dtiny (z\u0159\u00edcenina)", "official_name": "Hrad Ne\u010dtiny (z\u0159\u00edc.)", "operator": "cz:K\u010cT", "ref": "PS261", "tourism": "information"}}, {"type": "node", "id": 2949115033, "lat": 49.9757151, "lon": 13.1643162, "tags": {"ele": "466", "hiking": "yes", "information": "guidepost", "name": "Ne\u010dtiny (n\u00e1m\u011bst\u00ed)", "official_name": "Ne\u010dtiny (n\u00e1m.)", "operator": "cz:K\u010cT", "ref": "PS129", "tourism": "information"}}, {"type": "node", "id": 2949115034, "lat": 49.9727448, "lon": 13.174417, "tags": {"ele": "543", "hiking": "yes", "information": "guidepost", "name": "Pod Vysok\u00fdm vrchem", "operator": "cz:K\u010cT", "ref": "PS254", "tourism": "information"}}, {"type": "node", "id": 2949133523, "lat": 49.9595502, "lon": 13.1616185, "tags": {"ele": "524", "hiking": "yes", "information": "guidepost", "name": "Nov\u00e9 M\u011bste\u010dko (odbo\u010dka)", "official_name": "Nov\u00e9 M\u011bste\u010dko (odb.)", "operator": "cz:K\u010cT", "ref": "PS260", "tourism": "information"}}, {"type": "node", "id": 3252774638, "lat": 49.9570613, "lon": 13.1563076}, {"type": "node", "id": 3252774639, "lat": 49.9570756, "lon": 13.1562712}, {"type": "node", "id": 3252774641, "lat": 49.9570895, "lon": 13.1563337}, {"type": "node", "id": 3252774644, "lat": 49.9571036, "lon": 13.1562981}, {"type": "node", "id": 3619689191, "lat": 50.0964945, "lon": 13.0774511}, {"type": "node", "id": 3619689192, "lat": 50.096502, "lon": 13.0773149}, {"type": "node", "id": 3619692193, "lat": 50.0965684, "lon": 13.077461}, {"type": "node", "id": 3619692194, "lat": 50.096576, "lon": 13.0773248}, {"type": "node", "id": 3619692195, "lat": 50.0966365, "lon": 13.0775221}, {"type": "node", "id": 3619692196, "lat": 50.0966464, "lon": 13.0773322}, {"type": "node", "id": 3619692197, "lat": 50.0967237, "lon": 13.0775332}, {"type": "node", "id": 3619692198, "lat": 50.0967336, "lon": 13.0773432}, {"type": "node", "id": 3671145186, "lat": 50.0809731, "lon": 13.1976482, "tags": {"hiking": "yes", "information": "guidepost", "name": "Z\u00e1ho\u0159ice (rozcest\u00ed)", "operator": "cz:K\u010cT", "ref": "KV241", "short_name": "Z\u00e1ho\u0159ice (rozc.)", "tourism": "information"}}, {"type": "node", "id": 3732122910, "lat": 49.9653005, "lon": 13.1987583, "tags": {"ele": "520", "fixme": "position is not accurate, it is only based on camera gps and existing OSM ways", "hiking": "yes", "information": "guidepost", "name": "Ka\u010dina", "operator": "cz:K\u010cT", "ref": "PS255", "tourism": "information"}}, {"type": "node", "id": 3739863829, "lat": 50.0325212, "lon": 13.0351185, "tags": {"hiking": "yes", "information": "guidepost", "name": "Luhov", "operator": "cz:K\u010cT", "ref": "PS705", "tourism": "information"}}, {"type": "node", "id": 3751896174, "lat": 49.9943912, "lon": 13.15799, "tags": {"description": "Zde je geodetick\u00fd mezn\u00ed k\u00e1men", "ele": "659.8", "name": "Kozelka", "name:de": "Doubrawitz-Berg", "natural": "peak", "source": "\u010c\u00daZK", "wikidata": "Q30624234"}}, {"type": "node", "id": 3867883905, "lat": 50.0820357, "lon": 13.1396779, "tags": {"amenity": "shelter", "fireplace": "no", "shelter_type": "picnic_shelter"}}, {"type": "node", "id": 4124790985, "lat": 49.9901228, "lon": 13.1644463, "tags": {"ele": "549", "hiking": "yes", "information": "guidepost", "name": "Doubravice", "operator": "cz:K\u010cT", "ref": "PS258", "tourism": "information"}}, {"type": "node", "id": 4128521646, "lat": 49.9803921, "lon": 13.17743, "tags": {"ele": "610.8", "name": "\u0160pi\u010d\u00e1k", "name:de": "Spitz-Berg", "natural": "peak", "wikidata": "Q27000999"}}, {"type": "node", "id": 4145151484, "lat": 49.9956694, "lon": 13.1572391, "tags": {"ele": "652", "hiking": "yes", "information": "guidepost", "name": "Kozelka (vyhl.)", "operator": "cz:K\u010cT", "ref": "PS356", "tourism": "information"}}, {"type": "node", "id": 4145151485, "lat": 49.9937364, "lon": 13.1655051, "tags": {"ele": "594", "hiking": "yes", "information": "guidepost", "name": "Pod Kozelkou", "operator": "cz:K\u010cT", "ref": "PS264", "tourism": "information"}}, {"type": "node", "id": 4145170590, "lat": 50.0051901, "lon": 13.158164, "tags": {"ele": "478", "hiking": "yes", "information": "guidepost", "name": "Mez\u00ed", "operator": "cz:K\u010cT", "ref": "PS259", "tourism": "information"}}, {"type": "node", "id": 4146512033, "lat": 50.0250856, "lon": 13.1651853, "tags": {"hiking": "yes", "information": "guidepost", "name": "Doma\u0161\u00edn", "operator": "cz:K\u010cT", "ref": "PS217", "tourism": "information"}}, {"type": "node", "id": 4146568526, "lat": 50.0251383, "lon": 13.1373647, "tags": {"ele": "622", "hiking": "yes", "information": "guidepost", "name": "Zbraslavsk\u00fd vrch (vyhl.)", "operator": "cz:K\u010cT", "ref": "PS219", "tourism": "information"}}, {"type": "node", "id": 4151408148, "lat": 49.9936087, "lon": 13.1676888, "tags": {"name": "Kamenn\u00fd slon", "natural": "rock", "tourism": "attraction"}}, {"type": "node", "id": 4151408154, "lat": 49.9943441, "lon": 13.167144, "tags": {"hiking": "yes", "information": "guidepost", "operator": "cz:K\u010cT", "ref": "PS264", "tourism": "information"}}, {"type": "node", "id": 4220243109, "lat": 49.9608145, "lon": 13.1607705, "tags": {"amenity": "shelter", "shelter_type": "weather_shelter"}}, {"type": "node", "id": 4272123794, "lat": 49.9894656, "lon": 13.1923494, "tags": {"ele": "450", "hiking": "yes", "information": "guidepost", "name": "Le\u0161ovice", "operator": "cz:K\u010cT", "ref": "PS350", "tourism": "information"}}, {"type": "node", "id": 4272123795, "lat": 49.9785027, "lon": 13.1777209, "tags": {"ele": "556", "hiking": "yes", "information": "guidepost", "name": "\u0160pi\u010d\u00e1k (odb.)", "operator": "cz:K\u010cT", "ref": "PS351", "tourism": "information"}}, {"type": "node", "id": 4272123796, "lat": 49.9803969, "lon": 13.1774991, "tags": {"ele": "611", "hiking": "yes", "information": "guidepost", "name": "\u0160pi\u010d\u00e1k", "operator": "cz:K\u010cT", "ref": "352", "tourism": "information"}}, {"type": "node", "id": 4354403302, "lat": 49.991389, "lon": 13.1979323, "tags": {"board_type": "history", "description": "Ml\u00fdnsk\u00e1 stezka Ne\u010dtiny", "information": "board", "name": "V\u00edtejte v Man\u011bt\u00edn\u011b", "ref": "9", "tourism": "information"}}, {"type": "node", "id": 4371760462, "lat": 50.0883352, "lon": 13.1691047, "tags": {"ele": "478", "hiking": "yes", "information": "guidepost", "name": "Lomnice", "operator": "cz:K\u010cT", "ref": "KV299", "tourism": "information"}}, {"type": "node", "id": 4371760471, "lat": 50.0983159, "lon": 13.137283, "tags": {"ele": "589", "hiking": "yes", "information": "guidepost", "name": "V\u011bru\u0161ice", "operator": "cz:K\u010cT", "ref": "KV051", "tourism": "information"}}, {"type": "node", "id": 4371760472, "lat": 50.0790947, "lon": 13.192887, "tags": {"ele": "471", "hiking": "yes", "information": "guidepost", "name": "Z\u00e1ho\u0159ice (\u017est, odb.)", "operator": "cz:K\u010cT", "ref": "KV041", "tourism": "information"}}, {"type": "node", "id": 4371763384, "lat": 50.0914213, "lon": 13.1627536, "tags": {"ele": "514", "hiking": "yes", "information": "guidepost", "inscription": "M\u011bsto zal. kolem r. 1300, gotick\u00fd kostel z r. 1340, pod m\u011bstem rozs\u00e1hl\u00e9 chodby", "name": "\u017dlutice (n\u00e1m.)", "operator": "cz:K\u010cT", "ref": "KV040", "tourism": "information"}}, {"type": "node", "id": 4576881192, "lat": 50.0108491, "lon": 13.0876704, "tags": {"ele": "630", "hiking": "yes", "information": "guidepost", "name": "Slu\u017eet\u00edn", "operator": "cz:K\u010cT", "ref": "PS221", "tourism": "information"}}, {"type": "node", "id": 4576881207, "lat": 50.0205836, "lon": 13.1119658, "tags": {"ele": "587", "hiking": "yes", "information": "guidepost", "name": "Nad P\u00edskovnou", "operator": "cz:K\u010cT", "ref": "PS220", "tourism": "information"}}, {"type": "node", "id": 4577731167, "lat": 50.0863194, "lon": 13.159556, "tags": {"disused:name": "\u017dlutice, u n\u00e1dra\u017e\u00ed", "disused:ref": "KV231", "hiking": "yes", "information": "route_marker", "note": "2025-06-07 p\u011b\u0161\u00ed rozcestn\u00edk zde a v bl\u00edzk\u00e9m okol\u00ed moment\u00e1ln\u011b nen\u00ed, mo\u017en\u00e1 byl odstran\u011bn p\u0159i v\u00fdm\u011bn\u011b sloup\u016f osv\u011btlen\u00ed", "operator": "cz:K\u010cT", "removed:information": "guidepost", "tourism": "information"}}, {"type": "node", "id": 4577731168, "lat": 50.0834061, "lon": 13.1573144, "tags": {"ele": "494", "hiking": "yes", "information": "guidepost", "name": "Pod Nevd\u011bkem", "operator": "cz:K\u010cT", "ref": "KV230", "tourism": "information"}}, {"type": "node", "id": 4577731169, "lat": 50.0833537, "lon": 13.166397, "tags": {"ele": "628", "hiking": "yes", "information": "guidepost", "name": "Nevd\u011bk (z\u0159\u00edc.)", "operator": "cz:K\u010cT", "ref": "KV232", "tourism": "information"}}, {"type": "node", "id": 4577732093, "lat": 50.0819394, "lon": 13.1723703, "tags": {"ele": "568", "hiking": "yes", "information": "guidepost", "name": "Hradsk\u00fd Dv\u016fr", "operator": "cz:K\u010cT", "ref": "KV300", "tourism": "information"}}, {"type": "node", "id": 4577732094, "lat": 50.0729442, "lon": 13.185782, "tags": {"ele": "545", "hiking": "yes", "information": "guidepost", "name": "Nad Rokl\u00ed", "operator": "cz:K\u010cT", "ref": "KV301", "tourism": "information"}}, {"type": "node", "id": 5052024432, "lat": 50.0148651, "lon": 13.194342, "tags": {"ele": "632.3", "natural": "peak"}}, {"type": "node", "id": 5058595480, "lat": 49.9794167, "lon": 13.0149513, "tags": {"ele": "716", "name": "Sepuska", "natural": "peak"}}, {"type": "node", "id": 5072905584, "lat": 49.952714, "lon": 13.163815, "tags": {"ele": "622.4", "name": "Pacht\u00ednsk\u00e1 str\u00e1\u0148", "natural": "peak"}}, {"type": "node", "id": 5072910358, "lat": 49.969727, "lon": 13.174458, "tags": {"ele": "608.5", "name": "Vysok\u00fd vrch", "name:de": "Kober Berg", "natural": "peak"}}, {"type": "node", "id": 5214744100, "lat": 50.0087661, "lon": 13.1404536}, {"type": "node", "id": 5214744101, "lat": 50.00874, "lon": 13.1404914}, {"type": "node", "id": 5214744102, "lat": 50.0087632, "lon": 13.14053}, {"type": "node", "id": 5214744103, "lat": 50.0087883, "lon": 13.1404929}, {"type": "node", "id": 5225015853, "lat": 50.0963302, "lon": 13.0975002, "tags": {"ele": "600", "hiking": "yes", "information": "guidepost", "name": "Skoky", "operator": "cz:K\u010cT", "ref": "KV305", "tourism": "information"}}, {"type": "node", "id": 5225015883, "lat": 50.0974486, "lon": 13.0978113, "tags": {"ele": "610", "hiking": "yes", "information": "guidepost", "name": "Skoky u h\u0159bitova", "operator": "cz:K\u010cT", "ref": "KV306", "tourism": "information"}}, {"type": "node", "id": 5267792101, "lat": 50.0429367, "lon": 13.0192977, "tags": {"ele": "639", "hiking": "yes", "information": "guidepost", "name": "Pol\u00edkno", "operator": "cz:K\u010cT", "ref": "PS706", "tourism": "information"}}, {"type": "node", "id": 5267830163, "lat": 50.0230234, "lon": 13.0135685, "tags": {"ele": "690", "hiking": "yes", "information": "guidepost", "name": "T\u0159ebou\u0148", "operator": "cz:K\u010cT", "ref": "PS704", "tourism": "information"}}, {"type": "node", "id": 5270070856, "lat": 49.9784494, "lon": 13.0330092, "tags": {"ele": "633", "hiking": "yes", "information": "guidepost", "name": "Nad rybn\u00edkem", "operator": "cz:K\u010cT", "ref": "PS271", "tourism": "information"}}, {"type": "node", "id": 5270103895, "lat": 49.9630025, "lon": 13.0038267, "tags": {"ele": "517", "hiking": "yes", "information": "guidepost", "name": "Jans\u016fv ml\u00fdn", "operator": "cz:K\u010cT", "ref": "PS700", "tourism": "information"}}, {"type": "node", "id": 5277354684, "lat": 50.0230544, "lon": 13.1379265, "tags": {"ele": "622", "hiking": "yes", "information": "guidepost", "name": "Zbraslavsk\u00fd vrch (rozc.)", "operator": "cz:K\u010cT", "ref": "PS218", "tourism": "information"}}, {"type": "node", "id": 7417467757, "lat": 49.9605425, "lon": 13.1771789, "tags": {"amenity": "shelter", "bench": "yes", "bin": "yes"}}, {"type": "node", "id": 7424454782, "lat": 50.0251595, "lon": 13.1373637, "tags": {"ele": "675", "name": "Zbraslavsk\u00fd vrch", "natural": "peak", "wikidata": "Q27000770"}}, {"type": "node", "id": 8742627662, "lat": 50.0977201, "lon": 13.0983914, "tags": {"information": "board", "name": "Na posledn\u00ed cest\u011b - M\u00edsto posledn\u00edho odpo\u010dinku", "tourism": "information"}}, {"type": "node", "id": 8875086198, "lat": 50.0975071, "lon": 13.0979843, "tags": {"information": "board", "name": "Na posledn\u00ed cest\u011b - Katolick\u00fd poh\u0159eb", "tourism": "information"}}, {"type": "node", "id": 8901911845, "lat": 49.9964627, "lon": 13.0805066, "tags": {"information": "board", "name": "vys\u00edla\u010d Kra\u0161ov", "tourism": "information"}}, {"type": "node", "id": 8901911846, "lat": 49.9965777, "lon": 13.0806517, "tags": {"information": "board", "name": "velk\u00e9 slune\u010dn\u00ed hodiny u Bezv\u011brova", "tourism": "information"}}, {"type": "node", "id": 8901911847, "lat": 49.997356, "lon": 13.0793382, "tags": {"information": "board", "name": "XII", "tourism": "information"}}, {"type": "node", "id": 8901911848, "lat": 49.997386, "lon": 13.0783915, "tags": {"information": "board", "name": "XI", "tourism": "information"}}, {"type": "node", "id": 8901911849, "lat": 49.997487, "lon": 13.0771247, "tags": {"information": "board", "name": "X", "tourism": "information"}}, {"type": "node", "id": 8901911850, "lat": 49.9972275, "lon": 13.0802361, "tags": {"information": "board", "name": "I", "tourism": "information"}}, {"type": "node", "id": 8901911851, "lat": 49.9970114, "lon": 13.0811063, "tags": {"information": "board", "name": "II", "tourism": "information"}}, {"type": "node", "id": 9599140279, "lat": 49.9595975, "lon": 13.1616969, "tags": {"information": "board", "name": "Ne\u010dtiny", "tourism": "information"}}, {"type": "node", "id": 9715983282, "lat": 49.9954406, "lon": 13.1652845, "tags": {"ele": "658", "name": "Doubravick\u00fd vrch", "natural": "peak", "source": "\u010c\u00daZK"}}, {"type": "node", "id": 9725000898, "lat": 49.9753281, "lon": 13.1642674}, {"type": "node", "id": 9725000899, "lat": 49.9753243, "lon": 13.1643225}, {"type": "node", "id": 9725000900, "lat": 49.9752462, "lon": 13.1643093}, {"type": "node", "id": 9725000901, "lat": 49.97525, "lon": 13.1642542}, {"type": "node", "id": 9725000911, "lat": 50.020299, "lon": 13.1604899, "tags": {"ele": "562.9", "natural": "peak"}}, {"type": "node", "id": 9725196927, "lat": 49.9688304, "lon": 13.1610412, "tags": {"amenity": "shelter", "shelter_type": "picnic_shelter"}}, {"type": "node", "id": 9725196946, "lat": 49.9689062, "lon": 13.1597708, "tags": {"information": "map", "tourism": "information"}}, {"type": "node", "id": 9725196947, "lat": 49.9688914, "lon": 13.1597771, "tags": {"information": "board", "tourism": "information"}}, {"type": "node", "id": 9725196988, "lat": 49.9888587, "lon": 13.1646234, "tags": {"board_type": "nature", "information": "board", "name": "Kozelka", "tourism": "information"}}, {"type": "node", "id": 9725197005, "lat": 49.9953789, "lon": 13.1574199, "tags": {"board_type": "nature", "information": "board", "name": "Kozelka", "tourism": "information"}}, {"type": "node", "id": 9725197007, "lat": 49.9944151, "lon": 13.1580376, "tags": {"description": "Mo\u017en\u00e1 odv\u011btr\u00e1n\u00ed podzem\u00ed nebo zbytek po ukotven\u00ed triangulacei? Kameny vylo\u017een\u00e1 d\u00edra cca 40cm pr\u016fm\u011br a 70cm hloubka.", "name": "d\u00edra", "tourism": "attraction"}}, {"type": "node", "id": 9725317452, "lat": 49.9888609, "lon": 13.1646303, "tags": {"information": "board", "name": "Z\u00e1mek Ne\u010dtiny", "tourism": "information"}}, {"type": "node", "id": 9779490535, "lat": 50.0674654, "lon": 13.1326744, "tags": {"hiking": "yes", "information": "guidepost", "name": "Borek u \u017dlutic, \u017est.", "operator": "cz:K\u010cT", "ref": "KV310", "tourism": "information"}}, {"type": "node", "id": 9779490536, "lat": 50.0601342, "lon": 13.1323421, "tags": {"ele": "510", "hiking": "yes", "information": "guidepost", "name": "\u0160t\u011bdr\u00fd hr\u00e1dek, odb.", "operator": "cz:K\u010cT", "ref": "KV311", "tourism": "information"}}, {"type": "node", "id": 9779490541, "lat": 50.0581688, "lon": 13.1138717, "tags": {"ele": "578", "hiking": "yes", "information": "guidepost", "inscription": "Ves vznikla za vl\u00e1dy P\u0159emyslovc\u016f, prvn\u00ed p\u00edsemn\u00e1 zm\u00ednka z r.1239. Z\u00e1mek zalo\u017een r.1630 Adamem Ji\u0159\u00edm z Koko\u0159ovc\u016f, po dokon\u010den\u00ed nahradil z\u00e1mek ve \u017dlutic\u00edch. R.1747 vyho\u0159el, 1751 obnoven, dne\u0161n\u00ed podoba z r. 1830. Posl. majitel ryt. Men\u010d\u00edk 1915-1945.", "name": "\u0160t\u011bdr\u00e1, z\u00e1mek", "note": "2025-06 rozcestn\u00edk neodpov\u00edd\u00e1 veden\u00ed trasy", "operator": "cz:K\u010cT", "ref": "KV313", "tourism": "information"}}, {"type": "node", "id": 9779507582, "lat": 50.0500335, "lon": 13.1200385, "tags": {"hiking": "yes", "information": "guidepost", "name": "\u0160t\u011bdr\u00e1, \u017est.", "note": "zna\u010den\u00ed trasy zru\u0161eno, rozcestn\u00edk z\u016fst\u00e1v\u00e1", "operator": "cz:K\u010cT", "ref": "KV314", "tourism": "information"}}, {"type": "node", "id": 9889017334, "lat": 50.0163467, "lon": 13.1605511, "tags": {"information": "board", "name": "Zanikl\u00e9 a ohro\u017een\u00e9 kostely", "tourism": "information"}}, {"type": "node", "id": 10139165352, "lat": 49.9952698, "lon": 13.1573296, "tags": {"climbing:trad": "1", "name": "Pra\u0161ivka", "natural": "peak"}}, {"type": "node", "id": 10139181916, "lat": 49.9959183, "lon": 13.1568413, "tags": {"climbing:trad": "4", "name": "Vl\u010d\u00ed zub", "natural": "peak"}}, {"type": "node", "id": 10139211194, "lat": 49.9954491, "lon": 13.1572008, "tags": {"climbing:trad": "8", "name": "Kuka\u010dka", "natural": "peak"}}, {"type": "node", "id": 10139214010, "lat": 49.9959602, "lon": 13.156868, "tags": {"climbing:trad": "15", "name": "My\u0161i d\u00edra", "natural": "peak"}}, {"type": "node", "id": 10139218491, "lat": 49.9945488, "lon": 13.1574478, "tags": {"climbing:trad": "10", "name": "Sloup", "natural": "peak"}}, {"type": "node", "id": 10139228269, "lat": 49.9952698, "lon": 13.1573296, "tags": {"climbing:trad": "14", "name": "Vysok\u00e1", "natural": "peak"}}, {"type": "node", "id": 10139228458, "lat": 49.9955482, "lon": 13.1570778, "tags": {"climbing:trad": "12", "name": "B\u0159ezov\u00e1 v\u011b\u017e", "natural": "peak"}}, {"type": "node", "id": 10139231905, "lat": 49.9941711, "lon": 13.1574478, "tags": {"climbing:trad": "7", "name": "Ne\u010dtinsk\u00e1 jehla", "natural": "peak"}}, {"type": "node", "id": 10139232424, "lat": 49.9945488, "lon": 13.1574478, "tags": {"climbing:trad": "2", "name": "Sloupek", "natural": "peak"}}, {"type": "node", "id": 10139235397, "lat": 49.9943924, "lon": 13.1574907, "tags": {"climbing:trad": "17", "name": "Schovanka", "natural": "peak"}}, {"type": "node", "id": 10139252755, "lat": 49.9955482, "lon": 13.1572227, "tags": {"climbing:trad": "9", "name": "Kobyla", "natural": "peak"}}, {"type": "node", "id": 10139252756, "lat": 49.9953499, "lon": 13.157362, "tags": {"climbing:trad": "11", "name": "Umyvadlo", "natural": "peak"}}, {"type": "node", "id": 10139253199, "lat": 49.9943085, "lon": 13.1568785, "tags": {"climbing:trad": "5", "name": "Atent\u00e1t", "natural": "peak"}}, {"type": "node", "id": 10139255094, "lat": 49.9945488, "lon": 13.1574478, "tags": {"climbing:trad": "4", "name": "Sloupe\u010dek", "natural": "peak"}}, {"type": "node", "id": 10139258252, "lat": 49.9936295, "lon": 13.1596899, "tags": {"climbing:trad": "2", "name": "Str\u00e1\u017ece", "natural": "peak"}}, {"type": "node", "id": 10139263223, "lat": 49.9951096, "lon": 13.1572113, "tags": {"climbing:trad": "11", "name": "P\u0159evisl\u00e1", "natural": "peak"}}, {"type": "node", "id": 10139269297, "lat": 49.993145, "lon": 13.1602697, "tags": {"climbing:trad": "8", "name": "M\u00e1jov\u00e1", "natural": "peak"}}, {"type": "node", "id": 10139271202, "lat": 49.9941177, "lon": 13.1568785, "tags": {"climbing:trad": "3", "name": "Jezev\u010d\u00ed Sk\u00e1la", "natural": "peak"}}, {"type": "node", "id": 10139271203, "lat": 49.9941177, "lon": 13.1568785, "tags": {"climbing:trad": "4", "name": "Garyk", "natural": "peak"}}, {"type": "node", "id": 10139273700, "lat": 49.9932518, "lon": 13.1606283, "tags": {"climbing:trad": "9", "name": "Plze\u0148sk\u00e1 v\u011b\u017e", "natural": "peak"}}, {"type": "node", "id": 10139273701, "lat": 49.9932404, "lon": 13.1608381, "tags": {"climbing:trad": "8", "name": "Slune\u010dn\u00ed sk\u00e1la", "natural": "peak"}}, {"type": "node", "id": 10139283319, "lat": 49.9933281, "lon": 13.1605806, "tags": {"climbing:trad": "4", "name": "Prumptl\u00edk", "natural": "peak"}}, {"type": "node", "id": 10139301829, "lat": 49.9933281, "lon": 13.1612511, "tags": {"climbing:trad": "9", "name": "Z\u00e1meck\u00e1 v\u011b\u017e", "natural": "peak"}}, {"type": "node", "id": 10139316403, "lat": 49.993618, "lon": 13.1618414, "tags": {"climbing:trad": "2", "name": "\u0160irok\u00e1", "natural": "peak"}}, {"type": "node", "id": 10139330999, "lat": 49.9932823, "lon": 13.161149, "tags": {"climbing:trad": "10", "name": "Br\u00e1na", "natural": "peak"}}, {"type": "node", "id": 10139332984, "lat": 49.9933205, "lon": 13.1613207, "tags": {"climbing:trad": "5", "name": "Zbrojno\u0161", "natural": "peak"}}, {"type": "node", "id": 10139340019, "lat": 49.9933205, "lon": 13.1611595, "tags": {"climbing:trad": "9", "name": "Z\u00e1mek", "natural": "peak"}}, {"type": "node", "id": 10139341821, "lat": 49.9933815, "lon": 13.1611004, "tags": {"climbing:trad": "9", "name": "Troj\u010de", "natural": "peak"}}, {"type": "node", "id": 10139341992, "lat": 49.9933205, "lon": 13.1611118, "tags": {"climbing:trad": "9", "name": "Sek\u00e1\u010dek", "natural": "peak"}}, {"type": "node", "id": 10139344501, "lat": 49.9938622, "lon": 13.1627588, "tags": {"climbing:trad": "3", "name": "Cest\u00e1\u0159", "natural": "peak"}}, {"type": "node", "id": 10157812959, "lat": 49.9948692, "lon": 13.1658802, "tags": {"climbing:trad": "1", "name": "Nesmek", "natural": "peak"}}, {"type": "node", "id": 10157857790, "lat": 49.9949188, "lon": 13.1662989, "tags": {"climbing:trad": "2", "name": "Soude\u010dek", "natural": "peak"}}, {"type": "node", "id": 10157872596, "lat": 49.9948921, "lon": 13.1661596, "tags": {"climbing:trad": "3", "name": "Rozeklan\u00e1", "natural": "peak"}}, {"type": "node", "id": 10157879611, "lat": 49.9947586, "lon": 13.1653976, "tags": {"climbing:trad": "1", "name": "Muchom\u016frka", "natural": "peak"}}, {"type": "node", "id": 10157880443, "lat": 49.9948921, "lon": 13.1661596, "tags": {"climbing:trad": "1", "name": "Palc\u00e1t", "natural": "peak"}}, {"type": "node", "id": 10157881730, "lat": 49.9948082, "lon": 13.1655207, "tags": {"climbing:trad": "5", "name": "Poradn\u00ed sk\u00e1la", "natural": "peak"}}, {"type": "node", "id": 10157885309, "lat": 49.9947968, "lon": 13.1658325, "tags": {"climbing:trad": "2", "name": "Mechov\u00e1", "natural": "peak"}}, {"type": "node", "id": 10157886485, "lat": 49.9948921, "lon": 13.1661596, "tags": {"climbing:trad": "4", "name": "Pagoda", "natural": "peak"}}, {"type": "node", "id": 10157889757, "lat": 49.9949188, "lon": 13.1662989, "tags": {"climbing:trad": "1", "name": "Pali\u010dka", "natural": "peak"}}, {"type": "node", "id": 10157900650, "lat": 49.9952507, "lon": 13.1681013, "tags": {"climbing:trad": "4", "name": "Budul\u00ednek", "natural": "peak"}}, {"type": "node", "id": 10157914572, "lat": 49.9952507, "lon": 13.1687021, "tags": {"climbing:trad": "5", "name": "St\u0159echa", "natural": "peak"}}, {"type": "node", "id": 10157916968, "lat": 49.9949188, "lon": 13.1664114, "tags": {"climbing:trad": "4", "name": "Borov\u00e1", "natural": "peak"}}, {"type": "node", "id": 10157919168, "lat": 49.9963466, "lon": 13.1713218, "tags": {"climbing:trad": "12", "name": "Man\u011bt\u00ednsk\u00e9 v\u011b\u017ee", "natural": "peak"}}, {"type": "node", "id": 10157935038, "lat": 49.9949379, "lon": 13.1664705, "tags": {"climbing:trad": "5", "name": "\u0160pi\u010d\u00e1k", "natural": "peak"}}, {"type": "node", "id": 10157971039, "lat": 49.9950294, "lon": 13.1667385, "tags": {"climbing:trad": "7", "name": "V\u00fdchodn\u00ed b\u0159e\u010d\u0165anov\u00e1 v\u011b\u017e", "natural": "peak"}}, {"type": "node", "id": 10157973162, "lat": 49.9950294, "lon": 13.1667385, "tags": {"climbing:trad": "5", "name": "Z\u00e1padn\u00ed b\u0159e\u010d\u0165anov\u00e1 v\u011b\u017e", "natural": "peak"}}, {"type": "node", "id": 10157977538, "lat": 49.9951591, "lon": 13.1671629, "tags": {"climbing:trad": "1", "name": "Jezinka", "natural": "peak"}}, {"type": "node", "id": 10157978882, "lat": 49.9952507, "lon": 13.1681013, "tags": {"climbing:trad": "3", "name": "Stoli\u010dka", "natural": "peak"}}, {"type": "node", "id": 10157983227, "lat": 49.9963303, "lon": 13.1711378, "tags": {"climbing:trad": "4", "name": "Drav\u00e1 v\u011b\u017e", "natural": "peak"}}, {"type": "node", "id": 10157986415, "lat": 49.9952812, "lon": 13.1683807, "tags": {"climbing:trad": "7", "name": "Smrkov\u00e1 v\u011b\u017e", "natural": "peak"}}, {"type": "node", "id": 10157988027, "lat": 49.9956093, "lon": 13.169158, "tags": {"climbing:trad": "10", "name": "Hlava", "natural": "peak"}}, {"type": "node", "id": 10157988986, "lat": 49.9951973, "lon": 13.1685305, "tags": {"climbing:trad": "5", "name": "Svin\u011b", "natural": "peak"}}, {"type": "node", "id": 10157990748, "lat": 49.9956932, "lon": 13.169528, "tags": {"climbing:trad": "7", "name": "Li\u0161\u010d\u00ed sk\u00e1la", "natural": "peak"}}, {"type": "node", "id": 10158001934, "lat": 49.995697, "lon": 13.1696997, "tags": {"climbing:trad": "9", "name": "D\u0159evorubeck\u00e1 v\u011b\u017e", "natural": "peak"}}, {"type": "node", "id": 10158018941, "lat": 49.9975967, "lon": 13.1732779, "tags": {"climbing:trad": "5", "name": "N\u00e1hrobek", "natural": "peak"}}, {"type": "node", "id": 10158023237, "lat": 49.9975967, "lon": 13.1732779, "tags": {"climbing:trad": "1", "name": "Nos", "natural": "peak"}}, {"type": "node", "id": 10158033751, "lat": 49.9973907, "lon": 13.172039, "tags": {"climbing:trad": "9", "name": "Ztracen\u00e1", "natural": "peak"}}, {"type": "node", "id": 10160084195, "lat": 49.9967079, "lon": 13.1697102, "tags": {"climbing:trad": "10", "name": "Houbov\u00e1 Sk\u00e1la", "natural": "peak"}}, {"type": "node", "id": 10160084557, "lat": 49.9966202, "lon": 13.1678114, "tags": {"climbing:trad": "1", "name": "Bor\u016fvkov\u00e1 sk\u00e1la", "natural": "peak"}}, {"type": "node", "id": 10160108442, "lat": 49.9969978, "lon": 13.1708422, "tags": {"climbing:trad": "10", "name": "Klouzek", "natural": "peak"}}, {"type": "node", "id": 10160109665, "lat": 49.9969177, "lon": 13.1702204, "tags": {"climbing:trad": "9", "name": "Svatov\u00e1clavsk\u00e1 v\u011b\u017e", "natural": "peak"}}, {"type": "node", "id": 10160134149, "lat": 49.9966202, "lon": 13.1690722, "tags": {"climbing:trad": "3", "name": "Zarostl\u00e1", "natural": "peak"}}, {"type": "node", "id": 10160134472, "lat": 49.9966812, "lon": 13.1698399, "tags": {"climbing:trad": "4", "name": "Severka", "natural": "peak"}}, {"type": "node", "id": 10160134752, "lat": 49.9969177, "lon": 13.1702204, "tags": {"climbing:trad": "4", "name": "Krahul\u00edk", "natural": "peak"}}, {"type": "node", "id": 10160141211, "lat": 49.9968987, "lon": 13.1698828, "tags": {"climbing:trad": "3", "name": "Nanuk", "natural": "peak"}}, {"type": "node", "id": 10160142813, "lat": 49.9966202, "lon": 13.1690722, "tags": {"climbing:trad": "6", "name": "Mokr\u00e1", "natural": "peak"}}, {"type": "node", "id": 10160145157, "lat": 49.9966621, "lon": 13.1688519, "tags": {"climbing:trad": "2", "name": "Zakrsl\u00edk", "natural": "peak"}}, {"type": "node", "id": 10160145159, "lat": 49.996582, "lon": 13.1672325, "tags": {"climbing:trad": "14", "name": "Mu\u0161le", "natural": "peak"}}, {"type": "node", "id": 10160147738, "lat": 49.9966278, "lon": 13.1688519, "tags": {"climbing:trad": "8", "name": "Jalovcov\u00e1 sk\u00e1la", "natural": "peak"}}, {"type": "node", "id": 10160155180, "lat": 49.9967003, "lon": 13.1665888, "tags": {"climbing:trad": "2", "name": "Boch\u00e1nek", "natural": "peak"}}, {"type": "node", "id": 10160156559, "lat": 49.9965515, "lon": 13.1686382, "tags": {"climbing:trad": "6", "name": "Vyhl\u00eddkov\u00e1 sk\u00e1la", "natural": "peak"}}, {"type": "node", "id": 10160168396, "lat": 49.996521, "lon": 13.1669426, "tags": {"climbing:trad": "3", "name": "Dra\u010d\u00ed sluj", "natural": "peak"}}, {"type": "node", "id": 10160180766, "lat": 49.996521, "lon": 13.1668625, "tags": {"climbing:trad": "2", "name": "Sedmdes\u00e1tka", "natural": "peak"}}, {"type": "node", "id": 10589519536, "lat": 49.9914337, "lon": 13.1970502, "tags": {"board_type": "history", "description": "Ml\u00fdnsk\u00e1 stezka Ne\u010dtiny", "information": "board", "name": "Holub\u016fv ml\u00fdn", "ref": "8", "tourism": "information"}}, {"type": "node", "id": 10589519537, "lat": 49.989042, "lon": 13.1913251, "tags": {"board_type": "history", "description": "Ml\u00fdnsk\u00e1 stezka Ne\u010dtiny", "information": "board", "name": "Cukr\u016fv a Haller\u016fv ml\u00fdn", "ref": "7", "tourism": "information"}}, {"type": "node", "id": 10589519538, "lat": 49.9864554, "lon": 13.1851034, "tags": {"board_type": "history", "description": "Ml\u00fdnsk\u00e1 stezka Ne\u010dtiny", "information": "board", "name": "Hamersl\u00fd ml\u00fdn", "ref": "6", "tourism": "information"}}, {"type": "node", "id": 10589519539, "lat": 49.9859301, "lon": 13.1831459, "tags": {"board_type": "history", "description": "Ml\u00fdnsk\u00e1 stezka Ne\u010dtiny", "information": "board", "name": "Hamr", "ref": "5", "tourism": "information"}}, {"type": "node", "id": 10589519540, "lat": 49.979409, "lon": 13.167938, "tags": {"board_type": "history", "description": "Ml\u00fdnsk\u00e1 stezka Ne\u010dtiny", "information": "board", "name": "Puschner\u016fv ml\u00fdn", "ref": "3", "tourism": "information"}}, {"type": "node", "id": 10589519541, "lat": 49.9780662, "lon": 13.1675995, "tags": {"board_type": "history", "description": "Ml\u00fdnsk\u00e1 stezka Ne\u010dtiny", "information": "board", "name": "Historie mlyn\u00e1\u0159stv\u00ed", "ref": "2", "tourism": "information"}}, {"type": "node", "id": 10589519542, "lat": 49.9750564, "lon": 13.1644635, "tags": {"board_type": "history", "description": "Ml\u00fdnsk\u00e1 stezka Ne\u010dtiny", "information": "board", "name": "Ne\u010dtiny", "ref": "1", "tourism": "information"}}, {"type": "node", "id": 10598977185, "lat": 49.9574075, "lon": 13.1564845, "tags": {"board_type": "history", "information": "board", "name": "Hrad Ne\u010dtiny", "tourism": "information"}}, {"type": "node", "id": 11234447605, "lat": 50.0141503, "lon": 13.0022447, "tags": {"check_date": "2025-07-17", "ele": "825", "name": "T\u0159ebou\u0148sk\u00fd vrch", "natural": "peak", "summit:cross": "no", "wikidata": "Q12060285"}}, {"type": "node", "id": 11262147691, "lat": 50.0825577, "lon": 13.1240763, "tags": {"amenity": "shelter", "shelter_type": "picnic_shelter"}}, {"type": "node", "id": 11900641354, "lat": 49.9937217, "lon": 13.1654494, "tags": {"information": "map", "map_size": "region", "name": "Kozelka", "tourism": "information"}}, {"type": "node", "id": 11900652394, "lat": 49.9936798, "lon": 13.1654844, "tags": {"information": "board", "name": "Kozelka", "tourism": "information"}}, {"type": "node", "id": 11903214242, "lat": 49.9756339, "lon": 13.1643039, "tags": {"information": "board", "name": "Man\u011bt\u00ednsko - ne\u010dtinsk\u00fd region", "tourism": "information"}}, {"type": "node", "id": 11903243672, "lat": 49.9748848, "lon": 13.1641488, "tags": {"board_type": "sight", "information": "board", "name": "Ne\u010dtiny", "tourism": "information"}}, {"type": "node", "id": 11903255611, "lat": 49.9822255, "lon": 13.1707934, "tags": {"board_type": "sight", "description": "Ml\u00fdnsk\u00e1 stezka Ne\u010dtiny", "information": "board", "name": "Tau\u0161\u016fv ml\u00fdn", "ref": "4", "tourism": "information"}}, {"type": "node", "id": 12025588906, "lat": 50.0883175, "lon": 13.1692418, "tags": {"description": "Nau\u010dn\u00e1 stezka Sovy Roz\u00e1rky", "information": "board", "ref": "1", "tourism": "information"}}, {"type": "node", "id": 12025591606, "lat": 50.0867629, "lon": 13.1718347, "tags": {"description": "Nau\u010dn\u00e1 stezka Sovy Roz\u00e1rky", "information": "board", "ref": "2", "tourism": "information"}}, {"type": "node", "id": 12025600169, "lat": 50.0829338, "lon": 13.1721973, "tags": {"description": "Nau\u010dn\u00e1 stezka Sovy Roz\u00e1rky", "information": "board", "name": "Pov\u011bst o b\u00edl\u00e9 lani", "ref": "3", "tourism": "information"}}, {"type": "node", "id": 12025629555, "lat": 50.0865049, "lon": 13.1770642, "tags": {"information": "board", "name": "\u017dlutickem za poh\u00e1dkou, pov\u011bstmi a histori\u00ed", "tourism": "information"}}, {"type": "node", "id": 12025642460, "lat": 50.0816519, "lon": 13.1845138, "tags": {"information": "board", "name": "Pov\u011bsti o lesn\u00edch \u017e\u00ednk\u00e1ch", "tourism": "information"}}, {"type": "node", "id": 12025654636, "lat": 50.0799959, "lon": 13.1872341, "tags": {"information": "board", "name": "Vodn\u00edk ze strabovsk\u00e9ho ml\u00fdna", "tourism": "information"}}, {"type": "node", "id": 12025683673, "lat": 50.079053, "lon": 13.1930354, "tags": {"information": "board", "name": "Vlada\u0159", "tourism": "information"}}, {"type": "node", "id": 12025692172, "lat": 50.0795234, "lon": 13.1946594, "tags": {"board_type": "history", "information": "board", "name": "D\u011btsk\u00fd k\u0159\u00ed\u017eek", "ref": "none", "tourism": "information"}}, {"type": "node", "id": 12028885963, "lat": 50.0916818, "lon": 13.1621162, "tags": {"information": "board", "name": "\u017dlutice: M\u011bstsk\u00e1 pam\u00e1tkov\u00e1 z\u00f3na", "ref": "none", "tourism": "information"}}, {"type": "node", "id": 12028886868, "lat": 50.0892761, "lon": 13.1495085, "tags": {"description": "Cesta poh\u00e1dkov\u00fdm lesem", "information": "board", "name": "Hr\u00e1tky s Bidlem a \u0160pag\u00e1tkem", "ref": "6", "tourism": "information"}}, {"type": "node", "id": 12028894821, "lat": 50.0885586, "lon": 13.1530473, "tags": {"description": "Cesta poh\u00e1dkov\u00fdm lesem", "information": "board", "name": "Tanec s v\u00edlou Jest\u0159abinkou", "ref": "5", "tourism": "information"}}, {"type": "node", "id": 12028904875, "lat": 50.088292, "lon": 13.153498, "tags": {"description": "Cesta poh\u00e1dkov\u00fdm lesem", "information": "board", "name": "Loupe\u017en\u00edkovo doup\u011b", "ref": "3", "tourism": "information"}}, {"type": "node", "id": 12028913819, "lat": 50.0834195, "lon": 13.157216, "tags": {"board_type": "nature", "information": "board", "name": "Vrch Nevd\u011bk (630 m n. m.)", "tourism": "information"}}, {"type": "node", "id": 12028923192, "lat": 50.0913949, "lon": 13.1627757, "tags": {"information": "map", "map_size": "region", "map_type": "topo", "name": "\u017dluticko", "tourism": "information"}}, {"type": "node", "id": 12028925183, "lat": 50.0904498, "lon": 13.1633714, "tags": {"information": "map", "map_size": "city", "map_type": "street", "name": "\u017dlutice", "tourism": "information"}}, {"type": "node", "id": 12028939401, "lat": 50.0832893, "lon": 13.1663834, "tags": {"information": "board", "name": "Vrch \"Nevd\u011bk\", Z\u0159\u00edcenina hradu \"Nevd\u011bk\"", "tourism": "information"}}, {"type": "node", "id": 12028940191, "lat": 50.0903511, "lon": 13.1635766, "tags": {"board_type": "sight", "information": "board", "name": "Fara", "ref": "none", "tourism": "information"}}, {"type": "node", "id": 12028940231, "lat": 50.0738969, "lon": 13.1828629, "tags": {"information": "board", "name": "O pulcovi", "tourism": "information"}}, {"type": "node", "id": 12028958932, "lat": 50.0833075, "lon": 13.1663892, "tags": {"information": "board", "name": "Jak dostal Nevd\u011bk svoje jm\u00e9no", "tourism": "information"}}, {"type": "node", "id": 12028963889, "lat": 50.0815463, "lon": 13.1741189, "tags": {"description": "Nau\u010dn\u00e1 stezka Sovy Roz\u00e1rky", "information": "board", "name": "Stezka sovy Roz\u00e1rky", "ref": "4", "tourism": "information"}}, {"type": "node", "id": 12028975600, "lat": 50.0738899, "lon": 13.1828195, "tags": {"information": "board", "name": "\u017dlutick\u00e9 Lurdy", "tourism": "information"}}, {"type": "node", "id": 12028985462, "lat": 50.0725857, "lon": 13.1876201, "tags": {"description": "Nau\u010dn\u00e1 stezka Sovy Roz\u00e1rky", "information": "board", "name": "Stezka sovy Roz\u00e1rky", "ref": "8", "tourism": "information"}}, {"type": "node", "id": 12028997074, "lat": 50.0738799, "lon": 13.1835236, "tags": {"description": "Nau\u010dn\u00e1 stezka Sovy Roz\u00e1rky", "information": "board", "name": "Stezka sovy Roz\u00e1rky", "ref": "6", "tourism": "information"}}, {"type": "node", "id": 12029005177, "lat": 50.0725186, "lon": 13.1848773, "tags": {"description": "Nau\u010dn\u00e1 stezka Sovy Roz\u00e1rky", "information": "board", "name": "Stezka sovy Roz\u00e1rky", "ref": "7", "tourism": "information"}}, {"type": "node", "id": 12029023999, "lat": 50.0683975, "lon": 13.1895013, "tags": {"description": "Nau\u010dn\u00e1 stezka Sovy Roz\u00e1rky", "information": "board", "name": "Stezka sovy Roz\u00e1rky", "ref": "9", "tourism": "information"}}, {"type": "node", "id": 12029735778, "lat": 50.0891986, "lon": 13.1570534, "tags": {"description": "Cesta poh\u00e1dkov\u00fdm lesem", "information": "board", "name": "\u010certovsk\u00e1 prol\u00e9za\u010dka", "ref": "1", "tourism": "information"}}, {"type": "node", "id": 12029739003, "lat": 50.0887455, "lon": 13.1555427, "tags": {"description": "Cesta poh\u00e1dkov\u00fdm lesem", "information": "board", "name": "Skok \u017eab\u00e1ka \u017dblabu\u0148ka", "ref": "2", "tourism": "information"}}, {"type": "node", "id": 12029739020, "lat": 50.0875442, "lon": 13.1516949, "tags": {"description": "Cesta poh\u00e1dkov\u00fdm lesem", "information": "board", "name": "Muzic\u00edrov\u00e1n\u00ed s hejkalem", "ref": "4", "tourism": "information"}}, {"type": "node", "id": 12029795235, "lat": 50.0889307, "lon": 13.150681, "tags": {"description": "Cesta poh\u00e1dkov\u00fdm lesem", "information": "board", "name": "Bludi\u010dky", "ref": "8", "tourism": "information"}}, {"type": "node", "id": 12163491454, "lat": 50.0011497, "lon": 13.0127403, "tags": {"board_type": "wildlife", "description": "Nau\u010dn\u00e1 stezka sv. Bla\u017eeje", "information": "board", "name": "Ptactvo na rybn\u00edce", "tourism": "information"}}, {"type": "node", "id": 12163506566, "lat": 50.0031394, "lon": 13.0134639, "tags": {"board_type": "history", "description": "Nau\u010dn\u00e1 stezka sv. Bla\u017eeje", "information": "board", "name": "Rybn\u00edk\u00e1\u0159stv\u00ed a ml\u00fdny v okol\u00ed", "tourism": "information"}}, {"type": "node", "id": 12164915881, "lat": 49.9918825, "lon": 13.0031985, "tags": {"board_type": "sight", "information": "board", "name": "Brani\u0161ov", "tourism": "information"}}, {"type": "node", "id": 12207078810, "lat": 50.0715588, "lon": 13.0007938, "tags": {"ele": "653", "name": "\u0160ibeni\u010dn\u00ed vrch", "natural": "peak", "source": "\u010c\u00daZK"}}, {"type": "node", "id": 12207078811, "lat": 50.1021274, "lon": 13.0162351, "tags": {"ele": "668", "name": "P\u011b\u010dkovick\u00fd kopec", "natural": "peak", "source": "\u010c\u00daZK"}}, {"type": "node", "id": 12229441131, "lat": 50.0669373, "lon": 13.0339798, "tags": {"ele": "638", "natural": "peak", "source": "\u010c\u00daZK"}}, {"type": "node", "id": 12229441132, "lat": 50.0666236, "lon": 13.0596905, "tags": {"ele": "713", "name": "Homolka", "natural": "peak", "source": "\u010c\u00daZK", "wikidata": "Q23825040"}}, {"type": "node", "id": 12229441133, "lat": 50.0671294, "lon": 13.0944869, "tags": {"ele": "672", "name": "Stubelka", "natural": "peak", "source": "\u010c\u00daZK"}}, {"type": "node", "id": 12229441134, "lat": 50.0689747, "lon": 13.11979, "tags": {"ele": "626", "name": "Pta\u010d\u00ed vrch", "natural": "peak", "source": "\u010c\u00daZK"}}, {"type": "node", "id": 12229441135, "lat": 50.0604958, "lon": 13.1400565, "tags": {"ele": "567", "name": "Poho\u0159elec", "natural": "peak", "source": "\u010c\u00daZK"}}, {"type": "node", "id": 12229441136, "lat": 50.0680988, "lon": 13.1442048, "tags": {"ele": "593", "name": "Za transform\u00e1torem", "natural": "peak", "source": "\u010c\u00daZK"}}, {"type": "node", "id": 12229441137, "lat": 50.0833218, "lon": 13.1664357, "tags": {"ele": "630", "name": "Nevd\u011bk", "natural": "peak", "source": "\u010c\u00daZK"}}, {"type": "node", "id": 12229441138, "lat": 50.0983423, "lon": 13.1667575, "tags": {"ele": "607", "name": "Hl\u00ednovec", "natural": "peak", "source": "\u010c\u00daZK"}}, {"type": "node", "id": 12229441160, "lat": 50.0991232, "lon": 13.0618043, "tags": {"ele": "665", "name": "Muri\u0148\u00e1k", "natural": "peak", "source": "\u010c\u00daZK"}}, {"type": "node", "id": 12229441161, "lat": 50.0908814, "lon": 13.0441761, "tags": {"ele": "631", "name": "Ma\u0161li\u010dky", "natural": "peak", "source": "\u010c\u00daZK"}}, {"type": "node", "id": 12229441162, "lat": 50.0848416, "lon": 13.0477631, "tags": {"ele": "624", "name": "J\u00e1nsk\u00fd vrch", "natural": "peak", "source": "\u010c\u00daZK"}}, {"type": "node", "id": 12229441163, "lat": 50.0853581, "lon": 13.0678642, "tags": {"ele": "611", "name": "\u010cert\u016fv vrch", "natural": "peak", "source": "\u010c\u00daZK"}}, {"type": "node", "id": 12229441164, "lat": 50.091018, "lon": 13.0724669, "tags": {"ele": "646", "name": "\u010cer\u0165\u00e1k", "natural": "peak", "source": "\u010c\u00daZK"}}, {"type": "node", "id": 12229441165, "lat": 50.0887781, "lon": 13.0916961, "tags": {"ele": "578", "name": "Na zadu", "natural": "peak", "source": "\u010c\u00daZK"}}, {"type": "node", "id": 12229441166, "lat": 50.0973323, "lon": 13.0992809, "tags": {"ele": "630", "name": "Nad h\u0159bitovem", "natural": "peak", "source": "\u010c\u00daZK"}}, {"type": "node", "id": 12229441167, "lat": 50.0982418, "lon": 13.0861434, "tags": {"ele": "638", "name": "Vran\u00ed vrch", "natural": "peak", "source": "\u010c\u00daZK"}}, {"type": "node", "id": 12229441168, "lat": 50.0809232, "lon": 13.1113555, "tags": {"ele": "634", "name": "Mly\u0148ansk\u00fd vrch", "natural": "peak", "source": "\u010c\u00daZK"}}, {"type": "node", "id": 12229441170, "lat": 50.0226372, "lon": 13.0564802, "tags": {"ele": "688", "natural": "peak", "source": "\u010c\u00daZK"}}, {"type": "node", "id": 12229441171, "lat": 49.9985646, "lon": 13.1534183, "tags": {"ele": "597", "name": "\u0160pi\u010d\u00e1k", "natural": "peak", "source": "\u010c\u00daZK", "wikidata": "Q27000969"}}, {"type": "node", "id": 12229441172, "lat": 49.953131, "lon": 13.0724075, "tags": {"ele": "678", "name": "U vi\u0161n\u011b", "natural": "peak", "source": "\u010c\u00daZK"}}, {"type": "node", "id": 12229441173, "lat": 49.9633301, "lon": 13.0692379, "tags": {"ele": "692", "name": "Ov\u010d\u00ed hora", "natural": "peak", "source": "\u010c\u00daZK"}}, {"type": "node", "id": 12229441174, "lat": 49.9702139, "lon": 13.0624532, "tags": {"ele": "679", "name": "Sask\u016fv kopec", "natural": "peak", "source": "\u010c\u00daZK"}}, {"type": "node", "id": 12229441191, "lat": 50.0323537, "lon": 13.1694086, "tags": {"ele": "573", "name": "N\u00e1vr\u0161\u00ed", "natural": "peak", "source": "\u010c\u00daZK"}}, {"type": "node", "id": 12229441192, "lat": 50.0673125, "lon": 13.1911788, "tags": {"ele": "582", "name": "Na vr\u0161ku", "natural": "peak", "source": "\u010c\u00daZK"}}, {"type": "node", "id": 12229441193, "lat": 50.0763975, "lon": 13.169605, "tags": {"ele": "574", "name": "Krkavec", "natural": "peak", "source": "\u010c\u00daZK"}}, {"type": "node", "id": 12529497195, "lat": 50.0944393, "lon": 13.0511232, "tags": {"access": "yes", "amenity": "shelter", "bench": "yes", "capacity": "4", "fee": "no", "fireplace": "no", "name": "\u00datulna Tom\u0161\u016fv Ml\u00fdn", "note": "https://lesycr.cz/tiskova-zprava/jedenatricet-pristresku-ve-kterych-se-da-v-nouzi-i-prespat-za-rok-postavily-u-dalkovych-turistickych-tras-lesy-ceske-republiky/", "operator": "Lesy \u010cR", "shelter_type": "basic_hut", "source": "survey"}}, {"type": "node", "id": 12797925906, "lat": 50.078338, "lon": 13.1934662}, {"type": "node", "id": 12797925907, "lat": 50.0783514, "lon": 13.1934491}, {"type": "node", "id": 12797925908, "lat": 50.0783362, "lon": 13.1934201}, {"type": "node", "id": 12797925909, "lat": 50.0783228, "lon": 13.1934373}, {"type": "node", "id": 12911112849, "lat": 50.0795379, "lon": 13.1918305, "tags": {"bicycle": "yes", "information": "guidepost", "operator": "cz:K\u010cT", "ref": "none", "tourism": "information"}}, {"type": "node", "id": 12911112856, "lat": 50.0790608, "lon": 13.1930137, "tags": {"city": "yes", "information": "guidepost", "operator": "local", "ref": "none", "tourism": "information"}}, {"type": "node", "id": 12911112857, "lat": 50.0790554, "lon": 13.1930379, "tags": {"description": "mapa je um\u00edst\u011bna na zadn\u00ed stran\u011b infotabule \"Vlada\u0159\"", "information": "map", "map_size": "region", "map_type": "topo", "tourism": "information"}}, {"type": "node", "id": 12911112858, "lat": 50.0807208, "lon": 13.1888748, "tags": {"bicycle": "yes", "information": "guidepost", "operator": "cz:K\u010cT", "ref": "none", "tourism": "information"}}, {"type": "node", "id": 12911112859, "lat": 50.0893107, "lon": 13.1637602, "tags": {"bicycle": "yes", "information": "guidepost", "operator": "cz:K\u010cT", "ref": "none", "tourism": "information"}}, {"type": "node", "id": 12911112860, "lat": 50.0913772, "lon": 13.1628002, "tags": {"bicycle": "yes", "information": "guidepost", "operator": "cz:K\u010cT", "ref": "none", "tourism": "information"}}, {"type": "node", "id": 12911112861, "lat": 50.088443, "lon": 13.1637941, "tags": {"bicycle": "yes", "information": "guidepost", "operator": "cz:K\u010cT", "ref": "none", "tourism": "information"}}, {"type": "node", "id": 12911112862, "lat": 50.0860763, "lon": 13.1590418, "tags": {"bicycle": "yes", "information": "guidepost", "operator": "cz:K\u010cT", "ref": "none", "tourism": "information"}}, {"type": "node", "id": 12911112863, "lat": 50.0620244, "lon": 13.1302881, "tags": {"amenity": "shelter", "shelter_type": "picnic_shelter"}}, {"type": "node", "id": 12911112864, "lat": 50.0600318, "lon": 13.0518659, "tags": {"bicycle": "yes", "information": "guidepost", "operator": "cz:K\u010cT", "ref": "none", "tourism": "information"}}, {"type": "way", "id": 318883199, "nodes": [3252774639, 3252774644, 3252774641, 3252774638, 3252774639], "tags": {"amenity": "shelter", "building": "transportation", "building:ruian:type": "5", "ref:ruian:building": "45746419", "shelter_type": "public_transport", "source": "cuzk:ruian"}}, {"type": "way", "id": 356572035, "nodes": [3619692198, 3619692197, 3619692195, 3619692196, 3619692198], "tags": {"building": "yes", "historic": "ruins", "man_made": "watermill", "name": "Rohler\u016fv Ml\u00fdn", "ruins": "yes", "tourism": "attraction"}}, {"type": "way", "id": 356572036, "nodes": [3619692194, 3619689192, 3619689191, 3619692193, 3619692194], "tags": {"building": "yes", "historic": "ruins", "man_made": "watermill", "ruins": "yes", "tourism": "attraction"}}, {"type": "way", "id": 538807798, "nodes": [5214744103, 5214744102, 5214744101, 5214744100, 5214744103], "tags": {"amenity": "shelter", "bench": "yes", "building": "yes", "building:ruian:type": "13", "ref:ruian:building": "40268195", "source": "cuzk:ruian"}}, {"type": "way", "id": 1058342686, "nodes": [9725000898, 9725000899, 9725000900, 9725000901, 9725000898], "tags": {"amenity": "shelter", "building": "yes", "shelter_type": "roof"}}, {"type": "way", "id": 1382309578, "nodes": [12797925906, 12797925907, 12797925908, 12797925909, 12797925906], "tags": {"amenity": "shelter", "building": "yes"}}, {"type": "relation", "id": 5321087, "members": [{"type": "way", "ref": 356572036, "role": ""}, {"type": "way", "ref": 356572035, "role": ""}], "tags": {"historic": "ruins", "name": "old mill of Skoky", "tourism": "attraction", "type": "site"}}]}