{"version": 0.6, "generator": "Overpass API 0.7.62.8 e802775f", "osm3s": {"timestamp_osm_base": "2026-01-05T16:26:06Z", "copyright": "The data included in this document is from www.openstreetmap.org. The data is made available under ODbL."}, "elements": [{"type": "node", "id": 95964264, "lat": 48.780679, "lon": 13.8031771, "tags": {"alt_name": "Dreisesselberg", "ele": "1333", "name": "Dreisessel", "name:cs": "T\u0159\u00edstoli\u010dn\u00edk", "natural": "peak", "wikidata": "Q457636", "wikimedia_commons": "Category:Dreisesselberg", "wikipedia": "de:Dreisesselberg (Bayerischer Wald)"}}, {"type": "node", "id": 95964265, "lat": 48.7847492, "lon": 13.8027768, "tags": {"ele": "1333", "name": "Hochstein", "natural": "peak", "summit:cross": "yes", "summit:register": "no", "wikidata": "Q1622345", "wikimedia_commons": "Category:Hochstein (Dreisesselberg)"}}, {"type": "node", "id": 268779637, "lat": 48.7588266, "lon": 13.8526703, "tags": {"ele": "1275", "natural": "peak"}}, {"type": "node", "id": 268779759, "lat": 48.7839076, "lon": 13.8841922, "tags": {"ele": "1026", "name": "Ko\u0148sk\u00fd vrch", "name:cs": "Ko\u0148sk\u00fd vrch", "name:de": "Ro\u00dfberg", "natural": "peak", "source": "tisicovky.cz"}}, {"type": "node", "id": 270091940, "lat": 48.7746867, "lon": 13.813786, "tags": {"ele": "1341", "name": "Vysok\u00fd h\u0159eben", "name:cs": "Vysok\u00fd h\u0159eben", "name:de": "Hochkamm", "natural": "peak"}}, {"type": "node", "id": 270092058, "lat": 48.8076374, "lon": 13.8037216, "tags": {"ele": "1020.9", "name": "\u0160pi\u010d\u00e1k", "name:cs": "\u0160pi\u010d\u00e1k", "name:de": "Spitzberg", "natural": "peak", "source": "tisicovky.cz", "triangulation_point": "yes"}}, {"type": "node", "id": 270092181, "lat": 48.754806, "lon": 13.9794865, "tags": {"ele": "899", "name": "\u0160e\u0161ovec", "name:de": "Scheschberg", "natural": "peak"}}, {"type": "node", "id": 270092182, "lat": 48.7533023, "lon": 13.999911, "tags": {"ele": "884", "name": "Lhotsk\u00fd vrch", "natural": "peak"}}, {"type": "node", "id": 288278559, "lat": 48.7806813, "lon": 13.8032188, "tags": {"tourism": "viewpoint"}}, {"type": "node", "id": 288278563, "lat": 48.7811592, "lon": 13.8033189}, {"type": "node", "id": 288278564, "lat": 48.7809277, "lon": 13.8032919}, {"type": "node", "id": 288278565, "lat": 48.7809394, "lon": 13.80306}, {"type": "node", "id": 288278567, "lat": 48.7811709, "lon": 13.8030869}, {"type": "node", "id": 288278570, "lat": 48.7810966, "lon": 13.8032168, "tags": {"information": "office", "tourism": "information"}}, {"type": "node", "id": 288278644, "lat": 48.7848072, "lon": 13.8027593, "tags": {"amenity": "binoculars", "check_date": "2024-06-26", "direction": "0-360", "name": "Hochstein", "tourism": "viewpoint"}}, {"type": "node", "id": 442975386, "lat": 48.767743, "lon": 13.8318702, "tags": {"tourism": "viewpoint"}}, {"type": "node", "id": 442975556, "lat": 48.7567459, "lon": 13.8344428, "tags": {"tourism": "viewpoint"}}, {"type": "node", "id": 459982940, "lat": 48.768456, "lon": 13.8357586, "tags": {"check_date": "2024-06-26", "direction_east": "Dreil\u00e4ndereck 0.8 km;Pl\u00f6ckenstein O\u00d6 u.Pl\u00f6ckenst.See CZ", "direction_northwest:1": "Steinernes Meer 0.5 km", "direction_northwest:2": "Alfons-Hellauer-Rundweg", "direction_northwest:3": "Dreisesselhaus 3.1 km;Kreuzbachklause 6.5 km;Haidm\u00fchle 10.2 km", "direction_west:1": "Rosenberger Gut 3.4 km;Hammerschmiede 10.9 km;Breitenberg 12.2 km", "direction_west:2": "Parkplatz Oberschwarzenberg", "ele": "1256", "hiking": "yes", "information": "guidepost", "name": "Steinernes Meer", "operator": "Tourismusverband Ostbayern e.V.", "tourism": "information"}}, {"type": "node", "id": 576633908, "lat": 48.862252, "lon": 13.9827025, "tags": {"ele": "1089", "name": "Dlouh\u00fd h\u0159bet", "natural": "peak", "source": "cuzk:km"}}, {"type": "node", "id": 576633910, "lat": 48.8376836, "lon": 13.9799338, "tags": {"ele": "1007", "name": "\u010cern\u00fd les", "name:cs": "\u010cern\u00fd les", "name:de": "Schwarzwald", "natural": "peak", "source:ele": "tisicovky.cz", "source:name": "tisicovky.cz"}}, {"type": "node", "id": 576633918, "lat": 48.8674044, "lon": 13.992272, "tags": {"ele": "1019", "name": "\u010cern\u00e1 st\u011bna", "natural": "peak", "source:ele": "tisicovky.cz", "source:name": "tisicovky.cz"}}, {"type": "node", "id": 576633920, "lat": 48.893916, "lon": 13.9382207, "tags": {"ele": "1052", "fixme": "Name Schusterberg ist meines Erachtens nicht Zutreffend,\nder weiter n\u00f6dliche liegende V\u011btrn\u00fd ist der Schusterberg, dieser wurde aber als Lichtenberg benannt, was ebenfalls nicht stimmt!", "name": "Doupn\u00e1 hora", "name:cs": "Doupn\u00e1 hora", "name:de": "Schusterberg", "natural": "peak", "source:ele": "tisicovky.cz", "source:name": "tisicovky.cz"}}, {"type": "node", "id": 576699854, "lat": 48.8113149, "lon": 13.8720426, "tags": {"ele": "980", "name": "Ple\u0161ivec", "name:de": "Fl\u00f6sselberg", "natural": "peak"}}, {"type": "node", "id": 576699857, "lat": 48.8289258, "lon": 13.882192, "tags": {"ele": "1068", "name": "Jelensk\u00e1 hora", "name:cs": "Jelensk\u00e1 hora", "name:de": "Hirschberg", "natural": "peak", "source": "tisicovky.cz"}}, {"type": "node", "id": 576699868, "lat": 48.8166773, "lon": 13.9018794, "tags": {"ele": "1049", "name": "Pern\u00edk", "name:cs": "Pern\u00edk", "name:de": "Lebzelterberg", "natural": "peak", "source": "tisicovky.cz"}}, {"type": "node", "id": 576699871, "lat": 48.8335928, "lon": 13.9075542, "tags": {"ele": "1047", "name": "Hvozd", "name:cs": "Hvozd", "name:de": "Hochwald", "natural": "peak", "source:ele": "tisicovky.cz", "source:name": "tisicovky.cz"}}, {"type": "node", "id": 576699913, "lat": 48.9340809, "lon": 13.8552245, "tags": {"ele": "1089", "name": "Jedlov\u00e1", "name:cs": "Jedlov\u00e1", "name:de": "St\u00f6gerberg", "natural": "peak", "source": "\u010c\u00daZK"}}, {"type": "node", "id": 576717527, "lat": 48.8790267, "lon": 13.9370399, "tags": {"alt_name": "Simandlturm", "ele": "1085", "name": "K\u0159emenn\u00e1", "name:cs": "K\u0159emenn\u00e1", "name:de": "Steinschichtberg", "natural": "peak", "source": "tisicovky.cz"}}, {"type": "node", "id": 576717530, "lat": 48.8951896, "lon": 13.9536788, "tags": {"ele": "1011", "name": "Na sk\u00e1le", "natural": "peak", "source": "\u010c\u00daZK"}}, {"type": "node", "id": 577323239, "lat": 48.7576657, "lon": 13.8995477, "tags": {"ele": "1165", "ele:wgs84": "1211", "hiking": "yes", "name": "Studni\u010dn\u00e1 / Brunnauberg", "name:cs": "Studni\u010dn\u00e1", "name:de": "Brunnauberg", "natural": "peak", "operator": "cz:K\u010cT", "ref": "VO851", "source": "tisicovky.cz;survey"}}, {"type": "node", "id": 577323240, "lat": 48.8482962, "lon": 13.9941924, "tags": {"ele": "1008", "name": "Uhl\u00edkovsk\u00fd kopec", "natural": "peak", "source": "tisicovky.cz"}}, {"type": "node", "id": 577323249, "lat": 48.8804163, "lon": 13.8277027, "tags": {"ele": "1065", "name": "Sto\u017eec", "name:de": "Tussetberg", "natural": "peak", "source": "survey;tisicovky.cz"}}, {"type": "node", "id": 577336413, "lat": 48.7990939, "lon": 13.8478558, "tags": {"ele": "1157", "name": "V pa\u0159ez\u00ed", "name:de": "Am Stumpf", "natural": "peak", "source": "tisicovky.cz"}}, {"type": "node", "id": 577336427, "lat": 48.9460462, "lon": 13.8318379, "tags": {"ele": "1039", "name": "Z\u00e1to\u0148sk\u00e1 hora", "natural": "peak", "source": "\u010c\u00daZK"}}, {"type": "node", "id": 577336433, "lat": 48.9054672, "lon": 13.9366725, "tags": {"ele": "1053", "fixme": "Dieser Berg sollte zu deutsch eigentlich Schusterberg heissen. Woher kommt der Name Lichtenberg??????????", "name": "V\u011btrn\u00fd", "name:cs": "V\u011btrn\u00fd", "name:de": "Schusterberg", "natural": "peak", "source": "\u010c\u00daZK"}}, {"type": "node", "id": 640502311, "lat": 48.8500354, "lon": 13.8594645, "tags": {"information": "guidepost", "name": "Hu\u010dinsk\u00e1 c./Krej\u010dova c.", "ski": "yes", "tourism": "information"}}, {"type": "node", "id": 799270297, "lat": 48.7765034, "lon": 13.8575227, "tags": {"name": "V\u00fdhled na Ple\u0161n\u00e9 jezero", "name:de": "Aussicht zum Pl\u00f6ckensteinsee", "tourism": "viewpoint", "wheelchair": "no"}}, {"type": "node", "id": 799270300, "lat": 48.7746818, "lon": 13.8554005, "tags": {"name": "Ku\u010derova vyhl\u00eddka", "name:de": "Aussicht auf Pl\u00f6ckensteiner See", "tourism": "viewpoint", "wheelchair": "no"}}, {"type": "node", "id": 910820517, "lat": 48.771393, "lon": 13.83946, "tags": {"information": "board", "name": "Flaschen,Dosen & Papier.... (\"Sauberkeit i. Wald\")", "tourism": "information"}}, {"type": "node", "id": 911175883, "lat": 48.7649353, "lon": 13.8387024, "tags": {"hiking": "yes", "information": "guidepost", "tourism": "information"}}, {"type": "node", "id": 911175897, "lat": 48.7648852, "lon": 13.8383928, "tags": {"hiking": "yes", "information": "guidepost", "tourism": "information"}}, {"type": "node", "id": 911292759, "lat": 48.7567039, "lon": 13.8344532, "tags": {"hiking": "yes", "information": "guidepost", "tourism": "information"}}, {"type": "node", "id": 911292760, "lat": 48.7715189, "lon": 13.8571618, "tags": {"information": "map", "name": "Plech\u00fd - N\u00e1rodn\u00ed park \u0160umava", "name:cs": "Plech\u00fd - N\u00e1rodn\u00ed park \u0160umava", "name:de": "Pl\u00f6ckenstein - Nationalpark B\u00f6hmerwald", "tourism": "information"}}, {"type": "node", "id": 911292762, "lat": 48.7745779, "lon": 13.8752831, "tags": {"ele": "1050", "hiking": "yes", "information": "guidepost", "name": "Pod kamenn\u00fdm mo\u0159em", "operator": "cz:K\u010cT", "ref": "VO855", "ski": "yes", "tourism": "information"}}, {"type": "node", "id": 911292778, "lat": 48.7779517, "lon": 13.8674266, "tags": {"ele": "1090", "hiking": "yes", "information": "guidepost", "name": "Ple\u0161n\u00e9 jezero", "operator": "cz:K\u010cT", "ref": "VO841", "tourism": "information"}}, {"type": "node", "id": 911292781, "lat": 48.7567957, "lon": 13.8344408, "tags": {"ele": "1108", "name": "Teufelssch\u00fcssel", "natural": "peak"}}, {"type": "node", "id": 911292785, "lat": 48.7619503, "lon": 13.8823687, "tags": {"hiking": "yes", "information": "guidepost", "ref": "none", "tourism": "information"}}, {"type": "node", "id": 911292799, "lat": 48.762307, "lon": 13.882441, "tags": {"bicycle": "yes", "ele": "1020", "hiking": "yes", "information": "guidepost", "name": "Rakousk\u00e1 c. I/10 (CZ/A)", "operator": "cz:K\u010cT", "ref": "VO849", "tourism": "information"}}, {"type": "node", "id": 911296887, "lat": 48.7574181, "lon": 13.8278406, "tags": {"information": "map", "map_size": "site", "map_type": "topo", "name": "Wanderkarte", "tourism": "information"}}, {"type": "node", "id": 911296899, "lat": 48.7572572, "lon": 13.8278207, "tags": {"information": "board", "name": "A. Stifter", "tourism": "information"}}, {"type": "node", "id": 914003407, "lat": 48.7649508, "lon": 13.8382849, "tags": {"information": "board", "tourism": "information"}}, {"type": "node", "id": 914003408, "lat": 48.7651, "lon": 13.8380097, "tags": {"direction_northwest:1": "Steinernes Meer 1.5 km;Dreil\u00e4ndereck 1.4 km", "direction_northwest:2": "Pl\u00f6ckensteiner See 4.7 km CZ;\u00d6sterr. Pl\u00f6ckenstein 3.4 km O\u00d6", "hiking": "yes", "information": "guidepost", "tourism": "information"}}, {"type": "node", "id": 938872461, "lat": 48.7641725, "lon": 13.8436303, "tags": {"information": "guidepost", "tourism": "information"}}, {"type": "node", "id": 938872541, "lat": 48.763425, "lon": 13.8544471, "tags": {"bicycle": "yes", "hiking": "yes", "information": "guidepost", "ref": "none", "tourism": "information"}}, {"type": "node", "id": 948580589, "lat": 48.8164341, "lon": 13.8774626, "tags": {"name": "Tunel (doln\u00ed port\u00e1l)", "name:de": "Unteres Tunnelportal", "tourism": "attraction"}}, {"type": "node", "id": 948785651, "lat": 48.7795299, "lon": 13.9044371}, {"type": "node", "id": 949000225, "lat": 48.7796328, "lon": 13.9043638}, {"type": "node", "id": 949109439, "lat": 48.7795377, "lon": 13.9053178}, {"type": "node", "id": 1235209213, "lat": 48.8855503, "lon": 13.9390774, "tags": {"ele": "1008", "hiking": "yes", "information": "guidepost", "name": "Horn\u00ed Sn\u011b\u017en\u00e1", "operator": "cz:K\u010cT", "ref": "VO009", "tourism": "information"}}, {"type": "node", "id": 1235209261, "lat": 48.8518026, "lon": 13.9339031, "tags": {"ele": "753", "hiking": "yes", "information": "guidepost", "name": "P\u011bkn\u00e1", "tourism": "information"}}, {"type": "node", "id": 1235209298, "lat": 48.8946803, "lon": 13.9437458, "tags": {"ele": "1020", "hiking": "yes", "information": "guidepost", "name": "Sn\u011b\u017en\u00e1", "operator": "cz:K\u010cT", "ref": "VO705", "source": "survey", "tourism": "information"}}, {"type": "node", "id": 1235209311, "lat": 48.8654555, "lon": 13.9436959, "tags": {"ele": "863", "hiking": "yes", "information": "guidepost", "name": "Pod Korun\u00e1\u010dem", "operator": "cz:K\u010cT", "ref": "VO008", "tourism": "information"}}, {"type": "node", "id": 1235209321, "lat": 48.8515889, "lon": 13.9597226, "tags": {"ele": "834", "hiking": "yes", "information": "guidepost", "name": "Nad H\u00e1jovnou", "tourism": "information"}}, {"type": "node", "id": 1330694377, "lat": 48.8099951, "lon": 13.8582252, "tags": {"ele": "902", "hiking": "yes", "information": "guidepost", "name": "Hu\u010dina - potok", "operator": "cz:K\u010cT", "ref": "VO781", "ski": "yes", "tourism": "information"}}, {"type": "node", "id": 1330694378, "lat": 48.8163206, "lon": 13.8787565, "tags": {"ele": "885", "hiking": "yes", "information": "guidepost", "name": "Jelen\u00ed vrchy", "operator": "cz:K\u010cT", "ref": "VO765", "tourism": "information"}}, {"type": "node", "id": 1330694379, "lat": 48.8006269, "lon": 13.8808279, "tags": {"ele": "860", "hiking": "yes", "information": "guidepost", "name": "Jezern\u00ed smyk", "operator": "cz:K\u010cT", "ref": "VO813", "ski": "yes", "tourism": "information"}}, {"type": "node", "id": 1330694380, "lat": 48.7792843, "lon": 13.8844812, "tags": {"bicycle": "yes", "ele": "956", "hiking": "yes", "information": "guidepost", "name": "Jezern\u00ed stezka", "operator": "cz:K\u010cT", "ref": "VO842;1028/4,5", "ski": "yes", "tourism": "information"}}, {"type": "node", "id": 1330694381, "lat": 48.7756751, "lon": 13.9011348, "tags": {"ele": "869", "hiking": "yes", "information": "guidepost", "name": "Ko\u0148sk\u00fd potok (rozc.)", "ref": "VO844", "ski": "yes", "tourism": "information"}}, {"type": "node", "id": 1330694382, "lat": 48.8187284, "lon": 13.8751476, "tags": {"bicycle": "yes", "ele": "911", "hiking": "yes", "information": "guidepost", "name": "Medv\u011bd\u00ed cesta", "operator": "cz:K\u010cT", "ref": "VO766", "tourism": "information"}}, {"type": "node", "id": 1330694383, "lat": 48.8274978, "lon": 13.8430041, "tags": {"ele": "914", "hiking": "yes", "information": "guidepost", "name": "Ministerka a osl\u00ed cesta", "operator": "cz:K\u010cT", "ref": "VO758", "tourism": "information"}}, {"type": "node", "id": 1330694384, "lat": 48.7741509, "lon": 13.8971565, "tags": {"ele": "885", "hiking": "yes", "information": "guidepost", "name": "Rakousk\u00e1 cesta - \u0159\u00edji\u0161t\u011b", "operator": "cz:K\u010cT", "ref": "VO843", "ski": "yes", "tourism": "information"}}, {"type": "node", "id": 1330694385, "lat": 48.8006818, "lon": 13.8766059, "tags": {"ele": "860", "hiking": "yes", "information": "guidepost", "name": "Rosenauerova kapli\u010dka", "operator": "cz:K\u010cT", "ref": "VO814", "ski": "yes", "tourism": "information"}}, {"type": "node", "id": 1330694386, "lat": 48.8037048, "lon": 13.8133561, "tags": {"bicycle": "yes", "ele": "925", "hiking": "yes", "information": "guidepost", "name": "Rosenauer\u016fv pomn\u00edk", "name:cs": "Rosenauer\u016fv pomn\u00edk", "name:de": "Rosenauerstein", "operator": "cz:K\u010cT", "ref": "VO789;1023/24", "ski": "yes", "tourism": "information"}}, {"type": "node", "id": 1330694387, "lat": 48.7794928, "lon": 13.9052085, "tags": {"bicycle": "no", "ele": "849", "hiking": "yes", "information": "guidepost", "name": "Rossbach", "operator": "cz:K\u010cT", "ref": "VO845", "ski": "yes", "tourism": "information"}}, {"type": "node", "id": 1330694388, "lat": 48.8058193, "lon": 13.8269332, "tags": {"ele": "922", "hiking": "yes", "information": "guidepost", "name": "Stock\u00fd potok", "name:de": "Igelbach", "tourism": "information"}}, {"type": "node", "id": 1330694389, "lat": 48.8190311, "lon": 13.8728415, "tags": {"bicycle": "yes", "ele": "900", "hiking": "yes", "information": "guidepost", "name": "Tunel (horn\u00ed port\u00e1l)", "operator": "cz:K\u010cT", "ref": "VO767", "ski": "yes", "tourism": "information"}}, {"type": "node", "id": 1330694390, "lat": 48.7947491, "lon": 13.8717172, "tags": {"bicycle": "yes", "ele": "905", "information": "guidepost", "name": "U Rosenauerova lesa", "operator": "cz:K\u010cT", "ski": "yes", "tourism": "information"}}, {"type": "node", "id": 1330694391, "lat": 48.8263714, "lon": 13.8353261, "tags": {"ele": "916", "hiking": "yes", "information": "guidepost", "name": "U oslince", "tourism": "information"}}, {"type": "node", "id": 1332547513, "lat": 48.8229808, "lon": 13.8029833, "tags": {"bicycle": "yes", "ele": "860", "hiking": "yes", "information": "guidepost", "name": "Nov\u00e9 \u00fadol\u00ed (rozc.)", "operator": "cz:K\u010cT", "ref": "VO186", "ski": "yes", "tourism": "information"}}, {"type": "node", "id": 1370201141, "lat": 48.7793843, "lon": 13.8847319, "tags": {"amenity": "shelter", "shelter_type": "picnic_shelter"}}, {"type": "node", "id": 1407817983, "lat": 48.907612, "lon": 13.8638046, "tags": {"ele": "790", "hiking": "yes", "information": "guidepost", "name": "Nad Brixov\u00fdmi dvory", "operator": "cz:K\u010cT", "ref": "VO698", "tourism": "information"}}, {"type": "node", "id": 1407817991, "lat": 48.8931997, "lon": 13.8301569, "tags": {"ele": "766", "hiking": "yes", "information": "guidepost", "name": "Dobr\u00e1 (kaple)", "operator": "cz:K\u010cT", "ref": "VO689", "tourism": "information"}}, {"type": "node", "id": 1407817994, "lat": 48.897774, "lon": 13.8355434, "tags": {"ele": "744", "hiking": "yes", "information": "guidepost", "name": "Dobr\u00e1 (l\u00e1vka)", "operator": "cz:K\u010cT", "ref": "VO684", "tourism": "information"}}, {"type": "node", "id": 1407818021, "lat": 48.9026888, "lon": 13.8596269, "tags": {"ele": "755", "hiking": "yes", "information": "guidepost", "name": "Pod L\u00edskov\u00fdm vrchem", "operator": "cz:K\u010cT", "ref": "VO014", "tourism": "information"}}, {"type": "node", "id": 1407818026, "lat": 48.7787155, "lon": 13.9194583, "tags": {"bicycle": "no", "ele": "845", "hiking": "yes", "information": "guidepost", "name": "Ra\u0161kov - Schwarzenbersk\u00fd kan\u00e1l", "operator": "cz:K\u010cT", "ref": "VO846", "ski": "yes", "tourism": "information"}}, {"type": "node", "id": 1407818047, "lat": 48.8597489, "lon": 13.8170097, "tags": {"ele": "777", "hiking": "yes", "information": "guidepost", "name": "Sto\u017eec (h\u00e1j.)", "operator": "cz:K\u010cT", "ref": "VO733", "tourism": "information"}}, {"type": "node", "id": 1407818051, "lat": 48.8755699, "lon": 13.8063044, "tags": {"ele": "805", "hiking": "yes", "information": "guidepost", "name": "Sto\u017eeck\u00e1 luka", "operator": "cz:K\u010cT", "ref": "VO730", "tourism": "information"}}, {"type": "node", "id": 1407818055, "lat": 48.8590426, "lon": 13.8192925, "tags": {"information": "map", "map_size": "region", "map_type": "topo", "name": "Trojmez\u00ed - Dreil\u00e4ndereck", "tourism": "information"}}, {"type": "node", "id": 1407818058, "lat": 48.9115105, "lon": 13.8932939, "tags": {"ele": "760", "hiking": "yes", "information": "guidepost", "name": "Volary (n\u00e1m\u011bst\u00ed)", "official_name": "Volary(n\u00e1m.)", "operator": "cz:K\u010cT", "ref": "VO695", "tourism": "information"}}, {"type": "node", "id": 1411863067, "lat": 48.8028975, "lon": 13.8114378, "tags": {"bicycle": "yes", "ele": "935", "hiking": "yes", "information": "guidepost", "name": "Rosenauerova n\u00e1dr\u017e - hr\u00e1z", "operator": "cz:K\u010cT", "ref": "VO785", "tourism": "information"}}, {"type": "node", "id": 1411863068, "lat": 48.7948357, "lon": 13.8188362, "tags": {"bicycle": "yes", "ele": "978", "hiking": "yes", "information": "guidepost", "name": "Rozcest\u00ed trojmezn\u00e9 a t\u0159\u00edstoli\u010dn\u00e9 cesty", "tourism": "information"}}, {"type": "node", "id": 1411863069, "lat": 48.7718609, "lon": 13.8275837, "tags": {"direction_northwest": "Tristolicnik 3 km;Nove Udoli (Rozc.) 9 km;Nove Udoli 10.5 km", "ele": "1364", "hiking": "yes", "information": "guidepost", "name": "Trojmezn\u00e1 (vrchol)", "name:de": "Dreieckmark", "operator": "cz:K\u010cT", "ref": "VO830", "tourism": "information"}}, {"type": "node", "id": 1411863070, "lat": 48.7716009, "lon": 13.8394703, "tags": {"board_type": "history", "check_date": "2024-06-26", "description": "Zlat\u00e1 stezka", "direction": "110", "information": "board", "name": "Trojmez\u00ed / Dreil\u00e4ndereck", "name:cs": "Trojmez\u00ed", "name:de": "Dreil\u00e4ndereck", "tourism": "information"}}, {"type": "node", "id": 1411863071, "lat": 48.7914611, "lon": 13.8115567, "tags": {"ele": "1040", "hiking": "yes", "information": "guidepost", "name": "T\u0159\u00edstoli\u010dn\u00e1 cesta St\u00e1tn\u00ed hranice", "ref": "0148/43,5", "source": "survey", "tourism": "information"}}, {"type": "node", "id": 1411863072, "lat": 48.7809147, "lon": 13.8038078, "tags": {"ele": "1302", "hiking": "yes", "information": "guidepost", "name": "T\u0159\u00edstoli\u010dn\u00edk (CZ/D)", "operator": "cz:K\u010cT", "ref": "VO793", "ski": "yes", "tourism": "information"}}, {"type": "node", "id": 1411885050, "lat": 48.7707215, "lon": 13.8530455, "tags": {"ele": "1345", "hiking": "yes", "information": "guidepost", "name": "Rakousk\u00e1 louka", "operator": "cz:K\u010cT", "ref": "0148/50", "tourism": "information"}}, {"type": "node", "id": 1411932203, "lat": 48.8532014, "lon": 13.863042, "tags": {"ele": "740", "hiking": "yes", "information": "guidepost", "name": "Lesn\u00ed potok (\u00fast\u00ed)", "ref": "VO737", "ski:nordic": "yes", "tourism": "information"}}, {"type": "node", "id": 1411932205, "lat": 48.8320028, "lon": 13.8712129, "tags": {"hiking": "yes", "information": "guidepost", "name": "Medv\u011bd\u00ed k\u00e1men", "ref": "VO771", "tourism": "information"}}, {"type": "node", "id": 1411932206, "lat": 48.8464884, "lon": 13.8605864, "tags": {"ele": "796", "hiking": "yes", "information": "guidepost", "name": "Pr\u016fsek na Rudolfov\u011b cest\u011b", "tourism": "information"}}, {"type": "node", "id": 1411932207, "lat": 48.8407251, "lon": 13.8732637, "tags": {"ele": "825", "hiking": "yes", "information": "guidepost", "name": "Rudolfova cesta", "tourism": "information"}}, {"type": "node", "id": 1411932286, "lat": 48.8607934, "lon": 13.8609661, "tags": {"ele": "745", "hiking": "yes", "information": "guidepost", "name": "\u010cern\u00fd K\u0159\u00ed\u017e (\u017eelezni\u010dn\u00ed stanice)", "official_name": "\u010cern\u00fd K\u0159\u00ed\u017e (\u017est)", "operator": "cz:K\u010cT", "ref": "VO731", "tourism": "information"}}, {"type": "node", "id": 1411932287, "lat": 48.8614993, "lon": 13.8604806, "tags": {"ele": "745", "hiking": "yes", "information": "guidepost", "name": "\u010cern\u00fd K\u0159\u00ed\u017e (\u017eelezni\u010dn\u00ed stanice, rozcest\u00ed)", "official_name": "\u010cern\u00fd K\u0159\u00ed\u017e (\u017est, rozc.)", "operator": "cz:K\u010cT", "ref": "VO723", "tourism": "information"}}, {"type": "node", "id": 1412011709, "lat": 48.8210983, "lon": 13.8915381, "tags": {"ele": "950", "hiking": "yes", "information": "guidepost", "name": "Jelen\u00ed jez\u00edrko", "ref": "VO770", "tourism": "information"}}, {"type": "node", "id": 1412011713, "lat": 48.815375, "lon": 13.9130492, "tags": {"ele": "960", "hiking": "yes", "information": "guidepost", "name": "V o\u0159e\u0161\u00ed (sk\u00e1ly)", "operator": "cz:K\u010cT", "ref": "VO806", "tourism": "information"}}, {"type": "node", "id": 1412011718, "lat": 48.8065556, "lon": 13.9389036, "tags": {"hiking": "yes", "information": "guidepost", "name": "Ovesn\u00e1 (\u017eelezni\u010dn\u00ed stanice)", "official_name": "Ovesn\u00e1 (\u017est)", "ref": "VO820", "tourism": "information"}}, {"type": "node", "id": 1416923267, "lat": 48.9513953, "lon": 13.8231156, "tags": {"ele": "840", "hiking": "yes", "information": "guidepost", "name": "Z\u00e1to\u0148 (\u017est)", "operator": "cz:K\u010cT", "ref": "VO557", "tourism": "information"}}, {"type": "node", "id": 1451076610, "lat": 48.7622459, "lon": 13.8824825, "tags": {"direction": "195", "information": "board", "name": "\u010cesk\u00e1 republika", "tourism": "information"}}, {"type": "node", "id": 1451139184, "lat": 48.8007056, "lon": 13.8765804, "tags": {"information": "board", "name": "Josef Rosenauer", "tourism": "information"}}, {"type": "node", "id": 1451163315, "lat": 48.8153322, "lon": 13.8807682, "tags": {"bicycle": "yes", "ele": "870", "hiking": "yes", "information": "guidepost", "mtb": "yes", "name": "Jelen\u00ed vrchy (u skluzu)", "operator": "cz:K\u010cT", "ref": "VO774", "ski": "yes", "tourism": "information"}}, {"type": "node", "id": 1451187331, "lat": 48.8140906, "lon": 13.8806413, "tags": {"check_date": "2021-08-23", "information": "board", "name": "Os\u00eddlen\u00ed hvozdu", "tourism": "information"}}, {"type": "node", "id": 1451187357, "lat": 48.8187017, "lon": 13.8732919, "tags": {"historic": "yes", "name": "Tunel (horn\u00ed port\u00e1l)", "name:de": "Oberes Tunnelportal", "tourism": "attraction"}}, {"type": "node", "id": 1451195805, "lat": 48.8008741, "lon": 13.8611239, "tags": {"bicycle": "yes", "ele": "950", "hiking": "yes", "information": "guidepost", "mtb": "yes", "name": "U St\u0159\u00ed\u0161ky", "operator": "cz:K\u010cT", "ref": "VO782", "ski": "yes", "tourism": "information"}}, {"type": "node", "id": 1472403729, "lat": 48.9246828, "lon": 13.8837845, "tags": {"ele": "782", "hiking": "yes", "information": "guidepost", "name": "Meindlova pila", "operator": "cz:K\u010cT", "ref": "VO023", "source": "survey", "tourism": "information"}}, {"type": "node", "id": 1472403805, "lat": 48.9130997, "lon": 13.8932008, "tags": {"ele": "769", "hiking": "yes", "information": "guidepost", "name": "Volary (zlat\u00e1 stezka)", "ref": "VO694", "source": "survey", "tourism": "information"}}, {"type": "node", "id": 1472403806, "lat": 48.9079702, "lon": 13.8846607, "tags": {"ele": "760", "hiking": "yes", "information": "guidepost", "name": "Volary (\u017eelezni\u010dn\u00ed stanice, rozcest\u00ed)", "official_name": "Volary (\u017est., rozc.)", "operator": "cz:K\u010cT", "ref": "VO696", "source": "survey", "tourism": "information"}}, {"type": "node", "id": 1472403816, "lat": 48.923602, "lon": 13.8921875, "tags": {"ele": "777", "hiking": "yes", "information": "guidepost", "name": "Volary - U statku", "source": "survey", "tourism": "information"}}, {"type": "node", "id": 1472403909, "lat": 48.9410061, "lon": 13.8693746, "tags": {"ele": "965", "hiking": "yes", "information": "guidepost", "name": "B\u00fdval\u00e1 obora", "official_name": "B\u00fdv. obora", "operator": "cz:K\u010cT", "ref": "VO629", "source": "survey", "tourism": "information"}}, {"type": "node", "id": 1472404080, "lat": 48.9506979, "lon": 13.8634901, "tags": {"amenity": "shelter", "fireplace": "no", "note": "\u00dcberdacht", "shelter_type": "picnic_shelter", "source": "survey"}}, {"type": "node", "id": 1506543047, "lat": 48.8734616, "lon": 13.821235, "tags": {"ele": "974", "name": "Sto\u017eeck\u00e1 sk\u00e1la", "name:de": "Tussetfelsen", "natural": "peak"}}, {"type": "node", "id": 1607870744, "lat": 48.9067984, "lon": 13.883022}, {"type": "node", "id": 1607870826, "lat": 48.9067019, "lon": 13.882921}, {"type": "node", "id": 1607870836, "lat": 48.9067378, "lon": 13.8828844}, {"type": "node", "id": 1774677537, "lat": 48.7720365, "lon": 13.8269626, "tags": {"alt_name": "Bayrischer Pl\u00f6ckenstein", "ele": "1362", "name": "Bayerischer Pl\u00f6ckenstein", "name:cs": "Trojmezn\u00e1 hora", "name:de": "Bayerischer Pl\u00f6ckenstein", "natural": "peak", "summit:cross": "yes", "wikidata": "Q812363", "wikimedia_commons": "Category:Bayerischer Pl\u00f6ckenstein (Dreisesselberg)", "wikipedia": "de:Bayerischer Pl\u00f6ckenstein"}}, {"type": "node", "id": 1786627566, "lat": 48.9015638, "lon": 13.8367022, "tags": {"access": "no", "building:material": "wood", "direction": "0-360", "fee": "no", "height": "9.22 m", "man_made": "tower", "name": "Soumarsk\u00e9 ra\u0161elini\u0161t\u011b", "note": "Rozhledna je z d\u016fvodu havarijn\u00edho stavu uzav\u0159ena.", "tourism": "viewpoint", "tower:construction": "freestanding", "tower:type": "observation", "wikidata": "Q123140413", "wikipedia": "cs:Soumarsk\u00e9 ra\u0161elini\u0161t\u011b (rozhledna)"}}, {"type": "node", "id": 1792482399, "lat": 48.7708162, "lon": 13.8304156, "tags": {"tourism": "viewpoint"}}, {"type": "node", "id": 1792482425, "lat": 48.7781754, "lon": 13.8062778, "tags": {"information": "guidepost", "tourism": "information"}}, {"type": "node", "id": 1792482436, "lat": 48.7794753, "lon": 13.8069469, "tags": {"board_type": "nature", "information": "board", "name": "Prom\u011bna horsk\u00e9ho lesa", "tourism": "information"}}, {"type": "node", "id": 1792482440, "lat": 48.7797858, "lon": 13.8062796, "tags": {"board_type": "nature", "check_date": "2024-06-26", "information": "board", "name": "NSG Regeln etc.", "tourism": "information"}}, {"type": "node", "id": 1792482443, "lat": 48.779816, "lon": 13.8062264, "tags": {"hiking": "yes", "information": "guidepost", "name": "Dreisessel 0,3km - Dreil\u00e4ndereck \u00fcber Hochkamm 2,8km", "name:cs": "Dreisessel 0,3km - Dreil\u00e4ndereck p\u0159es  Hochkamm 2,8km", "operator": "local", "ref": "none", "tourism": "information"}}, {"type": "node", "id": 1792691763, "lat": 48.7692559, "lon": 13.8305522, "tags": {"tourism": "viewpoint"}}, {"type": "node", "id": 1792691764, "lat": 48.7694494, "lon": 13.8295847, "tags": {"tourism": "viewpoint"}}, {"type": "node", "id": 1792691765, "lat": 48.7696725, "lon": 13.828465, "tags": {"tourism": "viewpoint"}}, {"type": "node", "id": 1834957415, "lat": 48.9080362, "lon": 13.8276642, "tags": {"ele": "752", "hiking": "yes", "information": "guidepost", "name": "Soumarsk\u00fd Most", "operator": "cz:K\u010cT", "ref": "VO683", "source": "survey", "tourism": "information"}}, {"type": "node", "id": 1834957416, "lat": 48.9044728, "lon": 13.8217232, "tags": {"ele": "748", "hiking": "yes", "information": "guidepost", "name": "Volarsk\u00e9 \u0161ance", "operator": "cz:K\u010cT", "ref": "VO690", "source": "survey", "tourism": "information"}}, {"type": "node", "id": 1835745875, "lat": 48.9135338, "lon": 13.8911427, "tags": {"ele": "765", "hiking": "yes", "information": "guidepost", "name": "Volary - Star\u00e9 M\u011bsto", "operator": "cz:K\u010cT", "ref": "VO022", "tourism": "information"}}, {"type": "node", "id": 1839042704, "lat": 48.8603571, "lon": 13.8204978, "tags": {"information": "office", "name": "Informa\u010dn\u00ed centrum NP \u0160umava", "tourism": "information"}}, {"type": "node", "id": 1950974358, "lat": 48.8512565, "lon": 13.8201676, "tags": {"ele": "787", "hiking": "yes", "information": "guidepost", "name": "Osl\u00ed cesta (rozc.)", "operator": "cz:K\u010cT", "ref": "VO734", "source": "survey", "tourism": "information"}}, {"type": "node", "id": 1950974396, "lat": 48.8591896, "lon": 13.8191978, "tags": {"bicycle": "yes", "ele": "780", "hiking": "yes", "information": "guidepost", "name": "Sto\u017eec", "operator": "cz:K\u010cT", "ref": "VO246;VO732;1024/5;1029/13", "ski": "yes", "tourism": "information"}}, {"type": "node", "id": 2101931737, "lat": 48.8695347, "lon": 13.8220905, "tags": {"ele": "852", "hiking": "yes", "information": "guidepost", "name": "Pod Sto\u017eeckou kapl\u00ed", "operator": "cz:K\u010cT", "ref": "VO728", "source": "survey", "tourism": "information"}}, {"type": "node", "id": 2101931740, "lat": 48.8741887, "lon": 13.8230527, "tags": {"board_type": "history", "information": "board", "name": "Sto\u017eeck\u00e1 Kaple", "name:de": "Tussetfelsen", "tourism": "information"}}, {"type": "node", "id": 2182458748, "lat": 48.8487682, "lon": 13.8497523, "tags": {"ele": "826", "information": "guidepost", "name": "Tov\u00e1rn\u00ed c./Ministerka", "ref": "VO761", "ski": "yes", "source": "survey", "tourism": "information"}}, {"type": "node", "id": 2182458753, "lat": 48.8611691, "lon": 13.8073661, "tags": {"ele": "792", "information": "guidepost", "name": "Travn\u00ed cesta", "ref": "VO188", "ski": "yes", "source": "survey", "tourism": "information"}}, {"type": "node", "id": 2182458768, "lat": 48.850415, "lon": 13.8555403, "tags": {"information": "guidepost", "source": "survey", "tourism": "information"}}, {"type": "node", "id": 2395664435, "lat": 48.839693, "lon": 13.9617659, "tags": {"ele": "780", "hiking": "yes", "information": "guidepost", "name": "Uhl\u00edkov", "operator": "cz:K\u010cT", "ref": "CK450", "source": "survey", "tourism": "information"}}, {"type": "node", "id": 2395664436, "lat": 48.8469062, "lon": 13.976347, "tags": {"ele": "847", "hiking": "yes", "information": "guidepost", "name": "Uhl\u00edkovsk\u00fd potok (most)", "operator": "cz:K\u010cT", "ref": "CK451", "source": "survey", "tourism": "information"}}, {"type": "node", "id": 2430227628, "lat": 48.9146564, "lon": 13.8542751, "tags": {"ele": "800", "hiking": "yes", "information": "guidepost", "name": "St\u00f6grova Hu\u0165", "operator": "cz:K\u010cT", "ref": "VO680", "source": "survey", "tourism": "information"}}, {"type": "node", "id": 2485193428, "lat": 48.803588, "lon": 13.8126873, "tags": {"historic": "memorial", "name": "Rosenauer\u016fv pomn\u00edk", "name:cs": "Rosenauer\u016fv pomn\u00edk", "name:de": "Rosenauerstein", "source": "survey", "tourism": "attraction"}}, {"type": "node", "id": 2537966169, "lat": 48.8338823, "lon": 13.9520923, "tags": {"ele": "748", "hiking": "yes", "information": "guidepost", "name": "Z\u00e1hvozd\u00ed", "operator": "cz:K\u010cT", "ref": "CK449", "tourism": "information"}}, {"type": "node", "id": 2601051611, "lat": 48.9113001, "lon": 13.9533118, "tags": {"ele": "930", "hiking": "yes", "information": "guidepost", "name": "Doln\u00ed Sn\u011b\u017en\u00e1", "operator": "cz:K\u010cT", "ref": "VO706", "source": "survey", "tourism": "information"}}, {"type": "node", "id": 2601051612, "lat": 48.9126221, "lon": 13.9469147, "tags": {"ele": "957", "hiking": "yes", "information": "guidepost", "name": "Na rozvod\u00ed", "operator": "cz:K\u010cT", "ref": "VO707", "source": "survey", "tourism": "information"}}, {"type": "node", "id": 2601051613, "lat": 48.8947336, "lon": 13.9714052, "tags": {"ele": "903", "hiking": "yes", "information": "guidepost", "name": "Sedmidom\u00ed (rozcest\u00ed)", "operator": "cz:K\u010cT", "ref": "VO164", "source": "survey", "tourism": "information"}}, {"type": "node", "id": 2601051614, "lat": 48.9207341, "lon": 13.9547759, "tags": {"ele": "890", "hiking": "yes", "information": "guidepost", "name": "Svat\u00e1 Magdalena", "operator": "cz:K\u010cT", "ref": "0118/43,5", "source": "survey", "tourism": "information"}}, {"type": "node", "id": 2601051615, "lat": 48.9207677, "lon": 13.955093, "tags": {"ele": "891", "hiking": "yes", "information": "guidepost", "name": "Svat\u00e1 Magdalena", "operator": "cz:K\u010cT", "ref": "VO636", "source": "survey", "tourism": "information"}}, {"type": "node", "id": 2601051703, "lat": 48.8956016, "lon": 13.9602266, "tags": {"ele": "925", "hiking": "yes", "information": "guidepost", "name": "\u010cty\u0159i domy", "ref": "VO704", "source": "survey", "tourism": "information"}}, {"type": "node", "id": 2646061279, "lat": 48.783586, "lon": 13.9866357}, {"type": "node", "id": 2646061281, "lat": 48.7835927, "lon": 13.9865286}, {"type": "node", "id": 2646061284, "lat": 48.7836319, "lon": 13.9866415}, {"type": "node", "id": 2646061286, "lat": 48.7836389, "lon": 13.9865352}, {"type": "node", "id": 2707843518, "lat": 48.801012, "lon": 13.9830265, "tags": {"ele": "940", "name": "Hradi\u0161t\u011b", "name:de": "Hausberg", "natural": "peak", "wikidata": "Q12019284", "wikipedia": "cs:Hausberk (okres \u010cesk\u00fd Krumlov)"}}, {"type": "node", "id": 2996252971, "lat": 48.7958348, "lon": 13.800833, "tags": {"ele": "1042", "name": "Rollmannsberg", "natural": "peak", "wikidata": "Q2164241"}}, {"type": "node", "id": 3407204401, "lat": 48.9172038, "lon": 13.8485746, "tags": {"ele": "884", "name": "Smoln\u00e1 hora", "name:cs": "Smoln\u00e1 hora", "natural": "peak", "source": "\u010c\u00daZK"}}, {"type": "node", "id": 3450921523, "lat": 48.9381367, "lon": 13.8847025, "tags": {"ele": "892", "name": "U Mysliven", "natural": "peak", "source": "\u010c\u00daZK"}}, {"type": "node", "id": 3450921524, "lat": 48.9386721, "lon": 13.9197834, "tags": {"ele": "942", "name": "Vysok\u00fd les", "name:cs": "Vysok\u00fd les", "name:de": "Hochwiese", "natural": "peak", "source": "\u010c\u00daZK"}}, {"type": "node", "id": 3450921525, "lat": 48.9338867, "lon": 13.9161365, "tags": {"ele": "921", "name": "Zlat\u00e1 stezka", "name:cs": "Zlat\u00e1 stezka", "name:de": "Kronetberg", "natural": "peak", "source": "\u010c\u00daZK"}}, {"type": "node", "id": 3450921526, "lat": 48.9235503, "lon": 13.9052504, "tags": {"ele": "899", "name": "Kamen\u00e1\u010d", "name:cs": "Kamen\u00e1\u010d", "natural": "peak"}}, {"type": "node", "id": 3450921527, "lat": 48.9188387, "lon": 13.8666899, "tags": {"ele": "915", "name": "Dvorsk\u00fd vrch", "name:cs": "Dvorsk\u00fd vrch", "name:de": "Brix", "natural": "peak", "source": "\u010c\u00daZK"}}, {"type": "node", "id": 3450921528, "lat": 48.9006058, "lon": 13.8623887, "tags": {"ele": "834", "name": "L\u00edskovec", "name:cs": "L\u00edskovec", "name:de": "Sipplberg", "natural": "peak"}}, {"type": "node", "id": 3450921529, "lat": 48.8818136, "lon": 13.8817649, "tags": {"ele": "770", "name": "Nad \u0158ekou", "name:cs": "Nad \u0158ekou", "natural": "peak"}}, {"type": "node", "id": 3450921568, "lat": 48.9331931, "lon": 13.9633148, "tags": {"ele": "814", "name": "Hovork\u016fv vrch", "natural": "peak"}}, {"type": "node", "id": 3450921569, "lat": 48.9409244, "lon": 13.9628428, "tags": {"ele": "818", "name": "Such\u00e9ho kopec", "natural": "peak"}}, {"type": "node", "id": 3450921570, "lat": 48.8883113, "lon": 13.9693552, "tags": {"ele": "922", "name": "Kali\u0161t\u011b", "natural": "peak"}}, {"type": "node", "id": 3450921571, "lat": 48.8812704, "lon": 13.919509, "tags": {"ele": "1013", "name": "Mechov\u00fd vrch", "name:cs": "Mechov\u00fd vrch", "name:de": "Maystadt", "natural": "peak", "source": "\u010c\u00daZK"}}, {"type": "node", "id": 3450921572, "lat": 48.8698885, "lon": 13.9559119, "tags": {"ele": "994", "name": "Korun\u00e1\u010dek", "name:cs": "Korun\u00e1\u010dek", "name:de": "Kleiner Kronetberg", "natural": "peak"}}, {"type": "node", "id": 3450921573, "lat": 48.8641861, "lon": 13.9473825, "tags": {"ele": "920", "name": "Korun\u00e1\u010d", "name:cs": "Korun\u00e1\u010d", "name:de": "Gro\u00dfer Kronetberg", "natural": "peak"}}, {"type": "node", "id": 3450921574, "lat": 48.8610099, "lon": 13.9431768, "tags": {"ele": "888", "name": "H\u016frka", "natural": "peak"}}, {"type": "node", "id": 3450921575, "lat": 48.8486774, "lon": 13.9683788, "tags": {"ele": "965", "name": "Nad Uhl\u00edkovem", "name:cs": "Nad Uhl\u00edkovem", "name:de": "Pendelberg", "natural": "peak"}}, {"type": "node", "id": 3452208035, "lat": 48.8524397, "lon": 13.8396307, "tags": {"ele": "874", "name": "Na Vrchu", "name:cs": "Na Vrchu", "natural": "peak"}}, {"type": "node", "id": 3452208036, "lat": 48.8428095, "lon": 13.8184318, "tags": {"ele": "876", "name": "Ohradec", "name:cs": "Ohradec", "natural": "peak"}}, {"type": "node", "id": 3452208037, "lat": 48.8340885, "lon": 13.8513681, "tags": {"ele": "897", "name": "Jelen\u00ed vrch", "name:cs": "Jelen\u00ed vrch", "natural": "peak"}}, {"type": "node", "id": 3452208038, "lat": 48.8395536, "lon": 13.8481536, "tags": {"ele": "937", "name": "Vrchovi\u0161t\u011b", "name:cs": "Vrchovi\u0161t\u011b", "name:de": "Ferchenberg", "natural": "peak"}}, {"type": "node", "id": 3452208039, "lat": 48.851278, "lon": 13.876026, "tags": {"ele": "818", "name": "Sp\u00e1len\u00fd", "natural": "peak"}}, {"type": "node", "id": 3452208040, "lat": 48.8396391, "lon": 13.8881358, "tags": {"ele": "970", "name": "Bor", "natural": "peak"}}, {"type": "node", "id": 3452208041, "lat": 48.8148682, "lon": 13.8446214, "tags": {"ele": "1033", "name": "V\u00e1clavova hora", "name:de": "Forstwenzelberg", "natural": "peak"}}, {"type": "node", "id": 3452208042, "lat": 48.8179489, "lon": 13.8123902, "tags": {"ele": "978", "name": "Kamenn\u00e1", "name:cs": "Kamenn\u00e1", "name:de": "Steinkopf", "natural": "peak"}}, {"type": "node", "id": 3452208044, "lat": 48.781633, "lon": 13.8937, "tags": {"ele": "993", "name": "Kobyl\u00ed hlava", "name:cs": "Kobyl\u00ed hlava", "natural": "peak"}}, {"type": "node", "id": 3452208045, "lat": 48.7969313, "lon": 13.8941815, "tags": {"ele": "822", "name": "Mazn\u00edk", "natural": "peak"}}, {"type": "node", "id": 3452208046, "lat": 48.7941113, "lon": 13.9282885, "tags": {"ele": "826", "name": "Hajn\u00fd vrch", "name:cs": "Hajn\u00fd vrch", "name:de": "Hegerberg", "natural": "peak"}}, {"type": "node", "id": 3452208047, "lat": 48.8031007, "lon": 13.9281812, "tags": {"ele": "842", "name": "Ovesn\u00fd vrch", "name:cs": "Ovesn\u00fd vrch", "name:de": "Wahlberg", "natural": "peak"}}, {"type": "node", "id": 3452208053, "lat": 48.7669424, "lon": 13.9730385, "tags": {"ele": "793", "name": "Na skalce", "natural": "peak", "source": "\u010c\u00daZK"}}, {"type": "node", "id": 3602729222, "lat": 48.774374, "lon": 13.8129968, "tags": {"board_type": "warning", "information": "board", "inscription": "POZOR St\u00e1tn\u00ed hranice", "tourism": "information"}}, {"type": "node", "id": 3602733389, "lat": 48.7764437, "lon": 13.8109197, "tags": {"board_type": "warning", "direction": "70", "information": "board", "inscription": "POZOR St\u00e1tn\u00ed hranice", "tourism": "information"}}, {"type": "node", "id": 3602812736, "lat": 48.7807456, "lon": 13.8035631, "tags": {"information": "audioguide", "name": "Dreisesselinfo", "tourism": "information"}}, {"type": "node", "id": 3602841666, "lat": 48.7811208, "lon": 13.8038625, "tags": {"hiking": "yes", "information": "guidepost", "name": "Goldsteig- Haidm\u00fchle 7,2km", "ref": "none", "tourism": "information"}}, {"type": "node", "id": 3602843930, "lat": 48.7810747, "lon": 13.803725, "tags": {"hiking": "yes", "information": "guidepost", "name": "Richtungsweiser - Hochstein", "ref": "none", "tourism": "information"}}, {"type": "node", "id": 3602907665, "lat": 48.7704853, "lon": 13.8465398, "tags": {"information": "guidepost", "name": "A. Stifter Dachl", "tourism": "information"}}, {"type": "node", "id": 3602925401, "lat": 48.7710357, "lon": 13.8393472, "tags": {"direction_southwest": "Riedelsbach", "hiking": "yes", "information": "guidepost", "operator": "Naturpark", "tourism": "information"}}, {"type": "node", "id": 3603044288, "lat": 48.7807994, "lon": 13.803823, "tags": {"hiking": "yes", "information": "guidepost", "name": "Nordkammweg-Goldsteig-A. Stifterweg", "ref": "none", "tourism": "information"}}, {"type": "node", "id": 3603070409, "lat": 48.7846641, "lon": 13.8018304, "tags": {"information": "guidepost", "name": "Schneeschuhpfad", "tourism": "information"}}, {"type": "node", "id": 3603140099, "lat": 48.771626, "lon": 13.8395487, "tags": {"board_type": "warning", "direction": "345", "information": "board", "inscription": "Pozor St\u00e1tn\u00ed hranice", "name": "Pozor St\u00e1tn\u00ed hranice", "tourism": "information"}}, {"type": "node", "id": 3603141411, "lat": 48.7721634, "lon": 13.8266163, "tags": {"board_type": "warning", "information": "board", "inscription": "POZOR St\u00e1tn\u00ed hranice", "tourism": "information"}}, {"type": "node", "id": 3603156228, "lat": 48.7708874, "lon": 13.8307422, "tags": {"board_type": "warning", "information": "board", "name": "Landesgrenze", "tourism": "information"}}, {"type": "node", "id": 3603159256, "lat": 48.7707219, "lon": 13.8322662, "tags": {"information": "board", "name": "Naturwaldreservat-Markscheide", "tourism": "information"}}, {"type": "node", "id": 3603168293, "lat": 48.7715411, "lon": 13.8393984, "tags": {"check_date": "2024-06-26", "hiking": "yes", "information": "guidepost", "name": "A. Stifterweg-Pl\u00f6ckenstein-Dreisessel", "ref": "none", "tourism": "information"}}, {"type": "node", "id": 3603172143, "lat": 48.7715305, "lon": 13.8394652, "tags": {"check_date": "2024-09-29", "information": "board", "name": "A. Stifter - Der Hochwald", "tourism": "information"}}, {"type": "node", "id": 3603175044, "lat": 48.771566, "lon": 13.8394922, "tags": {"check_date": "2024-09-29", "information": "board", "name": "Blockhalden: Schutzw\u00fcrdiger Lebensraum f\u00fcr Eiszeittiere", "tourism": "information"}}, {"type": "node", "id": 3603177399, "lat": 48.7717088, "lon": 13.8395455, "tags": {"direction": "165", "information": "board", "name": "\u0160umava-z\u00f3na 1", "name:de": "Zone 1-Sumava", "tourism": "information"}}, {"type": "node", "id": 3603184154, "lat": 48.771646, "lon": 13.8396491, "tags": {"hiking": "yes", "information": "guidepost", "name": "Trojmez\u00ed", "operator": "cz:K\u010cT", "ref": "VO831", "tourism": "information"}}, {"type": "node", "id": 3603189177, "lat": 48.7715608, "lon": 13.8396341, "tags": {"hiking": "yes", "information": "guidepost", "noref": "yes", "tourism": "information"}}, {"type": "node", "id": 3603205964, "lat": 48.772523, "lon": 13.8440585, "tags": {"direction": "180", "information": "board", "name": "Achtung Staatsgrenze", "tourism": "information"}}, {"type": "node", "id": 3603205965, "lat": 48.7725965, "lon": 13.8441026, "tags": {"direction": "200", "information": "board", "name": "\u0160umava - z\u00f3na 1- vstup zak\u00e1z\u00e1n", "name:de": "Sumava - Zone1- betreten verboten", "tourism": "information"}}, {"type": "node", "id": 3603207964, "lat": 48.7718848, "lon": 13.8450293, "tags": {"name": "Dreisesselblick", "tourism": "viewpoint"}}, {"type": "node", "id": 3603229245, "lat": 48.7704533, "lon": 13.8470197, "tags": {"board_type": "warning", "direction": "45", "information": "board", "inscription": "Pozor St\u00e1tn\u00ed hranice", "name": "Pozor St\u00e1tn\u00ed hranice", "tourism": "information"}}, {"type": "node", "id": 3603238273, "lat": 48.769851, "lon": 13.849698, "tags": {"information": "guidepost", "name": "\u0160umavsk\u00e1 okru\u017en\u00ed trasa", "name:de": "B\u00f6hmerwaldrundweg", "tourism": "information"}}, {"type": "node", "id": 3603240350, "lat": 48.769881, "lon": 13.8504295, "tags": {"direction": "170", "information": "board", "name": "Pozor - oblast obnovy lesa - mlad\u00fd les", "name:de": "Achtung - Aufforstungsgebiet - Jungwald", "tourism": "information"}}, {"type": "node", "id": 3603242961, "lat": 48.7699511, "lon": 13.851154, "tags": {"board_type": "warning", "direction": "165", "information": "board", "name": "Achtung Staatsgrenze", "tourism": "information"}}, {"type": "node", "id": 3603251374, "lat": 48.7700787, "lon": 13.8511848, "tags": {"direction": "155", "information": "board", "name": "N\u00e1rodn\u00ed park \u0160umava - z\u00f3na 1", "name:de": "Zone 1 - NSG", "tourism": "information"}}, {"type": "node", "id": 3603258314, "lat": 48.7708462, "lon": 13.8536043, "tags": {"name": "Blick zum Pl\u00f6ckenstein", "tourism": "viewpoint"}}, {"type": "node", "id": 3603266828, "lat": 48.7712606, "lon": 13.8575879, "tags": {"checkpoint": "hiking", "information": "map", "name": "Pl\u00f6ckenstein (turistick\u00e1 zn\u00e1mka - 2 kusy)", "name:de": "Pl\u00f6ckenstein (Wanderstempel -2 St\u00fcck)", "tourism": "information"}}, {"type": "node", "id": 3603267178, "lat": 48.7711622, "lon": 13.8577002, "tags": {"information": "map", "name": "Alte, h\u00f6lzerne Wanderkarte / Star\u00e1 d\u0159ev\u011bn\u00e1 turistick\u00e1 mapa", "name:cs": "Star\u00e1 d\u0159ev\u011bn\u00e1 turistick\u00e1 mapa", "name:de": "alte, h\u00f6lzerne Wanderkarte", "tourism": "information"}}, {"type": "node", "id": 3603270690, "lat": 48.771172, "lon": 13.857678, "tags": {"hiking": "yes", "information": "guidepost", "name": "\u0160umavsk\u00e1 okru\u017en\u00ed trasa", "name:de": "B\u00f6hmerwaldrundweg", "ref": "none", "tourism": "information"}}, {"type": "node", "id": 3603285689, "lat": 48.7714766, "lon": 13.8573083, "tags": {"ele": "1378", "hiking": "yes", "information": "guidepost", "name": "Plech\u00fd", "name:cs": "Plech\u00fd", "name:de": "Pl\u00f6ckenstein", "operator": "cz:K\u010cT", "ref": "VO833", "tourism": "information"}}, {"type": "node", "id": 3603299594, "lat": 48.7781112, "lon": 13.867404, "tags": {"bicycle": "yes", "hiking": "no", "information": "guidepost", "operator": "cz:K\u010cT", "ref": "VO841", "ski": "yes", "tourism": "information"}}, {"type": "node", "id": 3603351694, "lat": 48.7778751, "lon": 13.8676501, "tags": {"board_type": "information", "information": "board", "name": "Ple\u0161n\u00e9 jezero", "name:en": "Ple\u0161n\u00e9 lake", "tourism": "information"}}, {"type": "node", "id": 3603356749, "lat": 48.7780852, "lon": 13.8658328, "tags": {"board_type": "nature", "information": "board", "name": "K\u016frovec", "name:en": "Bark beetle", "tourism": "information"}}, {"type": "node", "id": 3603359633, "lat": 48.7778391, "lon": 13.8626501, "tags": {"board_type": "nature", "information": "board", "name": "Zmlazen\u00ed", "tourism": "information"}}, {"type": "node", "id": 3603359667, "lat": 48.7781556, "lon": 13.8620534, "tags": {"board_type": "nature", "information": "board", "name": "Pam\u011btn\u00edk pralesa, Historick\u00fd smrk", "tourism": "information"}}, {"type": "node", "id": 3603359750, "lat": 48.7780075, "lon": 13.8587812, "tags": {"board_type": "nature", "information": "board", "name": "Mrtv\u00e9 d\u0159evo", "tourism": "information"}}, {"type": "node", "id": 3603363104, "lat": 48.7773849, "lon": 13.8631905, "tags": {"board_type": "nature", "information": "board", "name": "Dutiny", "tourism": "information"}}, {"type": "node", "id": 3603367523, "lat": 48.7777658, "lon": 13.8584219, "tags": {"board_type": "nature", "information": "board", "name": "Je\u0159\u00e1by", "tourism": "information"}}, {"type": "node", "id": 3603373413, "lat": 48.7760684, "lon": 13.8713163, "tags": {"description": "Kamenn\u00e9 mo\u0159e se nach\u00e1z\u00ed asi 200m od hr\u00e1ze Ple\u0161n\u00e9ho jezera. Jedn\u00e1 se o mohutn\u00e9 balvany plecken\u0161tejnsk\u00e9 \u017euly, kter\u00e9 jsou porostl\u00e9 borovic\u00ed kle\u010d\u00ed. Zaj\u00edmav\u00e9 je, \u017ee kle\u010d zde roste v pro ni neobvykle n\u00edzk\u00e9 nadmo\u0159sk\u00e9 v\u00fd\u0161ce. Celkov\u00e1 rozloha oblasti je asi 6 ha.", "ele": "1075", "hiking": "yes", "information": "guidepost", "name": "Kamenn\u00e9 mo\u0159e", "operator": "cz:K\u010cT", "ref": "VO854", "tourism": "information"}}, {"type": "node", "id": 3603377481, "lat": 48.7707887, "lon": 13.8710545, "tags": {"information": "route_marker", "tourism": "information"}}, {"type": "node", "id": 3603380855, "lat": 48.7695846, "lon": 13.8676886, "tags": {"ele": "1190", "information": "guidepost", "name": "Pod Plechym", "tourism": "information"}}, {"type": "node", "id": 3604379050, "lat": 48.7778825, "lon": 13.867235, "tags": {"board_type": "information", "information": "board", "name": "Z\u00e1\u017eitkov\u00e1 stezka", "tourism": "information"}}, {"type": "node", "id": 3604379051, "lat": 48.777867, "lon": 13.8672449, "tags": {"board_type": "nature", "information": "board", "name": "Duch pralesa", "tourism": "information"}}, {"type": "node", "id": 3604478415, "lat": 48.7760088, "lon": 13.8714839, "tags": {"name": "vyhl\u00eddka do d\u00e1lky \"Ko\u0148sk\u00fd vrch\"", "name:en": "Distant view to Ko\u0148sk\u00fd vrch", "note": "Aussicht zum Ko\u0148sk\u00fd vrch", "tourism": "viewpoint"}}, {"type": "node", "id": 3604743939, "lat": 48.7797445, "lon": 13.806214, "tags": {"information": "yes", "name": "Hinweistafel- NSG & Radverbot", "tourism": "information"}}, {"type": "node", "id": 3604799394, "lat": 48.7812023, "lon": 13.803888, "tags": {"hiking": "yes", "information": "guidepost", "inscription": "Zur Kapelle des hl. Bischofs -15min", "noref": "yes", "tourism": "information"}}, {"type": "node", "id": 3604920905, "lat": 48.7724666, "lon": 13.8239137, "tags": {"board_type": "warning", "information": "board", "inscription": "POZOR St\u00e1tn\u00ed hranice", "tourism": "information"}}, {"type": "node", "id": 3606570108, "lat": 48.8414818, "lon": 13.8697757, "tags": {"name": "Rudolfstein", "name:cs": "Rudolf\u016fv k\u00e1men", "name:de": "Rudolfstein", "natural": "peak"}}, {"type": "node", "id": 3606691577, "lat": 48.7745299, "lon": 13.8751296, "tags": {"description": "Feuer, offenes Licht verboten (Rauchen)", "information": "board", "name": "Zona 1", "tourism": "information"}}, {"type": "node", "id": 3606704511, "lat": 48.7798752, "lon": 13.8390925, "tags": {"ele": "1285", "name": "Pta\u010d\u00ed sk\u00e1la", "name:cs": "Pta\u010d\u00ed sk\u00e1la", "name:de": "Vogelfelsen", "natural": "peak"}}, {"type": "node", "id": 3606706493, "lat": 48.7885612, "lon": 13.8263963, "tags": {"ele": "1103", "name": "Sp\u00e1lenec", "natural": "peak"}}, {"type": "node", "id": 3606706494, "lat": 48.7900703, "lon": 13.8331447, "tags": {"ele": "1140", "natural": "peak"}}, {"type": "node", "id": 3610354331, "lat": 48.7695298, "lon": 13.8618902, "tags": {"hiking": "yes", "information": "guidepost", "inscription": "B\u00f6hmerwaldrundweg-Pl\u00f6ckensteinsee 2,8km (2.2km)-Pl\u00f6ckenstein 15min-Oberschwarzenberg- Liseibild 2,2km / \u0160umavsk\u00e1 okru\u017en\u00ed trasa - Pl\u00f6ckenstein 2,8 km (2,2 km)-Pl\u00f6ckenstein 15 min-Oberschwarzenberg-Lisei obr\u00e1zek 2,2 km", "inscription:cs": "\u0160umavsk\u00e1 okru\u017en\u00ed trasa - Pl\u00f6ckenstein 2,8 km (2,2 km)-Pl\u00f6ckenstein 15 min-Oberschwarzenberg-Lisei obr\u00e1zek 2,2 km", "inscription:de": "B\u00f6hmerwaldrundweg-Pl\u00f6ckensteinsee 2,8km (2.2km)-Pl\u00f6ckenstein 15min-Oberschwarzenberg- Liseibild 2,2km", "name": "\u0160umavsk\u00e1 okru\u017en\u00ed trasa - Pl\u00f6ckenstein 2,8 km (2,2 km)-Pl\u00f6ckenstein 15 min-Oberschwarzenberg-Lisei obr\u00e1zek 2,2 km", "name:de": "B\u00f6hmerwaldrundweg-Pl\u00f6ckensteinsee 2,8km (2.2km)-Pl\u00f6ckenstein 15min-Oberschwarzenberg- Liseibild 2,2km", "noref": "yes", "tourism": "information"}}, {"type": "node", "id": 3610368135, "lat": 48.7695867, "lon": 13.8618662, "tags": {"direction": "30", "information": "board", "name": "\u010cesk\u00e1 republika", "tourism": "information"}}, {"type": "node", "id": 3610369098, "lat": 48.7697216, "lon": 13.8617238, "tags": {"information": "board", "name": "Z\u00e1kaz vstupu - klidov\u00e9 \u00fazem\u00ed n\u00e1rodn\u00edho parku / Zutritt verboten - ruhiger Bereich des Nationalparks", "name:cs": "Z\u00e1kaz vstupu - klidov\u00e9 \u00fazem\u00ed n\u00e1rodn\u00edho parku", "name:de": "Zutritt verboten - ruhiger Bereich des Nationalparks", "tourism": "information"}}, {"type": "node", "id": 3610374509, "lat": 48.7746747, "lon": 13.8552945, "tags": {"hiking": "yes", "information": "guidepost", "name": "Ku\u010derova vyhl\u00eddka (odb.)", "operator": "cz:K\u010cT", "ref": "6414/3", "tourism": "information"}}, {"type": "node", "id": 3610380915, "lat": 48.7696263, "lon": 13.8677159, "tags": {"direction": "175", "information": "board", "name": "Klidov\u00e9 \u00fazem\u00ed n\u00e1rodn\u00edho parku - z\u00e1kaz j\u00edzdy na kole", "name:de": "Ruhiger Bereich des Nationalparks - Radverbot", "tourism": "information"}}, {"type": "node", "id": 3614628230, "lat": 48.7777382, "lon": 13.8584352, "tags": {"name": "V\u00fdhled na Ple\u0161n\u00e9 jezero", "name:de": "Seeblick", "tourism": "viewpoint"}}, {"type": "node", "id": 3626676483, "lat": 48.7699013, "lon": 13.847162, "tags": {"ele": "1378", "name": "Hufberg", "natural": "peak", "note": "Dies ist der Gipfel des Hufbergs laut Bergrettung Aigen-Schl\u00e4gl. In manchen anderen Karten ist der Hufberg falscherweise mitten auf einem Hang 400 m s\u00fcdwestlich eingezeichnet", "source:ele": "Laserscan Oberfl\u00e4chenmodell auf https://www.doris.at/"}}, {"type": "node", "id": 3704229296, "lat": 48.7905349, "lon": 13.9492851, "tags": {"addr:city": "Nov\u00e1 Pec", "addr:conscriptionnumber": "41", "addr:country": "CZ", "addr:housenumber": "41", "addr:place": "Nov\u00e9 Chalupy", "addr:postcode": "38462", "information": "office", "name": "Informa\u010dn\u00ed centrum Nov\u00e1 Pec", "phone": "+420 602 391 223", "source:addr": "cuzk:ruian", "tourism": "information", "website": "http://www.novapec.info/"}}, {"type": "node", "id": 4172149858, "lat": 48.8956495, "lon": 13.8067907, "tags": {"bicycle": "yes", "hiking": "yes", "information": "guidepost", "name": "Dobr\u00e1 (rozc.)", "operator": "cz:K\u010cT", "ref": "VO682", "tourism": "information"}}, {"type": "node", "id": 4210829417, "lat": 48.7788104, "lon": 13.9195129, "tags": {"board_type": "history", "description": "Schwarzenbersk\u00fd plavabn\u00ed kan\u00e1l", "information": "board", "name": "Kan\u00e1l o\u017e\u00edv\u00e1", "tourism": "information"}}, {"type": "node", "id": 4214850566, "lat": 48.7778158, "lon": 13.8673784}, {"type": "node", "id": 4214850567, "lat": 48.7778441, "lon": 13.867472}, {"type": "node", "id": 4214850568, "lat": 48.7778521, "lon": 13.8673531}, {"type": "node", "id": 4214850569, "lat": 48.7778804, "lon": 13.8674467}, {"type": "node", "id": 4214850575, "lat": 48.8009037, "lon": 13.861294}, {"type": "node", "id": 4214850576, "lat": 48.8009087, "lon": 13.8613404}, {"type": "node", "id": 4214850577, "lat": 48.8009402, "lon": 13.861285}, {"type": "node", "id": 4214850578, "lat": 48.8009451, "lon": 13.8613314}, {"type": "node", "id": 4217699596, "lat": 48.8071329, "lon": 13.9391669, "tags": {"ele": "742", "hiking": "yes", "information": "guidepost", "name": "Ovesn\u00e1 (u p\u0159ejezdu)", "operator": "cz:K\u010cT", "ref": "VO245", "tourism": "information"}}, {"type": "node", "id": 4217699602, "lat": 48.8108602, "lon": 13.9272326, "tags": {"board_type": "nature", "information": "board", "name": "Les v prom\u011bn\u00e1ch \u010dasu", "tourism": "information"}}, {"type": "node", "id": 4217699604, "lat": 48.8162467, "lon": 13.8781304, "tags": {"check_date": "2021-08-23", "hiking": "yes", "information": "map", "tourism": "information"}}, {"type": "node", "id": 4217699611, "lat": 48.8599965, "lon": 13.8613887, "tags": {"board_type": "nature;history", "information": "board", "name": "Medv\u011bd\u00ed stezka", "tourism": "information"}}, {"type": "node", "id": 4227326551, "lat": 48.9377499, "lon": 13.9152618, "tags": {"ele": "881", "hiking": "yes", "information": "guidepost", "name": "Vysok\u00fd les (rozcest\u00ed)", "operator": "cz:K\u010cT", "ref": "VO151", "source": "survey", "tourism": "information"}}, {"type": "node", "id": 4403428048, "lat": 48.8696243, "lon": 13.8220725, "tags": {"amenity": "shelter", "name": "Pod Sto\u017eeckou kapl\u00ed", "shelter_type": "picnic_shelter"}}, {"type": "node", "id": 4403457455, "lat": 48.8695878, "lon": 13.8223178, "tags": {"board_type": "history", "information": "board", "name": "Sto\u017eeck\u00e1 sk\u00e1la", "tourism": "information"}}, {"type": "node", "id": 4403486496, "lat": 48.8741329, "lon": 13.8226819, "tags": {"ele": "948", "hiking": "yes", "information": "guidepost", "name": "Sto\u017eeck\u00e1 kaple", "operator": "cz:K\u010cT", "ref": "VO726", "tourism": "information"}}, {"type": "node", "id": 4403488682, "lat": 48.8736262, "lon": 13.8213708, "tags": {"ele": "974", "hiking": "yes", "information": "guidepost", "name": "Sto\u017eeck\u00e1 sk\u00e1la", "operator": "cz:K\u010cT", "ref": "VO729", "tourism": "information"}}, {"type": "node", "id": 4403505146, "lat": 48.8739694, "lon": 13.8216647, "tags": {"ele": "981", "natural": "peak"}}, {"type": "node", "id": 4403506123, "lat": 48.872862, "lon": 13.8241011, "tags": {"board_type": "nature", "information": "board", "name": "Porost Pod Sto\u017eeckou sk\u00e1lou", "tourism": "information"}}, {"type": "node", "id": 4403511402, "lat": 48.8724, "lon": 13.8244257, "tags": {"information": "board", "name": "Zona 1", "tourism": "information"}}, {"type": "node", "id": 4403513297, "lat": 48.8712951, "lon": 13.8233693, "tags": {"board_type": "nature", "information": "board", "name": "Letokruhy - Pam\u011b\u0165 strom\u016f", "tourism": "information"}}, {"type": "node", "id": 4403524895, "lat": 48.8735022, "lon": 13.8212674, "tags": {"ele": "974", "name": "Sto\u017eeck\u00e1 sk\u00e1la", "tourism": "viewpoint"}}, {"type": "node", "id": 4403535048, "lat": 48.8775921, "lon": 13.8613011}, {"type": "node", "id": 4403535049, "lat": 48.8775642, "lon": 13.8613481}, {"type": "node", "id": 4403535050, "lat": 48.8775597, "lon": 13.8613101}, {"type": "node", "id": 4403535051, "lat": 48.8775967, "lon": 13.861339}, {"type": "node", "id": 4457414293, "lat": 48.9374127, "lon": 13.9771149, "tags": {"ele": "800", "hiking": "yes", "information": "guidepost", "name": "Zbytiny \u017est", "operator": "cz:K\u010cT", "ref": "VO636", "tourism": "information"}}, {"type": "node", "id": 4457414294, "lat": 48.9415948, "lon": 13.9785484, "tags": {"ele": "790", "hiking": "yes", "information": "guidepost", "name": "Zbytiny", "operator": "cz:K\u010cT", "ref": "VO635", "tourism": "information"}}, {"type": "node", "id": 4457421489, "lat": 48.9365297, "lon": 13.9973079, "tags": {"ele": "885", "hiking": "yes", "information": "guidepost", "name": "Mo\u0161na", "operator": "cz:K\u010cT", "ref": "VO006", "tourism": "information"}}, {"type": "node", "id": 4558897281, "lat": 48.9398184, "lon": 13.9891902, "tags": {"amenity": "shelter", "shelter_type": "picnic_shelter", "source": "survey"}}, {"type": "node", "id": 4558897296, "lat": 48.9375446, "lon": 13.9933193, "tags": {"amenity": "shelter", "shelter_type": "lean_to", "source": "survey"}}, {"type": "node", "id": 4692642527, "lat": 48.7765326, "lon": 13.8573908, "tags": {"ele": "1310", "hiking": "yes", "information": "guidepost", "name": "Pomn\u00edk Adalberta Stiftera", "operator": "cz:K\u010cT", "ref": "VO834", "source": "survey", "tourism": "information"}}, {"type": "node", "id": 4789595269, "lat": 48.8487208, "lon": 13.9102747, "tags": {"ele": "734", "hiking": "yes", "information": "guidepost", "name": "P\u011bkn\u00e1(\u017dST)", "tourism": "information"}}, {"type": "node", "id": 4839405915, "lat": 48.7896998, "lon": 13.9525536, "tags": {"hiking": "yes", "information": "guidepost", "name": "Nov\u00e1 Pec (vlak)", "official_name": "Nov\u00e1 Pec (\u017dST)", "operator": "cz:K\u010cT", "ref": "VO818", "tourism": "information"}}, {"type": "node", "id": 4839405916, "lat": 48.7905454, "lon": 13.9500618, "tags": {"ele": "731", "hiking": "yes", "information": "guidepost", "name": "Nov\u00e1 Pec - Nov\u00e9 Chalupy", "operator": "cz:K\u010cT", "ref": "VO819", "tourism": "information"}}, {"type": "node", "id": 4839405965, "lat": 48.789737, "lon": 13.9510864, "tags": {"ele": "731", "hiking": "yes", "information": "guidepost", "name": "Nov\u00e1 Pec (vlak, rozcest\u00ed)", "official_name": "Nov\u00e1 Pec (\u017dST, rozc.)", "operator": "cz:K\u010cT", "ref": "VO821", "tourism": "information"}}, {"type": "node", "id": 4839405966, "lat": 48.7753286, "lon": 13.9522988, "tags": {"ele": "765", "hiking": "yes", "information": "guidepost", "name": "Na Pal\u00edrn\u011b", "operator": "cz:K\u010cT", "ref": "VO862", "tourism": "information"}}, {"type": "node", "id": 4839405968, "lat": 48.7636186, "lon": 13.935948, "tags": {"bicycle": "yes", "ele": "838", "hiking": "yes", "information": "guidepost", "name": "Kl\u00e1pa", "operator": "cz:K\u010cT", "ref": "VO863", "tourism": "information"}}, {"type": "node", "id": 4841855498, "lat": 48.7954612, "lon": 13.962416, "tags": {"ele": "741", "hiking": "yes", "information": "guidepost", "name": "B\u011bl\u00e1", "operator": "cz:K\u010cT", "ref": "CK029", "tourism": "information"}}, {"type": "node", "id": 4841855499, "lat": 48.7944434, "lon": 13.9173818, "tags": {"ele": "760", "hiking": "yes", "information": "guidepost", "name": "Jezern\u00ed potok l\u00e1vka", "operator": "cz:K\u010cT", "ref": "VO801", "tourism": "information"}}, {"type": "node", "id": 4841855500, "lat": 48.7904667, "lon": 13.9473132, "tags": {"ele": "730", "hiking": "yes", "information": "guidepost", "name": "Dlouh\u00fd bor", "operator": "cz:K\u010cT", "ref": "VO823", "ski": "yes", "tourism": "information"}}, {"type": "node", "id": 4841855505, "lat": 48.7790475, "lon": 13.9259165, "tags": {"ele": "790", "hiking": "yes", "information": "guidepost", "name": "Nov\u00e1 pec u K\u0159\u00ed\u017eku", "operator": "cz:K\u010cT", "ref": "VO847", "ski": "yes", "tourism": "information"}}, {"type": "node", "id": 4841855516, "lat": 48.7780612, "lon": 13.9327186, "tags": {"ele": "780", "hiking": "yes", "information": "guidepost", "name": "Nov\u00e1 pec", "operator": "cz:K\u010cT", "ref": "VO861", "tourism": "information"}}, {"type": "node", "id": 4841966697, "lat": 48.7904995, "lon": 13.9966839, "tags": {"ele": "764", "hiking": "yes", "information": "guidepost", "name": "Pernek", "operator": "cz:K\u010cT", "ref": "CK027", "tourism": "information"}}, {"type": "node", "id": 4841966698, "lat": 48.7836569, "lon": 13.9867169, "tags": {"ele": "736", "hiking": "yes", "information": "guidepost", "name": "Pernek (vlak)", "official_name": "Pernek (\u017dST)", "operator": "cz:K\u010cT", "ref": "CK028", "tourism": "information"}}, {"type": "node", "id": 4846051945, "lat": 48.9508416, "lon": 13.8029748, "tags": {"ele": "900", "hiking": "yes", "information": "guidepost", "name": "Z\u00e1to\u0148 zast\u00e1vka", "operator": "cz:K\u010cT", "ref": "VO013", "tourism": "information"}}, {"type": "node", "id": 4846051946, "lat": 48.949598, "lon": 13.8029265, "tags": {"ele": "900", "hiking": "yes", "information": "guidepost", "name": "Z\u00e1to\u0148 \u017est rozcest\u00ed", "operator": "cz:K\u010cT", "ref": "VO621", "tourism": "information"}}, {"type": "node", "id": 5193209329, "lat": 48.8144911, "lon": 13.8847272, "tags": {"name": "Znak 1833", "tourism": "attraction"}}, {"type": "node", "id": 5193367026, "lat": 48.7913808, "lon": 13.9490731, "tags": {"bicycle": "yes", "information": "guidepost", "operator": "cz:K\u010cT", "ref": "none", "tourism": "information"}}, {"type": "node", "id": 5193367036, "lat": 48.8009791, "lon": 13.9000292, "tags": {"name": "Hir\u0161persk\u00e1 celnice", "note": "Spolek Svobodn\u00fd Hir\u0161perk", "tourism": "attraction"}}, {"type": "node", "id": 5312538765, "lat": 48.9230344, "lon": 13.9275631, "tags": {"ele": "878", "natural": "peak"}}, {"type": "node", "id": 5312538773, "lat": 48.9225709, "lon": 13.9085123, "tags": {"ele": "864", "hiking": "yes", "information": "guidepost", "name": "Kalv\u00e1rie", "operator": "cz:K\u010cT", "ref": "VO693", "tourism": "information"}}, {"type": "node", "id": 5312538793, "lat": 48.9132511, "lon": 13.8952084, "tags": {"ele": "785", "hiking": "yes", "information": "guidepost", "name": "Pam\u00e1tn\u00edk pochodu smrti", "operator": "cz:K\u010cT", "ref": "VO145", "tourism": "information"}}, {"type": "node", "id": 5733394417, "lat": 48.9153724, "lon": 13.8874879, "tags": {"name": "Volarsk\u00e9 menhiry", "tourism": "attraction", "wikidata": "Q109924289", "wikipedia": "cs:Volarsk\u00e9 menhiry"}}, {"type": "node", "id": 5902578590, "lat": 48.7944346, "lon": 13.9601063, "tags": {"amenity": "shelter", "shelter_type": "picnic_shelter"}}, {"type": "node", "id": 5904679869, "lat": 48.7919768, "lon": 13.9332443, "tags": {"amenity": "shelter", "shelter_type": "picnic_shelter"}}, {"type": "node", "id": 5904680597, "lat": 48.8565254, "lon": 13.8410061, "tags": {"board_type": "nature", "information": "board", "tourism": "information"}}, {"type": "node", "id": 5904680598, "lat": 48.8599384, "lon": 13.8315679, "tags": {"board_type": "nature", "information": "board", "name": "Rostliny a \u017eivo\u010dichov\u00e9", "ref": "4", "tourism": "information"}}, {"type": "node", "id": 5904680599, "lat": 48.8586276, "lon": 13.8251992, "tags": {"board_type": "nature", "information": "board", "name": "O N\u00e1rodn\u00edm parku \u0160umava", "ref": "3", "tourism": "information"}}, {"type": "node", "id": 5904680628, "lat": 48.7855196, "lon": 13.8622158, "tags": {"board_type": "nature", "information": "board", "name": "Prom\u011bna horsk\u00e9ho lesa", "tourism": "information"}}, {"type": "node", "id": 5904680629, "lat": 48.7792628, "lon": 13.8843186, "tags": {"board_type": "nature", "information": "board", "name": "Prom\u011bna horsk\u00e9ho lesa", "tourism": "information"}}, {"type": "node", "id": 6442449541, "lat": 48.7571395, "lon": 13.8278824, "tags": {"hiking": "yes", "information": "guidepost", "tourism": "information"}}, {"type": "node", "id": 6516045123, "lat": 48.9024726, "lon": 13.8352482, "tags": {"board_type": "nature", "description": "Nau\u010dn\u00e1 stezka Soumarsk\u00e9 ra\u0161elini\u0161t\u011b", "description:de": "S\u00e4umermoor Natrurlehrpfad", "information": "board", "name": "N\u00e1vrat zp\u011bt aneb revitalizace", "name:de": "Wende zum neuen Anfang: Renaturierung", "ref": "4", "tourism": "information"}}, {"type": "node", "id": 6519040025, "lat": 48.7620718, "lon": 13.8823184, "tags": {"check_date": "2024-09-29", "information": "map", "tourism": "information"}}, {"type": "node", "id": 6534298051, "lat": 48.7645531, "lon": 13.9357986, "tags": {"amenity": "shelter", "shelter_type": "picnic_shelter"}}, {"type": "node", "id": 6539207128, "lat": 48.7604038, "lon": 13.8335559, "tags": {"information": "guidepost", "tourism": "information"}}, {"type": "node", "id": 6539207130, "lat": 48.7605893, "lon": 13.833777, "tags": {"information": "guidepost", "tourism": "information"}}, {"type": "node", "id": 6539207143, "lat": 48.7524314, "lon": 13.8290788, "tags": {"information": "guidepost", "name": "Forststra\u00dfe-Michllukn", "tourism": "information"}}, {"type": "node", "id": 6539354000, "lat": 48.7558388, "lon": 13.8211233, "tags": {"information": "guidepost", "name": "Parkplatz Oberschwarzenberg / zum Witikosteig (Dreisessel)", "tourism": "information"}}, {"type": "node", "id": 6539354005, "lat": 48.7520744, "lon": 13.8169771, "tags": {"direction_north:1": "B\u00f6hmerwalddenkmal", "direction_north:2": "Dreisessel", "direction_north:3": "Teufelssch\u00fcssel,Steinernes Meer;Dreil\u00e4ndereck", "hiking": "yes", "information": "guidepost", "operator": "Naturpark", "tourism": "information"}}, {"type": "node", "id": 6539357738, "lat": 48.7544911, "lon": 13.8176382, "tags": {"information": "guidepost", "tourism": "information"}}, {"type": "node", "id": 6539357739, "lat": 48.7542897, "lon": 13.8176709, "tags": {"board_type": "nature", "check_date": "2024-06-26", "direction": "350", "information": "board", "name": "Der Natur auf der Spur", "operator": "Naturpark Bayerischer Wald", "tourism": "information"}}, {"type": "node", "id": 6577225943, "lat": 48.7887088, "lon": 13.9517582, "tags": {"information": "map", "map_size": "region", "map_type": "topo", "name": "Lipensko", "tourism": "information"}}, {"type": "node", "id": 6581293994, "lat": 48.7895735, "lon": 13.9515095, "tags": {"board_type": "history", "information": "board", "name": "Nov\u00e1 Pec", "tourism": "information"}}, {"type": "node", "id": 6581294014, "lat": 48.7782097, "lon": 13.9297857, "tags": {"information": "map", "map_size": "region", "map_type": "topo", "name": "B\u00edl\u00e1 stopa na \u0160umav\u011b", "ski": "yes", "tourism": "information"}}, {"type": "node", "id": 6581294015, "lat": 48.7782203, "lon": 13.9297702, "tags": {"board_type": "history", "information": "board", "name": "Nov\u00e1 Pec", "tourism": "information"}}, {"type": "node", "id": 6581294016, "lat": 48.7782618, "lon": 13.9297253, "tags": {"information": "map", "map_size": "region", "map_type": "topo", "name": "\u0160umava - Volarsko", "tourism": "information"}}, {"type": "node", "id": 6581294017, "lat": 48.7790607, "lon": 13.925993, "tags": {"horse": "yes", "information": "guidepost", "ref": "PT003;VO046;VO847", "ski": "yes", "tourism": "information"}}, {"type": "node", "id": 6581294043, "lat": 48.7766574, "lon": 13.9169814, "tags": {"board_type": "history", "information": "board", "name": "Hrab\u011bc\u00ed propust", "tourism": "information"}}, {"type": "node", "id": 6581294050, "lat": 48.7787704, "lon": 13.9197113, "tags": {"bicycle": "yes", "information": "guidepost", "ref": "1023/3;1026/4", "tourism": "information"}}, {"type": "node", "id": 6581294126, "lat": 48.7738681, "lon": 13.9246385, "tags": {"ele": "842", "information": "guidepost", "name": "Ra\u0161kov (pastviny)", "ref": "VO034", "ski": "yes", "tourism": "information"}}, {"type": "node", "id": 6581294491, "lat": 48.7898063, "lon": 13.9470054, "tags": {"ele": "780", "information": "guidepost", "name": "Nov\u00e1 Pec", "operator": "cz:K\u010cT", "ref": "VO060", "ski": "yes", "tourism": "information"}}, {"type": "node", "id": 6581294512, "lat": 48.7910994, "lon": 13.9492075, "tags": {"bicycle": "yes", "information": "guidepost", "ref": "none", "tourism": "information"}}, {"type": "node", "id": 6581294513, "lat": 48.7910963, "lon": 13.9493839, "tags": {"bicycle": "yes", "information": "guidepost", "ref": "none", "tourism": "information"}}, {"type": "node", "id": 6581315909, "lat": 48.815187, "lon": 13.8807889, "tags": {"information": "route_marker", "tourism": "information"}}, {"type": "node", "id": 6581315910, "lat": 48.815211, "lon": 13.8807053, "tags": {"board_type": "history", "information": "board", "name": "Schwarzerbersk\u00fd plavebn\u00ed kan\u00e1l", "tourism": "information"}}, {"type": "node", "id": 6588889676, "lat": 48.9067311, "lon": 13.8830647}, {"type": "node", "id": 6588889677, "lat": 48.9067509, "lon": 13.8830445}, {"type": "node", "id": 6588889678, "lat": 48.9067588, "lon": 13.8830624}, {"type": "node", "id": 6588889679, "lat": 48.906686, "lon": 13.8829621}, {"type": "node", "id": 6588889680, "lat": 48.9067094, "lon": 13.8829382}, {"type": "node", "id": 6589169184, "lat": 48.9090413, "lon": 13.8294549, "tags": {"information": "map", "tourism": "information"}}, {"type": "node", "id": 6589990155, "lat": 48.7742911, "lon": 13.8973553, "tags": {"bicycle": "yes", "hiking": "yes", "information": "map", "map_size": "region", "map_type": "topo", "name": "\u0160umava - Trojmez\u00ed", "tourism": "information"}}, {"type": "node", "id": 6589990156, "lat": 48.7743141, "lon": 13.8973298, "tags": {"bicycle": "yes", "information": "guidepost", "operator": "cz:K\u010cT", "ref": "1026/6,5;1028/3", "tourism": "information"}}, {"type": "node", "id": 6589990246, "lat": 48.7794806, "lon": 13.9051561, "tags": {"check_date": "2024-09-29", "information": "board", "name": "Akvadukt na Ko\u0148sk\u00e9m potoce", "tourism": "information"}}, {"type": "node", "id": 6589990247, "lat": 48.7795028, "lon": 13.9052378, "tags": {"board_type": "history", "information": "board", "name": "Bohatstv\u00ed \u0160umavy", "note": "Schwarzenbersk\u00fd plavebn\u00ed kan\u00e1l", "tourism": "information"}}, {"type": "node", "id": 6590012636, "lat": 48.7793138, "lon": 13.8847284, "tags": {"board_type": "information", "information": "board", "map": "yes", "name": "U buku", "note": "nouzov\u00e1 nocovi\u0161t\u011b v N\u00e1rodn\u00edm parku \u0160umava", "tourism": "information"}}, {"type": "node", "id": 6793887995, "lat": 48.8622508, "lon": 13.8668704, "tags": {"board_type": "history", "information": "board", "name": "\u010cern\u00fd k\u0159\u00ed\u017e", "tourism": "information"}}, {"type": "node", "id": 6807893564, "lat": 48.8579592, "lon": 13.8418156, "tags": {"board_type": "nature", "information": "board", "name": "Ch\u016fdov\u00e9 ko\u0159eny", "ref": "12", "tourism": "information"}}, {"type": "node", "id": 6807893565, "lat": 48.8613168, "lon": 13.8348316, "tags": {"board_type": "nature", "information": "board", "name": "D\u0159evokazn\u00ed brouci", "ref": "6", "tourism": "information"}}, {"type": "node", "id": 6807893566, "lat": 48.8605033, "lon": 13.8364839, "tags": {"board_type": "nature", "information": "board", "name": "Kdo \u017eije v lese", "ref": "7", "tourism": "information"}}, {"type": "node", "id": 6807893567, "lat": 48.8592129, "lon": 13.8399258, "tags": {"board_type": "nature", "information": "board", "name": "Kolob\u011bh \u017eivota", "ref": "9", "tourism": "information"}}, {"type": "node", "id": 6807893568, "lat": 48.8600092, "lon": 13.8377767, "tags": {"board_type": "nature", "information": "board", "name": "Lesn\u00ed tesa\u0159i", "ref": "8", "tourism": "information"}}, {"type": "node", "id": 6807893569, "lat": 48.8586387, "lon": 13.8406931, "tags": {"board_type": "nature", "information": "board", "name": "M\u00e1me r\u00e1di \u0161i\u0161ky", "ref": "10", "tourism": "information"}}, {"type": "node", "id": 6807893570, "lat": 48.8586901, "lon": 13.8420168, "tags": {"board_type": "nature", "information": "board", "name": "Nov\u00fd \u017eivot", "ref": "11", "tourism": "information"}}, {"type": "node", "id": 6807893571, "lat": 48.857228, "lon": 13.8415356, "tags": {"board_type": "nature", "information": "board", "name": "N\u011bkdo tudy \u0161el", "ref": "13", "tourism": "information"}}, {"type": "node", "id": 6807893572, "lat": 48.8626358, "lon": 13.8340653, "tags": {"board_type": "nature", "information": "board", "name": "St\u0159echa nad hlavou", "ref": "5", "tourism": "information"}}, {"type": "node", "id": 6807893573, "lat": 48.8630053, "lon": 13.8332204, "tags": {"board_type": "nature", "information": "board", "name": "Zvuky lesa", "tourism": "information"}}, {"type": "node", "id": 6807893574, "lat": 48.8626028, "lon": 13.8341143, "tags": {"amenity": "shelter"}}, {"type": "node", "id": 7237505862, "lat": 48.859174, "lon": 13.8207347, "tags": {"ele": "785", "hiking": "yes", "information": "guidepost", "name": "Sto\u017eec (\u017est)", "operator": "cz:K\u010cT", "ref": "VO247;VO732", "ski": "yes", "tourism": "information"}}, {"type": "node", "id": 7240715705, "lat": 48.8597718, "lon": 13.8171362, "tags": {"information": "guidepost", "name": "Sto\u017eec (h\u00e1jovna)", "ref": "VO733", "ski": "yes", "tourism": "information"}}, {"type": "node", "id": 7240715707, "lat": 48.8600017, "lon": 13.8168123, "tags": {"bicycle": "yes", "information": "guidepost", "operator": "cz:K\u010cT", "ref": "none", "tourism": "information"}}, {"type": "node", "id": 7240715708, "lat": 48.8694706, "lon": 13.8222277, "tags": {"bicycle": "yes", "information": "guidepost", "operator": "cz:K\u010cT", "ref": "1030/4,5", "tourism": "information"}}, {"type": "node", "id": 7240715735, "lat": 48.8756365, "lon": 13.8077009, "tags": {"board_type": "history", "information": "board", "name": "Obnoven\u00e1 k\u0159\u00ed\u017eov\u00e1 cesta", "tourism": "information"}}, {"type": "node", "id": 7240715737, "lat": 48.8754327, "lon": 13.8061304, "tags": {"bicycle": "yes", "information": "guidepost", "operator": "cz:K\u010cT", "ref": "1024/7,5;1030/2,5", "tourism": "information"}}, {"type": "node", "id": 7240715738, "lat": 48.8777542, "lon": 13.8059816, "tags": {"ele": "806", "information": "guidepost", "name": "Sto\u017ee\u010dk\u00e1 luka", "ref": "VO719", "ski": "yes", "tourism": "information"}}, {"type": "node", "id": 7240715747, "lat": 48.8934029, "lon": 13.8157381, "tags": {"bicycle": "yes", "information": "guidepost", "operator": "cz:K\u010cT", "ref": "1024/10", "tourism": "information"}}, {"type": "node", "id": 7240715750, "lat": 48.8940262, "lon": 13.8234763, "tags": {"ele": "766", "information": "guidepost", "name": "Dobr\u00e1 (u N\u011bme\u010dka)", "ref": "VO679", "ski": "yes", "tourism": "information"}}, {"type": "node", "id": 7240715751, "lat": 48.8939191, "lon": 13.8247135, "tags": {"check_date": "2025-07-13", "information": "map", "map_size": "region", "map_type": "topo", "tourism": "information"}}, {"type": "node", "id": 7240715772, "lat": 48.8699973, "lon": 13.8640393, "tags": {"board_type": "nature", "information": "board", "name": "V\u00fdzkumn\u00e1 stanice Dobr\u00e1", "tourism": "information"}}, {"type": "node", "id": 7240715773, "lat": 48.8699569, "lon": 13.8640554, "tags": {"board_type": "nature", "information": "board", "name": "Perlorodka \u0159\u00ed\u010dn\u00ed", "tourism": "information"}}, {"type": "node", "id": 7240715774, "lat": 48.8670032, "lon": 13.8650435, "tags": {"ele": "745", "hiking": "yes", "information": "guidepost", "name": "U Mrt\u00e9ho luhu", "operator": "cz:K\u010cT", "ref": "VO727", "tourism": "information"}}, {"type": "node", "id": 7240715775, "lat": 48.8622404, "lon": 13.8670953, "tags": {"ele": "740", "hiking": "yes", "information": "guidepost", "name": "\u010cern\u00fd K\u0159\u00ed\u017e (u mostu)", "operator": "cz:K\u010cT", "ref": "VO725", "tourism": "information"}}, {"type": "node", "id": 7240715778, "lat": 48.8608409, "lon": 13.8608473, "tags": {"board_type": "history", "information": "board", "name": "Zlat\u00e1 stezka", "name:de": "Goldsteig", "tourism": "information"}}, {"type": "node", "id": 7240715779, "lat": 48.8608064, "lon": 13.8608836, "tags": {"bicycle": "yes", "hiking": "yes", "information": "map", "name": "\u010cern\u00fd K\u0159\u00ed\u017e", "tourism": "information"}}, {"type": "node", "id": 7240839706, "lat": 48.8645311, "lon": 13.8318145, "tags": {"board_type": "nature", "information": "board", "tourism": "information"}}, {"type": "node", "id": 7240839707, "lat": 48.8645808, "lon": 13.8318679, "tags": {"board_type": "nature", "information": "board", "tourism": "information"}}, {"type": "node", "id": 7240839708, "lat": 48.8590861, "lon": 13.8195583, "tags": {"board_type": "history", "information": "board", "tourism": "information"}}, {"type": "node", "id": 7240839709, "lat": 48.8590868, "lon": 13.8195805, "tags": {"board_type": "nature", "information": "board", "tourism": "information"}}, {"type": "node", "id": 7240839710, "lat": 48.8590974, "lon": 13.8196157, "tags": {"information": "map", "tourism": "information"}}, {"type": "node", "id": 7240839713, "lat": 48.8594751, "lon": 13.8216081, "tags": {"ele": "787", "information": "guidepost", "name": "Sto\u017eec", "ref": "VO250", "ski": "yes", "tourism": "information"}}, {"type": "node", "id": 7243268175, "lat": 48.8587219, "lon": 13.8219895, "tags": {"board_type": "nature", "information": "board", "name": "O N\u00e1rodn\u00edm parku \u0160umava", "ref": "2", "tourism": "information"}}, {"type": "node", "id": 7243268177, "lat": 48.8513023, "lon": 13.8202975, "tags": {"bicycle": "yes", "information": "guidepost", "ref": "1024/4;1029/12", "tourism": "information"}}, {"type": "node", "id": 7243268179, "lat": 48.8274979, "lon": 13.8429807, "tags": {"bicycle": "yes", "ele": "914", "information": "guidepost", "name": "Ministerka a osl\u00ed cesta", "operator": "cz:K\u010cT", "ref": "1023/24;1029/8,5", "tourism": "information"}}, {"type": "node", "id": 7243268180, "lat": 48.8274915, "lon": 13.8432305, "tags": {"ele": "912", "information": "guidepost", "name": "Ministerka", "ref": "VO070", "ski": "yes", "tourism": "information"}}, {"type": "node", "id": 7243273706, "lat": 48.8099644, "lon": 13.8582177, "tags": {"bicycle": "yes", "information": "guidepost", "operator": "cz:K\u010cT", "ref": "1023/14;1029/4,5;1028/9", "tourism": "information"}}, {"type": "node", "id": 7243273707, "lat": 48.8189951, "lon": 13.8728053, "tags": {"bicycle": "yes", "information": "guidepost", "ref": "1023/12;1027/7,5", "tourism": "information"}}, {"type": "node", "id": 7243273721, "lat": 48.8165605, "lon": 13.8777878, "tags": {"board_type": "nature", "information": "board", "tourism": "information"}}, {"type": "node", "id": 7243273722, "lat": 48.8162376, "lon": 13.8781582, "tags": {"information": "map", "tourism": "information"}}, {"type": "node", "id": 7243273723, "lat": 48.8163506, "lon": 13.8787989, "tags": {"information": "map", "tourism": "information"}}, {"type": "node", "id": 7243273724, "lat": 48.8163466, "lon": 13.8786933, "tags": {"ele": "885", "information": "guidepost", "name": "Jelen\u00ed vrchy", "operator": "cz:K\u010cT", "ref": "VO036", "ski": "yes", "tourism": "information"}}, {"type": "node", "id": 7243273725, "lat": 48.8163361, "lon": 13.8787229, "tags": {"bicycle": "yes", "information": "guidepost", "operator": "cz:K\u010cT", "ref": "1023/11,5;1027/7", "tourism": "information"}}, {"type": "node", "id": 7243273741, "lat": 48.8209918, "lon": 13.891706, "tags": {"board_type": "history", "information": "board", "name": "Plaven\u00ed d\u0159eva", "tourism": "information"}}, {"type": "node", "id": 7243273742, "lat": 48.8187997, "lon": 13.9006023, "tags": {"ele": "1049", "hiking": "yes", "information": "guidepost", "name": "Pern\u00edk", "operator": "cz:K\u010cT", "ref": "VO005", "tourism": "information"}}, {"type": "node", "id": 7246078784, "lat": 48.777926, "lon": 13.8676959, "tags": {"board_type": "history", "information": "board", "name": "Um\u011bn\u00ed a literatura", "tourism": "information"}}, {"type": "node", "id": 7246108095, "lat": 48.7796005, "lon": 13.9052809, "tags": {"bicycle": "yes", "information": "guidepost", "operator": "cz:K\u010cT", "ref": "1023/4,5;1026/5,5", "tourism": "information"}}, {"type": "node", "id": 7246108098, "lat": 48.792024, "lon": 13.9330191, "tags": {"information": "board", "tourism": "information"}}, {"type": "node", "id": 7246108124, "lat": 48.7899344, "lon": 13.9396577, "tags": {"information": "board", "tourism": "information"}}, {"type": "node", "id": 7248279974, "lat": 48.8606757, "lon": 13.8206747, "tags": {"information": "map", "name": "Stezky p\u0159\u00edrodou", "tourism": "information"}}, {"type": "node", "id": 7248289510, "lat": 48.8748502, "lon": 13.8015438, "tags": {"ele": "817", "hiking": "yes", "information": "guidepost", "name": "Sto\u017ee\u010dk\u00e1 luka (u sen\u00edku)", "ref": "VO169", "ski": "yes", "tourism": "information"}}, {"type": "node", "id": 7248289517, "lat": 48.8710478, "lon": 13.8055508, "tags": {"ele": "791", "information": "guidepost", "name": "Sto\u017ee\u010dk\u00e1 luka (u l\u00e1vky)", "ref": "VO175", "ski": "yes", "tourism": "information"}}, {"type": "node", "id": 7248289521, "lat": 48.8622712, "lon": 13.8122379, "tags": {"ele": "780", "information": "guidepost", "name": "Sto\u017ee\u010dk\u00e1 luka (rozc.)", "ref": "VO002;VO093", "ski": "yes", "tourism": "information"}}, {"type": "node", "id": 7256348273, "lat": 48.951583, "lon": 13.8225643, "tags": {"hiking": "yes", "information": "guidepost", "operator": "cz:K\u010cT", "ref": "VO557", "tourism": "information"}}, {"type": "node", "id": 7329872129, "lat": 48.8397206, "lon": 13.9616419, "tags": {"board_type": "nature", "information": "board", "name": "Zastaven\u00ed - U Uhl\u00edkovsk\u00e9 myslivny", "ref": "1", "source": "survey", "tourism": "information"}}, {"type": "node", "id": 7570693576, "lat": 48.9078814, "lon": 13.8273735}, {"type": "node", "id": 7570693580, "lat": 48.9079311, "lon": 13.8272985}, {"type": "node", "id": 7570693581, "lat": 48.9078937, "lon": 13.8272409}, {"type": "node", "id": 7570693582, "lat": 48.9078439, "lon": 13.8273159}, {"type": "node", "id": 7572099195, "lat": 48.914933, "lon": 13.8868515, "tags": {"information": "map", "map_size": "region", "map_type": "image", "name": "B\u011b\u017eeck\u00e9 trasy a nordic walking", "nordic_walking": "yes", "running": "yes", "tourism": "information"}}, {"type": "node", "id": 7572099196, "lat": 48.9151803, "lon": 13.8874758, "tags": {"board_type": "sight", "information": "board", "name": "Volarsk\u00e9 menhiry", "tourism": "information"}}, {"type": "node", "id": 7572099197, "lat": 48.9113498, "lon": 13.8929576, "tags": {"bicycle": "yes", "check_date": "2022-09-19", "hiking": "yes", "information": "map", "map_size": "region", "map_type": "topo", "name": "\u0160umava - Volarsko", "tourism": "information"}}, {"type": "node", "id": 7572099198, "lat": 48.9103423, "lon": 13.891595, "tags": {"bicycle": "yes", "hiking": "yes", "information": "map", "map_size": "region", "map_type": "topo", "name": "Volary", "tourism": "information"}}, {"type": "node", "id": 7572099200, "lat": 48.9075195, "lon": 13.8833546, "tags": {"ele": "760", "hiking": "yes", "information": "guidepost", "name": "Volary (\u017eelezni\u010dn\u00ed stanice)", "official_name": "Volary (ZST)", "operator": "cz:K\u010cT", "ref": "VO701", "tourism": "information"}}, {"type": "node", "id": 7700361534, "lat": 48.8939787, "lon": 13.8241803, "tags": {"board_type": "history", "information": "board", "name": "\u0160umavsk\u00e9 muzeum lehk\u00e9ho opevn\u011bn\u00ed - Soumarsk\u00fd most", "tourism": "information"}}, {"type": "node", "id": 7778717386, "lat": 48.9209852, "lon": 13.9083188, "tags": {"tourism": "viewpoint"}}, {"type": "node", "id": 7778730599, "lat": 48.9202314, "lon": 13.9051662, "tags": {"hiking": "yes", "information": "guidepost", "name": "Pod Kamen\u00e1\u010dem (vyhl\u00eddka)", "operator": "cz:K\u010cT", "ref": "VO693", "tourism": "information"}}, {"type": "node", "id": 7778730600, "lat": 48.9216114, "lon": 13.9078105, "tags": {"hiking": "yes", "information": "guidepost", "name": "Pod Kamen\u00e1\u010dem (vyhl\u00eddka)", "operator": "cz:K\u010cT", "ref": "VO174", "tourism": "information"}}, {"type": "node", "id": 7779209867, "lat": 48.9075492, "lon": 13.8834204, "tags": {"hiking": "yes", "information": "map", "map_size": "city", "map_type": "scheme", "name": "B\u011b\u017eeck\u00e9 trasy a nordic walking", "tourism": "information"}}, {"type": "node", "id": 7779209868, "lat": 48.9084075, "lon": 13.8874231, "tags": {"information": "map", "tourism": "information"}}, {"type": "node", "id": 7780177178, "lat": 48.9080248, "lon": 13.8280919, "tags": {"information": "map", "tourism": "information"}}, {"type": "node", "id": 7802611179, "lat": 48.9392723, "lon": 13.9834969, "tags": {"amenity": "shelter", "shelter_type": "picnic_shelter"}}, {"type": "node", "id": 7850747152, "lat": 48.8550528, "lon": 13.9422889, "tags": {"hiking": "yes", "information": "guidepost", "tourism": "information"}}, {"type": "node", "id": 8002871958, "lat": 48.7712735, "lon": 13.8573087, "tags": {"ele": "1379", "name": "Pl\u00f6ckenstein / Plech\u00fd", "name:cs": "Plech\u00fd", "name:de": "Pl\u00f6ckenstein", "natural": "peak", "prominence": "510", "source": "survey", "source:ele": "Elevation based an Austrian elevation system is (rounded) 1379 m, based on Czech elevation system is (rounded) 1378 m", "summit:cross": "yes", "summit:register": "yes", "wikidata": "Q700271"}}, {"type": "node", "id": 8242905896, "lat": 48.8530318, "lon": 13.863348, "tags": {"hiking": "yes", "information": "guidepost", "operator": "local", "ref": "none", "ski": "yes", "ski:nordic": "yes", "tourism": "information"}}, {"type": "node", "id": 8242905897, "lat": 48.8322898, "lon": 13.8707321, "tags": {"board_type": "history", "information": "board", "name": "Medv\u011bdi na \u0160umav\u011b", "tourism": "information"}}, {"type": "node", "id": 8242905898, "lat": 48.8164732, "lon": 13.8776422, "tags": {"board_type": "history;nature", "information": "board", "name": "Medv\u011bd\u00ed stezka", "tourism": "information"}}, {"type": "node", "id": 8242905906, "lat": 48.8234632, "lon": 13.9056981, "tags": {"board_type": "geology", "information": "board", "name": "Ob\u0159\u00ed kostky", "tourism": "information"}}, {"type": "node", "id": 8242905907, "lat": 48.8229784, "lon": 13.9091507, "tags": {"board_type": "geology", "information": "board", "name": "Hlava telete", "tourism": "information"}}, {"type": "node", "id": 8242905908, "lat": 48.8223696, "lon": 13.9094639, "tags": {"board_type": "geology", "information": "board", "name": "P\u00fdchavka obrovsk\u00e1", "tourism": "information"}}, {"type": "node", "id": 8242905909, "lat": 48.821895, "lon": 13.9098059, "tags": {"board_type": "geology", "information": "board", "name": "Kamen\u00e1 kr\u00e1ska", "tourism": "information"}}, {"type": "node", "id": 8242905910, "lat": 48.8170401, "lon": 13.9113012, "tags": {"board_type": "geology", "information": "board", "name": "Viklan", "tourism": "information"}}, {"type": "node", "id": 8242905911, "lat": 48.8171615, "lon": 13.9124995, "tags": {"board_type": "geology", "information": "board", "name": "H\u0159ib", "tourism": "information"}}, {"type": "node", "id": 8242905912, "lat": 48.8173589, "lon": 13.9126336, "tags": {"board_type": "geology", "information": "board", "name": "Kaple", "tourism": "information"}}, {"type": "node", "id": 8242905913, "lat": 48.817132, "lon": 13.9129065, "tags": {"board_type": "geology", "information": "board", "name": "Poustevna", "tourism": "information"}}, {"type": "node", "id": 8242905914, "lat": 48.8129041, "lon": 13.9189321, "tags": {"board_type": "geology", "information": "board", "name": "Mechov\u00e1 pyramida", "tourism": "information"}}, {"type": "node", "id": 8242905915, "lat": 48.8127204, "lon": 13.919329, "tags": {"board_type": "geology", "information": "board", "name": "Gotick\u00fd port\u00e1l", "tourism": "information"}}, {"type": "node", "id": 8242905916, "lat": 48.8126065, "lon": 13.919557, "tags": {"board_type": "geology", "information": "board", "name": "Sout\u011bska lapk\u016f", "tourism": "information"}}, {"type": "node", "id": 8242911517, "lat": 48.8107478, "lon": 13.9272972, "tags": {"board_type": "geology", "information": "board", "name": "Pern\u00edkov\u00e1 sk\u00e1la", "tourism": "information"}}, {"type": "node", "id": 8242911518, "lat": 48.8101857, "lon": 13.9291124, "tags": {"board_type": "geology", "information": "board", "name": "Od prvohor po dne\u0161ek", "tourism": "information"}}, {"type": "node", "id": 8242911519, "lat": 48.8101104, "lon": 13.9296884, "tags": {"board_type": "geology", "information": "board", "name": "Dra\u010d\u00ed tlama", "tourism": "information"}}, {"type": "node", "id": 8242911520, "lat": 48.8071494, "lon": 13.9387472, "tags": {"board_type": "history", "information": "board", "name": "Medv\u011bd\u00ed stezka", "tourism": "information"}}, {"type": "node", "id": 8414283555, "lat": 48.7743035, "lon": 13.897342, "tags": {"description": "nouzov\u00e1 nocovi\u0161t\u011b", "information": "board", "name": "U Buku", "tourism": "information"}}, {"type": "node", "id": 8414283556, "lat": 48.7784316, "lon": 13.8609678, "tags": {"board_type": "nature", "information": "board", "name": "Mrtv\u00e9 d\u0159evo", "tourism": "information"}}, {"type": "node", "id": 8414283557, "lat": 48.7766146, "lon": 13.8574157, "tags": {"board_type": "nature", "information": "board", "name": "Duch pralesa", "tourism": "information"}}, {"type": "node", "id": 8414283561, "lat": 48.8607834, "lon": 13.8205168, "tags": {"board_type": "geology", "information": "board", "name": "Geologie a geomorfologie okol\u00ed Sto\u017ece", "tourism": "information"}}, {"type": "node", "id": 8415346623, "lat": 48.8769064, "lon": 13.8590089, "tags": {"bicycle": "yes", "ele": "743", "hiking": "yes", "information": "guidepost", "name": "Dobr\u00e1 (\u017dST)", "operator": "cz:K\u010cT", "ref": "VO727;VO688;1030/9,5", "tourism": "information"}}, {"type": "node", "id": 8415346625, "lat": 48.8603015, "lon": 13.8575578, "tags": {"bicycle": "yes", "information": "guidepost", "operator": "cz:K\u010cT", "ref": "1027/13,5", "tourism": "information"}}, {"type": "node", "id": 8415346626, "lat": 48.8294446, "lon": 13.8517103, "tags": {"information": "board", "name": "Gabriel\u016fv k\u00e1men", "tourism": "information"}}, {"type": "node", "id": 8415346627, "lat": 48.8255516, "lon": 13.8479437, "tags": {"information": "board", "name": "Stavidlo na Jelenn\u00edm potoce", "tourism": "information"}}, {"type": "node", "id": 8420123681, "lat": 48.9506984, "lon": 13.8027899}, {"type": "node", "id": 8420123682, "lat": 48.9507253, "lon": 13.8028151}, {"type": "node", "id": 8420123683, "lat": 48.9507138, "lon": 13.8028438}, {"type": "node", "id": 8420123684, "lat": 48.9506868, "lon": 13.8028187}, {"type": "node", "id": 8420154895, "lat": 48.9231957, "lon": 13.8032066}, {"type": "node", "id": 8420154896, "lat": 48.9232181, "lon": 13.8032151}, {"type": "node", "id": 8420154897, "lat": 48.9232081, "lon": 13.8032755}, {"type": "node", "id": 8420154898, "lat": 48.9231857, "lon": 13.8032669}, {"type": "node", "id": 8669375933, "lat": 48.7915867, "lon": 13.948653, "tags": {"bicycle": "yes", "information": "guidepost", "operator": "cz:K\u010cT", "ref": "none", "tourism": "information"}}, {"type": "node", "id": 8669375934, "lat": 48.7922926, "lon": 13.9479306, "tags": {"bicycle": "yes", "information": "guidepost", "operator": "cz:K\u010cT", "ref": "none", "tourism": "information"}}, {"type": "node", "id": 8669375935, "lat": 48.7775692, "lon": 13.867991, "tags": {"board_type": "history", "information": "board", "name": "Pam\u00e1tn\u00fd k\u00e1men", "tourism": "information"}}, {"type": "node", "id": 8669375936, "lat": 48.7792333, "lon": 13.9284268, "tags": {"information": "map", "map_size": "site", "map_type": "topo", "name": "\u0160umavsk\u00e1 30", "ski": "yes", "tourism": "information"}}, {"type": "node", "id": 8669375937, "lat": 48.7785258, "lon": 13.9295734, "tags": {"check_date": "2025-09-07", "information": "board", "name": "Nov\u00e1 Pec - L\u00e1z", "tourism": "information"}}, {"type": "node", "id": 8671215454, "lat": 48.7895822, "lon": 13.9515935, "tags": {"information": "map", "name": "B\u00edl\u00e1 stopa", "tourism": "information"}}, {"type": "node", "id": 8671215455, "lat": 48.7895829, "lon": 13.9515524, "tags": {"bicycle": "yes", "hiking": "yes", "information": "map", "map_size": "region", "map_type": "topo", "tourism": "information"}}, {"type": "node", "id": 8707540336, "lat": 48.7795197, "lon": 13.9048627}, {"type": "node", "id": 8817928114, "lat": 48.7636036, "lon": 13.8545214}, {"type": "node", "id": 8817928115, "lat": 48.7635778, "lon": 13.8545535}, {"type": "node", "id": 8817928116, "lat": 48.763598, "lon": 13.8545909}, {"type": "node", "id": 8818015117, "lat": 48.7636239, "lon": 13.8545587}, {"type": "node", "id": 9002164809, "lat": 48.8565545, "lon": 13.9392716, "tags": {"information": "guidepost", "tourism": "information"}}, {"type": "node", "id": 9002164813, "lat": 48.862318, "lon": 13.9392429, "tags": {"information": "guidepost", "tourism": "information"}}, {"type": "node", "id": 9080883823, "lat": 48.7679835, "lon": 13.9403593, "tags": {"amenity": "shelter", "shelter_type": "picnic_shelter"}}, {"type": "node", "id": 9080883827, "lat": 48.7921548, "lon": 13.9330942, "tags": {"horse": "yes", "information": "guidepost", "name": "Kocova pila", "operator": "cz:K\u010cT", "tourism": "information"}}, {"type": "node", "id": 9687569630, "lat": 48.9041194, "lon": 13.8206331, "tags": {"historic": "yes", "name": "Wallernschanze", "tourism": "attraction"}}, {"type": "node", "id": 9687569709, "lat": 48.9219718, "lon": 13.8061804, "tags": {"information": "board", "tourism": "information"}}, {"type": "node", "id": 9688409780, "lat": 48.7705363, "lon": 13.8464439, "tags": {"ele": "1376", "natural": "peak", "source:ele": "Laserscan Oberfl\u00e4chenmodell auf https://www.doris.at/"}}, {"type": "node", "id": 9689622940, "lat": 48.7650785, "lon": 13.8799413, "tags": {"ele": "1054", "name": "Steinwand", "name:de": "Steinwand", "natural": "peak"}}, {"type": "node", "id": 9810977999, "lat": 48.9021559, "lon": 13.8314371, "tags": {"hiking": "yes", "information": "guidepost", "operator": "cz:K\u010cT", "tourism": "information"}}, {"type": "node", "id": 9811172154, "lat": 48.9063207, "lon": 13.8271251, "tags": {"board_type": "nature", "description": "Nau\u010dn\u00e1 stezka Soumarsk\u00e9 ra\u0161elini\u0161t\u011b", "description:de": "S\u00e4umermoor Natrurlehrpfad", "information": "board", "name": "Soumarsk\u00e9 ra\u0161elini\u0161t\u011b", "name:de": "S\u00e4umermoor", "tourism": "information"}}, {"type": "node", "id": 9811397605, "lat": 48.9042914, "lon": 13.8233541, "tags": {"amenity": "toilets", "hiking": "yes", "information": "guidepost", "toilets:disposal": "pitlatrine", "tourism": "information", "unisex": "yes"}}, {"type": "node", "id": 9811428936, "lat": 48.9086782, "lon": 13.8252857, "tags": {"ele": "752", "information": "guidepost", "name": "Soumarsky Most", "tourism": "information"}}, {"type": "node", "id": 9811469790, "lat": 48.9045462, "lon": 13.8218321, "tags": {"ele": "748", "information": "guidepost", "name": "Volarsk\u00e9 \u015aance", "ski": "yes", "tourism": "information"}}, {"type": "node", "id": 9812284500, "lat": 48.8589728, "lon": 13.892844, "tags": {"board_type": "sport", "information": "board", "tourism": "information"}}, {"type": "node", "id": 9813129987, "lat": 48.9053811, "lon": 13.8253695}, {"type": "node", "id": 9813129988, "lat": 48.9053311, "lon": 13.8253485}, {"type": "node", "id": 9813129989, "lat": 48.9053379, "lon": 13.8253108}, {"type": "node", "id": 9813129990, "lat": 48.9053085, "lon": 13.8252986}, {"type": "node", "id": 9813129991, "lat": 48.905291, "lon": 13.8253956}, {"type": "node", "id": 9813129992, "lat": 48.9053704, "lon": 13.8254288}, {"type": "node", "id": 9813130005, "lat": 48.8629332, "lon": 13.8962562, "tags": {"information": "board", "tourism": "information"}}, {"type": "node", "id": 9813130014, "lat": 48.8520847, "lon": 13.9207196}, {"type": "node", "id": 9813130015, "lat": 48.8520507, "lon": 13.9206535}, {"type": "node", "id": 9813130016, "lat": 48.8520141, "lon": 13.920697}, {"type": "node", "id": 9813149117, "lat": 48.8520482, "lon": 13.9207631}, {"type": "node", "id": 9813149120, "lat": 48.8520382, "lon": 13.9206181, "tags": {"board_type": "nature", "information": "board", "name": "Nau\u010dn\u00e1 stezka Vltava v N\u00e1rodn\u00edm parku \u0160umava", "tourism": "information"}}, {"type": "node", "id": 10008636097, "lat": 48.9067184, "lon": 13.8829042}, {"type": "node", "id": 10008636098, "lat": 48.9067776, "lon": 13.8830433}, {"type": "node", "id": 10036646260, "lat": 48.7741683, "lon": 13.8971529, "tags": {"board_type": "plants", "information": "board", "name": "Druhov\u011b bohat\u00e9 a chud\u00e9 lesy", "tourism": "information"}}, {"type": "node", "id": 10082515926, "lat": 48.8898697, "lon": 13.9900795, "tags": {"amenity": "shelter", "shelter_type": "picnic_shelter"}}, {"type": "node", "id": 10293934659, "lat": 48.8958255, "lon": 13.9440221, "tags": {"information": "map", "tourism": "information"}}, {"type": "node", "id": 10293970622, "lat": 48.8889256, "lon": 13.9427996, "tags": {"information": "board", "name": "N\u00e1rodn\u00ed P\u0159\u00edrodn\u00ed Pam\u00e1tka", "tourism": "information"}}, {"type": "node", "id": 10301083886, "lat": 48.8491157, "lon": 13.977712}, {"type": "node", "id": 10301083887, "lat": 48.8491052, "lon": 13.9777529}, {"type": "node", "id": 10301083888, "lat": 48.8490619, "lon": 13.9777273}, {"type": "node", "id": 10301083889, "lat": 48.8490724, "lon": 13.9776863}, {"type": "node", "id": 10302821473, "lat": 48.9068784, "lon": 13.999836, "tags": {"information": "board", "name": "Miesauerbrunnen & biblische Geschichten", "tourism": "information"}}, {"type": "node", "id": 10302821474, "lat": 48.9071291, "lon": 13.9997523, "tags": {"information": "board", "tourism": "information"}}, {"type": "node", "id": 10548579342, "lat": 48.8953882, "lon": 13.9943128}, {"type": "node", "id": 10548579343, "lat": 48.8953841, "lon": 13.9943256}, {"type": "node", "id": 10548579344, "lat": 48.8953774, "lon": 13.9943356}, {"type": "node", "id": 10548579345, "lat": 48.8953346, "lon": 13.9942923}, {"type": "node", "id": 10548579346, "lat": 48.8953378, "lon": 13.9942798}, {"type": "node", "id": 10548579347, "lat": 48.8953435, "lon": 13.9942694}, {"type": "node", "id": 10548579348, "lat": 48.8953689, "lon": 13.9943417}, {"type": "node", "id": 10548579349, "lat": 48.8953595, "lon": 13.994343}, {"type": "node", "id": 10548579350, "lat": 48.8953504, "lon": 13.9943395}, {"type": "node", "id": 10548579351, "lat": 48.8953426, "lon": 13.9943316}, {"type": "node", "id": 10548579352, "lat": 48.895337, "lon": 13.9943202}, {"type": "node", "id": 10548579353, "lat": 48.8953342, "lon": 13.9943065}, {"type": "node", "id": 10548579354, "lat": 48.895351, "lon": 13.9942623}, {"type": "node", "id": 10548579355, "lat": 48.8953596, "lon": 13.9942592}, {"type": "node", "id": 10548579356, "lat": 48.8953684, "lon": 13.9942604}, {"type": "node", "id": 10548579357, "lat": 48.8953765, "lon": 13.9942657}, {"type": "node", "id": 10548579358, "lat": 48.8953831, "lon": 13.9942746}, {"type": "node", "id": 10548579359, "lat": 48.8953875, "lon": 13.9942863}, {"type": "node", "id": 10548579360, "lat": 48.8953892, "lon": 13.9942995}, {"type": "node", "id": 10548579382, "lat": 48.8898864, "lon": 13.9900262}, {"type": "node", "id": 10548579383, "lat": 48.8898584, "lon": 13.9900393}, {"type": "node", "id": 10548579384, "lat": 48.8898726, "lon": 13.9901096}, {"type": "node", "id": 10548579385, "lat": 48.8899006, "lon": 13.9900964}, {"type": "node", "id": 10573127664, "lat": 48.9054362, "lon": 13.9366748, "tags": {"tourism": "viewpoint"}}, {"type": "node", "id": 10584877125, "lat": 48.8753481, "lon": 13.9460261, "tags": {"information": "name", "name": "NPP", "tourism": "information"}}, {"type": "node", "id": 10584928069, "lat": 48.8640777, "lon": 13.9561681, "tags": {"ele": "840", "information": "guidepost", "name": "POD DLOUHYM HRBETEM", "tourism": "information"}}, {"type": "node", "id": 10608535195, "lat": 48.8754751, "lon": 13.8033829, "tags": {"information": "guidepost", "operator": "cz:K\u010cT", "ski": "yes", "tourism": "information"}}, {"type": "node", "id": 10715156415, "lat": 48.9077147, "lon": 13.8273069, "tags": {"board_type": "nature", "information": "board", "name": "Nau\u010dn\u00e1 stezka Vltava v N\u00e1rodn\u00edm parku \u0160umava", "tourism": "information"}}, {"type": "node", "id": 10773792457, "lat": 48.920292, "lon": 13.9052995, "tags": {"board_type": "history", "information": "board", "name": "K\u0159\u00ed\u017eov\u00e1 cesta", "tourism": "information"}}, {"type": "node", "id": 10773792461, "lat": 48.9223374, "lon": 13.9057979, "tags": {"man_made": "tower", "name": "vyhl\u00eddkov\u00e1 plo\u0161ina", "tourism": "viewpoint", "tower:type": "observation"}}, {"type": "node", "id": 10773792462, "lat": 48.9223376, "lon": 13.9058267, "tags": {"board_type": "history", "information": "board", "name": "Kamen\u00e1\u010d (\u0160ibeni\u010dn\u00ed vrch)", "tourism": "information"}}, {"type": "node", "id": 11138353984, "lat": 48.9086896, "lon": 13.874079, "tags": {"information": "board", "name": "B\u00edl\u00e1 stopa \u0160umava", "tourism": "information"}}, {"type": "node", "id": 11138353985, "lat": 48.9105775, "lon": 13.8813092, "tags": {"information": "board", "tourism": "information"}}, {"type": "node", "id": 11138434411, "lat": 48.913663, "lon": 13.8566152, "tags": {"information": "board", "name": "St\u00f6gerh\u00fctte-Historischer Ortplan", "tourism": "information"}}, {"type": "node", "id": 11139900231, "lat": 48.8999746, "lon": 13.8465857, "tags": {"information": "yes", "name": "Schutzgebiet-Zone 1", "tourism": "information"}}, {"type": "node", "id": 11139900289, "lat": 48.908724, "lon": 13.8459024, "tags": {"information": "guidepost", "name": "Pfeil", "tourism": "information"}}, {"type": "node", "id": 11139900292, "lat": 48.9092981, "lon": 13.8405715, "tags": {"information": "guidepost", "name": "Pfeil", "tourism": "information"}}, {"type": "node", "id": 11139953480, "lat": 48.9289783, "lon": 13.8850476, "tags": {"information": "guidepost", "name": "Pfeil", "tourism": "information"}}, {"type": "node", "id": 11139953537, "lat": 48.9124654, "lon": 13.8495156, "tags": {"information": "guidepost", "tourism": "information"}}, {"type": "node", "id": 11139953538, "lat": 48.909071, "lon": 13.8347823, "tags": {"information": "guidepost", "name": "Pfeil", "tourism": "information"}}, {"type": "node", "id": 11154573128, "lat": 48.7698692, "lon": 13.8484649, "tags": {"board_type": "warning", "direction": "30", "information": "board", "inscription": "Pozor St\u00e1tn\u00ed hranice", "name": "Pozor St\u00e1tn\u00ed hranice", "tourism": "information"}}, {"type": "node", "id": 11154573129, "lat": 48.7707257, "lon": 13.8529361, "tags": {"board_type": "warning", "direction": "340", "information": "board", "inscription": "Pozor St\u00e1tn\u00ed hranice", "name": "Pozor St\u00e1tn\u00ed hranice", "tourism": "information"}}, {"type": "node", "id": 11154573130, "lat": 48.7712928, "lon": 13.8573206, "tags": {"board_type": "warning", "direction": "30", "information": "board", "inscription": "Pozor St\u00e1tn\u00ed hranice", "name": "Pozor St\u00e1tn\u00ed hranice", "tourism": "information"}}, {"type": "node", "id": 11154670513, "lat": 48.769648, "lon": 13.8674986, "tags": {"board_type": "warning", "direction": "5", "information": "board", "inscription": "Pozor St\u00e1tn\u00ed hranice", "name": "Pozor St\u00e1tn\u00ed hranice", "tourism": "information"}}, {"type": "node", "id": 11154670514, "lat": 48.7692108, "lon": 13.8695968, "tags": {"board_type": "warning", "direction": "30", "information": "board", "inscription": "Pozor St\u00e1tn\u00ed hranice", "name": "Pozor St\u00e1tn\u00ed hranice", "tourism": "information"}}, {"type": "node", "id": 11154670515, "lat": 48.7680784, "lon": 13.8725714, "tags": {"board_type": "warning", "direction": "40", "information": "board", "inscription": "Pozor St\u00e1tn\u00ed hranice", "name": "Pozor St\u00e1tn\u00ed hranice", "tourism": "information"}}, {"type": "node", "id": 11154670516, "lat": 48.7661412, "lon": 13.8768636, "tags": {"board_type": "warning", "direction": "45", "information": "board", "inscription": "Pozor St\u00e1tn\u00ed hranice", "name": "Pozor St\u00e1tn\u00ed hranice", "tourism": "information"}}, {"type": "node", "id": 11154670518, "lat": 48.7622683, "lon": 13.8824475, "tags": {"board_type": "warning", "direction": "55", "information": "board", "inscription": "Pozor St\u00e1tn\u00ed hranice", "name": "Pozor St\u00e1tn\u00ed hranice", "tourism": "information"}}, {"type": "node", "id": 11154747821, "lat": 48.7585309, "lon": 13.8894195, "tags": {"board_type": "warning", "direction": "30", "information": "board", "inscription": "Pozor St\u00e1tn\u00ed hranice", "name": "Pozor St\u00e1tn\u00ed hranice", "tourism": "information"}}, {"type": "node", "id": 11154747822, "lat": 48.757149, "lon": 13.8954734, "tags": {"board_type": "warning", "direction": "25", "information": "board", "inscription": "Pozor St\u00e1tn\u00ed hranice", "name": "Pozor St\u00e1tn\u00ed hranice", "tourism": "information"}}, {"type": "node", "id": 11154747823, "lat": 48.7549846, "lon": 13.8989176, "tags": {"board_type": "warning", "direction": "45", "information": "board", "inscription": "Pozor St\u00e1tn\u00ed hranice", "name": "Pozor St\u00e1tn\u00ed hranice", "tourism": "information"}}, {"type": "node", "id": 11154747824, "lat": 48.7542656, "lon": 13.9000696, "tags": {"board_type": "warning", "direction": "45", "information": "board", "inscription": "Pozor St\u00e1tn\u00ed hranice", "name": "Pozor St\u00e1tn\u00ed hranice", "tourism": "information"}}, {"type": "node", "id": 11170023532, "lat": 48.757569, "lon": 13.8932432, "tags": {"information": "guidepost", "tourism": "information"}}, {"type": "node", "id": 11170023535, "lat": 48.7534027, "lon": 13.9012121, "tags": {"board_type": "warning", "direction": "5", "information": "board", "inscription": "Pozor St\u00e1tn\u00ed hranice", "name": "Pozor St\u00e1tn\u00ed hranice", "tourism": "information"}}, {"type": "node", "id": 11170023536, "lat": 48.7533383, "lon": 13.901233, "tags": {"direction": "240", "information": "board", "inscription": "Naturschutzgebiet", "name": "P\u0159\u00edrodn\u00ed rezervace / Naturschutzgebiet", "name:cs": "P\u0159\u00edrodn\u00ed rezervace", "name:de": "Naturschutzgebiet", "tourism": "information"}}, {"type": "node", "id": 11175204724, "lat": 48.8230268, "lon": 13.802959, "tags": {"information": "guidepost", "operator": "cz:K\u010cT", "ref": "VO186", "ski": "yes", "tourism": "information"}}, {"type": "node", "id": 11175204725, "lat": 48.8284279, "lon": 13.8160852, "tags": {"ele": "815", "information": "guidepost", "name": "Jelenovr\u0161sk\u00e1 cesta (most)", "operator": "cz:K\u010cT", "ref": "VO041", "ski": "yes", "tourism": "information"}}, {"type": "node", "id": 11175204726, "lat": 48.827708, "lon": 13.8276934, "tags": {"ele": "885", "information": "guidepost", "name": "Ferdinand/Jelenov\u0161sk\u00e1 cesta", "operator": "cz:K\u010cT", "ref": "VO073", "ski": "yes", "tourism": "information"}}, {"type": "node", "id": 11175204727, "lat": 48.8263919, "lon": 13.8355613, "tags": {"ele": "917", "information": "guidepost", "name": "Ferdinandka-Schwarz kan\u00e1l", "operator": "cz:K\u010cT", "ski": "yes", "tourism": "information"}}, {"type": "node", "id": 11178301842, "lat": 48.7810326, "lon": 13.8033041, "tags": {"entrance": "main"}}, {"type": "node", "id": 11221185885, "lat": 48.7800831, "lon": 13.8058025, "tags": {"board_type": "warning", "direction": "40", "information": "board", "inscription": "POZOR St\u00e1tn\u00ed hranice", "tourism": "information"}}, {"type": "node", "id": 11221185886, "lat": 48.7783903, "lon": 13.8087275, "tags": {"board_type": "warning", "direction": "65", "information": "board", "inscription": "POZOR St\u00e1tn\u00ed hranice", "tourism": "information"}}, {"type": "node", "id": 11244217839, "lat": 48.9061737, "lon": 13.8272871, "tags": {"board_type": "nature", "description": "Nau\u010dn\u00e1 stezka Soumarsk\u00e9 ra\u0161elini\u0161t\u011b", "description:de": "S\u00e4umermoor Natrurlehrpfad", "information": "board", "name": "Osud ra\u0161elini\u0161t\u011b", "name:de": "Schicksal des Moores", "ref": "1", "tourism": "information"}}, {"type": "node", "id": 11244217840, "lat": 48.90551, "lon": 13.8292952, "tags": {"board_type": "nature", "description": "Nau\u010dn\u00e1 stezka Soumarsk\u00e9 ra\u0161elini\u0161t\u011b", "description:de": "S\u00e4umermoor Natrurlehrpfad", "information": "board", "name": "Kl\u00ed\u010dem je voda", "name:de": "Wasser als Schl\u00fcssel", "ref": "2", "tourism": "information"}}, {"type": "node", "id": 11244217841, "lat": 48.9053835, "lon": 13.8320575, "tags": {"board_type": "nature", "description": "Nau\u010dn\u00e1 stezka Soumarsk\u00e9 ra\u0161elini\u0161t\u011b", "description:de": "S\u00e4umermoor Natrurlehrpfad", "information": "board", "name": "Rostliny prozrad\u00ed v\u0161e", "name:de": "Pflanzen verraten alles", "ref": "3", "tourism": "information"}}, {"type": "node", "id": 11244217842, "lat": 48.9024743, "lon": 13.8352413, "tags": {"board_type": "nature", "description": "Nau\u010dn\u00e1 stezka Soumarsk\u00e9 ra\u0161elini\u0161t\u011b", "description:de": "S\u00e4umermoor Natrurlehrpfad", "information": "board", "name": "Vyu\u017eit\u00ed ra\u0161elini\u0161t\u011b", "name:de": "Moornutzung", "ref": "5", "tourism": "information"}}, {"type": "node", "id": 11244217843, "lat": 48.9025138, "lon": 13.8323591, "tags": {"board_type": "nature", "description": "Nau\u010dn\u00e1 stezka Soumarsk\u00e9 ra\u0161elini\u0161t\u011b", "description:de": "S\u00e4umermoor Natrurlehrpfad", "information": "board", "name": "Kdo tu bydl\u00ed", "name:de": "Wer hier wohnt", "ref": "6", "tourism": "information"}}, {"type": "node", "id": 11286038769, "lat": 48.7665986, "lon": 13.8761047, "tags": {"direction": "215", "information": "board", "inscription": "Achtung Staatsgrenze", "name": "Achtung Staatsgrenze", "tourism": "information"}}, {"type": "node", "id": 11373350283, "lat": 48.7914643, "lon": 13.8115037, "tags": {"direction": "185", "information": "board", "name": "\u010cESK\u00c1 REPUBLIKA", "tourism": "information"}}, {"type": "node", "id": 11373350284, "lat": 48.7914745, "lon": 13.8115171, "tags": {"board_type": "warning", "direction": "110", "information": "board", "inscription": "POZOR St\u00e1tn\u00ed hranice", "tourism": "information"}}, {"type": "node", "id": 11373350285, "lat": 48.7914343, "lon": 13.8114561, "tags": {"direction": "280", "information": "board", "name": "STAATSGRENZE", "tourism": "information"}}, {"type": "node", "id": 11374067287, "lat": 48.7935063, "lon": 13.8131401, "tags": {"board_type": "warning", "direction": "115", "information": "board", "inscription": "POZOR St\u00e1tn\u00ed hranice", "tourism": "information"}}, {"type": "node", "id": 11374067288, "lat": 48.7951547, "lon": 13.8143116, "tags": {"board_type": "warning", "direction": "90", "information": "board", "inscription": "POZOR St\u00e1tn\u00ed hranice", "tourism": "information"}}, {"type": "node", "id": 11374067291, "lat": 48.7969794, "lon": 13.8152529, "tags": {"board_type": "warning", "direction": "95", "information": "board", "inscription": "POZOR St\u00e1tn\u00ed hranice", "tourism": "information"}}, {"type": "node", "id": 11374067293, "lat": 48.7982742, "lon": 13.814077, "tags": {"board_type": "warning", "direction": "55", "information": "board", "inscription": "POZOR St\u00e1tn\u00ed hranice", "tourism": "information"}}, {"type": "node", "id": 11374067294, "lat": 48.7997982, "lon": 13.8124094, "tags": {"board_type": "warning", "direction": "65", "information": "board", "inscription": "POZOR St\u00e1tn\u00ed hranice", "tourism": "information"}}, {"type": "node", "id": 11374067295, "lat": 48.8041881, "lon": 13.8075315, "tags": {"board_type": "warning", "direction": "85", "information": "board", "inscription": "POZOR St\u00e1tn\u00ed hranice", "tourism": "information"}}, {"type": "node", "id": 11374067296, "lat": 48.8062911, "lon": 13.805254, "tags": {"board_type": "warning", "direction": "60", "information": "board", "inscription": "POZOR St\u00e1tn\u00ed hranice", "tourism": "information"}}, {"type": "node", "id": 11374067299, "lat": 48.8101139, "lon": 13.8010268, "tags": {"board_type": "warning", "direction": "55", "information": "board", "inscription": "POZOR St\u00e1tn\u00ed hranice", "tourism": "information"}}, {"type": "node", "id": 11435410633, "lat": 48.7743121, "lon": 13.8971482, "tags": {"hiking": "yes", "information": "guidepost", "name": "\u0158\u00edji\u0161t\u011b", "operator": "Via Czechia", "tourism": "information"}}, {"type": "node", "id": 11465237961, "lat": 48.9458041, "lon": 13.9374988, "tags": {"information": "board", "name": "Das Plahetschlager System (Golderner Steig)", "tourism": "information"}}, {"type": "node", "id": 11964942770, "lat": 48.76361, "lon": 13.854576}, {"type": "node", "id": 12012720015, "lat": 48.784827, "lon": 13.8027639, "tags": {"check_date": "2024-06-26", "hiking": "yes", "information": "map", "map_size": "region", "map_type": "toposcope", "name": "B\u00f6hmen", "operator": "Deutscher B\u00f6hmerwaldverbund e.V. 1980", "tourism": "information"}}, {"type": "node", "id": 12012729715, "lat": 48.7798821, "lon": 13.8061347, "tags": {"board_type": "hiking;history", "check_date": "2024-06-26", "description": "Dreisessel-Dreil\u00e4ndereck-Steinernes Meer", "direction": "210", "hiking": "yes", "information": "board", "name": "Alfons-Hellauer-Rundweg", "tourism": "information"}}, {"type": "node", "id": 12012730366, "lat": 48.7848068, "lon": 13.8027336, "tags": {"check_date": "2024-06-26", "hiking": "yes", "information": "map", "map_size": "region", "map_type": "toposcope", "name": "Bayern;\u00d6sterreich", "tourism": "information"}}, {"type": "node", "id": 12027813292, "lat": 48.7955416, "lon": 13.8009225, "tags": {"direction_northwest": "Kreuzbachklause 1.5 km;Haidm\u00fchle 5.2 km;Obergrainet 17.6 km", "direction_southeast": "Dreisesselhaus 1.9 km;Rosenberger Gut 8.4 km;Breitenberg 17.2 km", "ele": "1049", "hiking": "yes", "information": "guidepost", "name": "Rollmannsberg", "operator": "Tourismusverband Ostbayern e.V.", "tourism": "information"}}, {"type": "node", "id": 12027813294, "lat": 48.789839, "lon": 13.8067558, "tags": {"direction_northwest:1": "Haidm\u00fchle", "direction_northwest:2": "Haidm\u00fchle 5.5 km;Kreuzbachklause 2.5 km", "direction_southeast:1": "Dreisessel", "direction_southeast:2": "Dreisessel 1.5 km", "hiking": "yes", "information": "guidepost", "operator": "Naturpark", "tourism": "information"}}, {"type": "node", "id": 12027825735, "lat": 48.7863496, "lon": 13.8070252, "tags": {"board_type": "wildlife;rules", "check_date": "2024-06-26", "description": "Hochwald am Dreisessel", "direction": "10", "emergency_telephone_code": "112", "information": "board", "name": "Naturschutzgebiet", "ref": "L4", "tourism": "information"}}, {"type": "node", "id": 12027825736, "lat": 48.7863337, "lon": 13.8070312, "tags": {"direction_south": "Dreisessel 0.5 km", "hiking": "yes", "information": "guidepost", "operator": "Naturpark", "tourism": "information"}}, {"type": "node", "id": 12027940183, "lat": 48.7826575, "lon": 13.803525, "tags": {"direction_east": "Kreuzbachm\u00fchle 3.4 km;Haidm\u00fchle 6.6 km", "direction_north:1": "Hochstein 1331m;Kapelle", "direction_north:2": "Hochstein 0.1 km;Frauenberg 3.5 km", "direction_south": "Dreisessel Berggasthof 0.2 km", "direction_west": "Frauenberg 3.8 km", "hiking": "yes", "information": "guidepost", "operator": "Naturpark", "tourism": "information"}}, {"type": "node", "id": 12027940185, "lat": 48.7716198, "lon": 13.8394744, "tags": {"check_date": "2024-06-26", "direction": "110", "hiking": "yes", "information": "map", "map_size": "region", "map_type": "topo", "name": "Zlat\u00e1 stezka / Goldsteig", "name:cs": "Zlat\u00e1 stezka", "name:de": "Goldsteig", "tourism": "information"}}, {"type": "node", "id": 12027940186, "lat": 48.771553, "lon": 13.8395494, "tags": {"direction": "280", "information": "board", "name": "Landes-Grenze", "tourism": "information"}}, {"type": "node", "id": 12027940187, "lat": 48.7684822, "lon": 13.8357982, "tags": {"board_type": "rules", "direction": "160", "information": "board", "tourism": "information"}}, {"type": "node", "id": 12027976438, "lat": 48.7652291, "lon": 13.8379349, "tags": {"board_type": "nature;rules", "description": "Hochwald am Dreisessel", "direction": "140", "emergency_telephone_code": "112", "information": "board", "name": "Naturschutzgebiet", "ref": "E3", "tourism": "information"}}, {"type": "node", "id": 12027976439, "lat": 48.7650846, "lon": 13.8379416, "tags": {"check_date": "2024-06-26", "direction_northwest": "Dreisesselhaus 3.9 km;Kreuzbachklause 7.3 km;Haidm\u00fchle 11.0 km", "direction_west": "Rosenberger Gut 2.6 km;Hammerschmiede 10.1 km;Breitenberg 11.4 km", "ele": "1143", "hiking": "yes", "information": "guidepost", "name": "Steinernes Meer - Gegenbach", "operator": "Tourismusverband Ostbayern e.V.", "tourism": "information"}}, {"type": "node", "id": 12027976440, "lat": 48.7650511, "lon": 13.838141, "tags": {"board_type": "nature;rules", "check_date": "2024-06-26", "direction": "210", "information": "board", "name": "Naturschutzgebiet \"Hochwald\"", "tourism": "information"}}, {"type": "node", "id": 12027976441, "lat": 48.7650787, "lon": 13.8368987, "tags": {"direction_east:1": "Teufelsch\u00fcssel O\u00d6;Schwarzenberg O\u00d6", "direction_east:2": "Pl\u00f6ckensteiner See 4.8 km CZ;\u00d6sterr. Pl\u00f6ckenstein 3.5 km O\u00d6", "direction_east:3": "Steinernes Meer 1.5 km;Dreil\u00e4ndereck \u00fcber Seesteig 1.4 km", "direction_west": "Themenwanderweg|Route 3,Dreisessel 4.5 km", "hiking": "yes", "information": "guidepost", "tourism": "information"}}, {"type": "node", "id": 12027976443, "lat": 48.7651503, "lon": 13.8367841, "tags": {"board_type": "nature", "direction": "190", "information": "board", "name": "Wilde Waldnatur", "operator": "Naturwald Bayern", "tourism": "information"}}, {"type": "node", "id": 12027976444, "lat": 48.7650948, "lon": 13.836604, "tags": {"direction_east:1": "Dreisessel", "direction_east:2": "Dreil\u00e4ndereck \u00fcber Seesteig 1.4 km", "direction_northwest": "\u00dcber Hochstra\u00dfe nach Frauenberg 7.4 km", "direction_west:1": "Lackenh\u00e4user", "direction_west:2": "B\u00f6hmerwalddenkmal 2.5 km", "hiking": "yes", "information": "guidepost", "operator": "Naturpark", "tourism": "information"}}, {"type": "node", "id": 12027976445, "lat": 48.7639638, "lon": 13.8240517, "tags": {"direction_northeast:1": "Pl\u00f6ckenstein O\u00d6;Pl\u00f6ckensteiner See CZ", "direction_northeast:2": "Steinernes Meer;Dreil\u00e4ndereck", "hiking": "yes", "information": "guidepost", "tourism": "information"}}, {"type": "node", "id": 12027976450, "lat": 48.7627896, "lon": 13.8172809, "tags": {"direction_east:1": "Steinernes Meer;Dreil\u00e4ndereck;Pl\u00f6ckensteiner See", "direction_east:2": "Dreisesselhaus 5.4 km;Kreuzbachklause 8.8 km;Haidm\u00fchle 12.5 km", "direction_north": "Dreisessel 3.1 km", "direction_south:1": "Rosenberger Gut;B\u00f6hmerwalddenkmal", "direction_south:2": "Furt-Rad\u00fcbergang;Oberschwarzenberg", "direction_south:3": "Rosenberger Gut 1.2 km;Hammerschmiede 8.6 km;Breitenberg 9.9 km", "direction_west": "Oberriedelsbach 1.2 km", "ele": "1004", "hiking": "yes", "information": "guidepost", "name": "Gei\u00dffleck", "operator": "Tourismusverband Ostbayern e.V.;Naturpark", "tourism": "information"}}, {"type": "node", "id": 12027976451, "lat": 48.7617474, "lon": 13.818563, "tags": {"direction_northwest:1": "Steinernes Meer 2.8 km;Dreil\u00e4ndereck 3 km", "direction_northwest:2": "Dreisessel", "direction_southeast": "Themenwanderweg|Route 1, Rosenb. Gut 1.3 km", "hiking": "yes", "information": "guidepost", "operator": "Naturpark", "tourism": "information"}}, {"type": "node", "id": 12027976453, "lat": 48.7616769, "lon": 13.8187323, "tags": {"bicycle": "yes", "direction_east:1": "zum Parkplatz;Oberschwarzenberg", "direction_east:2": "Furt - Rad\u00fcbergang;Oberschwarzenberg", "direction_east:3": "Schwarzenberg O\u00d6", "direction_south": "B\u00f6hmerwalddenkmal 0.9 km;Rosenberger Gut 1.2 km;Lackenh\u00e4user Hochwaldhalle 3.5 km", "direction_west": "Riedelsbach 1 km;Pleckenstein 2 km", "hiking": "yes", "information": "guidepost", "operator": "Naturpark", "tourism": "information"}}, {"type": "node", "id": 12028430526, "lat": 48.7588627, "lon": 13.8204807, "tags": {"direction_northwest:1": "Pl\u00f6ckenstein O\u00d6;Pl\u00f6ckensteiner See CZ", "direction_northwest:2": "Steinernes Meer;Dreil\u00e4ndereck", "direction_northwest:3": "Dreisessel", "direction_south": "Campingpark Lackenh\u00e4user 1 km;Oberschwarzenberg O\u00d6", "hiking": "yes", "information": "guidepost", "operator": "Naturpark", "tourism": "information"}}, {"type": "node", "id": 12028775128, "lat": 48.7542839, "lon": 13.817677, "tags": {"check_date": "2024-06-26", "direction": "170", "hiking": "yes", "information": "map", "map_size": "region", "map_type": "map", "name": "Naturpark Bayerischer Wald", "operator": "Naturpark Bayerischer Wald", "tourism": "information"}}, {"type": "node", "id": 12028775129, "lat": 48.7521011, "lon": 13.8169851, "tags": {"board_type": "history", "description": "Auf den Spuren Adalbert Stifters\nThemenwanderweg Adalbert Stifter", "direction": "280", "information": "board", "name": "Kunst & Literatur", "operator": "Naturpark Bayerischer Wald", "tourism": "information"}}, {"type": "node", "id": 12205622055, "lat": 48.9483703, "lon": 13.9036901, "tags": {"amenity": "shelter", "shelter_type": "picnic_shelter"}}, {"type": "node", "id": 12232703673, "lat": 48.81303, "lon": 13.9670746, "tags": {"board_type": "information", "information": "board", "name": "\u017delnava", "tourism": "information"}}, {"type": "node", "id": 12232709151, "lat": 48.8133218, "lon": 13.9643815, "tags": {"board_type": "history", "information": "board", "name": "Mil\u00fd poutn\u00edku", "tourism": "information"}}, {"type": "node", "id": 12232709163, "lat": 48.8118459, "lon": 13.958203, "tags": {"tourism": "viewpoint"}}, {"type": "node", "id": 12232709165, "lat": 48.812135, "lon": 13.958265, "tags": {"board_type": "history", "information": "board", "name": "\u017delnavsk\u00fd vrch", "tourism": "information"}}, {"type": "node", "id": 12232709173, "lat": 48.8185742, "lon": 13.9509403, "tags": {"board_type": "nature", "information": "board", "name": "Vltava", "tourism": "information"}}, {"type": "node", "id": 12232709176, "lat": 48.8210399, "lon": 13.9531213, "tags": {"tourism": "viewpoint"}}, {"type": "node", "id": 12232712308, "lat": 48.8257865, "lon": 13.9709407, "tags": {"board_type": "history", "information": "board", "name": "Medv\u011bdi na \u017delnavsku", "tourism": "information"}}, {"type": "node", "id": 12232712310, "lat": 48.822069, "lon": 13.9762619, "tags": {"board_type": "history", "information": "board", "name": "T\u00e9ma mnoha stalet\u00ed a st\u00e1le \u017ehav\u00e9", "tourism": "information"}}, {"type": "node", "id": 12232712312, "lat": 48.8132293, "lon": 13.9740874, "tags": {"board_type": "history", "information": "board", "name": "Sov\u011btsk\u00e1 delegace", "tourism": "information"}}, {"type": "node", "id": 12232712341, "lat": 48.8129774, "lon": 13.9670781, "tags": {"amenity": "shelter", "shelter_type": "picnic_shelter"}}, {"type": "node", "id": 12232712342, "lat": 48.8128566, "lon": 13.9671732, "tags": {"amenity": "shelter", "shelter_type": "picnic_shelter"}}, {"type": "node", "id": 12248628863, "lat": 48.818087, "lon": 13.8744225, "tags": {"name:de": "Lichtloch", "tourism": "attraction"}}, {"type": "node", "id": 12248628864, "lat": 48.8171757, "lon": 13.8760987, "tags": {"name:de": "Lichtloch", "tourism": "attraction"}}, {"type": "node", "id": 12253830302, "lat": 48.8557574, "lon": 13.9419292, "tags": {"colour": "Wei\u00df-Gelb mit Richtungspfeil", "information": "route_marker", "material": "stone", "tourism": "information"}}, {"type": "node", "id": 12374040900, "lat": 48.8778982, "lon": 13.8060229, "tags": {"board_type": "nature", "information": "board", "name": "\u017divot pro mok\u0159ady", "tourism": "information"}}, {"type": "node", "id": 12458883380, "lat": 48.7590568, "lon": 13.8144439, "tags": {"ele": "964", "name": "Hieselberg", "natural": "peak"}}, {"type": "node", "id": 12997301514, "lat": 48.8939258, "lon": 13.8245868, "tags": {"board_type": "notice", "information": "board", "tourism": "information"}}, {"type": "node", "id": 12999701455, "lat": 48.7788241, "lon": 13.9775143, "tags": {"board_type": "rules", "information": "board", "name": "361", "tourism": "information"}}, {"type": "node", "id": 12999706792, "lat": 48.8170385, "lon": 13.9482203, "tags": {"board_type": "rules", "information": "board", "name": "367", "tourism": "information"}}, {"type": "node", "id": 12999728518, "lat": 48.7863302, "lon": 13.9713989, "tags": {"board_type": "rules", "information": "board", "name": "362", "tourism": "information"}}, {"type": "node", "id": 13073169783, "lat": 48.9262042, "lon": 13.9693907}, {"type": "node", "id": 13073169784, "lat": 48.9261974, "lon": 13.9694413}, {"type": "node", "id": 13073169785, "lat": 48.9261627, "lon": 13.9694305}, {"type": "node", "id": 13073169786, "lat": 48.9261695, "lon": 13.9693799}, {"type": "node", "id": 13103310608, "lat": 48.9087832, "lon": 13.8742477, "tags": {"ele": "765", "information": "guidepost", "name": "Volary", "operator": "cz:K\u010cT", "ref": "VO699", "ski": "yes", "tourism": "information"}}, {"type": "node", "id": 13124858131, "lat": 48.7720707, "lon": 13.9105188, "tags": {"hiking": "yes", "information": "guidepost", "ski": "yes", "tourism": "information"}}, {"type": "node", "id": 13124860284, "lat": 48.7698292, "lon": 13.9225188, "tags": {"bicycle": "yes", "information": "guidepost", "tourism": "information"}}, {"type": "node", "id": 13124860489, "lat": 48.7720377, "lon": 13.9096046, "tags": {"bicycle": "yes", "hiking": "yes", "information": "guidepost", "tourism": "information"}}, {"type": "node", "id": 13124860958, "lat": 48.7721058, "lon": 13.9095546, "tags": {"bicycle": "yes", "information": "guidepost", "tourism": "information"}}, {"type": "node", "id": 13124880722, "lat": 48.7698544, "lon": 13.9227409, "tags": {"bicycle": "yes", "information": "guidepost", "tourism": "information"}}, {"type": "node", "id": 13124882228, "lat": 48.769802, "lon": 13.922593, "tags": {"bicycle": "yes", "hiking": "yes", "information": "guidepost", "tourism": "information"}}, {"type": "node", "id": 13352831752, "lat": 48.8749329, "lon": 13.8527492, "tags": {"ele": "858", "name": "Sto\u017ee\u010dek", "natural": "peak"}}, {"type": "node", "id": 13352857777, "lat": 48.8339936, "lon": 13.8327609, "tags": {"ele": "966", "natural": "peak"}}, {"type": "way", "id": 26312947, "nodes": [288278563, 11178301842, 288278564, 288278565, 288278567, 288278563], "tags": {"addr:city": "Neureichenau", "addr:country": "DE", "addr:housenumber": "1", "addr:place": "Dreisesselhaus", "addr:postcode": "94089", "building": "yes", "check_date": "2024-06-26", "fee": "yes", "image": "https://de.wikipedia.org/wiki/Datei:Berggasthof_Dreisessel_02.jpg", "name": "Dreisesselhaus", "tourism": "alpine_hut", "website": "https://www.dreisessel.com/", "wikidata": "Q37701028"}}, {"type": "way", "id": 147586474, "nodes": [1607870836, 1607870744, 10008636098, 6588889678, 6588889677, 6588889676, 6588889679, 6588889680, 1607870826, 10008636097, 1607870836], "tags": {"amenity": "shelter", "building": "transportation", "building:ruian:type": "17", "description": "diesel \u010derpa\u010dka", "ref:ruian:building": "48360791", "source": "cuzk:ruian"}}, {"type": "way", "id": 259251686, "nodes": [2646061286, 2646061284, 2646061279, 2646061281, 2646061286], "tags": {"amenity": "shelter", "building": "transportation", "building:ruian:type": "17", "ref:ruian:building": "44147929", "shelter_type": "public_transport", "source": "cuzk:ruian"}}, {"type": "way", "id": 421733415, "nodes": [4214850568, 4214850569, 4214850567, 4214850566, 4214850568], "tags": {"amenity": "shelter", "building": "yes", "shelter_type": "weather_shelter"}}, {"type": "way", "id": 421733416, "nodes": [4214850577, 4214850578, 4214850576, 4214850575, 4214850577], "tags": {"amenity": "shelter", "building": "yes", "shelter_type": "picnic_shelter"}}, {"type": "way", "id": 442683332, "nodes": [4403535048, 4403535051, 4403535049, 4403535050, 4403535048], "tags": {"amenity": "shelter", "building": "yes", "building:colour": "brown", "building:material": "wood", "shelter_type": "public_transport"}}, {"type": "way", "id": 776607507, "nodes": [949000225, 948785651, 8707540336, 949109439], "tags": {"alt_name": "Schwarzenbersk\u00fd plavebn\u00ed kan\u00e1l", "bridge": "aqueduct", "dibavod:id": "400970100100", "layer": "1", "name": "Schwarzenbersk\u00fd kan\u00e1l", "name:de": "Schwarzenbergscher Schwemmkanal", "name:nl": "Schwarzenbergkanaal", "source": "dibavod", "tourism": "attraction", "waterway": "canal", "width": "0.8", "wikimedia_commons": "File:Akvadukt na Ko\u0148sk\u00e9m potoce - Aqu\u00e4dukt am Rossbach (Schwarzenberger Schwemmkanal).jpg"}}, {"type": "way", "id": 809709240, "nodes": [7570693576, 7570693582, 7570693581, 7570693580, 7570693576], "tags": {"building": "cabin", "contact:email": "splouvani.vltava@npsumava.cz", "contact:phone": "+420 731 530 418", "contact:website": "https://www.npsumava.cz/navstivte-sumavu/vodacke-trasy-splouvani/", "information": "national_park", "name": "Registra\u010dn\u00ed a informacni bod", "tourism": "information"}}, {"type": "way", "id": 906775566, "nodes": [8420154895, 8420154896, 8420154897, 8420154898, 8420154895], "tags": {"amenity": "shelter", "building": "yes", "shelter_type": "public_transport"}}, {"type": "way", "id": 906780277, "nodes": [8420123681, 8420123682, 8420123683, 8420123684, 8420123681], "tags": {"amenity": "shelter", "building": "yes", "shelter_type": "public_transport"}}, {"type": "way", "id": 952681897, "nodes": [8818015117, 11964942770, 8817928116, 8817928115, 8817928114, 8818015117], "tags": {"access": "yes", "amenity": "shelter", "building": "yes", "name": "Zwieselh\u00fctte", "shelter_type": "weather_shelter", "source": "survey;uhul:ortofoto"}}, {"type": "way", "id": 1069071641, "nodes": [9813129987, 9813129988, 9813129989, 9813129990, 9813129991, 9813129992, 9813129987], "tags": {"amenity": "shelter", "building": "yes", "shelter_type": "picnic_shelter"}}, {"type": "way", "id": 1069071648, "nodes": [9813130014, 9813130015, 9813130016, 9813149117, 9813130014], "tags": {"amenity": "shelter", "building": "yes", "picnic_table": "yes", "shelter_type": "weather_shelter"}}, {"type": "way", "id": 1126538988, "nodes": [10301083886, 10301083887, 10301083888, 10301083889, 10301083886], "tags": {"amenity": "shelter", "name": "Uhligsthal", "shelter_type": "picnic_shelter"}}, {"type": "way", "id": 1131546150, "nodes": [10548579354, 10548579355, 10548579356, 10548579357, 10548579358, 10548579359, 10548579360, 10548579342, 10548579343, 10548579344, 10548579348, 10548579349, 10548579350, 10548579351, 10548579352, 10548579353, 10548579345, 10548579346, 10548579347, 10548579354], "tags": {"amenity": "shelter", "building": "yes"}}, {"type": "way", "id": 1131546157, "nodes": [10548579382, 10548579383, 10548579384, 10548579385, 10548579382], "tags": {"amenity": "shelter", "building": "yes"}}, {"type": "way", "id": 1422546567, "nodes": [13073169783, 13073169784, 13073169785, 13073169786, 13073169783], "tags": {"amenity": "shelter", "building": "yes", "shelter_type": "public_transport"}}]}