{"version": 0.6, "generator": "Overpass API 0.7.62.8 e802775f", "osm3s": {"timestamp_osm_base": "2026-01-05T15:45:15Z", "copyright": "The data included in this document is from www.openstreetmap.org. The data is made available under ODbL."}, "elements": [{"type": "node", "id": 26863050, "lat": 49.1124718, "lon": 13.13619, "tags": {"ele": "1456", "importance": "national", "name": "Gro\u00dfer Arber", "name:cs": "Velk\u00fd Javor", "name:ru": "\u0411\u043e\u043b\u044c\u0448\u043e\u0439 \u042f\u0432\u043e\u0440", "natural": "peak", "prominence": "1026", "summit:cross": "yes", "summit:register": "no", "wikidata": "Q260073", "wikipedia": "de:Gro\u00dfer Arber"}}, {"type": "node", "id": 29706661, "lat": 49.1474873, "lon": 13.1567911, "tags": {"ele": "1062", "name": "Hindenburgkanzel", "source": "Wikipedia", "tourism": "viewpoint", "wikidata": "Q1619292", "wikipedia": "de:Hindenburgkanzel"}}, {"type": "node", "id": 29709051, "lat": 49.1274824, "lon": 13.1174867, "tags": {"board_type": "nature", "check_date": "2023-10-14", "information": "board", "name": "Naturschutzgebiet Kleiner Arbersee", "tourism": "information"}}, {"type": "node", "id": 34972201, "lat": 49.0701145, "lon": 13.1017954, "tags": {"addr:city": "Bodenmais", "addr:country": "DE", "addr:housenumber": "56", "addr:postcode": "94249", "addr:street": "Bahnhofstra\u00dfe", "information": "office", "name": "Tourist Information", "opening_hours": "Mo-Fr 08:30-17:00; Sa-Su,PH 08:30-12:00; Nov-Dec Sa-Su,PH 10:00-12:00; Dec 24 08:30-12:00; Dec 31 08:30-12:00; Jan 1 08:30-12:00", "tourism": "information", "wheelchair": "yes"}}, {"type": "node", "id": 34972297, "lat": 49.1298091, "lon": 13.0522605, "tags": {"information": "guidepost", "tourism": "information"}}, {"type": "node", "id": 35122085, "lat": 49.1112851, "lon": 13.1332463, "tags": {"tourism": "viewpoint", "wheelchair": "no"}}, {"type": "node", "id": 96428405, "lat": 49.1133011, "lon": 13.1100722, "tags": {"ele": "1384", "name": "Kleiner Arber", "name:cs": "Mal\u00fd Javor", "natural": "peak", "source": "wikipedia.de", "summit:cross": "yes", "wikidata": "Q882309", "wikipedia": "de:Kleiner Arber"}}, {"type": "node", "id": 281997843, "lat": 49.0593049, "lon": 13.1229194, "tags": {"attraction": "summer_toboggan", "name": "Sommerrodelbahn", "tourism": "attraction", "wheelchair": "no"}}, {"type": "node", "id": 281997902, "lat": 49.0571546, "lon": 13.1243106, "tags": {"alt_name": "Bischofshaube", "ele": "955", "name": "Silberberg", "natural": "peak", "summit:cross": "yes", "summit:register": "no", "wikidata": "Q2285737", "wikipedia": "de:Silberberg (Bodenmais)"}}, {"type": "node", "id": 282247293, "lat": 49.088056, "lon": 13.0865685, "tags": {"addr:city": "Bodenmais", "description:de": "zweith\u00f6chster Wasserfall (6\u20138 m) des Bayerischen Waldes", "name": "Hochfall", "tourism": "attraction", "waterway": "waterfall", "website": "https://regiowiki.pnp.de/wiki/Hochfall", "wheelchair": "no", "wikidata": "Q32059170"}}, {"type": "node", "id": 282697408, "lat": 49.0944059, "lon": 13.1443524, "tags": {"tourism": "viewpoint"}}, {"type": "node", "id": 290221795, "lat": 49.0791262, "lon": 13.1057384, "tags": {"amenity": "shelter", "fireplace": "no", "shelter_type": "weather_shelter"}}, {"type": "node", "id": 290229498, "lat": 49.0932412, "lon": 13.1086218, "tags": {"amenity": "shelter", "shelter_type": "weather_shelter"}}, {"type": "node", "id": 303036106, "lat": 49.1138654, "lon": 13.1328035, "tags": {"description": "Seeblick - Kleiner Arbersee", "tourism": "viewpoint", "wheelchair": "no"}}, {"type": "node", "id": 303513285, "lat": 49.0589338, "lon": 13.1216667, "tags": {"alt_name": "Besucherbergwerk", "email": "historisches-besucherbergwerk@t-online.de", "name": "Silberbergwerk", "phone": "+49 9924 304", "tourism": "attraction", "website": "https://www.silberberg-online.de/", "wheelchair": "no"}}, {"type": "node", "id": 314375218, "lat": 49.1124817, "lon": 13.1361491, "tags": {"tourism": "viewpoint", "wheelchair": "no"}}, {"type": "node", "id": 317727272, "lat": 49.1133824, "lon": 13.1148908, "tags": {"beds": "58", "designation": "Am kleinen Arber", "ele": "1289", "name": "Chamer H\u00fctte", "tourism": "alpine_hut", "website": "https://www.sc-bodenmais.de/chamer-huette/"}}, {"type": "node", "id": 319268780, "lat": 49.0742343, "lon": 13.1562643, "tags": {"ele": "1120", "name": "Langlaufzentrum Bretterschachten", "sport": "skiing", "tourism": "attraction"}}, {"type": "node", "id": 343513269, "lat": 48.9566222, "lon": 13.1222784, "tags": {"tourism": "information"}}, {"type": "node", "id": 366961102, "lat": 49.1135984, "lon": 13.1390724}, {"type": "node", "id": 366961106, "lat": 49.1135586, "lon": 13.1389228}, {"type": "node", "id": 366961111, "lat": 49.1133169, "lon": 13.139247}, {"type": "node", "id": 366961133, "lat": 49.1132605, "lon": 13.1390348}, {"type": "node", "id": 366961136, "lat": 49.1135077, "lon": 13.1389544}, {"type": "node", "id": 403303195, "lat": 49.1237073, "lon": 13.0830635, "tags": {"ele": "1287", "name": "Enzian", "natural": "peak", "source": "wikipedia.de", "wikidata": "Q1346013", "wikipedia": "de:Enzian (Bayerischer Wald)"}}, {"type": "node", "id": 403307514, "lat": 49.1292361, "lon": 13.0682204, "tags": {"ele": "1262", "name": "Heugstatt", "natural": "peak", "wikidata": "Q1438190", "wikipedia": "de:Heugstatt"}}, {"type": "node", "id": 416644868, "lat": 49.0450716, "lon": 13.1815386, "tags": {"alt_name": "H\u00fchnerkobel", "ele": "965", "name": "Hennenkobel", "natural": "peak", "summit:cross": "yes", "summit:register": "yes", "wikidata": "Q1605368", "wikipedia": "de:Hennenkobel"}}, {"type": "node", "id": 416678030, "lat": 49.0369388, "lon": 13.1053062, "tags": {"ele": "983", "name": "Kronberg", "natural": "peak", "wikidata": "Q1634170", "wikipedia": "de:Kronberg (Niederbayern)"}}, {"type": "node", "id": 436158256, "lat": 49.0494155, "lon": 13.0806915, "tags": {"ele": "914", "name": "Harlachberger Spitze", "natural": "peak", "summit:cross": "yes", "summit:register": "yes", "website": "https://regiowiki.pnp.de/index.php/Harlachberg_bei_Bodenmais", "wikidata": "Q31542264"}}, {"type": "node", "id": 437029773, "lat": 49.1374915, "lon": 13.0683804, "tags": {"access": "yes", "amenity": "shelter", "bench": "yes", "description": "Der Unterstand hat eine umlaufende Bank. Auf dem Erdboden ist es m\u00f6glich, dass eine Person mit Isomatte \u00fcbernachten kann. Bei schlechten Wetter und mehr als eine Person, k\u00f6nnte es reinregnen.", "lockable": "no", "locked": "no", "name": "Reischflecksattel", "picnic_table": "no", "shelter_type": "lean_to", "surface": "dirt", "table": "no"}}, {"type": "node", "id": 437029801, "lat": 49.1210706, "lon": 13.0923415}, {"type": "node", "id": 437029848, "lat": 49.1109305, "lon": 13.1383017, "tags": {"tourism": "viewpoint", "wheelchair": "no"}}, {"type": "node", "id": 437029853, "lat": 49.1006364, "lon": 13.1386682, "tags": {"amenity": "shelter", "name": "Schutzh\u00fctte am Seesteig", "shelter_type": "weather_shelter"}}, {"type": "node", "id": 437159733, "lat": 49.1351634, "lon": 13.062517, "tags": {"information": "guidepost", "tourism": "information"}}, {"type": "node", "id": 441272641, "lat": 49.1296645, "lon": 13.0521478, "tags": {"information": "hikingmap", "tourism": "information"}}, {"type": "node", "id": 486254405, "lat": 49.1400023, "lon": 13.1100074, "tags": {"name": "Sollerfall", "tourism": "attraction", "waterway": "waterfall"}}, {"type": "node", "id": 533923132, "lat": 49.0625806, "lon": 13.1423679, "tags": {"name": "Vitriolh\u00fctte Oleum", "tourism": "attraction"}}, {"type": "node", "id": 533928960, "lat": 48.974047, "lon": 13.1353461, "tags": {"direction": "SSE", "tourism": "viewpoint"}}, {"type": "node", "id": 534575536, "lat": 49.096316, "lon": 13.1714434, "tags": {"access": "yes", "amenity": "shelter", "bench": "yes", "bin": "no", "description": "Schutzh\u00fctte mit drei W\u00e4nden, einer offenen Wand und umlaufender Bank. Je nach Wetter f\u00fcr 1-2 Personen zum \u00dcbernachten geeignet.", "lockable": "no", "locked": "no", "picnic_table": "no", "shelter_type": "weather_shelter", "surface": "wood", "table": "no"}}, {"type": "node", "id": 748062527, "lat": 49.136338, "lon": 13.1766604, "tags": {"tourism": "viewpoint"}}, {"type": "node", "id": 748854770, "lat": 49.1184653, "lon": 13.1948303, "tags": {"bicycle": "yes", "check_date": "2022-01-01", "hiking": "yes", "information": "map", "map_size": "region", "map_type": "topo", "mtb": "yes", "name": "Wanderkarte", "tourism": "information"}}, {"type": "node", "id": 751994862, "lat": 49.0914088, "lon": 13.1985193, "tags": {"information": "guidepost", "name": "Zum Schwellh\u00e4usl", "tourism": "information"}}, {"type": "node", "id": 850881154, "lat": 49.1373772, "lon": 13.0683085, "tags": {"information": "guidepost", "tourism": "information"}}, {"type": "node", "id": 873636545, "lat": 49.1051747, "lon": 13.114476, "tags": {"amenity": "shelter"}}, {"type": "node", "id": 873636642, "lat": 49.1465603, "lon": 13.0645594, "tags": {"ele": "1235", "name": "Schwarzeck", "natural": "peak", "wikidata": "Q516926", "wikipedia": "de:Schwarzeck (Bayerischer Wald)"}}, {"type": "node", "id": 873636685, "lat": 49.1465221, "lon": 13.0645242, "tags": {"tourism": "viewpoint"}}, {"type": "node", "id": 873636692, "lat": 49.1338547, "lon": 13.0690765, "tags": {"information": "guidepost", "tourism": "information"}}, {"type": "node", "id": 873636774, "lat": 49.1379841, "lon": 13.0670219, "tags": {"information": "guidepost", "tourism": "information"}}, {"type": "node", "id": 873636824, "lat": 49.1474258, "lon": 13.0636391, "tags": {"direction": "290-100", "tourism": "viewpoint"}}, {"type": "node", "id": 1037157293, "lat": 49.0129128, "lon": 13.0296026, "tags": {"board_type": "board", "information": "board", "tourism": "information", "wheelchair": "limited"}}, {"type": "node", "id": 1037157336, "lat": 49.0132506, "lon": 13.0294038, "tags": {"information": "map", "map_size": "site", "map_type": "street", "tourism": "information", "wheelchair": "limited"}}, {"type": "node", "id": 1037157358, "lat": 49.0138919, "lon": 13.0288876, "tags": {"hiking": "yes", "information": "map", "map_type": "topo", "tourism": "information"}}, {"type": "node", "id": 1132220644, "lat": 49.0695697, "lon": 13.1030953}, {"type": "node", "id": 1132220892, "lat": 49.0697983, "lon": 13.103164}, {"type": "node", "id": 1132221085, "lat": 49.0695531, "lon": 13.1031853}, {"type": "node", "id": 1132221135, "lat": 49.0696044, "lon": 13.1032617}, {"type": "node", "id": 1132221216, "lat": 49.0695933, "lon": 13.1032104}, {"type": "node", "id": 1132221336, "lat": 49.0696081, "lon": 13.103076}, {"type": "node", "id": 1132221385, "lat": 49.0695856, "lon": 13.1031689}, {"type": "node", "id": 1132221490, "lat": 49.0697625, "lon": 13.1029983}, {"type": "node", "id": 1132221588, "lat": 49.069562, "lon": 13.1032262}, {"type": "node", "id": 1149812832, "lat": 49.0776795, "lon": 13.1332083, "tags": {"ele": "1208", "name": "Hochzellberg", "natural": "peak", "wikidata": "Q968738", "wikipedia": "de:Hochzellberg"}}, {"type": "node", "id": 1151333083, "lat": 49.1021714, "lon": 13.1280371, "tags": {"amenity": "shelter", "name": "Am Arberh\u00fctten-Schachten", "shelter_type": "weather_shelter"}}, {"type": "node", "id": 1161322926, "lat": 49.0459941, "lon": 13.0935857, "tags": {"ele": "869", "name": "Strohmannhanselh\u00f6he", "natural": "peak"}}, {"type": "node", "id": 1276797209, "lat": 49.1099995, "lon": 13.1291351, "tags": {"information": "guidepost", "tourism": "information"}}, {"type": "node", "id": 1276797221, "lat": 49.1131051, "lon": 13.1148133, "tags": {"information": "guidepost", "name": "Wegweiser", "tourism": "information"}}, {"type": "node", "id": 1276797258, "lat": 49.113734, "lon": 13.1151527, "tags": {"information": "guidepost", "tourism": "information"}}, {"type": "node", "id": 1276797286, "lat": 49.1196899, "lon": 13.0996691, "tags": {"information": "guidepost", "tourism": "information"}}, {"type": "node", "id": 1276797333, "lat": 49.1148969, "lon": 13.1056741, "tags": {"information": "guidepost", "tourism": "information"}}, {"type": "node", "id": 1276797364, "lat": 49.1291564, "lon": 13.0683995, "tags": {"information": "guidepost", "tourism": "information"}}, {"type": "node", "id": 1276797382, "lat": 49.1207849, "lon": 13.0930623, "tags": {"information": "guidepost", "name": "Kl. Arber DJH - 2km / Heugstatt 2,5km / Sch\u00f6nbach & Riedlberg 5km (Nr.7)", "tourism": "information"}}, {"type": "node", "id": 1277456932, "lat": 49.1131702, "lon": 13.1151147, "tags": {"information": "guidepost", "tourism": "information"}}, {"type": "node", "id": 1277456982, "lat": 49.1203313, "lon": 13.0979531, "tags": {"information": "guidepost", "tourism": "information"}}, {"type": "node", "id": 1303953801, "lat": 49.0969394, "lon": 13.0312429, "tags": {"tourism": "information"}}, {"type": "node", "id": 1313128031, "lat": 49.128532, "lon": 13.1209654, "tags": {"information": "board", "name": "Naturschutzgebiet \"Kleiner Arbersee\"", "tourism": "information"}}, {"type": "node", "id": 1313129210, "lat": 49.074206, "lon": 13.1429185, "tags": {"tourism": "viewpoint"}}, {"type": "node", "id": 1313131512, "lat": 49.0572077, "lon": 13.1246772, "tags": {"board_type": "history", "check_date": "2025-07-18", "information": "board", "name": "Silberberg", "tourism": "information"}}, {"type": "node", "id": 1313131513, "lat": 49.057224, "lon": 13.1240928, "tags": {"tourism": "viewpoint"}}, {"type": "node", "id": 1313209783, "lat": 49.0190825, "lon": 13.0335409, "tags": {"name": "Berliner Kreuz", "natural": "peak"}}, {"type": "node", "id": 1354942973, "lat": 49.1309938, "lon": 13.1233051, "tags": {"information": "hikingmap", "name": "Wanderkarte", "tourism": "information"}}, {"type": "node", "id": 1354942979, "lat": 49.1458478, "lon": 13.12043, "tags": {"hiking": "yes", "information": "guidepost", "tourism": "information"}}, {"type": "node", "id": 1354942988, "lat": 49.1325914, "lon": 13.1226593, "tags": {"hiking": "yes", "information": "guidepost", "name": "Wegweiser", "tourism": "information"}}, {"type": "node", "id": 1407404108, "lat": 48.9719171, "lon": 13.0166549, "tags": {"ele": "687", "name": "Buchberg", "natural": "peak"}}, {"type": "node", "id": 1407404121, "lat": 48.9576042, "lon": 13.0334777, "tags": {"ele": "871", "name": "Rosenberg", "natural": "peak", "wikidata": "Q31525348"}}, {"type": "node", "id": 1407404123, "lat": 48.9526445, "lon": 13.0456657, "tags": {"ele": "818", "name": "Bornstein", "natural": "peak", "summit:cross": "yes"}}, {"type": "node", "id": 1411407100, "lat": 48.9702158, "lon": 13.1254618, "tags": {"addr:city": "Regen", "addr:country": "DE", "addr:housenumber": "2", "addr:postcode": "94209", "addr:street": "Schulgasse", "information": "office", "name": "Touristen-Information", "opening_hours": "Mo-Fr 08:00-17:00; Sa,Su 10:00-17:00", "tourism": "information", "wikidata": "Q98700926"}}, {"type": "node", "id": 1412487095, "lat": 49.1285212, "lon": 13.1210461, "tags": {"board_type": "history", "information": "board", "name": "Gl\u00e4serner Steig", "tourism": "information"}}, {"type": "node", "id": 1451648425, "lat": 49.1179498, "lon": 13.0492253}, {"type": "node", "id": 1636913220, "lat": 49.1194539, "lon": 13.1982738, "tags": {"addr:city": "Bayerisch Eisenstein", "addr:country": "DE", "addr:housenumber": "1", "addr:postcode": "94252", "addr:street": "Schulbergstra\u00dfe", "check_date": "2025-12-10", "information": "office", "name": "Tourist-Info Bayerisch Eisenstein", "opening_hours": "Mo-Th 09:00-17:00; Fr 09:00-12:30; Sa, Su 10:00-12:00", "tourism": "information"}}, {"type": "node", "id": 1695347543, "lat": 48.9637448, "lon": 13.125196, "tags": {"note": "Blick \u00fcber die Stadt Regen", "tourism": "viewpoint"}}, {"type": "node", "id": 1695349234, "lat": 48.9706219, "lon": 13.1407658, "tags": {"amenity": "bench", "tourism": "viewpoint"}}, {"type": "node", "id": 1695791260, "lat": 49.0107277, "lon": 13.1437786, "tags": {"bicycle": "yes", "description": "Wanderkarte Langdorf und Umgebung", "hiking": "yes", "information": "map", "map_size": "region", "map_type": "topo", "mtb": "yes", "name": "Info 5", "tourism": "information"}}, {"type": "node", "id": 1783245001, "lat": 49.0887259, "lon": 13.1201887, "tags": {"addr:city": "Bodenmais", "addr:country": "DE", "addr:postcode": "94249", "addr:street": "Obere Wasserstube", "ele": "939", "name": "Ri\u00dflochf\u00e4lle", "tourism": "attraction", "waterway": "waterfall", "wikidata": "Q836234", "wikipedia": "de:Rieslochf\u00e4lle"}}, {"type": "node", "id": 1818063444, "lat": 49.1007121, "lon": 13.120294, "tags": {"amenity": "shelter", "shelter_type": "weather_shelter"}}, {"type": "node", "id": 1837294792, "lat": 49.0343422, "lon": 13.1483906, "tags": {"board_type": "board", "check_date": "2021-10-29", "information": "board", "tourism": "information"}}, {"type": "node", "id": 1839444552, "lat": 49.0674808, "lon": 13.0576415, "tags": {"tourism": "viewpoint"}}, {"type": "node", "id": 1839444558, "lat": 49.067519, "lon": 13.0574965, "tags": {"ele": "818", "name": "Sternkn\u00f6ckel", "natural": "peak", "wikidata": "Q31518630"}}, {"type": "node", "id": 1839444562, "lat": 49.0700545, "lon": 13.039963, "tags": {"ele": "876", "name": "Wolfgangriegel", "natural": "peak", "wikidata": "Q31566888"}}, {"type": "node", "id": 1839451843, "lat": 49.0573317, "lon": 13.0357667, "tags": {"addr:city": "B\u00f6brach", "addr:housenumber": "1", "addr:postcode": "94255", "addr:street": "Rathausplatz", "information": "office", "name": "Touristinfo B\u00f6brach", "phone": "+49 9923 801000", "tourism": "information", "website": "https://boebrach.de/"}}, {"type": "node", "id": 1844875490, "lat": 49.0494509, "lon": 13.0807304, "tags": {"tourism": "viewpoint"}}, {"type": "node", "id": 1847822166, "lat": 49.1074044, "lon": 13.0106926, "tags": {"addr:housenumber": "12", "addr:street": "Zellertalstra\u00dfe", "contact:email": "tourist-info@drachselsried.de", "contact:phone": "+499945 905033", "contact:website": "https://www.zellertal-online.de/de", "drinking_water:refill": "yes", "drinking_water:refill:network": "Refill", "information": "office", "name": "Touristinfo", "tourism": "information"}}, {"type": "node", "id": 1875438824, "lat": 49.000016, "lon": 13.1794302, "tags": {"name": "Ochsenberg", "natural": "peak"}}, {"type": "node", "id": 1875438884, "lat": 49.0069684, "lon": 13.1802158, "tags": {"name": "M\u00fchlberg", "natural": "peak"}}, {"type": "node", "id": 1875462397, "lat": 49.0028314, "lon": 13.1432312, "tags": {"name": "Unterdorfer Berg", "natural": "peak"}}, {"type": "node", "id": 1875478089, "lat": 48.9815288, "lon": 13.1166666, "tags": {"name": "Galgenberg", "natural": "peak"}}, {"type": "node", "id": 1875478131, "lat": 48.989161, "lon": 13.1038134, "tags": {"name": "Abendberg", "natural": "peak"}}, {"type": "node", "id": 1875478132, "lat": 48.9747123, "lon": 13.1077831, "tags": {"name": "K\u00fchberg", "natural": "peak"}}, {"type": "node", "id": 1875733446, "lat": 49.096812, "lon": 13.1223159, "tags": {"amenity": "shelter"}}, {"type": "node", "id": 1877678436, "lat": 49.0887464, "lon": 13.116293, "tags": {"name": "Schweiklruh", "place": "locality", "tourism": "viewpoint"}}, {"type": "node", "id": 1878093630, "lat": 49.1236936, "lon": 13.0641426, "tags": {"ele": "1134", "name": "Hochstein", "natural": "peak", "wikidata": "Q1622341", "wikipedia": "de:Hochstein (Arbermassiv)"}}, {"type": "node", "id": 1884090526, "lat": 49.0884336, "lon": 13.0905705, "tags": {"amenity": "shelter", "shelter_type": "weather_shelter"}}, {"type": "node", "id": 1884090528, "lat": 49.0883915, "lon": 13.0905759, "tags": {"information": "hikingmap", "name": "Wanderkarte", "tourism": "information"}}, {"type": "node", "id": 1884090530, "lat": 49.0883194, "lon": 13.0906027, "tags": {"hiking": "yes", "information": "guidepost", "tourism": "information"}}, {"type": "node", "id": 1884133165, "lat": 49.0991141, "lon": 13.0886152, "tags": {"hiking": "yes", "information": "guidepost", "tourism": "information"}}, {"type": "node", "id": 1884203666, "lat": 49.1054129, "lon": 13.0791994, "tags": {"information": "board", "name": "Steinklammer", "tourism": "information"}}, {"type": "node", "id": 1884245903, "lat": 49.1136655, "lon": 13.0610742, "tags": {"information": "guidepost", "tourism": "information"}}, {"type": "node", "id": 1884245961, "lat": 49.1116376, "lon": 13.0678388, "tags": {"information": "guidepost", "tourism": "information"}}, {"type": "node", "id": 1884305185, "lat": 49.1119686, "lon": 13.0690927, "tags": {"information": "guidepost", "tourism": "information"}}, {"type": "node", "id": 1884305220, "lat": 49.1099574, "lon": 13.0661892, "tags": {"information": "guidepost", "tourism": "information"}}, {"type": "node", "id": 1884349307, "lat": 49.0786364, "lon": 13.0902405, "tags": {"hiking": "yes", "information": "guidepost", "tourism": "information"}}, {"type": "node", "id": 1884378200, "lat": 49.1152824, "lon": 13.0606987, "tags": {"information": "board", "name": "Hochsteinebene", "tourism": "information"}}, {"type": "node", "id": 1884435754, "lat": 49.1225141, "lon": 13.064322, "tags": {"hiking": "yes", "information": "guidepost", "tourism": "information"}}, {"type": "node", "id": 1884456006, "lat": 49.1010002, "lon": 13.0870166, "tags": {"hiking": "yes", "information": "guidepost", "tourism": "information"}}, {"type": "node", "id": 1884482871, "lat": 49.1288012, "lon": 13.052395, "tags": {"hiking": "yes", "information": "guidepost", "tourism": "information"}}, {"type": "node", "id": 1884526525, "lat": 49.1049286, "lon": 13.0873426, "tags": {"information": "board", "name": "Auerhahnschutzgebiet", "tourism": "information"}}, {"type": "node", "id": 1884559917, "lat": 49.1049322, "lon": 13.0873479, "tags": {"amenity": "shelter", "name": "Tausender", "shelter_type": "weather_shelter"}}, {"type": "node", "id": 1889435100, "lat": 49.1237883, "lon": 13.064132, "tags": {"loc_name": "Hochstein", "tourism": "viewpoint"}}, {"type": "node", "id": 1929409803, "lat": 49.1308037, "lon": 13.0545331, "tags": {"name": "Frei bis 7,5 to", "tourism": "information"}}, {"type": "node", "id": 1929473706, "lat": 49.1402802, "lon": 13.0592189, "tags": {"information": "board", "name": "Auerhahngebiet", "tourism": "information"}}, {"type": "node", "id": 1929568812, "lat": 49.1397187, "lon": 13.066375, "tags": {"tourism": "viewpoint"}}, {"type": "node", "id": 1929568861, "lat": 49.1465819, "lon": 13.0645565, "tags": {"hiking": "yes", "information": "guidepost", "tourism": "information"}}, {"type": "node", "id": 1929628032, "lat": 49.1463792, "lon": 13.0574379, "tags": {"information": "board", "name": "H\u00e4ngender Riegel 1080m", "tourism": "information"}}, {"type": "node", "id": 1930124292, "lat": 49.1339615, "lon": 13.0690593, "tags": {"name": "Reischflecksattel", "tourism": "viewpoint"}}, {"type": "node", "id": 1997727617, "lat": 49.0902985, "lon": 13.1945058, "tags": {"bicycle": "yes", "hiking": "yes", "information": "guidepost", "tourism": "information"}}, {"type": "node", "id": 1997727636, "lat": 49.0912695, "lon": 13.1964993, "tags": {"hiking": "yes", "information": "guidepost", "tourism": "information"}}, {"type": "node", "id": 2048073821, "lat": 48.9649274, "lon": 13.0577549, "tags": {"information": "guidepost", "tourism": "information"}}, {"type": "node", "id": 2048073832, "lat": 48.9682688, "lon": 13.0413448, "tags": {"information": "guidepost", "tourism": "information"}}, {"type": "node", "id": 2048073865, "lat": 48.9699423, "lon": 13.0337401, "tags": {"information": "guidepost", "tourism": "information"}}, {"type": "node", "id": 2048073871, "lat": 48.9701034, "lon": 13.0532274, "tags": {"information": "guidepost", "tourism": "information"}}, {"type": "node", "id": 2048073883, "lat": 48.9706092, "lon": 13.0306672, "tags": {"information": "guidepost", "tourism": "information"}}, {"type": "node", "id": 2048073922, "lat": 48.9738691, "lon": 13.0173665, "tags": {"information": "guidepost", "tourism": "information"}}, {"type": "node", "id": 2048073973, "lat": 48.9755728, "lon": 13.0144982, "tags": {"information": "guidepost", "tourism": "information"}}, {"type": "node", "id": 2048073990, "lat": 48.975907, "lon": 13.0284944, "tags": {"information": "guidepost", "tourism": "information"}}, {"type": "node", "id": 2048074027, "lat": 48.9765172, "lon": 13.0372993, "tags": {"information": "guidepost", "tourism": "information"}}, {"type": "node", "id": 2048074055, "lat": 48.9651512, "lon": 13.0575595, "tags": {"check_date": "2024-08-08", "information": "map", "map_size": "region", "map_type": "topo", "name": "Wanderkarte", "tourism": "information"}}, {"type": "node", "id": 2050487090, "lat": 48.9763346, "lon": 13.024496, "tags": {"information": "guidepost", "tourism": "information"}}, {"type": "node", "id": 2051573244, "lat": 49.0086684, "lon": 13.0348783, "tags": {"ele": "609", "name": "Hohes Kreuz", "natural": "peak"}}, {"type": "node", "id": 2051573245, "lat": 49.0232466, "lon": 13.0293959, "tags": {"ele": "650", "name": "Vormittagberg", "natural": "peak"}}, {"type": "node", "id": 2060032362, "lat": 48.9882608, "lon": 13.0423875, "tags": {"ele": "772", "name": "Oberer Berg", "natural": "peak"}}, {"type": "node", "id": 2093786609, "lat": 49.0644972, "lon": 13.1027144, "tags": {"board_type": "notice", "information": "board", "tourism": "information"}}, {"type": "node", "id": 2093844444, "lat": 49.0664945, "lon": 13.1012093, "tags": {"board_type": "notice", "information": "board", "tourism": "information"}}, {"type": "node", "id": 2159483847, "lat": 49.1187501, "lon": 13.1949322, "tags": {"amenity": "shelter", "shelter_type": "Wetterpilz"}}, {"type": "node", "id": 2170895968, "lat": 49.1504132, "lon": 13.0564093, "tags": {"description": "K\u00e4splatt'n-Blick", "tourism": "viewpoint"}}, {"type": "node", "id": 2192965217, "lat": 49.0756348, "lon": 13.1304832, "tags": {"direction": "180", "tourism": "viewpoint"}}, {"type": "node", "id": 2192965538, "lat": 49.0841065, "lon": 13.1432691, "tags": {"amenity": "shelter", "shelter_type": "picnic_shelter"}}, {"type": "node", "id": 2206281274, "lat": 49.0492787, "lon": 13.1983078, "tags": {"information": "guidepost", "tourism": "information"}}, {"type": "node", "id": 2206289060, "lat": 49.0497967, "lon": 13.1761601, "tags": {"bicycle": "yes", "direction_east": "Rabenstein 2,5km (10);Gl\u00e4serner Steig", "direction_south": "Kreuzweg;(29);Zwiesel Bahnhof 6km Hennenkobel 1km (4)", "direction_west": "Historischer Quarzbruch 600m;Bodenmais (4);Schachtenbach 3km (29)", "hiking": "yes", "information": "guidepost", "name": "Wegweiser", "tourism": "information"}}, {"type": "node", "id": 2206289949, "lat": 49.0500634, "lon": 13.1774587, "tags": {"amenity": "shelter", "bench": "yes"}}, {"type": "node", "id": 2206296931, "lat": 49.0451503, "lon": 13.1816965, "tags": {"direction_northwest": "Brandten 4,6km/1:30h;Bahnhof Nebelberg 6,5km/2:15h;Langdorf 7km/2:30h;Kiesau historischer Quarzbruch 1,3km/0:20h;Sch\u00f6nebene Wanderparkplatz 5,1km/1:30h;B\u00f6mhof 8,5km/2:30h;Bodenmais (4);Rundweg (29)", "direction_southeast": "Zwiesel (4)", "hiking": "yes", "information": "guidepost", "tourism": "information"}}, {"type": "node", "id": 2206296934, "lat": 49.0456903, "lon": 13.1805532, "tags": {"direction_north": "Rabenstein (29);Bodenmais (4);Kiesau historischer Quarzbruch 1,2km/0:20h;Sch\u00f6nebene Wanderparkplatz 5km/1:30h;B\u00f6hmhof 8,4km/2:30h", "direction_northwest": "Rabenstein um die Felsen (29);Brandten 4,5km/1:30h;Bahnhof Nebelberg 6,4km/2:15h;Langdorf 7,4km/2:30h", "direction_southeast": "Hennenkobelgipfel 150m", "hiking": "yes", "information": "guidepost", "tourism": "information"}}, {"type": "node", "id": 2206298750, "lat": 49.0669939, "lon": 13.1803746, "tags": {"direction_east": "(29)", "direction_northeast": "Gl\u00e4serner Steig;Regenh\u00fctte 3km (3)", "direction_southwest": "Gl\u00e4serner Steig;Sch\u00f6nebene 4km (3);Zwiesel Skistadion 9km Hennenkobel 4km (29)", "hiking": "yes", "information": "guidepost", "mtb": "yes", "tourism": "information"}}, {"type": "node", "id": 2206299400, "lat": 49.0667063, "lon": 13.1807938, "tags": {"hiking": "yes", "information": "guidepost", "tourism": "information"}}, {"type": "node", "id": 2321702511, "lat": 49.1289319, "lon": 13.15435}, {"type": "node", "id": 2321702525, "lat": 49.1288947, "lon": 13.154473}, {"type": "node", "id": 2321702536, "lat": 49.1287174, "lon": 13.1543477}, {"type": "node", "id": 2321702575, "lat": 49.1287546, "lon": 13.1542247}, {"type": "node", "id": 2388746485, "lat": 49.1420189, "lon": 13.0897298, "tags": {"ele": "1015", "name": "H\u00f6rndl", "natural": "peak", "source": "Wikipedia", "wikidata": "Q31538003"}}, {"type": "node", "id": 2389014575, "lat": 49.1376826, "lon": 13.1466086, "tags": {"ele": "1125", "name": "Wagnerspitze", "natural": "peak", "source": "Wikipedia"}}, {"type": "node", "id": 2409132098, "lat": 49.0786657, "lon": 13.1368697, "tags": {"designation": "Wanderstempel", "information": "map", "name": "Am Hochzellh\u00fctten-Schachten", "tourism": "information"}}, {"type": "node", "id": 2409140570, "lat": 49.0715128, "lon": 13.1278361, "tags": {"tourism": "viewpoint"}}, {"type": "node", "id": 2409193444, "lat": 49.1004507, "lon": 13.1388856, "tags": {"information": "guidepost", "name": "2b", "tourism": "information"}}, {"type": "node", "id": 2409195158, "lat": 49.0943671, "lon": 13.1442173, "tags": {"ele": "1340", "information": "guidepost", "name": "Mittagsplatzl", "tourism": "information"}}, {"type": "node", "id": 2409208490, "lat": 49.0981571, "lon": 13.158771, "tags": {"information": "guidepost", "note": "Wegweiser 1+5", "tourism": "information"}}, {"type": "node", "id": 2409208491, "lat": 49.0983152, "lon": 13.1583954, "tags": {"information": "guidepost", "inscription": "Bodenmais-Bretterschachten Nr.9", "tourism": "information"}}, {"type": "node", "id": 2409209294, "lat": 49.097877, "lon": 13.1545937, "tags": {"board_type": "nature", "check_date": "2022-08-14", "information": "board", "name": "Spuren der Eiszeit", "panoramax": "5d3ba792-a824-45fa-8ce3-fbfdb90e5acf", "tourism": "information"}}, {"type": "node", "id": 2409211509, "lat": 49.0983046, "lon": 13.1583203, "tags": {"board_type": "nature", "check_date": "2023-09-11", "information": "board", "name": "Naturschutzgebiet Gro\u00dfer Arbersee", "tourism": "information"}}, {"type": "node", "id": 2409287737, "lat": 49.1371195, "lon": 13.1319493, "tags": {"information": "guidepost", "name": "Zum Brennes", "tourism": "information"}}, {"type": "node", "id": 2409287738, "lat": 49.135126, "lon": 13.1419272, "tags": {"information": "guidepost", "name": "Zur Moosh\u00fctte", "tourism": "information"}}, {"type": "node", "id": 2410851703, "lat": 49.1086495, "lon": 13.1468493, "tags": {"ele": "1228", "name": "Stallriegel", "natural": "peak", "summit:cross": "no", "summit:register": "yes"}}, {"type": "node", "id": 2424049388, "lat": 49.1157712, "lon": 13.0829128, "tags": {"direction": "270", "tourism": "viewpoint"}}, {"type": "node", "id": 2424056517, "lat": 49.119105, "lon": 13.0870541, "tags": {"information": "history", "name": "H\u00fcttelschachten", "tourism": "information"}}, {"type": "node", "id": 2424056560, "lat": 49.1210688, "lon": 13.0922921}, {"type": "node", "id": 2424056567, "lat": 49.1211031, "lon": 13.0923388}, {"type": "node", "id": 2424056600, "lat": 49.1211014, "lon": 13.0922894}, {"type": "node", "id": 2424063049, "lat": 49.1026218, "lon": 13.1112825, "tags": {"tourism": "viewpoint"}}, {"type": "node", "id": 2424083827, "lat": 49.1284311, "lon": 13.0661415, "tags": {"name": "Heugstatt", "tourism": "viewpoint"}}, {"type": "node", "id": 2424087879, "lat": 49.1174244, "lon": 13.083142, "tags": {"tourism": "viewpoint"}}, {"type": "node", "id": 2424167216, "lat": 49.1080425, "lon": 13.0925124, "tags": {"name": "Nach Eck 14km", "tourism": "information"}}, {"type": "node", "id": 2424176147, "lat": 49.1296064, "lon": 13.0529242, "tags": {"board_type": "sport", "check_date": "2024-06-05", "information": "board", "name": "Schareben", "tourism": "information"}}, {"type": "node", "id": 2435886167, "lat": 48.9853155, "lon": 13.180329, "tags": {"name": "Bierkeller (19. Jhdt)", "tourism": "attraction"}}, {"type": "node", "id": 2435886277, "lat": 48.9855398, "lon": 13.1785818, "tags": {"information": "guidepost", "ref": "R6;R7;H3;H4", "tourism": "information"}}, {"type": "node", "id": 2435886583, "lat": 48.9930999, "lon": 13.1907354, "tags": {"information": "guidepost", "ref": "R7", "tourism": "information"}}, {"type": "node", "id": 2453341643, "lat": 49.0800327, "lon": 13.0963315, "tags": {"amenity": "shelter"}}, {"type": "node", "id": 2466964691, "lat": 49.1133774, "lon": 13.1390352}, {"type": "node", "id": 2466964701, "lat": 49.1133608, "lon": 13.1389726}, {"type": "node", "id": 2487311932, "lat": 49.0986385, "lon": 13.1585335, "tags": {"addr:city": "Bayerisch Eisenstein", "addr:country": "DE", "addr:housenumber": "42", "addr:postcode": "94252", "addr:street": "Arbersee", "amenity": "boat_rental", "description": "nur saisonal im Sommer Pfand: 5,00 \u20ac pro Boot AktivCard-Inhaber: kostenlos", "name": "Tretbootverleih", "opening_hours": "Mo-Su,PH 10:00-18:00", "operator": "Arberseehaus", "pedalboat_rental": "yes", "tourism": "attraction", "website": "https://arbersee.arber.de/bootsverleih.html", "wheelchair": "no"}}, {"type": "node", "id": 2509453364, "lat": 49.052501, "lon": 13.0964181, "tags": {"ele": "823 ", "tourism": "viewpoint"}}, {"type": "node", "id": 2669485291, "lat": 49.1044534, "lon": 13.1998157, "tags": {"hiking": "yes", "information": "guidepost", "tourism": "information"}}, {"type": "node", "id": 2848156251, "lat": 49.1295349, "lon": 13.0512329, "tags": {"amenity": "shelter", "name": "Schareben", "shelter_type": "weather_shelter"}}, {"type": "node", "id": 2848183980, "lat": 49.1327684, "lon": 13.0446326, "tags": {"name": "Spitzwaldkanzel", "tourism": "viewpoint"}}, {"type": "node", "id": 2848200217, "lat": 49.1297514, "lon": 13.0440929, "tags": {"information": "guidepost", "name": "4+12 (Schareben/Drachselsried)", "tourism": "information"}}, {"type": "node", "id": 2848227699, "lat": 49.1198405, "lon": 13.0325684, "tags": {"information": "guidepost", "name": "4km Drachselsried", "tourism": "information"}}, {"type": "node", "id": 2848228938, "lat": 49.1253992, "lon": 13.0193753, "tags": {"information": "guidepost", "tourism": "information"}}, {"type": "node", "id": 2848270430, "lat": 49.1267577, "lon": 13.0424546, "tags": {"description": "4+Goldsteigzubringer", "information": "guidepost", "tourism": "information"}}, {"type": "node", "id": 2848302641, "lat": 49.1248802, "lon": 13.0167403, "tags": {"information": "guidepost", "tourism": "information"}}, {"type": "node", "id": 2848349571, "lat": 49.1292107, "lon": 13.0435509, "tags": {"information": "guidepost", "name": "4+12", "tourism": "information"}}, {"type": "node", "id": 2848426449, "lat": 49.1335804, "lon": 13.0487404, "tags": {"description": "3km Schareben (Winterrundwanderweg Nr.9)", "hiking": "yes", "information": "guidepost", "tourism": "information"}}, {"type": "node", "id": 2848573065, "lat": 49.1268435, "lon": 13.0458981, "tags": {"ele": "1050", "name": "Plattenriegel", "natural": "peak"}}, {"type": "node", "id": 2848636488, "lat": 49.1318517, "lon": 13.0315282, "tags": {"direction_north": "Rundwanderweg \"Wie im Urwald\" (7)", "direction_northwest": "Arnbruck \u00fcber Schu\u00dfbach-Schmiedau (3)", "direction_west": "Arnbruck \u00fcber Poschingerh\u00fctte (3)", "hiking": "yes", "information": "guidepost", "operator": "Naturpark", "tourism": "information"}}, {"type": "node", "id": 2852234188, "lat": 49.114165, "lon": 13.00222, "tags": {"information": "guidepost", "name": "Poschingerh\u00fctte", "tourism": "information"}}, {"type": "node", "id": 2939326569, "lat": 49.0205948, "lon": 13.0666118, "tags": {"tourism": "information"}}, {"type": "node", "id": 2956403537, "lat": 49.0128755, "lon": 13.1336834}, {"type": "node", "id": 2956403538, "lat": 49.0129138, "lon": 13.1337645}, {"type": "node", "id": 2956403539, "lat": 49.0129378, "lon": 13.1336153}, {"type": "node", "id": 2956403540, "lat": 49.012976, "lon": 13.1336964}, {"type": "node", "id": 2961453585, "lat": 49.1150968, "lon": 13.1291761, "tags": {"information": "guidepost", "tourism": "information"}}, {"type": "node", "id": 2961487414, "lat": 49.1208286, "lon": 13.1120621, "tags": {"information": "guidepost", "tourism": "information"}}, {"type": "node", "id": 2961492945, "lat": 49.1285332, "lon": 13.1178644, "tags": {"information": "guidepost", "tourism": "information"}}, {"type": "node", "id": 2961494549, "lat": 49.1272895, "lon": 13.1168768, "tags": {"information": "guidepost", "name": "Chamer H\u00fctte", "tourism": "information"}}, {"type": "node", "id": 2961509809, "lat": 49.1284275, "lon": 13.1155045, "tags": {"information": "guidepost", "name": "kleiner Arber", "tourism": "information"}}, {"type": "node", "id": 2961523126, "lat": 49.1169838, "lon": 13.1128474, "tags": {"information": "guidepost", "name": "E6 - Kleiner Arbersee", "tourism": "information"}}, {"type": "node", "id": 2961578660, "lat": 49.127437, "lon": 13.1154612, "tags": {"name": "Kleinarbersee", "tourism": "information"}}, {"type": "node", "id": 2961589440, "lat": 49.1274695, "lon": 13.1174776, "tags": {"information": "guidepost", "tourism": "information"}}, {"type": "node", "id": 2961603960, "lat": 49.1255835, "lon": 13.1345907, "tags": {"information": "guidepost", "name": "Gipfel -Brennes", "tourism": "information"}}, {"type": "node", "id": 2962212596, "lat": 49.1301691, "lon": 13.1120544, "tags": {"ele": "1058", "name": "Spitzberg", "natural": "peak"}}, {"type": "node", "id": 2996234032, "lat": 49.0649172, "lon": 13.1631459, "tags": {"ele": "1108", "name": "Hahnenriegel", "natural": "peak"}}, {"type": "node", "id": 2996234833, "lat": 49.093397, "lon": 13.1428476, "tags": {"ele": "1340", "name": "Mittagsplatzl", "natural": "peak", "wikidata": "Q872635", "wikipedia": "de:Mittagsplatzl"}}, {"type": "node", "id": 2996234834, "lat": 49.0598649, "lon": 13.1781651, "tags": {"ele": "1050", "name": "Rote H\u00f6he", "natural": "peak"}}, {"type": "node", "id": 2996329503, "lat": 49.068692, "lon": 13.1240847, "tags": {"amenity": "shelter", "shelter_type": "weather_shelter"}}, {"type": "node", "id": 2996336468, "lat": 49.0571097, "lon": 13.1340578, "tags": {"ele": "993", "name": "Brandtner Riegel", "natural": "peak"}}, {"type": "node", "id": 2998527236, "lat": 49.0113309, "lon": 13.1418158, "tags": {"tourism": "viewpoint"}}, {"type": "node", "id": 3042219637, "lat": 49.1084604, "lon": 13.1449239, "tags": {"information": "guidepost", "name": "Zum Gipfel", "tourism": "information"}}, {"type": "node", "id": 3042225672, "lat": 49.1100511, "lon": 13.1355442, "tags": {"check_date": "2022-09-13", "information": "board", "name": "Der K\u00f6nig des Bayerischen Waldes", "tourism": "information"}}, {"type": "node", "id": 3042225673, "lat": 49.1100696, "lon": 13.1355456, "tags": {"information": "guidepost", "tourism": "information"}}, {"type": "node", "id": 3042225675, "lat": 49.1099746, "lon": 13.1355411, "tags": {"information": "guidepost", "tourism": "information"}}, {"type": "node", "id": 3042227317, "lat": 49.1134696, "lon": 13.1327635, "tags": {"information": "guidepost", "tourism": "information"}}, {"type": "node", "id": 3042230405, "lat": 49.1130763, "lon": 13.1345545, "tags": {"information": "guidepost", "tourism": "information"}}, {"type": "node", "id": 3042230406, "lat": 49.1133554, "lon": 13.1340181, "tags": {"information": "guidepost", "tourism": "information"}}, {"type": "node", "id": 3042252918, "lat": 49.1073629, "lon": 13.1529316, "tags": {"information": "guidepost", "tourism": "information"}}, {"type": "node", "id": 3042377140, "lat": 49.1129393, "lon": 13.1394934, "tags": {"information": "guidepost", "tourism": "information"}}, {"type": "node", "id": 3048406106, "lat": 49.1127853, "lon": 13.1384539, "tags": {"information": "guidepost", "name": "Goldsteig & Gipfelrundwanderweg", "tourism": "information"}}, {"type": "node", "id": 3048406107, "lat": 49.1128168, "lon": 13.1384481, "tags": {"board_type": "nature", "check_date": "2022-09-13", "information": "board", "name": "Gro\u00dfer Arber", "note": "3 Infotafeln", "tourism": "information"}}, {"type": "node", "id": 3048427461, "lat": 49.1129793, "lon": 13.1384303, "tags": {"board_type": "nature", "information": "board", "name": "Bergstation (Pforte)", "tourism": "information"}}, {"type": "node", "id": 3048436428, "lat": 49.1124402, "lon": 13.1402476, "tags": {"information": "guidepost", "name": "Gr.Arber (2)", "note": "Gelber Wegweiser an der Piste", "tourism": "information"}}, {"type": "node", "id": 3106116232, "lat": 49.0753339, "lon": 13.093937, "tags": {"tourism": "viewpoint"}}, {"type": "node", "id": 3158291634, "lat": 49.0653879, "lon": 13.1025884, "tags": {"check_date": "2022-09-12", "hiking": "yes", "information": "map", "map_size": "region", "map_type": "scheme", "tourism": "information"}}, {"type": "node", "id": 3200546221, "lat": 49.075467, "lon": 13.1002448, "tags": {"amenity": "shelter", "shelter_type": "Wetterpilz"}}, {"type": "node", "id": 3255680189, "lat": 48.9520388, "lon": 13.0139465, "tags": {"information": "board", "name": "Ein Platz f\u00fcr Wildbienen & Einsiedlerwespen", "tourism": "information"}}, {"type": "node", "id": 3255682972, "lat": 48.9522684, "lon": 13.0130775, "tags": {"information": "guidepost", "name": "7", "tourism": "information"}}, {"type": "node", "id": 3273549181, "lat": 49.072028, "lon": 13.0004987}, {"type": "node", "id": 3273549182, "lat": 49.0720408, "lon": 13.0005167}, {"type": "node", "id": 3273549183, "lat": 49.0720528, "lon": 13.000458}, {"type": "node", "id": 3273549184, "lat": 49.0720655, "lon": 13.000476}, {"type": "node", "id": 3344082111, "lat": 49.0266414, "lon": 13.2002693, "tags": {"amenity": "shelter"}}, {"type": "node", "id": 3344082131, "lat": 49.0745053, "lon": 13.1565132, "tags": {"description": "Langlaufloipen Bretterschachten", "information": "map", "map": "ski", "map_size": "local", "name": "Bretterschachten", "tourism": "information"}}, {"type": "node", "id": 3360235979, "lat": 49.0722382, "lon": 13.1036732, "tags": {"direction_northeast": "Mittagsplatzl 8.5 km;Ri\u00dflochf\u00e4lle 4 km;Kl. Arber \u00fc. Ri\u00dflochf\u00e4lle 8 km;Gr. Arber \u00fc. Ri\u00dflochf\u00e4lle 8.5 km;Gr. Arber 10 km;Ri\u00dflochschlucht Schweikelruhe 4.5 km;Kl. Arbersee 10 km;Silberbergrundweg 9.5 km;Rodelbahn Scherau;Chamer H\u00fctte", "hiking": "yes", "information": "guidepost", "lwn": "yes", "network": "lwn", "tourism": "information"}}, {"type": "node", "id": 3360258910, "lat": 49.0746654, "lon": 13.1067956, "tags": {"direction_north": "Ri\u00dflochf\u00e4lle 4 km;Kl. Arber \u00fc. Ri\u00dflochf\u00e4lle 8 km;Gr. Arber \u00fc. Ri\u00dflochf\u00e4lle 8.5 km;Ri\u00dflochschlucht Schweikelruhe 4.5 km;Kl. Arbersee 10 km;Chamer H\u00fctte", "direction_northeast": "Mittagsplatzl 8.5 km;Gr. Arber 10 km;Silberbergrundweg 9.5 km;Rodelbahn Scherau", "hiking": "yes", "information": "guidepost", "lwn": "yes", "network": "lwn", "tourism": "information"}}, {"type": "node", "id": 3361219105, "lat": 49.0783558, "lon": 13.1093948, "tags": {"direction_north": "Gr. Arber \u00fc. Ri\u00dflochf\u00e4lle;Ri\u00dflochschlucht Schweikelruhe;Ri\u00dflochf\u00e4lle;Kl. Arber \u00fc. Ri\u00dflochf\u00e4lle;Kl. Arbersee;Chamer H\u00fctte", "direction_northeast": "Mittagsplatzl 8.5 km;Gr. Arber 10 km;Silberbergrundweg 9.5 km;Rodelbahn Scherau", "hiking": "yes", "information": "guidepost", "lwn": "yes", "network": "lwn", "tourism": "information"}}, {"type": "node", "id": 3361219108, "lat": 49.0796189, "lon": 13.1099746, "tags": {"direction_north": "Gr. Arber \u00fc. Ri\u00dflochf\u00e4lle;Ri\u00dflochf\u00e4lle 1.2 km;Ri\u00dflochschlucht Schweikelruhe;Ri\u00dflochf\u00e4lle;Kl. Arber \u00fc. Ri\u00dflochf\u00e4lle;Kl. Arbersee;Chamer H\u00fctte 4.5 km;Gro\u00dfer Arber 5.5 km", "direction_northeast": "Mittagsplatzl 8.5 km;Gr. Arber 10 km;Silberbergrundweg 9.5 km;Rodelbahn Scherau", "hiking": "yes", "information": "guidepost", "lwn": "yes", "network": "lwn", "tourism": "information"}}, {"type": "node", "id": 3361219116, "lat": 49.0798488, "lon": 13.1100877, "tags": {"check_date": "2025-07-20", "hiking": "yes", "information": "map", "map_size": "region", "map_type": "topo", "name": "Wanderparkplatz Risslochf\u00e4lle", "tourism": "information"}}, {"type": "node", "id": 3361257204, "lat": 49.083649, "lon": 13.1103827, "tags": {"board_type": "nature", "check_date": "2022-08-13", "information": "board", "name": "Naturschutzgebiet \"Riesloch\"", "tourism": "information"}}, {"type": "node", "id": 3361422877, "lat": 49.0838048, "lon": 13.1103277, "tags": {"direction_northeast": "Ri\u00dflochwasserf\u00e4lle;Gro\u00dfer Arber;Kleiner Arber;Chamer H\u00fctte", "direction_northwest": "Ri\u00dflochf\u00e4lle Steiniger Weg", "hiking": "yes", "information": "guidepost", "lwn": "yes", "network": "lwn", "tourism": "information"}}, {"type": "node", "id": 3361422878, "lat": 49.0868645, "lon": 13.1120532, "tags": {"board_type": "nature", "check_date": "2022-09-15", "description": "Naturschutzgebiet Riesloch", "information": "board", "name": "Schluchtwald und Totholz", "tourism": "information"}}, {"type": "node", "id": 3361438799, "lat": 49.087452, "lon": 13.1174868, "tags": {"direction_west": "Wanderparkplatz Ri\u00dfloch 1.5 km", "hiking": "yes", "information": "guidepost", "lwn": "yes", "network": "lwn", "tourism": "information"}}, {"type": "node", "id": 3361438803, "lat": 49.0876077, "lon": 13.1175248, "tags": {"direction_west": "Bodenmais", "hiking": "yes", "information": "guidepost", "lwn": "yes", "network": "lwn", "tourism": "information"}}, {"type": "node", "id": 3361438804, "lat": 49.0876517, "lon": 13.1175615, "tags": {"direction_east": "Gro\u00dfer Arber 5 km;Bodenmais \u00fcber Schweiklruhe 5.5 km", "direction_south": "Bodenmais", "direction_west": "Bodenmais \u00fcber Ri\u00dflochschlucht 4 km", "hiking": "yes", "information": "guidepost", "lwn": "yes", "network": "lwn", "tourism": "information"}}, {"type": "node", "id": 3361496378, "lat": 49.087598, "lon": 13.1089446, "tags": {"direction_north": "Schweiklruhe \u00fcber Ri\u00dflochf\u00e4lle", "direction_south": "Bodenmais", "hiking": "yes", "information": "guidepost", "lwn": "yes", "network": "lwn", "tourism": "information"}}, {"type": "node", "id": 3361567558, "lat": 49.0752164, "lon": 13.0969206, "tags": {"direction_northeast": "Ri\u00dflochf\u00e4lle Rundwanderweg;Chamer H\u00fctte 7.5 km", "direction_west": "Ri\u00dflochschlucht;Schweikelruhe;Kl. Arbersee;Arberhochstra\u00dfe;Chamer H\u00fctte 7 km", "ele": "759", "hiking": "yes", "information": "guidepost", "lwn": "yes", "network": "lwn", "tourism": "information"}}, {"type": "node", "id": 3361567559, "lat": 49.0752233, "lon": 13.096952, "tags": {"check_date": "2022-08-13", "hiking": "yes", "information": "map", "map_size": "region", "map_type": "topo", "tourism": "information"}}, {"type": "node", "id": 3361575467, "lat": 49.0739068, "lon": 13.0954183, "tags": {"direction_northeast": "Ri\u00dflochschlucht;Schweiklruhe;Kl. Arbersee", "hiking": "yes", "information": "guidepost", "lwn": "yes", "network": "lwn", "tourism": "information"}}, {"type": "node", "id": 3361620153, "lat": 49.0709594, "lon": 13.0956116, "tags": {"check_date": "2024-05-18", "hiking": "yes", "information": "map", "map_size": "region", "map_type": "topo", "tourism": "information"}}, {"type": "node", "id": 3361620159, "lat": 49.0724193, "lon": 13.0947151, "tags": {"direction_northeast": "Ri\u00dflochschlucht;Schweiklruhe 9.5 km;Kl. Arbersee 10.5 km", "direction_northwest": "Hochfall;Riedlberg;Schareben \u00fc. Hochstein 10 km;Schareben \u00fc. Riedlberg 11 km", "hiking": "yes", "information": "guidepost", "lwn": "yes", "network": "lwn", "tourism": "information"}}, {"type": "node", "id": 3361712034, "lat": 49.1116848, "lon": 13.1373477, "tags": {"direction_east": "Bergstation;Hauptwanderweg;Arbersee 4 km;Eisenstein 10 km;Brennes", "direction_west": "Gipfel-Rundwanderweg", "hiking": "yes", "information": "guidepost", "lwn": "yes", "network": "lwn", "tourism": "information"}}, {"type": "node", "id": 3361712035, "lat": 49.111717, "lon": 13.1372202, "tags": {"direction_north": "Gipfel", "hiking": "yes", "information": "guidepost", "lwn": "yes", "network": "lwn", "tourism": "information"}}, {"type": "node", "id": 3361869780, "lat": 49.0990687, "lon": 13.1582609, "tags": {"board_type": "nature", "check_date": "2022-09-13", "description": "Naturschutzgebiet Gro\u00dfer Arbersee", "information": "board", "name": "Ein Schauspiel der Natur", "name:cs": "Nadherna p\u0159irodni podivana!", "tourism": "information"}}, {"type": "node", "id": 3376691650, "lat": 49.0637313, "lon": 13.1371969, "tags": {"amenity": "shelter", "shelter_type": "weather_shelter"}}, {"type": "node", "id": 3378503616, "lat": 49.0883243, "lon": 13.1201544, "tags": {"board_type": "geology", "check_date": "2024-05-18", "information": "board", "name": "Rieslochf\u00e4lle", "tourism": "information"}}, {"type": "node", "id": 3378718819, "lat": 49.069927, "lon": 13.1014773, "tags": {"description": "Wanderkarte", "information": "map", "tourism": "information"}}, {"type": "node", "id": 3459247776, "lat": 49.1500936, "lon": 13.1674046, "tags": {"information": "yes", "name": "Biotop-Hohenzollern", "tourism": "information"}}, {"type": "node", "id": 3459408020, "lat": 49.149722, "lon": 13.1730152, "tags": {"board_type": "warning", "information": "board", "inscription": "POZOR St\u00e1tn\u00ed hranice", "tourism": "information"}}, {"type": "node", "id": 3497754909, "lat": 49.0675831, "lon": 13.0835789}, {"type": "node", "id": 3497754910, "lat": 49.0675541, "lon": 13.0834233}, {"type": "node", "id": 3497754911, "lat": 49.0674825, "lon": 13.0834401}, {"type": "node", "id": 3497754912, "lat": 49.0675027, "lon": 13.0836285}, {"type": "node", "id": 3560525486, "lat": 49.0582923, "lon": 13.1647788, "tags": {"amenity": "shelter", "shelter_type": "lean_to"}}, {"type": "node", "id": 3596421150, "lat": 49.1398924, "lon": 13.1100529, "tags": {"tourism": "viewpoint"}}, {"type": "node", "id": 3596466425, "lat": 49.0883176, "lon": 13.119694, "tags": {"tourism": "viewpoint"}}, {"type": "node", "id": 3635820187, "lat": 49.013576, "lon": 13.1474977, "tags": {"information": "office", "tourism": "information"}}, {"type": "node", "id": 3637953404, "lat": 49.1368994, "lon": 13.0898766, "tags": {"natural": "peak"}}, {"type": "node", "id": 3637961577, "lat": 49.1374752, "lon": 13.0890264, "tags": {"ele": "1084", "name": "Hochst\u00e4tter", "natural": "peak"}}, {"type": "node", "id": 3637965225, "lat": 49.142947, "lon": 13.0897452, "tags": {"natural": "peak"}}, {"type": "node", "id": 3637973029, "lat": 49.1426011, "lon": 13.0898281, "tags": {"information": "route_marker", "name": "Rot/Wei\u00df", "tourism": "information"}}, {"type": "node", "id": 3637974201, "lat": 49.1421092, "lon": 13.0898573, "tags": {"information": "route_marker", "name": "Lo", "tourism": "information"}}, {"type": "node", "id": 3637976792, "lat": 49.1417795, "lon": 13.0900368, "tags": {"natural": "peak"}}, {"type": "node", "id": 3637988498, "lat": 49.1279973, "lon": 13.0582936, "tags": {"natural": "peak"}}, {"type": "node", "id": 3695652897, "lat": 49.0902436, "lon": 13.160224, "tags": {"amenity": "shelter", "shelter_type": "weather_shelter"}}, {"type": "node", "id": 3709292159, "lat": 48.9964046, "lon": 13.1835517, "tags": {"information": "guidepost", "tourism": "information"}}, {"type": "node", "id": 3709292160, "lat": 48.9975483, "lon": 13.1862836}, {"type": "node", "id": 3709292161, "lat": 48.9975614, "lon": 13.1862594}, {"type": "node", "id": 3709292162, "lat": 48.9975685, "lon": 13.1863088}, {"type": "node", "id": 3709292163, "lat": 48.9975816, "lon": 13.1862846}, {"type": "node", "id": 3709292168, "lat": 48.9993168, "lon": 13.1839666, "tags": {"information": "guidepost", "tourism": "information"}}, {"type": "node", "id": 3709292184, "lat": 49.0002464, "lon": 13.1818374, "tags": {"information": "guidepost", "tourism": "information"}}, {"type": "node", "id": 3711637616, "lat": 49.0399169, "lon": 13.1996076, "tags": {"information": "guidepost", "tourism": "information"}}, {"type": "node", "id": 3715084670, "lat": 49.0180108, "lon": 13.1898853, "tags": {"information": "guidepost", "tourism": "information"}}, {"type": "node", "id": 3715836343, "lat": 49.0154066, "lon": 13.1890237, "tags": {"check_date": "2024-08-02", "description": "Wanderkarte", "information": "map", "map_size": "region", "map_type": "scheme", "tourism": "information"}}, {"type": "node", "id": 3771591628, "lat": 49.092372, "lon": 13.159438, "tags": {"information": "guidepost", "tourism": "information"}}, {"type": "node", "id": 3771591630, "lat": 49.0930715, "lon": 13.1576799, "tags": {"information": "guidepost", "tourism": "information"}}, {"type": "node", "id": 3771591634, "lat": 49.0953506, "lon": 13.1598776, "tags": {"information": "guidepost", "tourism": "information"}}, {"type": "node", "id": 3771597525, "lat": 49.1131119, "lon": 13.1389745, "tags": {"tourism": "viewpoint"}}, {"type": "node", "id": 3873788210, "lat": 49.0128939, "lon": 13.1338318, "tags": {"ele": "833", "name": "Oberberg", "natural": "peak"}}, {"type": "node", "id": 4248130320, "lat": 49.109989, "lon": 13.1599046, "tags": {"ele": "1036", "name": "Kopfriegel", "natural": "peak"}}, {"type": "node", "id": 4248217895, "lat": 49.1289056, "lon": 13.1544452}, {"type": "node", "id": 4248217896, "lat": 49.1289271, "lon": 13.15437}, {"type": "node", "id": 4248241021, "lat": 49.1254131, "lon": 13.1549885, "tags": {"information": "guidepost", "tourism": "information"}}, {"type": "node", "id": 4248300340, "lat": 49.1098562, "lon": 13.1862931, "tags": {"covered": "yes", "information": "map", "tourism": "information"}}, {"type": "node", "id": 4248300341, "lat": 49.1098319, "lon": 13.1858501, "tags": {"information": "guidepost", "tourism": "information"}}, {"type": "node", "id": 4248308203, "lat": 49.1098873, "lon": 13.1860818, "tags": {"information": "guidepost", "tourism": "information"}}, {"type": "node", "id": 4248309037, "lat": 49.1099324, "lon": 13.1863516, "tags": {"bicycle": "yes", "information": "guidepost", "tourism": "information"}}, {"type": "node", "id": 4248325786, "lat": 49.128737, "lon": 13.153734, "tags": {"information": "board", "name": "Gl\u00e4serner Steig - Grafh\u00fctte", "tourism": "information"}}, {"type": "node", "id": 4248369852, "lat": 49.1229139, "lon": 13.1676276, "tags": {"name": "Privatweg-Durchgang verboten!", "tourism": "information"}}, {"type": "node", "id": 4253312662, "lat": 49.1138307, "lon": 13.1146919, "tags": {"information": "guidepost", "name": "Kleiner Arbersee 1h", "tourism": "information"}}, {"type": "node", "id": 4290014347, "lat": 49.14191, "lon": 13.0981832, "tags": {"ele": "961", "natural": "peak"}}, {"type": "node", "id": 4290014350, "lat": 49.141771, "lon": 13.1002423, "tags": {"ele": "1015", "name": "Schneiderberg", "natural": "peak"}}, {"type": "node", "id": 4290185029, "lat": 49.1452531, "lon": 13.0902383, "tags": {"ele": "974", "name": "Sphinx", "natural": "peak"}}, {"type": "node", "id": 4290361132, "lat": 49.1365135, "lon": 13.1008596, "tags": {"information": "board", "name": "Schneiderberg (Waldgebietstafel)", "tourism": "information"}}, {"type": "node", "id": 4290979071, "lat": 49.1364876, "lon": 13.0989979, "tags": {"ele": "1028", "natural": "peak"}}, {"type": "node", "id": 4290979072, "lat": 49.1364806, "lon": 13.099012, "tags": {"description": "Blick zum Schwarzeck", "tourism": "viewpoint"}}, {"type": "node", "id": 4301827697, "lat": 49.0158139, "lon": 13.1817056}, {"type": "node", "id": 4301827699, "lat": 49.0158292, "lon": 13.1817246}, {"type": "node", "id": 4301827701, "lat": 49.0158592, "lon": 13.1816211}, {"type": "node", "id": 4301827702, "lat": 49.0158745, "lon": 13.1816401}, {"type": "node", "id": 4316949760, "lat": 49.1373421, "lon": 13.0762288, "tags": {"ele": "1078", "name": "B\u00e4renriegel", "natural": "peak"}}, {"type": "node", "id": 4330799988, "lat": 49.1233525, "lon": 13.1944003, "tags": {"information": "board", "name": "Naturdenkmal \"Linde\"", "tourism": "information"}}, {"type": "node", "id": 4331479692, "lat": 49.1286995, "lon": 13.1535574, "tags": {"tourism": "viewpoint"}}, {"type": "node", "id": 4344883903, "lat": 49.1111053, "lon": 13.1254839, "tags": {"information": "guidepost", "name": "Gr.Arber - Chamer H\u00fctte", "tourism": "information"}}, {"type": "node", "id": 4357995105, "lat": 48.9524898, "lon": 13.1379841, "tags": {"check_date": "2023-04-26", "information": "board", "tourism": "information"}}, {"type": "node", "id": 4368219062, "lat": 48.9687741, "lon": 13.1288364, "tags": {"check_date": "2022-08-20", "information": "map", "map_size": "city", "tourism": "information"}}, {"type": "node", "id": 4419263093, "lat": 49.0799958, "lon": 13.1099975, "tags": {"amenity": "shelter", "shelter_type": "weather_shelter"}}, {"type": "node", "id": 4434821782, "lat": 49.1042502, "lon": 13.1999722, "tags": {"hiking": "yes", "information": "guidepost", "tourism": "information"}}, {"type": "node", "id": 4434821784, "lat": 49.1119756, "lon": 13.1942261, "tags": {"hiking": "yes", "information": "guidepost", "tourism": "information"}}, {"type": "node", "id": 4434821785, "lat": 49.1155356, "lon": 13.1985894, "tags": {"hiking": "yes", "information": "guidepost", "tourism": "information"}}, {"type": "node", "id": 4434821786, "lat": 49.1156506, "lon": 13.1997162, "tags": {"hiking": "yes", "information": "guidepost", "tourism": "information"}}, {"type": "node", "id": 4441671821, "lat": 49.0700267, "lon": 13.1010014}, {"type": "node", "id": 4441671822, "lat": 49.0700272, "lon": 13.1009749}, {"type": "node", "id": 4441671831, "lat": 49.0700923, "lon": 13.1010044}, {"type": "node", "id": 4441671832, "lat": 49.0700928, "lon": 13.1009779}, {"type": "node", "id": 4441827919, "lat": 49.0521458, "lon": 13.1109245}, {"type": "node", "id": 4441827920, "lat": 49.0521525, "lon": 13.11095}, {"type": "node", "id": 4441827921, "lat": 49.052199, "lon": 13.1108919}, {"type": "node", "id": 4441827922, "lat": 49.0522057, "lon": 13.1109173}, {"type": "node", "id": 4456623497, "lat": 49.1383649, "lon": 13.0731151, "tags": {"information": "route_marker", "name": "Lo 7", "tourism": "information"}}, {"type": "node", "id": 4456623498, "lat": 49.1379831, "lon": 13.072874, "tags": {"information": "route_marker", "name": "Lo 7", "tourism": "information"}}, {"type": "node", "id": 4456623499, "lat": 49.138002, "lon": 13.0729675, "tags": {"information": "route_marker", "name": "Lo 7", "tourism": "information"}}, {"type": "node", "id": 4456750200, "lat": 49.145705, "lon": 13.0945984, "tags": {"information": "board", "name": "Steinbach (Waldgebietstafel)", "tourism": "information"}}, {"type": "node", "id": 4462849400, "lat": 49.1454994, "lon": 13.12085, "tags": {"board_type": "nature", "check_date": "2024-06-07", "information": "board", "name": "Triftsteig am Wei\u00dfen Regen - Nr.5", "tourism": "information"}}, {"type": "node", "id": 4462909989, "lat": 49.1113081, "lon": 13.1249562, "tags": {"ele": "1271", "natural": "peak"}}, {"type": "node", "id": 4462959897, "lat": 49.1373968, "lon": 13.1305717, "tags": {"information": "guidepost", "name": "Kleiner Arbersee", "tourism": "information"}}, {"type": "node", "id": 4462970851, "lat": 49.1399316, "lon": 13.1213132, "tags": {"information": "board", "name": "Reines Wasser aus der Kraft der Natur", "tourism": "information"}}, {"type": "node", "id": 4462981423, "lat": 49.1297522, "lon": 13.1169678, "tags": {"information": "guidepost", "tourism": "information"}}, {"type": "node", "id": 4462981424, "lat": 49.1297732, "lon": 13.1169597, "tags": {"information": "guidepost", "tourism": "information"}}, {"type": "node", "id": 4463013585, "lat": 49.1406355, "lon": 13.1192208}, {"type": "node", "id": 4463013586, "lat": 49.1405989, "lon": 13.1192178}, {"type": "node", "id": 4463013587, "lat": 49.1405981, "lon": 13.1192406}, {"type": "node", "id": 4463013588, "lat": 49.1406347, "lon": 13.1192436}, {"type": "node", "id": 4463013589, "lat": 49.1406353, "lon": 13.1192322, "tags": {"information": "map", "name": "NSG - Kleiner Arbersee", "tourism": "information"}}, {"type": "node", "id": 4463038861, "lat": 49.1429779, "lon": 13.1150216, "tags": {"ele": "886", "name": "Sollerberg", "natural": "peak"}}, {"type": "node", "id": 4463105715, "lat": 49.1108078, "lon": 13.1239551, "tags": {"information": "board", "name": "Bodenmais-Loipenplan", "tourism": "information"}}, {"type": "node", "id": 4463105716, "lat": 49.1110435, "lon": 13.1239871, "tags": {"information": "guidepost", "name": "Panoramah\u00f6henweg 3a / Schutzhaus Chamerh\u00fctte", "tourism": "information"}}, {"type": "node", "id": 4463107102, "lat": 49.1112472, "lon": 13.1239763, "tags": {"access": "yes", "amenity": "shelter", "bench": "yes", "bin": "no", "description": "Ein Unterstand in Form er gro\u00dfz\u00fcgig \u00fcberdachten Bank. Ein \u00dcbernachtung ist nicht m\u00f6glich.", "lockable": "no", "locked": "no", "shelter_type": "weather_shelter"}}, {"type": "node", "id": 4463159207, "lat": 49.1111156, "lon": 13.125482, "tags": {"board_type": "wildlife", "check_date": "2022-08-17", "information": "board", "name": "Auerwildschutzgebiet", "tourism": "information"}}, {"type": "node", "id": 4463223662, "lat": 49.1124332, "lon": 13.1275347, "tags": {"information": "board", "name": "Im Seeloch (Waldgebietstafel)", "tourism": "information"}}, {"type": "node", "id": 4463228224, "lat": 49.1118814, "lon": 13.1270076, "tags": {"description": "Kl.Arberblick / Osserblick", "tourism": "viewpoint"}}, {"type": "node", "id": 4463238388, "lat": 49.1149242, "lon": 13.1291706, "tags": {"board_type": "nature", "check_date": "2021-08-14", "information": "board", "name": "In diesem Naturreserwart entsteht wieder Urwald !", "tourism": "information"}}, {"type": "node", "id": 4467585621, "lat": 49.0206794, "lon": 13.1614295}, {"type": "node", "id": 4467585622, "lat": 49.0206982, "lon": 13.1614487}, {"type": "node", "id": 4467585623, "lat": 49.02071, "lon": 13.1613595}, {"type": "node", "id": 4467585625, "lat": 49.0207289, "lon": 13.1613787}, {"type": "node", "id": 4520330994, "lat": 48.9698034, "lon": 13.0526266}, {"type": "node", "id": 4520330995, "lat": 48.9698417, "lon": 13.0527185}, {"type": "node", "id": 4520330996, "lat": 48.9698609, "lon": 13.0526999}, {"type": "node", "id": 4520330997, "lat": 48.9698226, "lon": 13.0526081}, {"type": "node", "id": 4556890274, "lat": 49.0077868, "lon": 13.1437015, "tags": {"tourism": "viewpoint"}}, {"type": "node", "id": 4678338643, "lat": 49.116096, "lon": 13.1928942, "tags": {"hiking": "yes", "information": "guidepost", "tourism": "information"}}, {"type": "node", "id": 4678338644, "lat": 49.1158154, "lon": 13.1925946, "tags": {"hiking": "yes", "information": "guidepost", "tourism": "information"}}, {"type": "node", "id": 4678651825, "lat": 49.0687653, "lon": 13.1240299, "tags": {"hiking": "yes", "information": "guidepost", "tourism": "information"}}, {"type": "node", "id": 4678685066, "lat": 49.0583104, "lon": 13.1640675, "tags": {"hiking": "yes", "information": "guidepost", "tourism": "information"}}, {"type": "node", "id": 4678685067, "lat": 49.0579618, "lon": 13.1662759, "tags": {"hiking": "yes", "information": "guidepost", "tourism": "information"}}, {"type": "node", "id": 4678709142, "lat": 49.0515511, "lon": 13.1697077, "tags": {"board_type": "geology", "information": "board", "name": "Historischer Quarzbruch am Hennenkobel", "tourism": "information"}}, {"type": "node", "id": 4678709143, "lat": 49.0511936, "lon": 13.1694992, "tags": {"board_type": "geology", "information": "board", "name": "Historischer Quarzbruch am Hennenkobel", "tourism": "information"}}, {"type": "node", "id": 4678709144, "lat": 49.0512673, "lon": 13.170061, "tags": {"amenity": "shelter"}}, {"type": "node", "id": 4678802694, "lat": 49.0429668, "lon": 13.1881148, "tags": {"direction_north": "Hennenkobel steile Strecke 1km (4)", "direction_southeast": "Zwiesel 6km (4)", "direction_west": "Hennenkobel, um die Felsen herum 1,5km (29)", "hiking": "yes", "information": "guidepost", "tourism": "information"}}, {"type": "node", "id": 4678819038, "lat": 49.0306578, "lon": 13.1973044, "tags": {"direction_northeast": "Rabenstein 1km (14)", "direction_northwest": "Sch\u00f6nebene \u00fcber Hennenkobel - Quarzbruch 7,5km (4)", "direction_southeast": "Zwiesel Innenried (4)(14)", "hiking": "yes", "information": "guidepost", "tourism": "information"}}, {"type": "node", "id": 4679334324, "lat": 48.9794905, "lon": 13.1552202, "tags": {"hiking": "yes", "information": "map", "tourism": "information"}}, {"type": "node", "id": 4720562476, "lat": 48.9689474, "lon": 13.1367295, "tags": {"amenity": "shelter", "bench": "yes", "lit": "yes", "shelter_type": "public_transport"}}, {"type": "node", "id": 4777118820, "lat": 48.980378, "lon": 13.1983026, "tags": {"hiking": "yes", "information": "guidepost", "name": "Rundwanderweg 2", "tourism": "information"}}, {"type": "node", "id": 4777119621, "lat": 48.9803438, "lon": 13.1980002, "tags": {"hiking": "yes", "information": "guidepost", "name": "Rundwanderweg 2", "tourism": "information"}}, {"type": "node", "id": 4798679292, "lat": 49.0745118, "lon": 13.156541, "tags": {"information": "hikingmap", "map_size": "region", "map_type": "topo", "name": "Bretterschachten", "tourism": "information"}}, {"type": "node", "id": 4799050518, "lat": 49.0775344, "lon": 13.1577939, "tags": {"information": "guidepost", "tourism": "information"}}, {"type": "node", "id": 4799050519, "lat": 49.0738087, "lon": 13.1550494, "tags": {"information": "guidepost", "tourism": "information"}}, {"type": "node", "id": 4799087493, "lat": 49.0788704, "lon": 13.1575161, "tags": {"information": "guidepost", "tourism": "information"}}, {"type": "node", "id": 4799124733, "lat": 49.072886, "lon": 13.1909503, "tags": {"information": "guidepost", "tourism": "information"}}, {"type": "node", "id": 4799124734, "lat": 49.0706787, "lon": 13.1847992, "tags": {"information": "guidepost", "tourism": "information"}}, {"type": "node", "id": 4799184869, "lat": 49.072054, "lon": 13.187098, "tags": {"information": "guidepost", "name": "Nr. 3+Nr.5", "tourism": "information"}}, {"type": "node", "id": 4799184899, "lat": 49.0669782, "lon": 13.1803971, "tags": {"information": "map", "map_type": "topo;history", "name": "Schachtenbach", "tourism": "information"}}, {"type": "node", "id": 4806342137, "lat": 49.0926101, "lon": 13.198918, "tags": {"information": "guidepost", "name": "Seebachschleife / Schwellh\u00e4usl", "tourism": "information"}}, {"type": "node", "id": 4806342138, "lat": 49.0924762, "lon": 13.198491, "tags": {"information": "guidepost", "name": "Seebachschleife / Schwellh\u00e4usl", "tourism": "information"}}, {"type": "node", "id": 4806342161, "lat": 49.0924907, "lon": 13.1998474, "tags": {"information": "guidepost", "tourism": "information"}}, {"type": "node", "id": 4820100353, "lat": 49.0911767, "lon": 13.1987821, "tags": {"information": "guidepost", "name": "Seebachschleife / Schwellh\u00e4usl", "tourism": "information"}}, {"type": "node", "id": 4865834075, "lat": 49.0407014, "lon": 13.055525, "tags": {"ele": "675", "name": "B\u00f6lmersberg", "natural": "peak"}}, {"type": "node", "id": 4865859909, "lat": 49.0519099, "lon": 13.0540752, "tags": {"ele": "547", "name": "Ochsenberg", "natural": "peak"}}, {"type": "node", "id": 4866522952, "lat": 49.0402041, "lon": 13.0421776}, {"type": "node", "id": 4866522953, "lat": 49.0402058, "lon": 13.0422259}, {"type": "node", "id": 4866522954, "lat": 49.0402329, "lon": 13.0422236}, {"type": "node", "id": 4866522955, "lat": 49.0402311, "lon": 13.0421753}, {"type": "node", "id": 4896604065, "lat": 49.0526166, "lon": 13.0921466, "tags": {"hiking": "yes", "information": "guidepost", "tourism": "information"}}, {"type": "node", "id": 4896604083, "lat": 49.0463712, "lon": 13.0851103, "tags": {"information": "guidepost", "tourism": "information"}}, {"type": "node", "id": 4896609638, "lat": 49.0463972, "lon": 13.0845478, "tags": {"information": "guidepost", "tourism": "information"}}, {"type": "node", "id": 4919905836, "lat": 49.1229888, "lon": 13.1206611, "tags": {"board_type": "nature", "description": "In diesem Naturwaldreservat entsteht wieder Urwald.", "information": "board", "name": "Naturwaldreservat", "tourism": "information"}}, {"type": "node", "id": 4919905839, "lat": 49.1275511, "lon": 13.117655, "tags": {"check_date": "2023-10-14", "information": "board", "name": "Naturschutzgebiet \"Kleiner Arbersee\"", "tourism": "information"}}, {"type": "node", "id": 4921303617, "lat": 49.111659, "lon": 13.1372378, "tags": {"board_type": "plants", "check_date": "2022-09-13", "information": "board", "name": "Ungarischer Enzian & Co", "tourism": "information"}}, {"type": "node", "id": 4921323214, "lat": 49.0971553, "lon": 13.1505439, "tags": {"board_type": "plants", "check_date": "2023-09-11", "information": "board", "name": "Wilde Sch\u00f6nheit", "name:cs": "Divok\u00e1 kr\u00e1sa", "tourism": "information"}}, {"type": "node", "id": 4921323216, "lat": 49.0963725, "lon": 13.1519061, "tags": {"board_type": "wildlife", "check_date": "2022-08-08", "information": "board", "name": "Vogelparadies", "panoramax": "f775b835-11e7-41ba-847b-ada8901f7177", "tourism": "information"}}, {"type": "node", "id": 4921323217, "lat": 49.0972102, "lon": 13.1530514, "tags": {"board_type": "plants", "check_date": "2022-08-08", "information": "board", "name": "Schwimmende Inseln", "name:cs": "Plovouc\u00ed ostrovy", "tourism": "information"}}, {"type": "node", "id": 4921334730, "lat": 49.1190277, "lon": 13.198767, "tags": {"check_date": "2022-01-01", "information": "board", "tourism": "information"}}, {"type": "node", "id": 4933683847, "lat": 49.0875687, "lon": 13.1176641, "tags": {"name": "Untere Wasserstube", "tourism": "attraction", "waterway": "waterfall"}}, {"type": "node", "id": 5022807016, "lat": 49.1454148, "lon": 13.081455, "tags": {"amenity": "shelter", "shelter_type": "weather_shelter"}}, {"type": "node", "id": 5022968842, "lat": 49.0613132, "lon": 13.1421871, "tags": {"information": "guidepost", "name": "Silbersteig", "tourism": "information"}}, {"type": "node", "id": 5022968843, "lat": 49.0616983, "lon": 13.1426726, "tags": {"information": "guidepost", "name": "Vitriolh\u00fctte", "tourism": "information"}}, {"type": "node", "id": 5022968846, "lat": 49.0637984, "lon": 13.1377007, "tags": {"information": "guidepost", "name": "Oleum-Vitriolh\u00fctte", "tourism": "information"}}, {"type": "node", "id": 5022968849, "lat": 49.0625198, "lon": 13.1423899, "tags": {"information": "board", "name": "Vitriolh\u00fctte", "tourism": "information"}}, {"type": "node", "id": 5022996158, "lat": 49.0637379, "lon": 13.1372057, "tags": {"information": "guidepost", "name": "10/7/3/9/11", "tourism": "information"}}, {"type": "node", "id": 5023006342, "lat": 49.0637786, "lon": 13.1370408, "tags": {"information": "guidepost", "name": "Risslochf\u00e4lle 4,5km (Nr.12)", "tourism": "information"}}, {"type": "node", "id": 5023007666, "lat": 49.0638302, "lon": 13.1373551, "tags": {"check_date": "2024-05-18", "information": "map", "name": "Wanderkarte Umgebung-Sch\u00f6nebene", "tourism": "information"}}, {"type": "node", "id": 5031174592, "lat": 49.12091, "lon": 13.2003448, "tags": {"check_date": "2022-09-16", "description": "\u00dcberblick \u00fcber den Wanderweg von Marktredwitz nach Passau", "information": "board", "name": "Goldsteig", "tourism": "information"}}, {"type": "node", "id": 5054772563, "lat": 48.9690303, "lon": 13.1360274, "tags": {"check_date": "2024-05-21", "information": "map", "map_size": "region", "map_type": "scheme", "tourism": "information"}}, {"type": "node", "id": 5062065284, "lat": 49.0548303, "lon": 13.0462098, "tags": {"information": "guidepost", "name": "Kirche", "tourism": "information"}}, {"type": "node", "id": 5062065285, "lat": 49.0548431, "lon": 13.0462196, "tags": {"information": "guidepost", "name": "Kirche", "tourism": "information"}}, {"type": "node", "id": 5062065292, "lat": 49.0550268, "lon": 13.0464341, "tags": {"information": "guidepost", "name": "Zur M\u00e4rchenalm", "tourism": "information"}}, {"type": "node", "id": 5077660369, "lat": 49.0498639, "lon": 13.1191948, "tags": {"information": "guidepost", "tourism": "information"}}, {"type": "node", "id": 5077660385, "lat": 49.046404, "lon": 13.1267447, "tags": {"information": "guidepost", "tourism": "information"}}, {"type": "node", "id": 5077660416, "lat": 49.0449716, "lon": 13.1318462, "tags": {"information": "guidepost", "tourism": "information"}}, {"type": "node", "id": 5077660429, "lat": 49.0441324, "lon": 13.1346936, "tags": {"information": "guidepost", "tourism": "information"}}, {"type": "node", "id": 5077660433, "lat": 49.0437985, "lon": 13.1359611, "tags": {"information": "guidepost", "tourism": "information"}}, {"type": "node", "id": 5077660434, "lat": 49.0425831, "lon": 13.1368471, "tags": {"information": "guidepost", "name": "5,5km", "tourism": "information"}}, {"type": "node", "id": 5077660437, "lat": 49.0410559, "lon": 13.1378515, "tags": {"information": "guidepost", "name": "10km", "tourism": "information"}}, {"type": "node", "id": 5077660451, "lat": 49.0389484, "lon": 13.1412206, "tags": {"information": "guidepost", "name": "5,5km", "tourism": "information"}}, {"type": "node", "id": 5077660473, "lat": 49.0343108, "lon": 13.1484156, "tags": {"information": "guidepost", "tourism": "information"}}, {"type": "node", "id": 5077660482, "lat": 49.049622, "lon": 13.1130427, "tags": {"information": "guidepost", "tourism": "information"}}, {"type": "node", "id": 5077660490, "lat": 49.0467489, "lon": 13.1244733, "tags": {"information": "guidepost", "tourism": "information"}}, {"type": "node", "id": 5077677290, "lat": 49.0343664, "lon": 13.1484208, "tags": {"information": "hikingmap", "tourism": "information"}}, {"type": "node", "id": 5089063869, "lat": 49.0264863, "lon": 13.1875063, "tags": {"information": "board", "tourism": "information"}}, {"type": "node", "id": 5305146302, "lat": 49.0655961, "lon": 13.1441284, "tags": {"information": "guidepost", "tourism": "information"}}, {"type": "node", "id": 5305146304, "lat": 49.0696511, "lon": 13.1339023, "tags": {"information": "guidepost", "tourism": "information"}}, {"type": "node", "id": 5305146310, "lat": 49.0728828, "lon": 13.1082908, "tags": {"information": "guidepost", "tourism": "information"}}, {"type": "node", "id": 5305157009, "lat": 49.069697, "lon": 13.0963541, "tags": {"information": "guidepost", "tourism": "information"}}, {"type": "node", "id": 5306871182, "lat": 49.0711438, "lon": 13.0932046, "tags": {"board_type": "notice", "check_date": "2022-08-14", "information": "board", "tourism": "information"}}, {"type": "node", "id": 5440873965, "lat": 49.1411388, "lon": 13.1595548, "tags": {"ele": "1173", "name": "Hindenburgfelsen", "natural": "peak"}}, {"type": "node", "id": 5440873966, "lat": 49.1440873, "lon": 13.1362017, "tags": {"ele": "978", "name": "Fuchsriegel", "natural": "peak"}}, {"type": "node", "id": 5610147928, "lat": 49.1468757, "lon": 13.1211859, "tags": {"board_type": "history", "check_date": "2024-06-07", "information": "board", "name": "Triftsteig 4", "tourism": "information"}}, {"type": "node", "id": 5610147929, "lat": 49.1499901, "lon": 13.1207014, "tags": {"board_type": "history", "check_date": "2024-06-07", "information": "board", "name": "Triftsteig Nr.3", "tourism": "information"}}, {"type": "node", "id": 5610181382, "lat": 49.1508861, "lon": 13.1206725, "tags": {"board_type": "history", "check_date": "2024-06-07", "information": "board", "name": "Triftsteig Nr.2", "tourism": "information"}}, {"type": "node", "id": 5684617465, "lat": 49.1431655, "lon": 13.18223, "tags": {"board_type": "history", "information": "board", "name": "Durch Zylinderblastechnik hergestellte Glastafeln", "tourism": "information"}}, {"type": "node", "id": 5684735841, "lat": 49.1357322, "lon": 13.1934607, "tags": {"board_type": "history", "information": "board", "name": "Skl\u00e1rny v\u00a0\u00fadol\u00ed Svaro\u017en\u00e9", "name:de": "Glash\u00fctten im Tal Svaro\u017en\u00e1", "tourism": "information"}}, {"type": "node", "id": 5684735842, "lat": 49.1449207, "lon": 13.182478, "tags": {"board_type": "history", "information": "board", "name": "Spiegelh\u00fctte", "tourism": "information"}}, {"type": "node", "id": 5684735852, "lat": 49.1377646, "lon": 13.1885984, "tags": {"information": "guidepost", "name": "Gelber Pfeil", "tourism": "information"}}, {"type": "node", "id": 5684848107, "lat": 49.1449839, "lon": 13.170502, "tags": {"information": "board", "name": "Erfassung von Wildtieren !", "tourism": "information"}}, {"type": "node", "id": 5689554518, "lat": 49.0165277, "lon": 13.1426829, "tags": {"information": "guidepost", "tourism": "information"}}, {"type": "node", "id": 5689554519, "lat": 49.0165092, "lon": 13.1427577, "tags": {"information": "guidepost", "name": "Reptilienpfad & Turmweg", "tourism": "information"}}, {"type": "node", "id": 5689555628, "lat": 49.017048, "lon": 13.1420017, "tags": {"information": "guidepost", "name": "Kronberg 4,5km....", "tourism": "information"}}, {"type": "node", "id": 5689555629, "lat": 49.0169452, "lon": 13.1419753, "tags": {"board_type": "nature", "information": "board", "name": "Reptilienpfad", "tourism": "information"}}, {"type": "node", "id": 5689555677, "lat": 49.0175319, "lon": 13.1442234, "tags": {"natural": "peak"}}, {"type": "node", "id": 5689555678, "lat": 49.0177061, "lon": 13.1442717, "tags": {"ele": "709", "name": "Anis", "natural": "peak"}}, {"type": "node", "id": 5698372628, "lat": 49.0778411, "lon": 13.1252687, "tags": {"information": "guidepost", "tourism": "information"}}, {"type": "node", "id": 5698372641, "lat": 49.0836394, "lon": 13.1202799, "tags": {"amenity": "shelter", "shelter_type": "lean_to"}}, {"type": "node", "id": 5698372642, "lat": 49.0837137, "lon": 13.1203665, "tags": {"information": "guidepost", "name": "Gr.Arber / Mittagsplatz", "tourism": "information"}}, {"type": "node", "id": 5698372643, "lat": 49.083693, "lon": 13.1202443, "tags": {"information": "guidepost", "name": "Mittagsplatz 5km", "tourism": "information"}}, {"type": "node", "id": 5702887870, "lat": 49.0152164, "lon": 13.1410056, "tags": {"information": "guidepost", "name": "Zum Aussichtsturm", "tourism": "information"}}, {"type": "node", "id": 5720609956, "lat": 49.1377107, "lon": 13.1464879, "tags": {"description": "Blick zum Arber", "tourism": "viewpoint"}}, {"type": "node", "id": 5720651669, "lat": 49.1411228, "lon": 13.1595499, "tags": {"description": "Blick in den Lamer Winkel", "tourism": "viewpoint"}}, {"type": "node", "id": 5720651693, "lat": 49.1338606, "lon": 13.1441507, "tags": {"information": "guidepost", "name": "Wanderwegweiser", "tourism": "information"}}, {"type": "node", "id": 5744991877, "lat": 49.0785549, "lon": 13.1394307, "tags": {"information": "guidepost", "tourism": "information"}}, {"type": "node", "id": 5744991895, "lat": 49.0749531, "lon": 13.1309435, "tags": {"information": "guidepost", "name": "Panoramah\u00f6henweg (Nr.14)/Aussichtspunkt 50m / Bodenmais 5,5km (Nr.1)/ Mittagsplatzl-Gr.Arber (Nr.1);Mittagsplatzl /Gr. Arber (Nr.1)", "tourism": "information"}}, {"type": "node", "id": 5816600255, "lat": 49.0995899, "lon": 13.1550845, "tags": {"board_type": "nature", "check_date": "2023-09-11", "direction": "351", "information": "board", "name": "Rad der Zeit", "name:cs": "Kolo \u010dasu", "panoramax": "b3826d67-d7c7-4971-bd46-544d2b6e646e", "tourism": "information"}}, {"type": "node", "id": 5816600257, "lat": 49.0803421, "lon": 13.110191, "tags": {"board_type": "nature", "check_date": "2025-07-20", "information": "board", "name": "Wildschutzgebiet f\u00fcr Auerwild", "tourism": "information"}}, {"type": "node", "id": 5816600261, "lat": 49.0572394, "lon": 13.1250733, "tags": {"board_type": "nature", "check_date": "2025-07-18", "information": "board", "name": "Natura 2000 - Ein weltweit einzigartiges Naturschutzprojekt", "tourism": "information"}}, {"type": "node", "id": 5821404926, "lat": 49.0501614, "lon": 13.0498464, "tags": {"board_type": "notice", "description": "Entschleunigungsweg: Innere Mitte", "information": "board", "tourism": "information"}}, {"type": "node", "id": 5821404930, "lat": 49.0514027, "lon": 13.0509412, "tags": {"board_type": "notice", "description": "Entschleunigungsweg: Atem\u00fcbung", "information": "board", "tourism": "information"}}, {"type": "node", "id": 5821404936, "lat": 49.0484509, "lon": 13.0485223, "tags": {"board_type": "notice", "description:de": "Entschleunigungsweg: Innere Ruhe", "information": "board", "tourism": "information"}}, {"type": "node", "id": 5821404944, "lat": 49.0488105, "lon": 13.0490811, "tags": {"board_type": "notice", "description:de": "Entschleunigungsweg: H\u00f6ren - Riechen - F\u00fchlen", "information": "board", "tourism": "information"}}, {"type": "node", "id": 5821404948, "lat": 49.0492661, "lon": 13.0493415, "tags": {"board_type": "notice", "description": "Entschleunigungsweg: Dehnen", "information": "board", "tourism": "information"}}, {"type": "node", "id": 5821405666, "lat": 49.0478474, "lon": 13.0450958, "tags": {"board_type": "notice", "description:de": "Entschleunigungsweg: Massageweg", "information": "board", "tourism": "information"}}, {"type": "node", "id": 5821405671, "lat": 49.0522694, "lon": 13.0514509, "tags": {"board_type": "notice", "description": "Entschleunigungsweg - Start", "information": "board", "tourism": "information"}}, {"type": "node", "id": 5832747612, "lat": 48.9718879, "lon": 13.1232843, "tags": {"name": "Postkeller", "tourism": "attraction", "website": "https://www.postkellerfreunde-regen.de/"}}, {"type": "node", "id": 5833901439, "lat": 48.972939, "lon": 13.1344798, "tags": {"information": "guidepost", "tourism": "information"}}, {"type": "node", "id": 5833907020, "lat": 48.9737454, "lon": 13.1340896, "tags": {"information": "guidepost", "tourism": "information"}}, {"type": "node", "id": 5833938205, "lat": 48.9730147, "lon": 13.1315804, "tags": {"direction": "ESE", "tourism": "viewpoint"}}, {"type": "node", "id": 5833941816, "lat": 48.9702489, "lon": 13.1255065, "tags": {"information": "guidepost", "tourism": "information"}}, {"type": "node", "id": 5834183521, "lat": 49.1164807, "lon": 13.14958, "tags": {"information": "guidepost", "tourism": "information"}}, {"type": "node", "id": 5836088884, "lat": 49.1094864, "lon": 13.1552766, "tags": {"information": "guidepost", "tourism": "information"}}, {"type": "node", "id": 5836097445, "lat": 49.1019095, "lon": 13.1514078, "tags": {"information": "guidepost", "tourism": "information"}}, {"type": "node", "id": 5836099545, "lat": 49.1058304, "lon": 13.1584686, "tags": {"information": "guidepost", "tourism": "information"}}, {"type": "node", "id": 5836099547, "lat": 49.1135627, "lon": 13.1540266, "tags": {"information": "guidepost", "tourism": "information"}}, {"type": "node", "id": 5836607624, "lat": 48.9695761, "lon": 13.1406704, "tags": {"information": "map", "tourism": "information"}}, {"type": "node", "id": 6071116669, "lat": 49.1362548, "lon": 13.1916575, "tags": {"inscription": "Gravur eines Wachturms- CS", "name": "CS", "tourism": "attraction"}}, {"type": "node", "id": 6505764985, "lat": 49.1318368, "lon": 13.0315881, "tags": {"amenity": "shelter"}}, {"type": "node", "id": 6708381611, "lat": 49.0217637, "lon": 13.1561561, "tags": {"information": "guidepost", "tourism": "information"}}, {"type": "node", "id": 6708381612, "lat": 49.0187686, "lon": 13.1550524, "tags": {"information": "guidepost", "tourism": "information"}}, {"type": "node", "id": 6708381613, "lat": 49.0182251, "lon": 13.1536683, "tags": {"information": "guidepost", "tourism": "information"}}, {"type": "node", "id": 6708381614, "lat": 49.016126, "lon": 13.1500963, "tags": {"information": "guidepost", "tourism": "information"}}, {"type": "node", "id": 6708381615, "lat": 49.015261, "lon": 13.1494895, "tags": {"information": "guidepost", "tourism": "information"}}, {"type": "node", "id": 6708381637, "lat": 49.0150433, "lon": 13.1467784, "tags": {"information": "guidepost", "tourism": "information"}}, {"type": "node", "id": 6708381643, "lat": 49.0206978, "lon": 13.1588199, "tags": {"information": "guidepost", "tourism": "information"}}, {"type": "node", "id": 6717387303, "lat": 49.073735, "lon": 13.1100489, "tags": {"information": "guidepost", "tourism": "information"}}, {"type": "node", "id": 6725257580, "lat": 49.0694493, "lon": 13.113753, "tags": {"information": "guidepost", "tourism": "information"}}, {"type": "node", "id": 6725277498, "lat": 49.0702084, "lon": 13.1077744, "tags": {"information": "guidepost", "tourism": "information"}}, {"type": "node", "id": 6738093166, "lat": 49.0060547, "lon": 13.1974895, "tags": {"hiking": "yes", "information": "guidepost", "nordic_walking": "yes", "running": "yes", "tourism": "information"}}, {"type": "node", "id": 6738423245, "lat": 48.9969731, "lon": 13.1921339, "tags": {"ele": "650", "name": "Hiermesb\u00fcgel", "natural": "peak", "note": "FIXME: Genaue Position des h\u00f6chsten Punktes noch zu bestimmen."}}, {"type": "node", "id": 6778254730, "lat": 49.051977, "lon": 13.1006063, "tags": {"name": "Aussichtsplattform des roten Pfads der Ameisenstra\u00dfe", "tourism": "viewpoint", "wheelchair": "no"}}, {"type": "node", "id": 6788932467, "lat": 49.1349078, "lon": 13.1421945, "tags": {"board_type": "notice", "information": "board", "name": "Gr\u00fc\u00dfe aus Loberg", "tourism": "information"}}, {"type": "node", "id": 6788932468, "lat": 49.1309968, "lon": 13.1235689, "tags": {"hiking": "yes", "information": "guidepost", "tourism": "information"}}, {"type": "node", "id": 6788932469, "lat": 49.1283995, "lon": 13.1217015, "tags": {"hiking": "yes", "information": "guidepost", "tourism": "information"}}, {"type": "node", "id": 6788932472, "lat": 49.1232865, "lon": 13.1209179, "tags": {"hiking": "yes", "information": "guidepost", "tourism": "information"}}, {"type": "node", "id": 6814270959, "lat": 48.9787812, "lon": 13.1243985, "tags": {"information": "guidepost", "tourism": "information"}}, {"type": "node", "id": 6814284132, "lat": 48.9782196, "lon": 13.1563223, "tags": {"information": "guidepost", "tourism": "information"}}, {"type": "node", "id": 6814284455, "lat": 48.9793609, "lon": 13.1551125, "tags": {"information": "guidepost", "tourism": "information"}}, {"type": "node", "id": 6814290576, "lat": 48.9783695, "lon": 13.1569376, "tags": {"information": "guidepost", "tourism": "information"}}, {"type": "node", "id": 6814301388, "lat": 48.9737563, "lon": 13.1388511, "tags": {"information": "guidepost", "tourism": "information"}}, {"type": "node", "id": 6814310826, "lat": 48.9778755, "lon": 13.1490256, "tags": {"information": "guidepost", "tourism": "information"}}, {"type": "node", "id": 6814311301, "lat": 48.9925648, "lon": 13.1586433, "tags": {"information": "guidepost", "tourism": "information"}}, {"type": "node", "id": 6814317100, "lat": 48.9775208, "lon": 13.1475732, "tags": {"amenity": "shelter", "backrest": "yes", "bench": "yes", "capacity": "5", "colour": "brown", "covered": "yes", "direction": "S", "material": "wood"}}, {"type": "node", "id": 6814320795, "lat": 48.984595, "lon": 13.1601987, "tags": {"board_type": "notice", "description": "Ende Stausee", "information": "board", "operator": "OFV Regen", "tourism": "information"}}, {"type": "node", "id": 6900901248, "lat": 48.9619435, "lon": 13.0254842, "tags": {"tourism": "viewpoint"}}, {"type": "node", "id": 6900941426, "lat": 48.9727946, "lon": 13.0075322, "tags": {"hiking": "yes", "information": "map", "map_size": "site", "map_type": "topo", "tourism": "information"}}, {"type": "node", "id": 6900952153, "lat": 48.9599528, "lon": 13.0272464, "tags": {"board_type": "geology", "information": "board", "tourism": "information"}}, {"type": "node", "id": 6900952154, "lat": 48.9731028, "lon": 13.0112772, "tags": {"board_type": "geology", "information": "board", "tourism": "information"}}, {"type": "node", "id": 6900952155, "lat": 48.9705559, "lon": 13.0176026, "tags": {"board_type": "geology", "information": "board", "tourism": "information"}}, {"type": "node", "id": 6900952156, "lat": 48.9613865, "lon": 13.0258148, "tags": {"board_type": "geology", "information": "board", "tourism": "information"}}, {"type": "node", "id": 6900952157, "lat": 48.9599345, "lon": 13.0265041, "tags": {"board_type": "geology", "check_date": "2025-02-03", "information": "board", "tourism": "information"}}, {"type": "node", "id": 6900952162, "lat": 48.9601842, "lon": 13.0266157}, {"type": "node", "id": 6900952163, "lat": 48.960185, "lon": 13.0266942}, {"type": "node", "id": 6900952164, "lat": 48.960222, "lon": 13.0266932}, {"type": "node", "id": 6900952165, "lat": 48.9602211, "lon": 13.0266148}, {"type": "node", "id": 6904024897, "lat": 48.9605069, "lon": 13.0262802, "tags": {"board_type": "geology", "check_date": "2025-02-03", "information": "board", "tourism": "information"}}, {"type": "node", "id": 7452948346, "lat": 49.1504372, "lon": 13.0564589, "tags": {"ele": "1183", "name": "H\u00e4ngender Riegel", "natural": "peak", "source": "local knowledge"}}, {"type": "node", "id": 7452948347, "lat": 49.1395818, "lon": 13.0671528, "tags": {"ele": "1146", "natural": "peak"}}, {"type": "node", "id": 7537553014, "lat": 49.0894728, "lon": 13.1189859, "tags": {"information": "guidepost", "tourism": "information"}}, {"type": "node", "id": 7537556324, "lat": 49.0967306, "lon": 13.1221874, "tags": {"information": "guidepost", "tourism": "information"}}, {"type": "node", "id": 7537558824, "lat": 49.1107815, "lon": 13.1353736, "tags": {"information": "guidepost", "tourism": "information"}}, {"type": "node", "id": 7537579894, "lat": 49.0799313, "lon": 13.096408, "tags": {"information": "guidepost", "tourism": "information"}}, {"type": "node", "id": 7537603947, "lat": 49.1004931, "lon": 13.1202311, "tags": {"information": "guidepost", "tourism": "information"}}, {"type": "node", "id": 7537605218, "lat": 49.1054539, "lon": 13.1214112, "tags": {"information": "guidepost", "tourism": "information"}}, {"type": "node", "id": 7537614718, "lat": 49.097049, "lon": 13.1164193, "tags": {"information": "guidepost", "tourism": "information"}}, {"type": "node", "id": 7542356794, "lat": 49.0883175, "lon": 13.109418, "tags": {"amenity": "shelter", "name": "Schutzh\u00fctte"}}, {"type": "node", "id": 7547555523, "lat": 48.9527511, "lon": 13.0473172, "tags": {"direction": "NE", "tourism": "viewpoint"}}, {"type": "node", "id": 7702424936, "lat": 49.0889542, "lon": 13.1195451, "tags": {"information": "guidepost", "name": "Wanderstempel", "tourism": "information"}}, {"type": "node", "id": 7717744366, "lat": 49.1507101, "lon": 13.1942367, "tags": {"ele": "1094", "natural": "peak"}}, {"type": "node", "id": 7724932984, "lat": 49.0986933, "lon": 13.1508051, "tags": {"direction": "NE-SE", "tourism": "viewpoint"}}, {"type": "node", "id": 7880857695, "lat": 49.0539584, "lon": 13.1389174, "tags": {"direction": "NE", "tourism": "viewpoint"}}, {"type": "node", "id": 8839312612, "lat": 49.141196, "lon": 13.1590268, "tags": {"tourism": "viewpoint"}}, {"type": "node", "id": 8839372589, "lat": 49.1346309, "lon": 13.1450544, "tags": {"information": "guidepost", "tourism": "information"}}, {"type": "node", "id": 8933381538, "lat": 49.0963289, "lon": 13.1714015, "tags": {"hiking": "yes", "information": "guidepost", "noname": "yes", "tourism": "information"}}, {"type": "node", "id": 8950832189, "lat": 49.1097492, "lon": 13.1864839, "tags": {"information": "guidepost", "tourism": "information"}}, {"type": "node", "id": 9006391825, "lat": 49.1210367, "lon": 13.1329375, "tags": {"information": "map", "tourism": "information"}}, {"type": "node", "id": 9178490246, "lat": 49.0696011, "lon": 13.1032465}, {"type": "node", "id": 9193213942, "lat": 49.0148115, "lon": 13.1336146, "tags": {"information": "guidepost", "tourism": "information"}}, {"type": "node", "id": 9415959541, "lat": 49.117975, "lon": 13.0492425}, {"type": "node", "id": 9415959542, "lat": 49.1179662, "lon": 13.0492724}, {"type": "node", "id": 9415959543, "lat": 49.117941, "lon": 13.0492552}, {"type": "node", "id": 9579162753, "lat": 49.0338541, "lon": 13.1943409, "tags": {"direction_east": "Abk. Rabenstein", "direction_southeast": "Zwiesel \u00fcber Innenried (4)(28)(29)", "hiking": "yes", "information": "guidepost", "tourism": "information"}}, {"type": "node", "id": 9579179385, "lat": 49.0312938, "lon": 13.2000933, "tags": {"information": "guidepost", "ski": "yes", "tourism": "information"}}, {"type": "node", "id": 9579255684, "lat": 49.0500931, "lon": 13.1775731, "tags": {"direction_southeast": "Rabenstein 2,5km Zwiesel 6,5km (1)(10);MTB Tour 8;Zwieslerwaldhaus 25km 400hm", "direction_southwest": "Hennenkobel 1km;Gl\u00e4serner Kreuzweg;Sch\u00f6nebene 4km Bodenmais 7km (10)Schachtenbach 3,5km Kiesau / Quarzbruch (Gl\u00e4serner Steig);Traverse Ost-West 27km 560hm", "hiking": "yes", "information": "guidepost", "mtb": "yes", "tourism": "information"}}, {"type": "node", "id": 9579255685, "lat": 49.0499915, "lon": 13.1775161, "tags": {"bicycle": "no", "direction_east": "Rabenstein 2,5km Zwiesel 6,5km (1)(10)", "direction_north": "Kaisersteig 2,5km Lindberg 8km (Gl\u00e4serner Steig);Bretterschachten 3,5km Mittagsplatzl 7km (1);Gro\u00dfer Arber;Lam;MTB Touren 13+14", "hiking": "yes", "information": "guidepost", "mtb": "yes", "tourism": "information"}}, {"type": "node", "id": 9579255686, "lat": 49.0500164, "lon": 13.1776834, "tags": {"direction_northwest": "Kaisersteig 2,5km Lindberg 8km  (Gl\u00e4serner Steig);Bretterschachten 3,5km Mittagsplatzl 7km (1);MTB Tour 4;Gro\u00dfer Arber 15km 660hm;Lam 40km 1010hm;Schachtenbach", "direction_west": "Hennenkobel 1km;Gl\u00e4serner Kreuzweg;Schachtenbach 3,5km Kiesau / Quarzbruch (Gl\u00e4serner Steig);Sch\u00f6nebene 4km Bodenmais 7km (10);MTB Touren 8 u. 18;Quertrasse Ost-West 27km 560hm", "hiking": "yes", "information": "guidepost", "mtb": "yes", "tourism": "information"}}, {"type": "node", "id": 9581027368, "lat": 49.0406358, "lon": 13.1891919, "tags": {"direction_east": "Parkplatz Hennenkobel (Karl-D\u00f6rfler-Weg);Rabenstein 1,5km", "direction_northwest": "Quarzbruch 2km Hennenkobel 1,5km (4)(29)", "direction_south": "Zwiesel 5km (4);(29)", "hiking": "yes", "information": "guidepost", "tourism": "information"}}, {"type": "node", "id": 9581027369, "lat": 49.0384933, "lon": 13.1890531, "tags": {"hiking": "yes", "information": "guidepost", "tourism": "information"}}, {"type": "node", "id": 9581187292, "lat": 49.0386389, "lon": 13.1891044, "tags": {"hiking": "yes", "information": "guidepost", "tourism": "information"}}, {"type": "node", "id": 9581300475, "lat": 49.0450586, "lon": 13.1814368, "tags": {"board_type": "nature", "direction": "220", "information": "board", "tourism": "information"}}, {"type": "node", "id": 9583492527, "lat": 49.0492845, "lon": 13.1761899, "tags": {"board_type": "religion", "direction": "270", "information": "board", "name": "Gl\u00e4serner Kreuzweg", "tourism": "information"}}, {"type": "node", "id": 9583505751, "lat": 49.0497991, "lon": 13.1762433, "tags": {"direction_south": "Hennenkobel 974m 0,8km/0:20h", "direction_west": "Kiesau historischer Quarzbruch 0,5km/0:10h;Sch\u00f6nebene Wanderparkplatz 4,3km/1:15h;B\u00f6hmhof 7,7km/2:15h", "hiking": "yes", "information": "guidepost", "tourism": "information"}}, {"type": "node", "id": 9583602616, "lat": 49.0561181, "lon": 13.173311, "tags": {"direction_north": "Gro\u00dfer Arber 8km Mittagsplatzl 5,5km Bretterschachten 2,5km (1)", "direction_south": "Rabenstein (1)", "hiking": "yes", "information": "guidepost", "mtb": "yes", "tourism": "information"}}, {"type": "node", "id": 9583632457, "lat": 49.0508901, "lon": 13.1765117, "tags": {"direction_north": "Schachtenbach 2,5km", "direction_northwest": "Gro\u00dfer Arber Bretterschachten (1)", "direction_southeast": "Zwiesel Rabenstein (Gl\u00e4serner Steig)(1)", "hiking": "yes", "information": "guidepost", "mtb": "yes", "tourism": "information"}}, {"type": "node", "id": 9583651827, "lat": 49.0610128, "lon": 13.1733992, "tags": {"direction_northeast": "Regenh\u00fctte (3);Schachtenbach (29);(Gl\u00e4serner Steig)", "direction_northwest": "Gro\u00dfer Arber 7,6km Mittagsplatzl 5km Bretterschachten 2km (1)", "direction_southeast": "Zwiesel Bahnhof 8km Rabenstein 3,5km (1)", "direction_southwest": "Bodenmais (3);(Gl\u00e4serner Steig)(29)", "hiking": "yes", "information": "guidepost", "mtb": "yes", "tourism": "information"}}, {"type": "node", "id": 9583806405, "lat": 49.0630608, "lon": 13.1962683, "tags": {"hiking": "yes", "information": "guidepost", "tourism": "information"}}, {"type": "node", "id": 9641684970, "lat": 49.1063274, "lon": 13.0132131, "tags": {"information": "guidepost", "tourism": "information"}}, {"type": "node", "id": 9641732053, "lat": 49.1073243, "lon": 13.0103237, "tags": {"information": "guidepost", "tourism": "information"}}, {"type": "node", "id": 9641738546, "lat": 49.1070395, "lon": 13.011193}, {"type": "node", "id": 9641738547, "lat": 49.1069798, "lon": 13.011151}, {"type": "node", "id": 9641738548, "lat": 49.1069968, "lon": 13.0110948}, {"type": "node", "id": 9641738549, "lat": 49.1070564, "lon": 13.0111369}, {"type": "node", "id": 9642881083, "lat": 49.1068695, "lon": 13.0115669, "tags": {"tourism": "information"}}, {"type": "node", "id": 9729803382, "lat": 48.9909458, "lon": 13.0861424, "tags": {"amenity": "shelter", "bench": "yes", "kerb": "raised", "kerb:height": "0.11", "shelter_type": "public_transport", "wheelchair": "no"}}, {"type": "node", "id": 9749152013, "lat": 49.1179838, "lon": 13.1927614, "tags": {"amenity": "shelter", "kerb": "raised", "kerb:height": "0.09", "shelter_type": "public_transport", "wheelchair": "no"}}, {"type": "node", "id": 9754064804, "lat": 49.0911135, "lon": 13.1983884, "tags": {"amenity": "shelter", "bench": "yes", "kerb": "raised", "kerb:height": "0.17", "shelter_type": "public_transport", "wheelchair": "no"}}, {"type": "node", "id": 9756776536, "lat": 48.9828703, "lon": 13.1336899, "tags": {"amenity": "shelter", "bench": "yes", "kerb": "raised", "kerb:height": "0.12", "shelter_type": "public_transport", "wheelchair": "no"}}, {"type": "node", "id": 9757599036, "lat": 48.9645902, "lon": 13.0897091, "tags": {"amenity": "shelter", "bench": "yes", "kerb": "raised", "kerb:height": "0.09", "shelter_type": "public_transport", "wheelchair": "no"}}, {"type": "node", "id": 9811553662, "lat": 49.0982105, "lon": 13.1544964, "tags": {"direction": "W-N-E", "tourism": "viewpoint"}}, {"type": "node", "id": 9825780265, "lat": 49.0898857, "lon": 13.0441303, "tags": {"amenity": "shelter", "bench": "yes", "shelter_type": "public_transport", "wheelchair": "limited"}}, {"type": "node", "id": 9838138077, "lat": 49.026068, "lon": 13.004913, "tags": {"amenity": "shelter", "bench": "yes", "kerb": "raised", "shelter_type": "public_transport", "wheelchair": "no"}}, {"type": "node", "id": 9845754943, "lat": 49.0699949, "lon": 13.1014439}, {"type": "node", "id": 9845754944, "lat": 49.0699223, "lon": 13.1014394}, {"type": "node", "id": 9845754945, "lat": 49.0699202, "lon": 13.1015191}, {"type": "node", "id": 9845754946, "lat": 49.0699928, "lon": 13.1015236}, {"type": "node", "id": 9879318582, "lat": 49.1433829, "lon": 13.0432679, "tags": {"description": "Bei Schneeschmelze oder starken Regenf\u00e4llen sprudelt Wasser aus diesem Stein.", "name": "Stein Moses", "natural": "rock", "tourism": "attraction"}}, {"type": "node", "id": 9879318584, "lat": 49.1447379, "lon": 13.0429652, "tags": {"name": "Schussbachtal", "place": "locality", "tourism": "attraction"}}, {"type": "node", "id": 9901754055, "lat": 49.1473883, "lon": 13.0637489, "tags": {"board_type": "geology", "description": "geologische Entstehung desBayerwald und Beschreibung der Landschaft", "information": "board", "name": "Bayerwald - Blick", "tourism": "information"}}, {"type": "node", "id": 9901878613, "lat": 49.0903962, "lon": 13.1944373, "tags": {"hiking": "yes", "information": "map", "map_type": "topo", "tourism": "information"}}, {"type": "node", "id": 9901953594, "lat": 49.0996574, "lon": 13.1342037, "tags": {"amenity": "shelter", "shelter_type": "weather_shelter"}}, {"type": "node", "id": 9913871667, "lat": 49.1104636, "lon": 13.1466389, "tags": {"hiking": "yes", "information": "guidepost", "tourism": "information"}}, {"type": "node", "id": 9913917658, "lat": 49.110387, "lon": 13.1474594, "tags": {"board_type": "sport", "information": "board", "name": "Aktiv- und Gesundheitspark Arber", "tourism": "information"}}, {"type": "node", "id": 9939085883, "lat": 49.0147826, "lon": 13.1250293, "tags": {"board_type": "hiking", "information": "board", "name": "Der Natur auf der Spur", "tourism": "information"}}, {"type": "node", "id": 9939131703, "lat": 49.1021842, "lon": 13.1283316, "tags": {"amenity": "lounger", "tourism": "viewpoint"}}, {"type": "node", "id": 9949619177, "lat": 49.0675326, "lon": 13.0834099}, {"type": "node", "id": 9949619178, "lat": 49.0674873, "lon": 13.0834099}, {"type": "node", "id": 9949619179, "lat": 49.0674855, "lon": 13.0835849}, {"type": "node", "id": 9949619180, "lat": 49.0675642, "lon": 13.0836345}, {"type": "node", "id": 9949619181, "lat": 49.0675778, "lon": 13.0836097}, {"type": "node", "id": 9949619182, "lat": 49.0675589, "lon": 13.0834461}, {"type": "node", "id": 9950595176, "lat": 49.0445502, "lon": 13.1239186, "tags": {"information": "map", "map_size": "region", "map_type": "topo", "tourism": "information"}}, {"type": "node", "id": 9950595179, "lat": 49.0446024, "lon": 13.1238881, "tags": {"amenity": "shelter"}}, {"type": "node", "id": 9950666698, "lat": 49.0445709, "lon": 13.1237457, "tags": {"information": "guidepost", "tourism": "information"}}, {"type": "node", "id": 9950751079, "lat": 49.0467624, "lon": 13.1245209, "tags": {"information": "guidepost", "tourism": "information"}}, {"type": "node", "id": 9950751080, "lat": 49.0467459, "lon": 13.1244794, "tags": {"information": "guidepost", "tourism": "information"}}, {"type": "node", "id": 9950751081, "lat": 49.0471446, "lon": 13.1245814, "tags": {"information": "guidepost", "tourism": "information"}}, {"type": "node", "id": 9958984822, "lat": 49.1246006, "lon": 13.13424, "tags": {"information": "guidepost", "tourism": "information"}}, {"type": "node", "id": 10016217315, "lat": 49.0631321, "lon": 13.1106901, "tags": {"information": "guidepost", "tourism": "information"}}, {"type": "node", "id": 10016217316, "lat": 49.0700388, "lon": 13.1037954, "tags": {"information": "guidepost", "tourism": "information"}}, {"type": "node", "id": 10016238635, "lat": 49.0645894, "lon": 13.1076359, "tags": {"information": "guidepost", "tourism": "information"}}, {"type": "node", "id": 10016370147, "lat": 49.0695383, "lon": 13.1064372, "tags": {"information": "guidepost", "tourism": "information"}}, {"type": "node", "id": 10016381107, "lat": 49.0654585, "lon": 13.1077404, "tags": {"information": "guidepost", "tourism": "information"}}, {"type": "node", "id": 10016390168, "lat": 49.0675387, "lon": 13.1082734, "tags": {"hiking": "yes", "information": "guidepost", "tourism": "information"}}, {"type": "node", "id": 10016408652, "lat": 49.0699986, "lon": 13.1029304, "tags": {"information": "guidepost", "tourism": "information"}}, {"type": "node", "id": 10016414186, "lat": 49.0651407, "lon": 13.1075756, "tags": {"information": "guidepost", "tourism": "information"}}, {"type": "node", "id": 10016416368, "lat": 49.0676392, "lon": 13.108131, "tags": {"hiking": "yes", "information": "guidepost", "tourism": "information"}}, {"type": "node", "id": 10018781051, "lat": 49.0572868, "lon": 13.1251798, "tags": {"information": "guidepost", "tourism": "information"}}, {"type": "node", "id": 10018784398, "lat": 49.0549916, "lon": 13.1310652, "tags": {"information": "guidepost", "tourism": "information"}}, {"type": "node", "id": 10018813553, "lat": 49.0604327, "lon": 13.1147282, "tags": {"information": "guidepost", "tourism": "information"}}, {"type": "node", "id": 10018840885, "lat": 49.0554855, "lon": 13.1280519, "tags": {"information": "guidepost", "tourism": "information"}}, {"type": "node", "id": 10018844453, "lat": 49.0555134, "lon": 13.1284654, "tags": {"name": "Das Steigerhaus", "tourism": "information"}}, {"type": "node", "id": 10018847410, "lat": 49.0532635, "lon": 13.1372287, "tags": {"information": "guidepost", "tourism": "information"}}, {"type": "node", "id": 10018847411, "lat": 49.0608364, "lon": 13.119371, "tags": {"information": "guidepost", "tourism": "information"}}, {"type": "node", "id": 10018849088, "lat": 49.0698014, "lon": 13.1016009, "tags": {"information": "guidepost", "tourism": "information"}}, {"type": "node", "id": 10018853585, "lat": 49.0551729, "lon": 13.1211907, "tags": {"information": "guidepost", "tourism": "information"}}, {"type": "node", "id": 10018853595, "lat": 49.0658037, "lon": 13.1025693, "tags": {"information": "guidepost", "tourism": "information"}}, {"type": "node", "id": 10018861557, "lat": 49.0645966, "lon": 13.1030151, "tags": {"information": "guidepost", "tourism": "information"}}, {"type": "node", "id": 10018869929, "lat": 49.0592557, "lon": 13.1245166, "tags": {"information": "guidepost", "tourism": "information"}}, {"type": "node", "id": 10018870131, "lat": 49.0580415, "lon": 13.1193257, "tags": {"information": "guidepost", "tourism": "information"}}, {"type": "node", "id": 10018870354, "lat": 49.0669503, "lon": 13.0996878, "tags": {"information": "guidepost", "tourism": "information"}}, {"type": "node", "id": 10018873034, "lat": 49.0613055, "lon": 13.1143459, "tags": {"board_type": "history", "information": "board", "name": "Silbersteig", "tourism": "information"}}, {"type": "node", "id": 10018873035, "lat": 49.0578471, "lon": 13.1274831, "tags": {"information": "guidepost", "tourism": "information"}}, {"type": "node", "id": 10018873610, "lat": 49.0645622, "lon": 13.1031823, "tags": {"information": "guidepost", "tourism": "information"}}, {"type": "node", "id": 10018876529, "lat": 49.0652576, "lon": 13.1024079, "tags": {"information": "guidepost", "tourism": "information"}}, {"type": "node", "id": 10018876620, "lat": 49.0593379, "lon": 13.1212757, "tags": {"hiking": "yes", "information": "guidepost", "tourism": "information"}}, {"type": "node", "id": 10018876834, "lat": 49.0630458, "lon": 13.10759, "tags": {"information": "guidepost", "tourism": "information"}}, {"type": "node", "id": 10018876835, "lat": 49.0602256, "lon": 13.1169612, "tags": {"information": "guidepost", "tourism": "information"}}, {"type": "node", "id": 10018878669, "lat": 49.061365, "lon": 13.114159, "tags": {"information": "guidepost", "tourism": "information"}}, {"type": "node", "id": 10018878670, "lat": 49.0652898, "lon": 13.1025045, "tags": {"information": "guidepost", "tourism": "information"}}, {"type": "node", "id": 10018879172, "lat": 49.0599289, "lon": 13.1170054, "tags": {"name": "R\u00f6sth\u00fctte und Aufbereitung", "tourism": "information"}}, {"type": "node", "id": 10018879173, "lat": 49.0569879, "lon": 13.1288776, "tags": {"information": "guidepost", "tourism": "information"}}, {"type": "node", "id": 10021309484, "lat": 49.1103009, "lon": 13.1474515, "tags": {"information": "guidepost", "tourism": "information"}}, {"type": "node", "id": 10021311543, "lat": 49.1122749, "lon": 13.1341423, "tags": {"name": "Natur unter Schutz", "tourism": "information"}}, {"type": "node", "id": 10021311544, "lat": 49.1110775, "lon": 13.1245701, "tags": {"information": "guidepost", "tourism": "information"}}, {"type": "node", "id": 10021323605, "lat": 49.1114911, "lon": 13.133309, "tags": {"information": "guidepost", "tourism": "information"}}, {"type": "node", "id": 10021325396, "lat": 49.1125075, "lon": 13.1357341, "tags": {"name": "Gipfeltreffen der \u00dcberlebensk\u00fcnstler", "tourism": "information"}}, {"type": "node", "id": 10021343567, "lat": 49.1117278, "lon": 13.1199298, "tags": {"information": "guidepost", "tourism": "information"}}, {"type": "node", "id": 10021344581, "lat": 49.1099792, "lon": 13.1350131, "tags": {"information": "guidepost", "tourism": "information"}}, {"type": "node", "id": 10021346132, "lat": 49.099094, "lon": 13.1587878, "tags": {"hiking": "yes", "information": "guidepost", "tourism": "information"}}, {"type": "node", "id": 10021346229, "lat": 49.1130843, "lon": 13.1345551, "tags": {"name": "Immer schon ein Grenzfall", "tourism": "information"}}, {"type": "node", "id": 10021347590, "lat": 49.1136703, "lon": 13.1328129, "tags": {"name": "Natursch\u00e4tze rund um den gro\u00dfen Arber", "tourism": "information"}}, {"type": "node", "id": 10021347631, "lat": 49.1128939, "lon": 13.1356331, "tags": {"information": "guidepost", "tourism": "information"}}, {"type": "node", "id": 10021347632, "lat": 49.1122811, "lon": 13.1341468, "tags": {"information": "guidepost", "tourism": "information"}}, {"type": "node", "id": 10021350451, "lat": 49.1114998, "lon": 13.1376687, "tags": {"board_type": "history", "information": "board", "name": "Die Geschichte der sieben Arberkapellen", "tourism": "information"}}, {"type": "node", "id": 10021351769, "lat": 49.1114834, "lon": 13.1331428, "tags": {"name": "Rarit\u00e4tenkabinett Felsriegel", "tourism": "information"}}, {"type": "node", "id": 10021351770, "lat": 49.1132654, "lon": 13.1101812, "tags": {"information": "guidepost", "tourism": "information"}}, {"type": "node", "id": 10021353325, "lat": 49.1113372, "lon": 13.1235877, "tags": {"information": "guidepost", "tourism": "information"}}, {"type": "node", "id": 10026621792, "lat": 49.0695764, "lon": 13.1035829, "tags": {"information": "guidepost", "tourism": "information"}}, {"type": "node", "id": 10026643218, "lat": 49.0670006, "lon": 13.1126981, "tags": {"information": "guidepost", "tourism": "information"}}, {"type": "node", "id": 10026644463, "lat": 49.0872537, "lon": 13.116146, "tags": {"information": "guidepost", "tourism": "information"}}, {"type": "node", "id": 10026802403, "lat": 49.0493217, "lon": 13.0807458, "tags": {"information": "guidepost", "tourism": "information"}}, {"type": "node", "id": 10026840752, "lat": 49.0493404, "lon": 13.082582, "tags": {"information": "guidepost", "tourism": "information"}}, {"type": "node", "id": 10026844946, "lat": 49.0485199, "lon": 13.0810988, "tags": {"information": "guidepost", "tourism": "information"}}, {"type": "node", "id": 10032423275, "lat": 49.0596157, "lon": 13.1042658, "tags": {"hiking": "yes", "information": "guidepost", "tourism": "information", "utm": "33 361509 / 5435821"}}, {"type": "node", "id": 10033395523, "lat": 49.0578309, "lon": 13.1122113, "tags": {"information": "guidepost", "ref": "Bo-0756", "tourism": "information", "utm": "33 362088 / 5435607"}}, {"type": "node", "id": 10035019813, "lat": 49.069885, "lon": 13.1011937, "tags": {"bicycle": "yes", "information": "guidepost", "tourism": "information"}}, {"type": "node", "id": 10035019814, "lat": 49.0699971, "lon": 13.1014412, "tags": {"hiking": "yes", "information": "guidepost", "tourism": "information"}}, {"type": "node", "id": 10038018334, "lat": 49.0991512, "lon": 13.159321, "tags": {"information": "map", "tourism": "information"}}, {"type": "node", "id": 10038018335, "lat": 49.0991434, "lon": 13.1592503, "tags": {"hiking": "yes", "information": "guidepost", "tourism": "information"}}, {"type": "node", "id": 10040010601, "lat": 49.0506269, "lon": 13.1972112, "tags": {"board_type": "history", "information": "board", "name": "Die K\u00fcnstlerin Henriette Steigerwald", "tourism": "information"}}, {"type": "node", "id": 10040010603, "lat": 49.0506463, "lon": 13.1972375, "tags": {"hiking": "yes", "information": "guidepost", "tourism": "information"}}, {"type": "node", "id": 10040094983, "lat": 49.0416223, "lon": 13.193008, "tags": {"hiking": "yes", "information": "guidepost", "tourism": "information"}}, {"type": "node", "id": 10041413334, "lat": 49.0568591, "lon": 13.126518, "tags": {"name": "Blick in den Gottesgab-Stollen", "tourism": "attraction"}}, {"type": "node", "id": 10043011701, "lat": 49.0513429, "lon": 13.182147, "tags": {"board_type": "history", "information": "board", "name": "Die Rabensteiner Alth\u00fctte", "tourism": "information"}}, {"type": "node", "id": 10043011703, "lat": 49.0515426, "lon": 13.1769478, "tags": {"hiking": "yes", "information": "guidepost", "tourism": "information"}}, {"type": "node", "id": 10043031719, "lat": 49.0452059, "lon": 13.1811937}, {"type": "node", "id": 10043031720, "lat": 49.0451873, "lon": 13.181242}, {"type": "node", "id": 10043031721, "lat": 49.0451612, "lon": 13.1812186}, {"type": "node", "id": 10043031722, "lat": 49.0451798, "lon": 13.1811703}, {"type": "node", "id": 10043031727, "lat": 49.0466465, "lon": 13.1766799, "tags": {"hiking": "yes", "information": "guidepost", "tourism": "information"}}, {"type": "node", "id": 10043031728, "lat": 49.0434941, "lon": 13.1816003, "tags": {"hiking": "yes", "information": "guidepost", "tourism": "information"}}, {"type": "node", "id": 10043031729, "lat": 49.0464967, "lon": 13.1762143, "tags": {"hiking": "yes", "information": "guidepost", "tourism": "information"}}, {"type": "node", "id": 10043034792, "lat": 49.051552, "lon": 13.1935295, "tags": {"hiking": "yes", "information": "guidepost", "tourism": "information"}}, {"type": "node", "id": 10043034794, "lat": 49.0524926, "lon": 13.185846, "tags": {"hiking": "yes", "information": "guidepost", "tourism": "information"}}, {"type": "node", "id": 10105934309, "lat": 49.0573545, "lon": 13.095772, "tags": {"information": "guidepost", "tourism": "information"}}, {"type": "node", "id": 10105939410, "lat": 49.0608456, "lon": 13.0894037, "tags": {"information": "guidepost", "tourism": "information"}}, {"type": "node", "id": 10105957086, "lat": 49.0571534, "lon": 13.0954705, "tags": {"hiking": "yes", "information": "guidepost", "tourism": "information"}}, {"type": "node", "id": 10105972520, "lat": 49.0573684, "lon": 13.0929504, "tags": {"information": "guidepost", "tourism": "information"}}, {"type": "node", "id": 10105994234, "lat": 49.0589313, "lon": 13.0919416, "tags": {"information": "guidepost", "tourism": "information"}}, {"type": "node", "id": 10106042159, "lat": 49.0521532, "lon": 13.079088, "tags": {"information": "guidepost", "tourism": "information"}}, {"type": "node", "id": 10106055589, "lat": 49.042435, "lon": 13.0754823, "tags": {"information": "guidepost", "tourism": "information"}}, {"type": "node", "id": 10106060513, "lat": 49.0446313, "lon": 13.0723879, "tags": {"information": "guidepost", "tourism": "information"}}, {"type": "node", "id": 10106084267, "lat": 49.0453767, "lon": 13.0742784, "tags": {"information": "guidepost", "tourism": "information"}}, {"type": "node", "id": 10106084884, "lat": 49.043198, "lon": 13.0741736, "tags": {"information": "guidepost", "tourism": "information"}}, {"type": "node", "id": 10106092675, "lat": 49.0428032, "lon": 13.0759833, "tags": {"information": "guidepost", "tourism": "information"}}, {"type": "node", "id": 10106095442, "lat": 49.0429746, "lon": 13.0751312, "tags": {"information": "guidepost", "tourism": "information"}}, {"type": "node", "id": 10106097798, "lat": 49.045393, "lon": 13.0757779, "tags": {"information": "guidepost", "tourism": "information"}}, {"type": "node", "id": 10106100801, "lat": 49.0444908, "lon": 13.0750667, "tags": {"information": "guidepost", "tourism": "information"}}, {"type": "node", "id": 10106102706, "lat": 49.0455614, "lon": 13.074456, "tags": {"information": "guidepost", "tourism": "information"}}, {"type": "node", "id": 10106114201, "lat": 49.045423, "lon": 13.0768397, "tags": {"information": "guidepost", "tourism": "information"}}, {"type": "node", "id": 10106123119, "lat": 49.0452609, "lon": 13.0740074, "tags": {"information": "guidepost", "tourism": "information"}}, {"type": "node", "id": 10106150907, "lat": 49.0472442, "lon": 13.0765804, "tags": {"information": "guidepost", "tourism": "information"}}, {"type": "node", "id": 10106185880, "lat": 49.0494353, "lon": 13.080705, "tags": {"board:title": "Panoramablick \u00fcber Bodenmais mit Zellertal", "board_type": "toposcope", "information": "board", "inscription": "Standort: Harlachberg 913 m NN GPS: 13\u00b004'50'' Ost  49\u00b002'57'' Nord Aufnahme: 04.06.2010 16:30 Uhr, Max-Josef Kuchler Bodenmais", "tourism": "information"}}, {"type": "node", "id": 10106228160, "lat": 49.0467353, "lon": 13.0856846, "tags": {"information": "guidepost", "tourism": "information"}}, {"type": "node", "id": 10106391835, "lat": 49.0464571, "lon": 13.0864035, "tags": {"information": "guidepost", "tourism": "information"}}, {"type": "node", "id": 10106406686, "lat": 49.0471374, "lon": 13.0899678, "tags": {"information": "guidepost", "tourism": "information"}}, {"type": "node", "id": 10106409928, "lat": 49.0481373, "lon": 13.0957511, "tags": {"information": "guidepost", "tourism": "information"}}, {"type": "node", "id": 10106424729, "lat": 49.0473287, "lon": 13.0983055, "tags": {"information": "guidepost", "tourism": "information"}}, {"type": "node", "id": 10106472237, "lat": 49.0498105, "lon": 13.09627, "tags": {"information": "guidepost", "tourism": "information"}}, {"type": "node", "id": 10106485453, "lat": 49.0523705, "lon": 13.0964013, "tags": {"information": "guidepost", "tourism": "information"}}, {"type": "node", "id": 10106489687, "lat": 49.0508682, "lon": 13.0973242, "tags": {"information": "guidepost", "tourism": "information"}}, {"type": "node", "id": 10106498819, "lat": 49.0500352, "lon": 13.0963335, "tags": {"information": "guidepost", "tourism": "information"}}, {"type": "node", "id": 10106504462, "lat": 49.0514412, "lon": 13.1019542, "tags": {"information": "guidepost", "tourism": "information"}}, {"type": "node", "id": 10106510921, "lat": 49.0517737, "lon": 13.0969235, "tags": {"hiking": "yes", "information": "guidepost", "tourism": "information"}}, {"type": "node", "id": 10106538100, "lat": 49.0533307, "lon": 13.1018627, "tags": {"information": "guidepost", "tourism": "information"}}, {"type": "node", "id": 10106539586, "lat": 49.0513165, "lon": 13.0996027, "tags": {"hiking": "yes", "information": "guidepost", "tourism": "information"}}, {"type": "node", "id": 10106542124, "lat": 49.0503619, "lon": 13.099397, "tags": {"information": "guidepost", "tourism": "information"}}, {"type": "node", "id": 10106544483, "lat": 49.0524731, "lon": 13.0995465, "tags": {"hiking": "yes", "information": "guidepost", "tourism": "information"}}, {"type": "node", "id": 10106548725, "lat": 49.051634, "lon": 13.1018279, "tags": {"hiking": "yes", "information": "guidepost", "tourism": "information"}}, {"type": "node", "id": 10106549829, "lat": 49.0556239, "lon": 13.1002759, "tags": {"information": "guidepost", "tourism": "information"}}, {"type": "node", "id": 10106557079, "lat": 49.055463, "lon": 13.1003668, "tags": {"information": "guidepost", "tourism": "information"}}, {"type": "node", "id": 10106567872, "lat": 49.0554586, "lon": 13.1003626, "tags": {"information": "map", "map_type": "hiking", "tourism": "information"}}, {"type": "node", "id": 10106577419, "lat": 49.0556082, "lon": 13.1002201, "tags": {"board:title": "Fitness - Parcours", "board_type": "fitness", "information": "board", "tourism": "information"}}, {"type": "node", "id": 10106584351, "lat": 49.0570251, "lon": 13.0959945, "tags": {"information": "guidepost", "tourism": "information"}}, {"type": "node", "id": 10196776488, "lat": 48.9782486, "lon": 13.1370559}, {"type": "node", "id": 10196776489, "lat": 48.9782465, "lon": 13.1370939}, {"type": "node", "id": 10196776490, "lat": 48.9781921, "lon": 13.137087}, {"type": "node", "id": 10196776491, "lat": 48.9781941, "lon": 13.137049}, {"type": "node", "id": 10764697620, "lat": 48.9580523, "lon": 13.0048406, "tags": {"ele": "768", "name": "K\u00fchberg", "natural": "peak"}}, {"type": "node", "id": 10772132881, "lat": 48.9577987, "lon": 13.0167282, "tags": {"ele": "783", "name": "Bumsenberg", "natural": "peak"}}, {"type": "node", "id": 10777129154, "lat": 48.9608278, "lon": 13.0980635, "tags": {"ele": "576", "name": "Riedberg", "natural": "peak"}}, {"type": "node", "id": 10777129155, "lat": 48.95658, "lon": 13.0840087, "tags": {"ele": "621", "name": "Gemeindeberg", "natural": "peak"}}, {"type": "node", "id": 10921475791, "lat": 49.059171, "lon": 13.1212102, "tags": {"information": "map", "tourism": "information"}}, {"type": "node", "id": 10921499905, "lat": 49.0590395, "lon": 13.1212604, "tags": {"hiking": "yes", "information": "guidepost", "tourism": "information"}}, {"type": "node", "id": 10979376804, "lat": 49.0889947, "lon": 13.1164345, "tags": {"information": "guidepost", "tourism": "information"}}, {"type": "node", "id": 11065418736, "lat": 49.007468, "lon": 13.1201247, "tags": {"ele": "690", "name": "Weizriegel", "natural": "peak"}}, {"type": "node", "id": 11081776489, "lat": 49.1357433, "lon": 13.0888691, "tags": {"amenity": "shelter"}}, {"type": "node", "id": 11146431743, "lat": 49.0696054, "lon": 13.0948092, "tags": {"bicycle": "yes", "information": "guidepost", "tourism": "information"}}, {"type": "node", "id": 11146607433, "lat": 49.0712449, "lon": 13.0990562, "tags": {"information": "map", "tourism": "information"}}, {"type": "node", "id": 11154488818, "lat": 49.0557145, "lon": 13.1096532, "tags": {"hiking": "yes", "information": "guidepost", "tourism": "information"}}, {"type": "node", "id": 11154656876, "lat": 49.053264, "lon": 13.11303, "tags": {"ele": "720", "hiking": "yes", "information": "guidepost", "name": "B\u00f6hmhof", "ref": "Bo-0519", "tourism": "information", "utm": "33 362133 / 5435092"}}, {"type": "node", "id": 11154744609, "lat": 49.053506, "lon": 13.1214215, "tags": {"direction": "140-220", "tourism": "viewpoint"}}, {"type": "node", "id": 11154744610, "lat": 49.053489, "lon": 13.121289, "tags": {"hiking": "yes", "information": "guidepost", "ref": "Bo-0576", "tourism": "information", "utm": "33N 362737 / 5435102"}}, {"type": "node", "id": 11154744611, "lat": 49.0535698, "lon": 13.1213145, "tags": {"hiking": "yes", "information": "guidepost", "note": "UTM-Koordinaten scheinen nicht ganz zu stimmen (entweder f\u00fcr diesen Wegweiser oder den direkt nebenan).", "ref": "Bo-0561", "tourism": "information", "utm": "33N 362728 / 5435111"}}, {"type": "node", "id": 11157760439, "lat": 49.0612551, "lon": 13.1179453, "tags": {"ele": "775", "hiking": "yes", "information": "guidepost", "name": "Silberberg Talstation", "ref": "Bo-0028", "tourism": "information"}}, {"type": "node", "id": 11157760441, "lat": 49.0612999, "lon": 13.1179916, "tags": {"information": "map", "tourism": "information"}}, {"type": "node", "id": 11157760443, "lat": 49.0609849, "lon": 13.1181613, "tags": {"hiking": "yes", "information": "guidepost", "tourism": "information"}}, {"type": "node", "id": 11157760456, "lat": 49.0598135, "lon": 13.1186883, "tags": {"information": "board", "tourism": "information"}}, {"type": "node", "id": 11179597111, "lat": 49.068746, "lon": 13.1007893, "tags": {"information": "guidepost", "tourism": "information"}}, {"type": "node", "id": 11184395112, "lat": 49.0986891, "lon": 13.1507918, "tags": {"board_type": "nature", "information": "board", "name": "Die Welt unter Wasser", "panoramax": "0e535ac5-cfe6-4dcf-aa4f-0213340483a1", "tourism": "information"}}, {"type": "node", "id": 11184425674, "lat": 49.0992607, "lon": 13.1505825, "tags": {"board_type": "wildlife", "information": "board", "name": "Burgherr und Landschaftsgestalter", "name:cs": "Hradn\u00ed p\u00e1n a krajin\u00e1\u0159", "panoramax": "170d11c4-4752-409e-a909-e4b5c0871b64", "tourism": "information"}}, {"type": "node", "id": 11186488448, "lat": 49.0561778, "lon": 13.0348028, "tags": {"hiking": "yes", "information": "map", "map_size": "city", "map_type": "street", "name": "Ortsinformation, Wanderkarte B\u00f6brach", "tourism": "information"}}, {"type": "node", "id": 11186569382, "lat": 49.0570873, "lon": 13.0357092, "tags": {"hiking": "yes", "information": "map", "map_size": "city", "name": "Wanderkarte B\u00f6brach", "tourism": "information"}}, {"type": "node", "id": 11186581054, "lat": 49.0572027, "lon": 13.036224, "tags": {"hiking": "yes", "information": "map", "map_size": "region", "name": "Wanderkarte Bayerischer Wald", "tourism": "information"}}, {"type": "node", "id": 11187711491, "lat": 49.1261713, "lon": 13.0147218, "tags": {"hiking": "yes", "information": "map", "map_size": "region", "map_type": "topo", "name": "Wanderbares Zellertal", "tourism": "information"}}, {"type": "node", "id": 11187951564, "lat": 49.1415678, "lon": 13.0468685, "tags": {"board_type": "nature", "information": "board", "name": "Wald ist nicht gleich Wald", "tourism": "information"}}, {"type": "node", "id": 11187960773, "lat": 49.1392097, "lon": 13.0519068, "tags": {"information": "board", "name": "Rauchloch", "tourism": "information"}}, {"type": "node", "id": 11188816729, "lat": 49.1330876, "lon": 13.0301801, "tags": {"information": "board", "name": "Wo der Bergbach rauscht", "tourism": "information"}}, {"type": "node", "id": 11188847974, "lat": 49.1391878, "lon": 13.0414117, "tags": {"information": "board", "name": "Voller Leben", "tourism": "information"}}, {"type": "node", "id": 11188852770, "lat": 49.140204, "lon": 13.0415414, "tags": {"information": "board", "name": "Kleine Schatten der Nacht", "tourism": "information"}}, {"type": "node", "id": 11188852987, "lat": 49.1460925, "lon": 13.0410771, "tags": {"information": "board", "name": "Ins tiefe Schussbachtal", "tourism": "information"}}, {"type": "node", "id": 11188911795, "lat": 49.1436192, "lon": 13.0426298, "tags": {"information": "board", "name": "Urwaldriesen", "tourism": "information"}}, {"type": "node", "id": 11200984083, "lat": 49.0665497, "lon": 13.0996038, "tags": {"ele": "689", "hiking": "yes", "information": "guidepost", "name": "Marktplatz", "ref": "Bo-0203", "tourism": "information", "utm": "33 361190 / 5436595"}}, {"type": "node", "id": 11268906328, "lat": 49.0129432, "lon": 13.1337184, "tags": {"board_type": "nature", "information": "board", "name": "Der Natur auf der Spur", "tourism": "information"}}, {"type": "node", "id": 11268906335, "lat": 49.0159879, "lon": 13.1280531, "tags": {"information": "guidepost", "tourism": "information"}}, {"type": "node", "id": 11268922267, "lat": 49.091727, "lon": 13.0804933, "tags": {"amenity": "shelter"}}, {"type": "node", "id": 11268923669, "lat": 49.1065055, "lon": 13.0746131, "tags": {"information": "guidepost", "tourism": "information"}}, {"type": "node", "id": 11697359053, "lat": 49.0992698, "lon": 13.1587144, "tags": {"name": "Waldholzkugelbahn", "tourism": "attraction"}}, {"type": "node", "id": 11701925698, "lat": 49.1345542, "lon": 13.1251596, "tags": {"information": "guidepost", "name": "Turistick\u00fd rozcestn\u00edk", "tourism": "information"}}, {"type": "node", "id": 11701941347, "lat": 49.1279513, "lon": 13.1210766, "tags": {"information": "guidepost", "name": "Turistick\u00fd rozcestn\u00edk", "tourism": "information"}}, {"type": "node", "id": 11701941348, "lat": 49.1284357, "lon": 13.1208813, "tags": {"information": "guidepost", "name": "Turistick\u00fd rozcestn\u00edk", "tourism": "information"}}, {"type": "node", "id": 11751145544, "lat": 49.0336358, "lon": 13.1079198, "tags": {"information": "guidepost", "tourism": "information"}}, {"type": "node", "id": 11751145551, "lat": 49.0436587, "lon": 13.0993581, "tags": {"information": "guidepost", "tourism": "information"}}, {"type": "node", "id": 11751145552, "lat": 49.0435085, "lon": 13.099539, "tags": {"amenity": "shelter"}}, {"type": "node", "id": 11751145561, "lat": 49.0446931, "lon": 13.079319, "tags": {"information": "guidepost", "tourism": "information"}}, {"type": "node", "id": 11751145564, "lat": 49.0402426, "lon": 13.0772646, "tags": {"information": "guidepost", "tourism": "information"}}, {"type": "node", "id": 11751164982, "lat": 49.0271435, "lon": 13.0912428, "tags": {"information": "guidepost", "tourism": "information"}}, {"type": "node", "id": 11751164983, "lat": 49.0309038, "lon": 13.086864, "tags": {"information": "guidepost", "tourism": "information"}}, {"type": "node", "id": 11751165095, "lat": 49.0347547, "lon": 13.1078365, "tags": {"information": "guidepost", "tourism": "information"}}, {"type": "node", "id": 11861596131, "lat": 48.96303, "lon": 13.0800511, "tags": {"information": "guidepost", "tourism": "information"}}, {"type": "node", "id": 11930756713, "lat": 49.1436781, "lon": 13.0426084, "tags": {"name": "Hodernsa - \"Zunderschwamm\"", "tourism": "information"}}, {"type": "node", "id": 11930756724, "lat": 49.1391483, "lon": 13.0393058, "tags": {"name": "Schurf- Rauchloch", "tourism": "attraction"}}, {"type": "node", "id": 11939427499, "lat": 49.0988973, "lon": 13.1583921, "tags": {"information": "terminal", "tourism": "information"}}, {"type": "node", "id": 11939427500, "lat": 49.0992194, "lon": 13.1505603, "tags": {"board_type": "nature", "description": "Hier entsteht wieder ein Urwald", "direction": "57", "information": "board", "tourism": "information"}}, {"type": "node", "id": 11939427505, "lat": 49.0981556, "lon": 13.1581151, "tags": {"board_type": "nature", "description": "Hier entsteht wieder ein Urwald", "direction": "243", "information": "board", "panoramax": "dfa39d57-b9fc-4a6f-b039-d6dc2a410072", "tourism": "information"}}, {"type": "node", "id": 11944306150, "lat": 49.0595164, "lon": 13.1217504, "tags": {"board_type": "geography", "direction": "174", "information": "board", "tourism": "information"}}, {"type": "node", "id": 11952582097, "lat": 49.1081047, "lon": 13.0098133, "tags": {"information": "guidepost", "tourism": "information"}}, {"type": "node", "id": 11952586833, "lat": 49.1066343, "lon": 13.0157124, "tags": {"information": "guidepost", "tourism": "information"}}, {"type": "node", "id": 11952590342, "lat": 49.1064776, "lon": 13.0151214, "tags": {"information": "guidepost", "tourism": "information"}}, {"type": "node", "id": 11953462514, "lat": 49.1072735, "lon": 13.0107115, "tags": {"information": "board", "tourism": "information"}}, {"type": "node", "id": 11953771601, "lat": 49.1079287, "lon": 13.0194139, "tags": {"information": "guidepost", "tourism": "information"}}, {"type": "node", "id": 11953795657, "lat": 49.109089, "lon": 13.0156476, "tags": {"board_type": "history", "information": "board", "name": "Gemeinde Drachselsried", "tourism": "information"}}, {"type": "node", "id": 11953829168, "lat": 49.1083931, "lon": 13.0149839, "tags": {"board_type": "wildlife", "information": "board", "name": "Insektenhotel", "tourism": "information"}}, {"type": "node", "id": 11953848102, "lat": 49.108331, "lon": 13.0150444, "tags": {"board_type": "wildlife", "information": "board", "name": "Garten Eden f\u00fcr Insekten", "tourism": "information"}}, {"type": "node", "id": 11953861239, "lat": 49.1070447, "lon": 13.0146466, "tags": {"board_type": "history", "information": "board", "name": "Gemeinde Drachselsried", "tourism": "information"}}, {"type": "node", "id": 11955403540, "lat": 49.0991564, "lon": 13.0124072, "tags": {"information": "guidepost", "tourism": "information"}}, {"type": "node", "id": 11955416805, "lat": 49.0996068, "lon": 13.0125211, "tags": {"information": "guidepost", "tourism": "information"}}, {"type": "node", "id": 11955417976, "lat": 49.1038132, "lon": 13.0132021, "tags": {"information": "guidepost", "tourism": "information"}}, {"type": "node", "id": 11955428158, "lat": 49.0997792, "lon": 13.0152937, "tags": {"information": "guidepost", "tourism": "information"}}, {"type": "node", "id": 11955442293, "lat": 49.1013761, "lon": 13.014477, "tags": {"information": "guidepost", "tourism": "information"}}, {"type": "node", "id": 11955449802, "lat": 49.1023822, "lon": 13.0143467, "tags": {"information": "guidepost", "tourism": "information"}}, {"type": "node", "id": 11955498453, "lat": 49.0969001, "lon": 13.0184919, "tags": {"information": "guidepost", "tourism": "information"}}, {"type": "node", "id": 11955508030, "lat": 49.0958759, "lon": 13.0204712, "tags": {"information": "guidepost", "tourism": "information"}}, {"type": "node", "id": 11955529648, "lat": 49.0954711, "lon": 13.0213641, "tags": {"information": "guidepost", "tourism": "information"}}, {"type": "node", "id": 11955543553, "lat": 49.0883613, "lon": 13.0263782, "tags": {"information": "guidepost", "tourism": "information"}}, {"type": "node", "id": 11955575148, "lat": 49.0944384, "lon": 13.0220309, "tags": {"information": "guidepost", "tourism": "information"}}, {"type": "node", "id": 11955591116, "lat": 49.0833281, "lon": 13.0296583, "tags": {"information": "guidepost", "tourism": "information"}}, {"type": "node", "id": 11955615025, "lat": 49.08469, "lon": 13.028819, "tags": {"information": "guidepost", "tourism": "information"}}, {"type": "node", "id": 11955626218, "lat": 49.0839541, "lon": 13.0294555, "tags": {"board_type": "plants", "information": "board", "name": "Naturdenkmal \"Linden in Frath\"", "tourism": "information"}}, {"type": "node", "id": 11955646502, "lat": 49.0838906, "lon": 13.0293484, "tags": {"information": "guidepost", "tourism": "information"}}, {"type": "node", "id": 11955666413, "lat": 49.0833161, "lon": 13.0296683, "tags": {"information": "map", "tourism": "information"}}, {"type": "node", "id": 11955677217, "lat": 49.0829045, "lon": 13.029539, "tags": {"information": "guidepost", "tourism": "information"}}, {"type": "node", "id": 11955705477, "lat": 49.082779, "lon": 13.0299593, "tags": {"information": "map", "name": "Langlaufzentrum und Winterwandergebiet Frath", "tourism": "information"}}, {"type": "node", "id": 11955729961, "lat": 49.0834612, "lon": 13.0238444, "tags": {"information": "guidepost", "tourism": "information"}}, {"type": "node", "id": 11955742532, "lat": 49.0805396, "lon": 13.0091136, "tags": {"information": "guidepost", "tourism": "information"}}, {"type": "node", "id": 11955757412, "lat": 49.0795754, "lon": 13.0108562, "tags": {"information": "guidepost", "tourism": "information"}}, {"type": "node", "id": 11955805647, "lat": 49.0782587, "lon": 13.0013517, "tags": {"board_type": "nature", "information": "board", "name": "Natur und Landschaft um Asbach", "tourism": "information"}}, {"type": "node", "id": 11955819250, "lat": 49.0782483, "lon": 13.0013921, "tags": {"information": "guidepost", "tourism": "information"}}, {"type": "node", "id": 11955846266, "lat": 49.0785991, "lon": 13.0030564, "tags": {"information": "guidepost", "tourism": "information"}}, {"type": "node", "id": 11955850737, "lat": 49.0786401, "lon": 13.0033937, "tags": {"information": "map", "name": "Naturpark Bayerischer Wald", "tourism": "information"}}, {"type": "node", "id": 11955869449, "lat": 49.0873106, "lon": 13.0058846, "tags": {"information": "guidepost", "tourism": "information"}}, {"type": "node", "id": 11955881516, "lat": 49.0870774, "lon": 13.0069192, "tags": {"information": "guidepost", "tourism": "information"}}, {"type": "node", "id": 11955886647, "lat": 49.1055162, "lon": 13.0036496, "tags": {"information": "guidepost", "tourism": "information"}}, {"type": "node", "id": 11955901770, "lat": 49.095936, "lon": 13.0110475, "tags": {"board_type": "nature", "information": "board", "name": "Natur und Landschaft am Asbach", "tourism": "information"}}, {"type": "node", "id": 11955907021, "lat": 49.0979337, "lon": 13.0079068, "tags": {"information": "guidepost", "tourism": "information"}}, {"type": "node", "id": 11955916237, "lat": 49.0959363, "lon": 13.0111256, "tags": {"information": "guidepost", "tourism": "information"}}, {"type": "node", "id": 11955919465, "lat": 49.1028323, "lon": 13.0052208, "tags": {"information": "guidepost", "tourism": "information"}}, {"type": "node", "id": 11955922666, "lat": 49.0987744, "lon": 13.0065724, "tags": {"board_type": "nature", "information": "board", "name": "Lebensraum Hecke", "tourism": "information"}}, {"type": "node", "id": 11955934648, "lat": 49.1045748, "lon": 13.0031415, "tags": {"information": "guidepost", "tourism": "information"}}, {"type": "node", "id": 11955938239, "lat": 49.1059309, "lon": 13.0041682, "tags": {"information": "guidepost", "tourism": "information"}}, {"type": "node", "id": 11955940093, "lat": 49.1061626, "lon": 13.0056914, "tags": {"information": "guidepost", "tourism": "information"}}, {"type": "node", "id": 11957944639, "lat": 49.1091772, "lon": 13.0124601, "tags": {"information": "guidepost", "tourism": "information"}}, {"type": "node", "id": 11957944925, "lat": 49.1133315, "lon": 13.0148073, "tags": {"information": "guidepost", "tourism": "information"}}, {"type": "node", "id": 11957962507, "lat": 49.1142061, "lon": 13.0146192, "tags": {"information": "guidepost", "tourism": "information"}}, {"type": "node", "id": 11957968304, "lat": 49.1157522, "lon": 13.0162026, "tags": {"information": "guidepost", "tourism": "information"}}, {"type": "node", "id": 11957996785, "lat": 49.1153409, "lon": 13.016889, "tags": {"information": "guidepost", "tourism": "information"}}, {"type": "node", "id": 11958030753, "lat": 49.1198911, "lon": 13.0222365, "tags": {"information": "guidepost", "tourism": "information"}}, {"type": "node", "id": 11958030970, "lat": 49.1195776, "lon": 13.0235954, "tags": {"information": "guidepost", "tourism": "information"}}, {"type": "node", "id": 11958119125, "lat": 49.1244718, "lon": 13.0396707, "tags": {"information": "guidepost", "tourism": "information"}}, {"type": "node", "id": 11958153930, "lat": 49.1244935, "lon": 13.044091, "tags": {"information": "guidepost", "tourism": "information"}}, {"type": "node", "id": 11958217233, "lat": 49.1279519, "lon": 13.0525898, "tags": {"information": "guidepost", "tourism": "information"}}, {"type": "node", "id": 11958224361, "lat": 49.1276822, "lon": 13.0511095, "tags": {"information": "guidepost", "tourism": "information"}}, {"type": "node", "id": 11958235693, "lat": 49.1258838, "lon": 13.0492467, "tags": {"information": "guidepost", "tourism": "information"}}, {"type": "node", "id": 11958249118, "lat": 49.1289789, "lon": 13.0520464, "tags": {"information": "guidepost", "tourism": "information"}}, {"type": "node", "id": 11958307999, "lat": 49.1298014, "lon": 13.052244, "tags": {"information": "map", "name": "Wanderzentrum Schareben", "tourism": "information"}}, {"type": "node", "id": 11958314537, "lat": 49.1295639, "lon": 13.0528619, "tags": {"board_type": "nature", "information": "board", "name": "Auerwildschutzgebiet - Arber", "tourism": "information"}}, {"type": "node", "id": 11958354710, "lat": 49.1159498, "lon": 13.0478841, "tags": {"information": "guidepost", "tourism": "information"}}, {"type": "node", "id": 11958395409, "lat": 49.1115339, "lon": 13.0414631, "tags": {"information": "guidepost", "tourism": "information"}}, {"type": "node", "id": 11958433437, "lat": 49.1107538, "lon": 13.040138, "tags": {"information": "guidepost", "tourism": "information"}}, {"type": "node", "id": 11958439495, "lat": 49.1106332, "lon": 13.0403288, "tags": {"information": "guidepost", "tourism": "information"}}, {"type": "node", "id": 11958457423, "lat": 49.1081485, "lon": 13.0282639, "tags": {"information": "guidepost", "tourism": "information"}}, {"type": "node", "id": 11958460169, "lat": 49.1070832, "lon": 13.0372408, "tags": {"information": "guidepost", "tourism": "information"}}, {"type": "node", "id": 11958463924, "lat": 49.1080162, "lon": 13.0269559, "tags": {"information": "map", "name": "Naturpark Bayerischer Wald", "tourism": "information"}}, {"type": "node", "id": 11958503651, "lat": 49.1079625, "lon": 13.026836, "tags": {"information": "guidepost", "tourism": "information"}}, {"type": "node", "id": 11958515298, "lat": 49.1073229, "lon": 13.0255761, "tags": {"information": "guidepost", "tourism": "information"}}, {"type": "node", "id": 11958517737, "lat": 49.106788, "lon": 13.0253558, "tags": {"information": "guidepost", "tourism": "information"}}, {"type": "node", "id": 11959685783, "lat": 49.1132527, "lon": 13.0147948, "tags": {"information": "guidepost", "tourism": "information"}}, {"type": "node", "id": 11959736172, "lat": 49.1068159, "lon": 13.0253761, "tags": {"board_type": "notice", "information": "board", "tourism": "information"}}, {"type": "node", "id": 11960219697, "lat": 49.0914139, "lon": 13.030605, "tags": {"information": "guidepost", "tourism": "information"}}, {"type": "node", "id": 11960223566, "lat": 49.0774971, "lon": 13.0732898, "tags": {"information": "guidepost", "tourism": "information"}}, {"type": "node", "id": 11960771963, "lat": 49.0607206, "lon": 13.038202, "tags": {"information": "guidepost", "tourism": "information"}}, {"type": "node", "id": 11960781595, "lat": 49.0615558, "lon": 13.0408929, "tags": {"information": "guidepost", "tourism": "information"}}, {"type": "node", "id": 11964143153, "lat": 49.0942233, "lon": 13.0107634, "tags": {"information": "guidepost", "tourism": "information"}}, {"type": "node", "id": 12063343504, "lat": 49.1512734, "lon": 13.0389985, "tags": {"information": "board", "name": "Frath-Ehemal.Aussicht nach Frath", "tourism": "information"}}, {"type": "node", "id": 12063343526, "lat": 49.1490498, "lon": 13.0283684, "tags": {"information": "guidepost", "name": "Zum Eck", "tourism": "information"}}, {"type": "node", "id": 12088493386, "lat": 49.0042455, "lon": 13.1872066, "tags": {"hiking": "yes", "information": "guidepost", "tourism": "information"}}, {"type": "node", "id": 12093266859, "lat": 48.9896004, "lon": 13.1881581, "tags": {"hiking": "yes", "information": "guidepost", "tourism": "information"}}, {"type": "node", "id": 12093305708, "lat": 48.9891645, "lon": 13.1855194, "tags": {"bicycle": "yes", "hiking": "yes", "information": "guidepost", "tourism": "information"}}, {"type": "node", "id": 12093401102, "lat": 48.9752683, "lon": 13.16195, "tags": {"hiking": "yes", "information": "guidepost", "tourism": "information"}}, {"type": "node", "id": 12098391698, "lat": 48.9973052, "lon": 13.1840989, "tags": {"hiking": "yes", "information": "guidepost", "tourism": "information"}}, {"type": "node", "id": 12164726963, "lat": 48.9584759, "lon": 13.0545568}, {"type": "node", "id": 12164726964, "lat": 48.9584645, "lon": 13.0545403}, {"type": "node", "id": 12164726965, "lat": 48.9584508, "lon": 13.0545622}, {"type": "node", "id": 12164726966, "lat": 48.9584622, "lon": 13.0545787}, {"type": "node", "id": 12176271797, "lat": 49.1299061, "lon": 13.1347024, "tags": {"name": "M\u00fchlbauernberg", "natural": "peak"}}, {"type": "node", "id": 12176908455, "lat": 49.1455871, "lon": 13.1622326, "tags": {"ele": "1152", "name": "Zwengerlingsriegel", "natural": "peak"}}, {"type": "node", "id": 12177037676, "lat": 49.0849975, "lon": 13.1821775, "tags": {"ele": "926", "name": "Filzriegel", "natural": "peak"}}, {"type": "node", "id": 12177052007, "lat": 49.0795445, "lon": 13.1864261, "tags": {"ele": "921", "name": "Spitzberg", "natural": "peak", "wikidata": "Q31520010"}}, {"type": "node", "id": 12177898874, "lat": 49.0824397, "lon": 13.0874848, "tags": {"ele": "780", "name": "Sternwiesberg", "natural": "peak"}}, {"type": "node", "id": 12177898877, "lat": 49.0788628, "lon": 13.0939436, "tags": {"name": "Einsiedlerberg", "natural": "peak"}}, {"type": "node", "id": 12178011568, "lat": 49.1063401, "lon": 13.0646324, "tags": {"ele": "822", "name": "Pl\u00e4\u00dfbetteck", "natural": "peak"}}, {"type": "node", "id": 12178011571, "lat": 49.0964497, "lon": 13.0454492, "tags": {"ele": "633", "name": "M\u00fchlberg", "natural": "peak"}}, {"type": "node", "id": 12178011573, "lat": 49.0895155, "lon": 13.0770349, "tags": {"ele": "870", "name": "Woferlberg", "natural": "peak"}}, {"type": "node", "id": 12178011575, "lat": 49.0887356, "lon": 13.0634522, "tags": {"ele": "694", "name": "Laubberg", "natural": "peak"}}, {"type": "node", "id": 12178011581, "lat": 49.0887637, "lon": 13.08285, "tags": {"name": "Hoher Steinriegel", "natural": "peak"}}, {"type": "node", "id": 12178011582, "lat": 49.0821938, "lon": 13.0795777, "tags": {"ele": "741", "name": "K\u00fchberg", "natural": "peak"}}, {"type": "node", "id": 12178147520, "lat": 49.1247248, "lon": 13.0345273, "tags": {"ele": "877", "name": "Ochsenberg", "natural": "peak"}}, {"type": "node", "id": 12178932971, "lat": 49.1136513, "lon": 13.0117285, "tags": {"ele": "594", "name": "Hirtenberg", "natural": "peak"}}, {"type": "node", "id": 12179207734, "lat": 49.1336899, "lon": 13.0106342, "tags": {"ele": "665", "name": "Riedelberg", "natural": "peak"}}, {"type": "node", "id": 12179237835, "lat": 49.1391721, "lon": 13.025794, "tags": {"ele": "830", "name": "K\u00fchberg", "natural": "peak"}}, {"type": "node", "id": 12188969654, "lat": 49.0279077, "lon": 13.1925952, "tags": {"name": "Innenrieder Birkenberg", "natural": "peak"}}, {"type": "node", "id": 12188969657, "lat": 49.0126257, "lon": 13.1939578, "tags": {"ele": "648", "name": "K\u00fchberg", "natural": "peak"}}, {"type": "node", "id": 12188969658, "lat": 49.0207457, "lon": 13.1869411, "tags": {"ele": "658", "name": "Au\u00dfenrieder Birkenberg", "natural": "peak"}}, {"type": "node", "id": 12188969660, "lat": 49.0354554, "lon": 13.1915009, "tags": {"ele": "770", "name": "Ochsenberg", "natural": "peak"}}, {"type": "node", "id": 12188969661, "lat": 49.0375304, "lon": 13.1797528, "tags": {"ele": "788", "name": "Rote H\u00f6he", "natural": "peak"}}, {"type": "node", "id": 12188969663, "lat": 49.0262193, "lon": 13.1766844, "tags": {"ele": "720", "name": "Sch\u00fctzenh\u00f6he", "natural": "peak"}}, {"type": "node", "id": 12188969664, "lat": 49.02757, "lon": 13.1669855, "tags": {"ele": "662", "name": "Huberberg", "natural": "peak"}}, {"type": "node", "id": 12188969665, "lat": 49.0348435, "lon": 13.1656122, "tags": {"ele": "642", "name": "Gemeindeberg", "natural": "peak"}}, {"type": "node", "id": 12188969668, "lat": 49.0426434, "lon": 13.1443906, "tags": {"ele": "657", "name": "Ochsenh\u00f6he", "natural": "peak"}}, {"type": "node", "id": 12188969685, "lat": 49.0512437, "lon": 13.1656122, "tags": {"ele": "921", "name": "Kiesriegel", "natural": "peak"}}, {"type": "node", "id": 12188969700, "lat": 49.0641378, "lon": 13.1921124, "tags": {"ele": "993", "name": "Emahlenriegel", "natural": "peak", "wikidata": "Q31548092"}}, {"type": "node", "id": 12194111901, "lat": 49.0171608, "lon": 13.1597221, "tags": {"ele": "652", "name": "Nebelberg", "natural": "peak"}}, {"type": "node", "id": 12196501971, "lat": 49.0452806, "lon": 13.1073546, "tags": {"name": "Abendberg", "natural": "peak"}}, {"type": "node", "id": 12196501972, "lat": 49.046898, "lon": 13.1037068, "tags": {"ele": "822", "name": "Turmberg", "natural": "peak"}}, {"type": "node", "id": 12218218179, "lat": 49.0539534, "lon": 13.1236305, "tags": {"amenity": "shelter", "shelter_type": "lean_to"}}, {"type": "node", "id": 12238990869, "lat": 48.9584696, "lon": 13.0545476}, {"type": "node", "id": 12246837222, "lat": 49.0821309, "lon": 13.0898332, "tags": {"hiking": "yes", "information": "guidepost", "tourism": "information"}}, {"type": "node", "id": 12273281323, "lat": 49.0834777, "lon": 13.0926759, "tags": {"information": "map", "map_size": "region", "map_type": "topo", "tourism": "information"}}, {"type": "node", "id": 12328420402, "lat": 49.053861, "lon": 13.123434, "tags": {"information": "guidepost", "tourism": "information"}}, {"type": "node", "id": 12590642694, "lat": 49.0734343, "lon": 13.093253, "tags": {"hiking": "yes", "information": "guidepost", "tourism": "information"}}, {"type": "node", "id": 12590642696, "lat": 49.0754672, "lon": 13.0908082, "tags": {"hiking": "yes", "information": "guidepost", "tourism": "information"}}, {"type": "node", "id": 12590642697, "lat": 49.0752986, "lon": 13.0907358, "tags": {"hiking": "yes", "information": "guidepost", "tourism": "information"}}, {"type": "node", "id": 12590642698, "lat": 49.0763633, "lon": 13.0918194, "tags": {"ele": "773", "hiking": "yes", "information": "guidepost", "tourism": "information"}}, {"type": "node", "id": 12590642700, "lat": 49.0754725, "lon": 13.0940845, "tags": {"hiking": "yes", "information": "guidepost", "tourism": "information"}}, {"type": "node", "id": 12874631776, "lat": 49.05286, "lon": 13.07441, "tags": {"ele": "771", "name": "Dachsstein", "natural": "peak"}}, {"type": "node", "id": 12916894895, "lat": 49.0569725, "lon": 13.1077846, "tags": {"hiking": "yes", "information": "guidepost", "tourism": "information"}}, {"type": "node", "id": 12916920769, "lat": 49.0517162, "lon": 13.1017231, "tags": {"hiking": "yes", "information": "guidepost", "tourism": "information"}}, {"type": "node", "id": 12919484374, "lat": 49.065869, "lon": 13.0934713, "tags": {"hiking": "yes", "information": "guidepost", "tourism": "information"}}, {"type": "node", "id": 12922115917, "lat": 49.0699242, "lon": 13.1015269, "tags": {"hiking": "yes", "information": "guidepost", "noele": "yes", "noname": "yes", "tourism": "information"}}, {"type": "node", "id": 12922115918, "lat": 49.0699527, "lon": 13.1015256, "tags": {"hiking": "yes", "information": "guidepost", "noele": "yes", "noname": "yes", "tourism": "information"}}, {"type": "node", "id": 12922115919, "lat": 49.0699967, "lon": 13.1014417, "tags": {"ele": "671", "hiking": "yes", "information": "guidepost", "name": "Kurpark", "panoramax": "eca8ff3a-a50c-4534-96b4-17957495c6cd", "tourism": "information"}}, {"type": "node", "id": 12922333380, "lat": 49.0699277, "lon": 13.1016449, "tags": {"ele": "671", "hiking": "yes", "information": "guidepost", "name": "Kurpark", "panoramax": "c3f7ca22-ef68-463a-a230-2636e80abd02", "ref": "Bo-0115", "tourism": "information"}}, {"type": "node", "id": 12924645858, "lat": 49.0597496, "lon": 13.1037237, "tags": {"hiking": "yes", "information": "guidepost", "noele": "yes", "noname": "yes", "panoramax": "a8e0730e-e477-4de2-8095-6f7f76f13386", "ref": "Bo-0806", "tourism": "information"}}, {"type": "node", "id": 12945434264, "lat": 49.0628243, "lon": 13.1017295, "tags": {"hiking": "yes", "information": "guidepost", "tourism": "information"}}, {"type": "node", "id": 13030426929, "lat": 49.0525112, "lon": 13.1097389, "tags": {"hiking": "yes", "information": "guidepost", "ref": "Bo-0616", "tourism": "information"}}, {"type": "node", "id": 13072236864, "lat": 48.9864835, "lon": 13.1971895, "tags": {"hiking": "yes", "information": "guidepost", "inscription": "3 Frauenau > E; 3 -> SW", "tourism": "information"}}, {"type": "node", "id": 13072489797, "lat": 49.1073476, "lon": 13.0106768}, {"type": "node", "id": 13072489798, "lat": 49.1073356, "lon": 13.0106996}, {"type": "node", "id": 13072489799, "lat": 49.107296, "lon": 13.010651}, {"type": "node", "id": 13072489800, "lat": 49.107308, "lon": 13.0106283}, {"type": "node", "id": 13136300160, "lat": 49.0911916, "lon": 13.0222131, "tags": {"ele": "713", "name": "Gn\u00f6gel", "natural": "peak"}}, {"type": "node", "id": 13227542656, "lat": 49.0675083, "lon": 13.0575517, "tags": {"information": "guidepost", "survey:date": "2025-10-12", "tourism": "information"}}, {"type": "node", "id": 13238600747, "lat": 49.056525, "lon": 13.125035, "tags": {"survey:date": "2025-10-17", "tourism": "viewpoint"}}, {"type": "node", "id": 13414116033, "lat": 48.9905529, "lon": 13.0277359, "tags": {"ele": "733", "name": "Winnelberg", "natural": "peak"}}, {"type": "node", "id": 13414116034, "lat": 48.986737, "lon": 13.0267381, "tags": {"ele": "760", "name": "Breitenstein", "natural": "peak"}}, {"type": "node", "id": 13427639818, "lat": 48.967766, "lon": 13.0831075, "tags": {"ele": "650", "name": "Ochsenberg", "natural": "peak"}}, {"type": "node", "id": 13427639819, "lat": 48.964054, "lon": 13.068645, "tags": {"ele": "633", "name": "Streitberg", "natural": "peak"}}, {"type": "node", "id": 13428728436, "lat": 49.0356876, "lon": 13.0069435, "tags": {"name": "Heigelberg", "natural": "peak"}}, {"type": "node", "id": 13430383597, "lat": 48.994643, "lon": 13.0981064, "tags": {"ele": "603", "name": "K\u00fchberg", "natural": "peak"}}, {"type": "node", "id": 13430383600, "lat": 48.987596, "lon": 13.0750823, "tags": {"ele": "668", "name": "K\u00fchberg", "natural": "peak"}}, {"type": "node", "id": 13430408104, "lat": 49.0053349, "lon": 13.0712843, "tags": {"ele": "636", "name": "Irlberg", "natural": "peak"}}, {"type": "node", "id": 13430408105, "lat": 49.0007037, "lon": 13.0928278, "tags": {"ele": "584", "name": "Dachsberg", "natural": "peak"}}, {"type": "node", "id": 13430408106, "lat": 49.0056868, "lon": 13.0850708, "tags": {"ele": "587", "name": "Wirtsberg", "natural": "peak"}}, {"type": "node", "id": 13430408109, "lat": 49.0092197, "lon": 13.0657697, "tags": {"ele": "642", "name": "Angerberg", "natural": "peak"}}, {"type": "node", "id": 13430408111, "lat": 49.0186349, "lon": 13.0801892, "tags": {"ele": "575", "name": "Gregernberg", "natural": "peak"}}, {"type": "way", "id": 32639765, "nodes": [366961102, 366961106, 366961136, 2466964691, 2466964701, 366961133, 366961111, 366961102], "tags": {"amenity": "restaurant", "building": "yes", "ele": "1358", "indoor_seating": "yes", "name": "Arberschutzhaus", "opening_hours": "10:00-16:00; Nov,Apr off", "operator": "Bayerischer Wald Verein", "outdoor_seating": "yes", "phone": "+49 992594 140", "tourism": "alpine_hut", "website": "https://arberschutzhaus.de/", "wheelchair": "no"}}, {"type": "way", "id": 97811873, "nodes": [1132221490, 1132220892, 1132221135, 9178490246, 1132221216, 1132221588, 1132221085, 1132221385, 1132220644, 1132221336, 1132221490], "tags": {"addr:city": "Bodenmais", "addr:country": "DE", "addr:housenumber": "49", "addr:postcode": "94249", "addr:street": "Bahnhofstra\u00dfe", "building": "hotel", "building:levels": "2", "information": "office", "name:signed": "no", "roof:levels": "1", "roof:shape": "gabled", "tourism": "information"}}, {"type": "way", "id": 223250934, "nodes": [2321702511, 4248217896, 4248217895, 2321702525, 2321702536, 2321702575, 2321702511], "tags": {"addr:city": "Grafh\u00fctte", "building": "yes", "description": "Ski-Club Burglengenfeld e.V. Postfach 1129 93129 Burglengenfeld", "ele": "900", "name": "Burglengenfelder-H\u00fctte (SCB-H\u00fctte)", "operator": "Ski-Club Burglengenfeld e.V.", "tourism": "alpine_hut"}}, {"type": "way", "id": 234104112, "nodes": [2424056600, 2424056567, 437029801, 2424056560, 2424056600], "tags": {"access": "yes", "amenity": "shelter", "bench": "yes", "building": "hut", "description": "Der Unterstand hat eine umlaufende Bank. Auf dem Erdboden ist es m\u00f6glich, dass eine Person mit Isomatte \u00fcbernachten kann. Aufgrund eines gro\u00dfen Felsens ist eine \u00dcbernachtung mit zwei Personen schwer m\u00f6glich.", "lockable": "no", "locked": "no", "picnic_table": "no", "shelter_type": "lean_to", "surface": "dirt;rock", "table": "no"}}, {"type": "way", "id": 292116529, "nodes": [2956403539, 2956403537, 2956403538, 2956403540, 2956403539], "tags": {"access": "no", "building": "yes", "height": "28", "man_made": "tower", "name": "Aussichtsturm Langdorf", "start_date": "2007", "tourism": "viewpoint", "tower:type": "observation"}}, {"type": "way", "id": 320718667, "nodes": [3273549183, 3273549184, 3273549182, 3273549181, 3273549183], "tags": {"amenity": "shelter", "check_date": "2016-01-23", "shelter_type": "public_transport"}}, {"type": "way", "id": 342817465, "nodes": [3497754909, 9949619182, 3497754910, 9949619177, 9949619178, 3497754911, 9949619179, 3497754912, 9949619180, 9949619181, 3497754909], "tags": {"attraction": "bumper_car", "charge": "1 EUR", "fee": "yes", "name:signed": "no", "tourism": "attraction", "wheelchair": "no"}}, {"type": "way", "id": 366953449, "nodes": [3709292160, 3709292161, 3709292163, 3709292162, 3709292160], "tags": {"amenity": "shelter", "bench": "yes", "shelter_type": "public_transport"}}, {"type": "way", "id": 430925455, "nodes": [4301827702, 4301827699, 4301827697, 4301827701, 4301827702], "tags": {"amenity": "shelter", "bench": "yes", "bin": "yes", "building": "yes", "operator": "DB InfraGO AG", "shelter_type": "public_transport"}}, {"type": "way", "id": 446956198, "nodes": [4441671831, 4441671821, 4441671822, 4441671832, 4441671831], "tags": {"amenity": "shelter", "shelter_type": "public_transport"}}, {"type": "way", "id": 446974635, "nodes": [4441827922, 4441827920, 4441827919, 4441827921, 4441827922], "tags": {"amenity": "shelter", "bench": "yes", "bin": "yes", "building": "yes", "operator": "DB InfraGO AG", "shelter_type": "public_transport"}}, {"type": "way", "id": 449331153, "nodes": [4463013585, 4463013586, 4463013587, 4463013588, 4463013585], "tags": {"amenity": "shelter", "building": "roof", "building:colour": "#d39148", "building:material": "wood", "roof:shape": "gabled", "shelter_type": "weather_shelter"}}, {"type": "way", "id": 449836158, "nodes": [4467585621, 4467585623, 4467585625, 4467585622, 4467585621], "tags": {"amenity": "shelter", "bench": "yes", "bin": "yes", "building": "yes", "operator": "DB InfraGO AG", "shelter_type": "public_transport"}}, {"type": "way", "id": 455674853, "nodes": [4520330997, 4520330996, 4520330995, 4520330994, 4520330997], "tags": {"amenity": "shelter", "bench": "yes", "shelter_type": "public_transport", "wheelchair": "yes"}}, {"type": "way", "id": 494877718, "nodes": [4866522955, 4866522954, 4866522953, 4866522952, 4866522955], "tags": {"amenity": "shelter", "bench": "yes", "building": "shed", "kerb": "raised", "kerb:height": "0.2", "shelter_type": "public_transport", "wheelchair": "no"}}, {"type": "way", "id": 737119900, "nodes": [6900952165, 6900952164, 6900952163, 6900952162, 6900952165], "tags": {"amenity": "shelter", "building": "yes", "shelter_type": "weather_shelter"}}, {"type": "way", "id": 1020903088, "nodes": [1451648425, 9415959543, 9415959542, 9415959541, 1451648425], "tags": {"amenity": "shelter", "shelter_type": "lean_to"}}, {"type": "way", "id": 1049149388, "nodes": [9641738549, 9641738546, 9641738547, 9641738548, 9641738549], "tags": {"amenity": "shelter", "building": "roof", "shelter_type": "public_transport"}}, {"type": "way", "id": 1073251521, "nodes": [9845754943, 9845754944, 9845754945, 9845754946, 9845754943], "tags": {"amenity": "shelter", "building": "roof", "building:colour": "#dfac81", "building:material": "wood", "roof:colour": "#e09668", "roof:material": "roof_tiles", "roof:shape": "gabled"}}, {"type": "way", "id": 1096752179, "nodes": [10043031719, 10043031722, 10043031721, 10043031720, 10043031719], "tags": {"amenity": "shelter", "shelter_type": "lean_to"}}, {"type": "way", "id": 1114866795, "nodes": [10196776491, 10196776490, 10196776489, 10196776488, 10196776491], "tags": {"amenity": "shelter", "bench": "yes", "building": "yes", "shelter_type": "public_transport"}}, {"type": "way", "id": 1314279448, "nodes": [12238990869, 12164726963, 12164726966, 12164726965, 12164726964, 12238990869], "tags": {"amenity": "shelter"}}, {"type": "way", "id": 1422474826, "nodes": [13072489797, 13072489798, 13072489799, 13072489800, 13072489797], "tags": {"amenity": "shelter", "shelter_type": "public_transport"}}]}