{"version": 0.6, "generator": "Overpass API 0.7.62.8 e802775f", "osm3s": {"timestamp_osm_base": "2026-01-05T16:32:14Z", "copyright": "The data included in this document is from www.openstreetmap.org. The data is made available under ODbL."}, "elements": [{"type": "node", "id": 268779360, "lat": 48.6146753, "lon": 14.0040757, "tags": {"ele": "632", "natural": "peak"}}, {"type": "node", "id": 268779362, "lat": 48.5919191, "lon": 14.0486091, "tags": {"ele": "752", "name": "Ekartsberg (Tanzboden)", "natural": "peak"}}, {"type": "node", "id": 268779370, "lat": 48.6335109, "lon": 14.0229584, "tags": {"ele": "805", "natural": "peak"}}, {"type": "node", "id": 268779904, "lat": 48.6354395, "lon": 14.1151406, "tags": {"ele": "1027", "natural": "peak", "source": "\u010c\u00daZK"}}, {"type": "node", "id": 268779928, "lat": 48.6360475, "lon": 14.1362126, "tags": {"ele": "975", "name": "Bukov\u00fd vrch", "natural": "peak"}}, {"type": "node", "id": 268779934, "lat": 48.6475533, "lon": 14.0317245, "tags": {"ele": "844", "name": "U v\u011b\u017ee", "name:cs": "U v\u011b\u017ee", "name:de": "Steinberg", "natural": "peak", "source": "\u010c\u00daZK"}}, {"type": "node", "id": 268779937, "lat": 48.6126325, "lon": 14.155481, "tags": {"ele": "779", "natural": "peak"}}, {"type": "node", "id": 268779972, "lat": 48.6196887, "lon": 14.1592576, "tags": {"ele": "812", "natural": "peak"}}, {"type": "node", "id": 268779974, "lat": 48.574019, "lon": 14.0006283, "tags": {"ele": "700", "natural": "peak"}}, {"type": "node", "id": 268779982, "lat": 48.6451077, "lon": 14.1032351, "tags": {"ele": "1035.6", "name": "V\u00edtk\u016fv k\u00e1men", "name:cs": "V\u00edtk\u016fv k\u00e1men", "name:de": "Wittigstein", "natural": "peak", "wikidata": "Q15731016"}}, {"type": "node", "id": 268779983, "lat": 48.5692594, "lon": 14.0126587, "tags": {"ele": "705", "natural": "peak"}}, {"type": "node", "id": 268779986, "lat": 48.5624435, "lon": 14.0078522, "tags": {"ele": "615", "natural": "peak"}}, {"type": "node", "id": 268779990, "lat": 48.5601713, "lon": 14.0545441, "tags": {"natural": "peak"}}, {"type": "node", "id": 268779992, "lat": 48.5788001, "lon": 14.0966012, "tags": {"ele": "905", "natural": "peak"}}, {"type": "node", "id": 268780002, "lat": 48.5551722, "lon": 14.1343667, "tags": {"ele": "764", "natural": "peak"}}, {"type": "node", "id": 268780098, "lat": 48.5875468, "lon": 14.1900359, "tags": {"ele": "902", "natural": "peak"}}, {"type": "node", "id": 268780215, "lat": 48.5613074, "lon": 14.1577126, "tags": {"ele": "733", "natural": "peak"}}, {"type": "node", "id": 268780307, "lat": 48.6135026, "lon": 14.1945407, "tags": {"ele": "930", "name": "Krav\u00ed hora", "natural": "peak"}}, {"type": "node", "id": 270091682, "lat": 48.5633735, "lon": 14.1305453, "tags": {"ele": "753", "natural": "peak"}}, {"type": "node", "id": 270091683, "lat": 48.5639415, "lon": 14.1034228, "tags": {"ele": "813", "natural": "peak"}}, {"type": "node", "id": 270091725, "lat": 48.5766294, "lon": 14.0265547, "tags": {"ele": "625", "name": "Br\u00fcndlberg", "natural": "peak"}}, {"type": "node", "id": 270091728, "lat": 48.5839316, "lon": 14.0148456, "tags": {"natural": "peak"}}, {"type": "node", "id": 270092170, "lat": 48.7320206, "lon": 14.0163905, "tags": {"ele": "801", "natural": "peak"}}, {"type": "node", "id": 270092172, "lat": 48.7061108, "lon": 14.0231636, "tags": {"ele": "842", "name": "Pest\u0159ick\u00fd vrch", "name:cs": "Pest\u0159ick\u00fd vrch", "name:de": "H\u00fcttberg", "natural": "peak"}}, {"type": "node", "id": 270092174, "lat": 48.7274896, "lon": 14.0283841, "tags": {"ele": "786", "natural": "peak", "source": "\u010c\u00daZK"}}, {"type": "node", "id": 270092175, "lat": 48.7334925, "lon": 14.023772, "tags": {"ele": "805", "natural": "peak"}}, {"type": "node", "id": 270092178, "lat": 48.7282032, "lon": 14.0377977, "tags": {"ele": "812", "name": "Koz\u00ed vrch", "name:de": "Geissberg", "natural": "peak"}}, {"type": "node", "id": 270092179, "lat": 48.7214901, "lon": 14.0177352, "tags": {"ele": "808", "natural": "peak", "source": "\u010c\u00daZK"}}, {"type": "node", "id": 270092228, "lat": 48.5821147, "lon": 14.0606792, "tags": {"ele": "662", "natural": "peak"}}, {"type": "node", "id": 270092244, "lat": 48.6092487, "lon": 14.0007693, "tags": {"ele": "675", "natural": "peak"}}, {"type": "node", "id": 279378110, "lat": 48.592056, "lon": 14.1795283, "tags": {"historic": "memorial", "memorial": "yes", "name": "DenkStein Eiserner Vorhang", "name:cs": "Pam\u00e1tn\u00edk \u017eelezn\u00e9 opony", "name:en": "Iron Curtain Memorial", "tourism": "attraction", "website": "https://eisernervorhang.eu/denkstaette/"}}, {"type": "node", "id": 470280585, "lat": 48.6730573, "lon": 14.0591901, "tags": {"name": "Bayerische Au", "tourism": "viewpoint"}}, {"type": "node", "id": 573383990, "lat": 48.7163944, "lon": 14.0793168, "tags": {"name": "Lipno Panorama", "tourism": "viewpoint", "wheelchair": "yes"}}, {"type": "node", "id": 573383991, "lat": 48.7164225, "lon": 14.0793532, "tags": {"amenity": "shelter", "bench": "yes", "bin": "yes", "name": "Wetterpilz", "shelter_type": "wetterpilz"}}, {"type": "node", "id": 576717532, "lat": 48.6376924, "lon": 14.088759, "tags": {"ele": "1017", "name": "Medv\u011bd\u00ed vrch", "natural": "peak", "source": "tisicovky.cz"}}, {"type": "node", "id": 663245992, "lat": 48.7233934, "lon": 14.0886791, "tags": {"ele": "805", "name": "L\u00edskovec", "name:de": "Haslberg", "natural": "peak"}}, {"type": "node", "id": 715866876, "lat": 48.5682323, "lon": 14.098925, "tags": {"attraction": "historic", "name": "Stefanstritt", "tourism": "attraction"}}, {"type": "node", "id": 715866987, "lat": 48.566836, "lon": 14.0963967, "tags": {"name": "Teufelssitz", "tourism": "attraction", "wheelchair": "no"}}, {"type": "node", "id": 717410797, "lat": 48.5805528, "lon": 14.0832981, "tags": {"direction": "90-270", "tourism": "viewpoint"}}, {"type": "node", "id": 717479140, "lat": 48.5679173, "lon": 14.1028876, "tags": {"information": "map", "map_size": "site", "tourism": "information"}}, {"type": "node", "id": 863250074, "lat": 48.5929207, "lon": 14.1762618, "tags": {"information": "map", "map_size": "region", "map_type": "topo", "tourism": "information"}}, {"type": "node", "id": 976471844, "lat": 48.5879471, "lon": 14.1193496}, {"type": "node", "id": 976471863, "lat": 48.5880175, "lon": 14.1190308}, {"type": "node", "id": 976471877, "lat": 48.5878453, "lon": 14.1192982}, {"type": "node", "id": 976471886, "lat": 48.5879156, "lon": 14.1189795}, {"type": "node", "id": 1371984102, "lat": 48.6483756, "lon": 14.0715499, "tags": {"ele": "939", "name": "R\u016f\u017eov\u00fd vrch", "name:de": "Rosenh\u00fcgel", "natural": "peak"}}, {"type": "node", "id": 1399181653, "lat": 48.7517184, "lon": 14.1659452, "tags": {"hiking": "yes", "information": "guidepost", "name": "M\u00fdtina", "ref": "6394/3", "source": "survey", "tourism": "information"}}, {"type": "node", "id": 1422407267, "lat": 48.6657868, "lon": 14.0647681, "tags": {"ele": "762", "hiking": "yes", "information": "guidepost", "name": "Janova cesta", "operator": "cz:K\u010cT", "ref": "CK168", "source": "survey", "tourism": "information"}}, {"type": "node", "id": 1422407283, "lat": 48.6832717, "lon": 14.0567102, "tags": {"bicycle": "yes", "information": "guidepost", "name": "Kyselov", "operator": "cz:K\u010cT", "ref": "1022/6,5", "tourism": "information"}}, {"type": "node", "id": 1422407284, "lat": 48.6831158, "lon": 14.0568356, "tags": {"ele": "729", "hiking": "yes", "information": "guidepost", "name": "Kyselov (rozc.)", "operator": "cz:K\u010cT", "ref": "CK167", "source": "survey", "tourism": "information"}}, {"type": "node", "id": 1422407302, "lat": 48.6723963, "lon": 14.0687301, "tags": {"bicycle": "yes", "ele": "732", "hiking": "yes", "information": "guidepost", "name": "Rozcest\u00ed u mostu", "operator": "cz:K\u010cT", "ref": "CK262;1019/7,5", "source": "survey", "tourism": "information"}}, {"type": "node", "id": 1422407305, "lat": 48.6449973, "lon": 14.0661999, "tags": {"bicycle": "yes", "ele": "870", "hiking": "yes", "information": "guidepost", "name": "R\u016f\u017eov\u00e1 cesta", "operator": "cz:K\u010cT", "ref": "CK263", "source": "survey", "tourism": "information"}}, {"type": "node", "id": 1422407318, "lat": 48.6402609, "lon": 14.1045681, "tags": {"ele": "972", "hiking": "yes", "information": "guidepost", "name": "Svat\u00fd Tom\u00e1\u0161", "operator": "cz:K\u010cT", "ref": "CK149", "source": "survey", "tourism": "information"}}, {"type": "node", "id": 1422407325, "lat": 48.6723824, "lon": 14.0688021, "tags": {"information": "board", "name": "Svat\u00fd Tom\u00e1\u0161", "source": "survey", "tourism": "information"}}, {"type": "node", "id": 1422407331, "lat": 48.64524, "lon": 14.0488315, "tags": {"ele": "788", "hiking": "yes", "information": "guidepost", "name": "U Korandy", "operator": "cz:K\u010cT", "ref": "CK260", "source": "survey", "tourism": "information"}}, {"type": "node", "id": 1422407747, "lat": 48.6724266, "lon": 14.0688467, "tags": {"amenity": "shelter", "shelter_type": "picnic_shelter", "tourism": "picnic_site"}}, {"type": "node", "id": 1450018207, "lat": 48.6554854, "lon": 14.007756, "tags": {"board_type": "history", "description": "Schanzenwanderweg", "information": "board", "name": "Die Schwedenschanze bei Oberhaag", "tourism": "information"}}, {"type": "node", "id": 1450079984, "lat": 48.6719119, "lon": 14.0294987, "tags": {"bicycle": "yes", "check_date": "2021-08-19", "hiking": "yes", "information": "map", "map_size": "region", "map_type": "scheme", "name": "Schwarzenbergischer Schwemmkanal", "tourism": "information"}}, {"type": "node", "id": 1450103641, "lat": 48.6683932, "lon": 14.0152609, "tags": {"bicycle": "yes", "check_date": "2021-08-19", "description": "Schwarzenbergischer Schwemmkanal", "hiking": "yes", "horse": "yes", "information": "map", "map_size": "region", "map_type": "topo", "mtb": "yes", "name": "Schrollenbachschleuse", "ski": "yes", "tourism": "information"}}, {"type": "node", "id": 1450117352, "lat": 48.6783342, "lon": 14.0149871, "tags": {"bicycle": "yes", "hiking": "yes", "horse": "yes", "information": "guidepost", "mtb": "yes", "name": "Schleuse bei der Landsknechtin", "ski": "yes", "tourism": "information"}}, {"type": "node", "id": 1450123037, "lat": 48.6895353, "lon": 14.0012518, "tags": {"bicycle": "yes", "information": "guidepost", "name": "W\u00f6ssenbach-Durchla\u00df", "tourism": "information"}}, {"type": "node", "id": 1454354887, "lat": 48.6609375, "lon": 14.1658924, "tags": {"bicycle": "yes", "check_date": "2021-07-11", "hiking": "yes", "information": "map", "map_size": "region", "map_type": "topo", "mtb": "yes", "name": "Turisticke trasy Lipno n. Vltavou - Frymburk", "ski": "yes", "tourism": "information"}}, {"type": "node", "id": 1461534088, "lat": 48.6618623, "lon": 14.1660145, "tags": {"ele": "742", "hiking": "yes", "information": "guidepost", "name": "Frymburk", "operator": "cz:K\u010cT", "ref": "CK084;3333/0", "ski": "yes", "tourism": "information"}}, {"type": "node", "id": 1461602718, "lat": 48.6389459, "lon": 14.1299701, "tags": {"amenity": "shelter", "bench": "2", "bin": "no", "shelter_type": "picnic_shelter", "source": "survey"}}, {"type": "node", "id": 1461602730, "lat": 48.6415472, "lon": 14.1052157, "tags": {"bicycle": "yes", "check_date": "2024-05-10", "hiking": "yes", "information": "map", "map_size": "region", "map_type": "topo", "mtb": "yes", "name": "Svat\u00fd Tom\u00e1\u0161", "tourism": "information"}}, {"type": "node", "id": 1461602739, "lat": 48.6391144, "lon": 14.1296364, "tags": {"bicycle": "yes", "ele": "917", "hiking": "yes", "information": "guidepost", "mtb": "yes", "name": "Uhli\u0161t\u011b", "ref": "0133/55,5;6371/4", "source": "survery", "tourism": "information"}}, {"type": "node", "id": 1461604722, "lat": 48.644834, "lon": 14.1039061, "tags": {"bicycle": "yes", "check_date": "2024-05-10", "hiking": "yes", "information": "map", "map_size": "region", "map_type": "topo", "mtb": "yes", "tourism": "information"}}, {"type": "node", "id": 1461604727, "lat": 48.6448947, "lon": 14.1037983, "tags": {"ele": "1033", "hiking": "yes", "information": "guidepost", "mtb": "yes", "name": "V\u00edtk\u016fv k\u00e1men", "operator": "cz:K\u010cT", "ref": "CK001", "tourism": "information"}}, {"type": "node", "id": 1461630818, "lat": 48.6080716, "lon": 14.1026043, "tags": {"bicycle": "yes", "ele": "836", "information": "guidepost", "name": "Pase\u010dn\u00e1", "tourism": "information"}}, {"type": "node", "id": 1461651291, "lat": 48.6622775, "lon": 14.1662151, "tags": {"bicycle": "yes", "hiking": "yes", "information": "map", "map_size": "region", "map_type": "topo", "mtb": "yes", "name": "Lipensko - Frymburk", "tourism": "information"}}, {"type": "node", "id": 1764578661, "lat": 48.5699711, "lon": 14.0950647, "tags": {"direction": "180-270", "tourism": "viewpoint"}}, {"type": "node", "id": 1781500977, "lat": 48.6316335, "lon": 14.1899789, "tags": {"information": "board", "tourism": "information"}}, {"type": "node", "id": 1799972763, "lat": 48.7372952, "lon": 14.1524324, "tags": {"hiking": "yes", "information": "guidepost", "name": "Muckov", "operator": "cz:K\u010cT", "ref": "1231/21", "tourism": "information"}}, {"type": "node", "id": 1832258629, "lat": 48.6511295, "lon": 14.1132312, "tags": {"amenity": "shelter", "shelter_type": "picnic_shelter"}}, {"type": "node", "id": 1943217440, "lat": 48.6435065, "lon": 14.1443728, "tags": {"hiking": "yes", "information": "guidepost", "name": "Pod Ple\u0161n\u00fdm", "tourism": "information"}}, {"type": "node", "id": 2349334569, "lat": 48.6577277, "lon": 14.159562, "tags": {"ele": "740", "hiking": "yes", "information": "guidepost", "name": "Fr\u00fddava (p\u0159\u00edvoz)", "operator": "cz:K\u010cT", "ref": "CK225;6371/0", "source": "survery", "tourism": "information"}}, {"type": "node", "id": 2349334574, "lat": 48.6576665, "lon": 14.1595014, "tags": {"bicycle": "yes", "information": "guidepost", "name": "Fr\u00fddava (p\u0159\u00edvoz)", "ref": "1019/0;1021/0", "source": "survey", "tourism": "information"}}, {"type": "node", "id": 2356375881, "lat": 48.6572002, "lon": 14.1789292, "tags": {"ele": "831", "hiking": "yes", "information": "guidepost", "name": "Na Mart\u011b", "operator": "cz:K\u010cT", "ref": "CK238", "source": "survery", "tourism": "information"}}, {"type": "node", "id": 2356375883, "lat": 48.6585454, "lon": 14.1702603, "tags": {"ele": "741", "hiking": "yes", "information": "guidepost", "name": "Frymburk (kemp)", "operator": "cz:K\u010cT", "ref": "CK085", "source": "survey", "tourism": "information"}}, {"type": "node", "id": 2356375888, "lat": 48.6572846, "lon": 14.1787356, "tags": {"board:title": "K\u0159\u00ed\u017eov\u00e1 cesta", "board:title:de": "Kreuzweg", "board_type": "history", "information": "board", "tourism": "information"}}, {"type": "node", "id": 2356375916, "lat": 48.6575174, "lon": 14.1815893, "tags": {"ele": "850", "information": "guidepost", "name": "Svat\u00e1 Marta", "ref": "CK005", "ski": "yes", "source": "survery", "tourism": "information"}}, {"type": "node", "id": 2417383021, "lat": 48.6409775, "lon": 14.1619666, "tags": {"ele": "812", "hiking": "yes", "information": "guidepost", "name": "Mari\u00e1nsk\u00e1 kapli\u010dka", "operator": "cz:K\u010cT", "ref": "CK031", "tourism": "information"}}, {"type": "node", "id": 2417383022, "lat": 48.6311766, "lon": 14.169766, "tags": {"bicycle": "yes", "ele": "735", "hiking": "yes", "information": "guidepost", "name": "P\u0159edn\u00ed V\u00fdto\u0148", "operator": "cz:K\u010cT", "ref": "CK147;1019/29", "tourism": "information"}}, {"type": "node", "id": 2452205777, "lat": 48.6450206, "lon": 14.1031393, "tags": {"tourism": "viewpoint"}}, {"type": "node", "id": 3216262119, "lat": 48.5687157, "lon": 14.0955304, "tags": {"name": "Drudenstein", "tourism": "viewpoint"}}, {"type": "node", "id": 3266779740, "lat": 48.6680957, "lon": 14.180531, "tags": {"information": "guidepost", "name": "St\u0159elnice", "tourism": "information"}}, {"type": "node", "id": 3266779741, "lat": 48.6681054, "lon": 14.178325, "tags": {"information": "guidepost", "name": "U St\u0159elnice", "tourism": "information"}}, {"type": "node", "id": 3266779742, "lat": 48.6668208, "lon": 14.174056, "tags": {"information": "guidepost", "name": "U k\u0159\u00ed\u017eku", "source": "gps", "tourism": "information"}}, {"type": "node", "id": 3266779752, "lat": 48.6651764, "lon": 14.1713919, "tags": {"information": "guidepost", "source": "gps", "tourism": "information"}}, {"type": "node", "id": 3266809954, "lat": 48.6669272, "lon": 14.165666, "tags": {"information": "guidepost", "tourism": "information"}}, {"type": "node", "id": 3315610733, "lat": 48.5753779, "lon": 14.0415161, "tags": {"information": "office", "tourism": "information"}}, {"type": "node", "id": 3368185793, "lat": 48.5761687, "lon": 14.1087777, "tags": {"ele": "922", "name": "Hintring", "natural": "peak", "source": "survey"}}, {"type": "node", "id": 3368185814, "lat": 48.5878265, "lon": 14.1192668}, {"type": "node", "id": 3368185815, "lat": 48.5878496, "lon": 14.1192785}, {"type": "node", "id": 3368185816, "lat": 48.5878901, "lon": 14.118979}, {"type": "node", "id": 3368185817, "lat": 48.5879131, "lon": 14.1189907}, {"type": "node", "id": 3392131786, "lat": 48.6032501, "lon": 14.0037069, "tags": {"ele": "748", "name": "Michaelsberg", "natural": "peak", "source": "basemap.at"}}, {"type": "node", "id": 3452082808, "lat": 48.6678995, "lon": 14.0682543, "tags": {"ele": "780", "name": "Sov\u00ed vrch", "name:cs": "Sov\u00ed vrch", "name:de": "Eulenberg", "natural": "peak"}}, {"type": "node", "id": 3452082809, "lat": 48.6248511, "lon": 14.0505751, "tags": {"ele": "731", "natural": "peak"}}, {"type": "node", "id": 3452082810, "lat": 48.6553004, "lon": 14.1227265, "tags": {"ele": "825", "name": "Z\u00e1meck\u00fd les", "name:cs": "Z\u00e1meck\u00fd les", "name:de": "Schlo\u00dfwald", "natural": "peak"}}, {"type": "node", "id": 3452082811, "lat": 48.6462136, "lon": 14.1384979, "tags": {"ele": "918", "name": "Mal\u00fd Ple\u0161n\u00fd", "name:cs": "Mal\u00fd Ple\u0161n\u00fd", "name:de": "Kleiner Pleschen", "natural": "peak", "source": "\u010c\u00daZK"}}, {"type": "node", "id": 3452082812, "lat": 48.6442403, "lon": 14.1313136, "tags": {"ele": "933", "name": "Velk\u00fd Ple\u0161n\u00fd", "name:cs": "Velk\u00fd Ple\u0161n\u00fd", "name:de": "Gro\u00dfer Pleschen", "natural": "peak", "source": "\u010c\u00daZK"}}, {"type": "node", "id": 3452082813, "lat": 48.6073879, "lon": 14.0697107, "tags": {"ele": "866", "name": "U Horn\u00ed Ure\u0161e", "natural": "peak"}}, {"type": "node", "id": 3452082814, "lat": 48.6161483, "lon": 14.1036353, "tags": {"ele": "894", "name": "U Pase\u010dn\u00e9", "natural": "peak"}}, {"type": "node", "id": 3452082815, "lat": 48.5984841, "lon": 14.1091714, "tags": {"ele": "884", "name": "Mezilesk\u00fd vrch", "name:cs": "Mezilesk\u00fd vrch", "name:de": "Multerberg", "natural": "peak"}}, {"type": "node", "id": 3452082816, "lat": 48.5955286, "lon": 14.1179846, "tags": {"ele": "841", "name": "Hn\u011bd\u00fd vrch", "natural": "peak"}}, {"type": "node", "id": 3452082817, "lat": 48.5987163, "lon": 14.1367862, "tags": {"ele": "797", "name": "K\u0159enice", "natural": "peak"}}, {"type": "node", "id": 3452082818, "lat": 48.6100907, "lon": 14.1324422, "tags": {"ele": "823", "name": "Jelen\u00ed vrch", "natural": "peak"}}, {"type": "node", "id": 3452082819, "lat": 48.6150702, "lon": 14.1332147, "tags": {"ele": "829", "name": "Such\u00fd les", "natural": "peak"}}, {"type": "node", "id": 3452208054, "lat": 48.7168362, "lon": 14.0151491, "tags": {"ele": "805", "name": "U stud\u00e1nky", "natural": "peak", "source": "\u010c\u00daZK"}}, {"type": "node", "id": 3452208055, "lat": 48.7114207, "lon": 14.0110722, "tags": {"ele": "804", "name": "K\u00f3ta", "natural": "peak", "source": "\u010c\u00daZK"}}, {"type": "node", "id": 3452208056, "lat": 48.6940719, "lon": 14.0184881, "tags": {"ele": "780", "name": "Koz\u00ed str\u00e1\u0148", "natural": "peak"}}, {"type": "node", "id": 3750897167, "lat": 48.661428, "lon": 14.1658738, "tags": {"fixme": "zp\u0159esnit polohu", "name": "pran\u00fd\u0159", "tourism": "attraction"}}, {"type": "node", "id": 3899978033, "lat": 48.569103, "lon": 14.1821544, "tags": {"board_type": "nature", "information": "board", "tourism": "information"}}, {"type": "node", "id": 3899999968, "lat": 48.5699618, "lon": 14.1812607, "tags": {"board_type": "nature", "information": "board", "tourism": "information"}}, {"type": "node", "id": 3899999969, "lat": 48.5699666, "lon": 14.1812348, "tags": {"board_type": "nature", "information": "board", "tourism": "information"}}, {"type": "node", "id": 3922206155, "lat": 48.7380496, "lon": 14.1096091, "tags": {"information": "guidepost", "tourism": "information"}}, {"type": "node", "id": 3922206156, "lat": 48.7380899, "lon": 14.1091117, "tags": {"amenity": "shelter", "shelter_type": "public_transport"}}, {"type": "node", "id": 4171511436, "lat": 48.5928767, "lon": 14.1761842, "tags": {"ele": "752", "hiking": "yes", "information": "guidepost", "name": "Guglwald (CZ/A)", "operator": "cz:K\u010cT", "ref": "CK072", "tourism": "information"}}, {"type": "node", "id": 4171511437, "lat": 48.5928638, "lon": 14.1762506, "tags": {"amenity": "shelter", "shelter_type": "picnic_shelter"}}, {"type": "node", "id": 4171578358, "lat": 48.608354, "lon": 14.1031837, "tags": {"ele": "831", "hiking": "yes", "information": "guidepost", "name": "Pase\u010dn\u00e1 (rozc.)", "official_name": "Pase\u010dn\u00e1 (rozc.)", "operator": "cz:K\u010cT", "ref": "CK328", "tourism": "information"}}, {"type": "node", "id": 4171578359, "lat": 48.6110344, "lon": 14.1079772, "tags": {"ele": "840", "hiking": "yes", "information": "guidepost", "name": "Pase\u010dn\u00e1", "operator": "cz:K\u010cT", "ref": "CK226", "tourism": "information"}}, {"type": "node", "id": 4172073983, "lat": 48.7093439, "lon": 14.0305013, "tags": {"ele": "762", "hiking": "yes", "information": "guidepost", "name": "Horn\u00ed Pest\u0159ice", "operator": "cz:K\u010cT", "ref": "CK166", "tourism": "information"}}, {"type": "node", "id": 4172073984, "lat": 48.7291307, "lon": 14.0030169, "tags": {"ele": "771", "hiking": "yes", "information": "guidepost", "name": "P\u0159edn\u00ed Zvonkov\u00e1", "operator": "cz:K\u010cT", "ref": "CK165", "tourism": "information"}}, {"type": "node", "id": 4177160163, "lat": 48.5685986, "lon": 14.0955416, "tags": {"description": "Ausgangspunkt: Ortszentrum St. Stefan oder Mayrwirt in St. Stefan Zielort: 4170 Sankt Stefan am Walde Zielpunkt: Ortszentrum St. Stefan oder Mayrwirt in St. Stefan", "name": "Wendenstein", "tourism": "attraction"}}, {"type": "node", "id": 4320991360, "lat": 48.5544737, "lon": 14.1619971, "tags": {"information": "guidepost", "tourism": "information"}}, {"type": "node", "id": 4320991363, "lat": 48.5547676, "lon": 14.162429, "tags": {"board_type": "nature", "information": "board", "tourism": "information"}}, {"type": "node", "id": 4320991370, "lat": 48.5563259, "lon": 14.1621125, "tags": {"information": "guidepost", "tourism": "information"}}, {"type": "node", "id": 4320991371, "lat": 48.5564146, "lon": 14.1614862, "tags": {"information": "guidepost", "tourism": "information"}}, {"type": "node", "id": 4320991372, "lat": 48.5565078, "lon": 14.1614017, "tags": {"information": "guidepost", "tourism": "information"}}, {"type": "node", "id": 4320991386, "lat": 48.5614043, "lon": 14.1574213, "tags": {"information": "guidepost", "tourism": "information"}}, {"type": "node", "id": 4395415682, "lat": 48.6617331, "lon": 14.1662184, "tags": {"addr:city": "Frymburk", "addr:conscriptionnumber": "5", "addr:country": "CZ", "addr:housenumber": "5", "addr:place": "Frymburk", "addr:postcode": "38279", "information": "office", "internet_access": "yes", "name": "Zuba\u0159sk\u00e9 centrum FRYMBURK", "phone": "+420 773 883 777", "source:addr": "cuzk:ruian", "tourism": "information", "website": "https://frymburkdent.cz/"}}, {"type": "node", "id": 4397171190, "lat": 48.6641225, "lon": 14.1688872, "tags": {"amenity": "shelter", "bench": "yes", "lit": "yes", "shelter_type": "public_transport"}}, {"type": "node", "id": 4577996595, "lat": 48.6007061, "lon": 14.175672, "tags": {"bicycle": "yes", "hiking": "yes", "information": "guidepost", "tourism": "information"}}, {"type": "node", "id": 4578968146, "lat": 48.6580675, "lon": 14.1703523, "tags": {"board_type": "history", "information": "board", "name": "K\u0159\u00ed\u017eov\u00e1 cesta", "tourism": "information"}}, {"type": "node", "id": 4708089620, "lat": 48.7426152, "lon": 14.086749, "tags": {"ele": "726", "hiking": "yes", "information": "guidepost", "name": "\u010cern\u00e1 v\u00a0Po\u0161umav\u00ed", "note": "na zdi n\u00e1dra\u017e\u00ed", "operator": "cz:K\u010cT", "ref": "CK019", "tourism": "information"}}, {"type": "node", "id": 4708089621, "lat": 48.7373708, "lon": 14.1524291}, {"type": "node", "id": 4708089622, "lat": 48.7373345, "lon": 14.1524425}, {"type": "node", "id": 4708089623, "lat": 48.737328, "lon": 14.1524021}, {"type": "node", "id": 4708089624, "lat": 48.7373643, "lon": 14.1523887}, {"type": "node", "id": 4837942991, "lat": 48.6774207, "lon": 14.1513562, "tags": {"ele": "759", "hiking": "yes", "information": "guidepost", "name": "Posudov", "operator": "cz:K\u010cT", "ref": "CK220", "tourism": "information"}}, {"type": "node", "id": 4837942992, "lat": 48.6803039, "lon": 14.1623425, "tags": {"ele": "745", "hiking": "yes", "information": "guidepost", "name": "V\u0159esn\u00e1 bus", "operator": "cz:K\u010cT", "ref": "CK195", "tourism": "information"}}, {"type": "node", "id": 4837996126, "lat": 48.6481225, "lon": 14.1818851, "tags": {"ele": "853", "hiking": "yes", "information": "guidepost", "name": "Pod Martou", "operator": "cz:K\u010cT", "ref": "CK086", "tourism": "information"}}, {"type": "node", "id": 4838678443, "lat": 48.5998385, "lon": 14.0841666, "tags": {"ele": "830", "hiking": "yes", "information": "guidepost", "name": "U Ro\u017e\u0148ova CZ/A", "operator": "cz:K\u010cT", "ref": "CK341", "tourism": "information"}}, {"type": "node", "id": 4838733890, "lat": 48.6543221, "lon": 14.035247, "tags": {"ele": "800", "hiking": "yes", "information": "guidepost", "name": "Je\u017eov\u00e1 CZ/A", "operator": "cz:K\u010cT", "ref": "CK259", "tourism": "information"}}, {"type": "node", "id": 5038251221, "lat": 48.5553505, "lon": 14.192622, "tags": {"hiking": "yes", "information": "guidepost", "tourism": "information"}}, {"type": "node", "id": 5038251222, "lat": 48.555406, "lon": 14.1925449, "tags": {"hiking": "yes", "information": "guidepost", "tourism": "information"}}, {"type": "node", "id": 5038251223, "lat": 48.5565688, "lon": 14.1976257, "tags": {"hiking": "yes", "information": "guidepost", "tourism": "information"}}, {"type": "node", "id": 5038251224, "lat": 48.5563784, "lon": 14.1996695, "tags": {"hiking": "yes", "information": "guidepost", "tourism": "information"}}, {"type": "node", "id": 5038251225, "lat": 48.5572512, "lon": 14.2000755, "tags": {"hiking": "yes", "information": "guidepost", "tourism": "information"}}, {"type": "node", "id": 5351605239, "lat": 48.5602566, "lon": 14.1755838}, {"type": "node", "id": 5351605240, "lat": 48.5602355, "lon": 14.1755519}, {"type": "node", "id": 5351605241, "lat": 48.5602192, "lon": 14.1755766}, {"type": "node", "id": 5351605242, "lat": 48.5602403, "lon": 14.1756084}, {"type": "node", "id": 5433749931, "lat": 48.5900473, "lon": 14.1720852, "tags": {"historic": "monument", "name": "Der Halbe Weg", "tourism": "attraction"}}, {"type": "node", "id": 5581829036, "lat": 48.5605303, "lon": 14.1764643}, {"type": "node", "id": 5581829037, "lat": 48.5605516, "lon": 14.1765019}, {"type": "node", "id": 5581829038, "lat": 48.5605671, "lon": 14.1764818}, {"type": "node", "id": 5581829039, "lat": 48.5605458, "lon": 14.1764442}, {"type": "node", "id": 5647098047, "lat": 48.7321915, "lon": 14.1080336, "tags": {"board_type": "history", "check_date": "2024-05-08", "information": "board", "tourism": "information"}}, {"type": "node", "id": 5827800761, "lat": 48.7510649, "lon": 14.1446845, "tags": {"board_type": "history", "information": "board", "name": "Bo\u017e\u00ed muka Hubenov", "ref": "6", "tourism": "information"}}, {"type": "node", "id": 5827800763, "lat": 48.7371622, "lon": 14.1434281, "tags": {"board_type": "nature", "check_date": "2024-05-09", "information": "board", "name": "Muckovsk\u00e9 v\u00e1pencov\u00e9 lomy", "ref": "3", "tourism": "information"}}, {"type": "node", "id": 5827800764, "lat": 48.7371624, "lon": 14.1434664, "tags": {"amenity": "shelter", "bin": "yes", "lockable": "no", "shelter_type": "picnic_shelter", "wheelchair": "yes"}}, {"type": "node", "id": 5827800768, "lat": 48.7360834, "lon": 14.1487454, "tags": {"board_type": "history", "information": "board", "name": "Muckov", "ref": "4", "tourism": "information"}}, {"type": "node", "id": 5984940852, "lat": 48.584047, "lon": 14.126698, "tags": {"ele": "887", "tourism": "viewpoint"}}, {"type": "node", "id": 6519040046, "lat": 48.6553153, "lon": 14.0079169, "tags": {"hiking": "yes", "information": "guidepost", "tourism": "information"}}, {"type": "node", "id": 6519040047, "lat": 48.6554336, "lon": 14.0084285, "tags": {"hiking": "yes", "information": "guidepost", "tourism": "information"}}, {"type": "node", "id": 6534298054, "lat": 48.6916516, "lon": 14.0332414, "tags": {"amenity": "shelter", "shelter_type": "picnic_shelter"}}, {"type": "node", "id": 6534298056, "lat": 48.6477458, "lon": 14.0877121, "tags": {"amenity": "shelter", "shelter_type": "picnic_shelter"}}, {"type": "node", "id": 6534298058, "lat": 48.6392926, "lon": 14.1028864, "tags": {"board_type": "history", "information": "board", "name": "Svat\u00fd Tom\u00e1\u0161", "ref": "7", "tourism": "information"}}, {"type": "node", "id": 6534298059, "lat": 48.638877, "lon": 14.1051021, "tags": {"board_type": "history", "information": "board", "name": "Loveck\u00fd z\u00e1me\u010dek a parkov\u00fd les", "ref": "8", "tourism": "information"}}, {"type": "node", "id": 6534298060, "lat": 48.6376469, "lon": 14.1169537, "tags": {"board_type": "history", "check_date": "2024-05-10", "information": "board", "name": "Obnova lesa a v\u00fdchova lesa", "ref": "9", "tourism": "information"}}, {"type": "node", "id": 6534298062, "lat": 48.6390221, "lon": 14.1297875, "tags": {"board_type": "information", "information": "board", "name": "Uhli\u0161t\u011b", "ref": "1", "tourism": "information"}}, {"type": "node", "id": 6534298067, "lat": 48.6527539, "lon": 14.1887119, "tags": {"board_type": "nature", "information": "board", "name": "Obnovn\u00ed t\u011b\u017eba", "ref": "5", "tourism": "information"}}, {"type": "node", "id": 6534298072, "lat": 48.7285384, "lon": 14.1439282, "tags": {"board_type": "history", "information": "board", "name": "J\u00e1my, Pl\u00e1ni\u010dsk\u00fd rybn\u00edk,Kotlina", "ref": "5;6;7", "tourism": "information"}}, {"type": "node", "id": 6534298074, "lat": 48.7399151, "lon": 14.13254, "tags": {"board_type": "history", "information": "board", "name": "Slavkovica", "ref": "2", "tourism": "information"}}, {"type": "node", "id": 6534298075, "lat": 48.7422176, "lon": 14.1216372, "tags": {"board_type": "history", "check_date": "2024-08-16", "information": "board", "name": "Bo\u017e\u00ed muka - Watzlova kapli\u010dka", "ref": "1", "tourism": "information"}}, {"type": "node", "id": 6534298077, "lat": 48.7412703, "lon": 14.11733, "tags": {"information": "map", "name": "Nau\u010dn\u00e9 stezky", "tourism": "information"}}, {"type": "node", "id": 6536706656, "lat": 48.7285451, "lon": 14.1198508, "tags": {"board_type": "history", "information": "board", "name": "K\u0159\u00ed\u017e ve Volsk\u00e9m lese", "ref": "9", "tourism": "information"}}, {"type": "node", "id": 6536706657, "lat": 48.732732, "lon": 14.1148534, "tags": {"board_type": "history", "check_date": "2024-09-02", "information": "board", "name": "Anderlova kapli\u010dka", "ref": "10", "tourism": "information"}}, {"type": "node", "id": 6536727011, "lat": 48.7227222, "lon": 14.1337439, "tags": {"board_type": "history", "information": "board", "name": "Pl\u00e1ni\u010dka", "ref": "8", "tourism": "information"}}, {"type": "node", "id": 6635561849, "lat": 48.5802434, "lon": 14.188934, "tags": {"bicycle": "yes", "information": "guidepost", "mtb": "yes", "tourism": "information"}}, {"type": "node", "id": 6635561850, "lat": 48.586425, "lon": 14.1981594, "tags": {"bicycle": "yes", "hiking": "yes", "information": "guidepost", "mtb": "yes", "tourism": "information"}}, {"type": "node", "id": 6655563542, "lat": 48.7399304, "lon": 14.1111053, "tags": {"check_date": "2024-06-30", "information": "board", "tourism": "information"}}, {"type": "node", "id": 7001712263, "lat": 48.6452397, "lon": 14.0485062, "tags": {"amenity": "shelter"}}, {"type": "node", "id": 7370724187, "lat": 48.5778427, "lon": 14.1107248, "tags": {"board_type": "history", "information": "board", "tourism": "information"}}, {"type": "node", "id": 7426139253, "lat": 48.5749612, "lon": 14.0983276, "tags": {"hiking": "yes", "information": "guidepost", "mtb": "yes", "tourism": "information"}}, {"type": "node", "id": 7426139259, "lat": 48.5884139, "lon": 14.1633028, "tags": {"bicycle": "no", "hiking": "yes", "information": "guidepost", "mtb": "yes", "tourism": "information"}}, {"type": "node", "id": 7773972825, "lat": 48.6768817, "lon": 14.0367292, "tags": {"amenity": "shelter", "name": "Alte Grenzpostenh\u00fctte", "shelter_type": "weather_shelter"}}, {"type": "node", "id": 7773972874, "lat": 48.5919043, "lon": 14.1804522, "tags": {"information": "guidepost", "name": "50m Mahnmal - Eiserner Vorhang", "tourism": "information"}}, {"type": "node", "id": 7817939847, "lat": 48.7487224, "lon": 14.1452264, "tags": {"board_type": "history", "information": "board", "name": "Hubenov", "ref": "5", "tourism": "information"}}, {"type": "node", "id": 7817939848, "lat": 48.7353317, "lon": 14.1812573, "tags": {"ele": "791", "hiking": "yes", "information": "guidepost", "name": "Schollerovsk\u00fd dv\u016fr", "operator": "cz:K\u010cT", "ref": "CK015", "tourism": "information"}}, {"type": "node", "id": 7914201895, "lat": 48.6631179, "lon": 14.1134516, "tags": {"amenity": "shelter", "shelter_type": "picnic_shelter"}}, {"type": "node", "id": 7914201896, "lat": 48.6574598, "lon": 14.1405453, "tags": {"amenity": "shelter", "shelter_type": "picnic_shelter"}}, {"type": "node", "id": 7916877042, "lat": 48.6781006, "lon": 14.165091, "tags": {"board_type": "nature", "information": "board", "name": "Ekoz\u00f3na - \u017eivot ve vod\u011b", "tourism": "information"}}, {"type": "node", "id": 7916877043, "lat": 48.6782126, "lon": 14.1648783, "tags": {"board_type": "nature", "information": "board", "name": "Obratlovci", "tourism": "information"}}, {"type": "node", "id": 7916877044, "lat": 48.6784644, "lon": 14.1643668, "tags": {"board_type": "nature", "information": "board", "name": "Vliv drav\u00fdch ryb na kvalitu vody", "tourism": "information"}}, {"type": "node", "id": 7916877045, "lat": 48.6786333, "lon": 14.1639185, "tags": {"board_type": "nature", "information": "board", "name": "Ryby v n\u00e1dr\u017ei", "tourism": "information"}}, {"type": "node", "id": 7916877046, "lat": 48.678764, "lon": 14.1635655, "tags": {"board_type": "nature", "information": "board", "name": "B\u0159ehov\u00e9 porosty", "tourism": "information"}}, {"type": "node", "id": 7916877047, "lat": 48.6792102, "lon": 14.1624665, "tags": {"board_type": "nature", "information": "board", "name": "Zoobentos", "tourism": "information"}}, {"type": "node", "id": 7916877048, "lat": 48.6795827, "lon": 14.1617353, "tags": {"board_type": "nature", "information": "board", "name": "Sinice a \u0159asy v n\u00e1dr\u017ei", "tourism": "information"}}, {"type": "node", "id": 7916978452, "lat": 48.6806287, "lon": 14.1611094, "tags": {"board_type": "nature", "information": "board", "name": "Zatopen\u00fd sv\u011bt", "tourism": "information"}}, {"type": "node", "id": 7916978456, "lat": 48.7514357, "lon": 14.0695661, "tags": {"amenity": "shelter", "shelter_type": "picnic_shelter"}}, {"type": "node", "id": 8688515959, "lat": 48.6191181, "lon": 14.0401941, "tags": {"information": "guidepost", "tourism": "information"}}, {"type": "node", "id": 8688515997, "lat": 48.6192785, "lon": 14.0313299, "tags": {"information": "guidepost", "tourism": "information"}}, {"type": "node", "id": 9080700495, "lat": 48.7517536, "lon": 14.0564069, "tags": {"hiking": "yes", "information": "guidepost", "name": "Karlovy Dvory", "operator": "cz:K\u010cT", "tourism": "information"}}, {"type": "node", "id": 9080883825, "lat": 48.7023396, "lon": 14.0266366, "tags": {"tourism": "viewpoint"}}, {"type": "node", "id": 9426000938, "lat": 48.6256273, "lon": 14.0468997, "tags": {"information": "board", "tourism": "information"}}, {"type": "node", "id": 9429029477, "lat": 48.6785874, "lon": 14.0437024, "tags": {"description": "Jedn\u00e1 se o are\u00e1l b\u00fdval\u00e9 roty PS Kyselov, sest\u00e1vaj\u00edc\u00ed se z p\u016fvodn\u00edho objektu celnice asi z roku 1929, ke kter\u00e9mu byly p\u0159istav\u011bny asi p\u0159ed 50-ti lety i hospod\u00e1\u0159sk\u00e1 budova a objekt gar\u00e1\u017e\u00ed. K rot\u011b Kyselov pat\u0159ilo tak\u00e9 kotvi\u0161t\u011b motorov\u00fdch \u010dlunu, kter\u00e9 PS pou\u017e\u00ed", "name": "Rota Kyselov", "tourism": "attraction", "website": "https://www.zdeneksmida.cz/ochrana-statnich-hranic/pohranicni-straz/roty-volarske-brigady-lipensky-usek.html"}}, {"type": "node", "id": 9432636965, "lat": 48.6367225, "lon": 14.0298909, "tags": {"information": "board", "tourism": "information"}}, {"type": "node", "id": 9432636966, "lat": 48.6156499, "lon": 14.0680356, "tags": {"description": "Historick\u00e1 fotomapa regionu", "information": "map", "map_type": "topo", "name": "N\u011bmeck\u00fd Rychn\u016fvek", "name:de": "Deutsch Reichenau", "tourism": "information"}}, {"type": "node", "id": 9432636967, "lat": 48.6168436, "lon": 14.0693719, "tags": {"board_type": "history", "information": "board", "name": "N\u011bmeck\u00fd Rychn\u016fvek", "name:de": "Deutsch Reichenau", "tourism": "information"}}, {"type": "node", "id": 9459824646, "lat": 48.6604133, "lon": 14.0293692, "tags": {"ele": "848", "natural": "peak"}}, {"type": "node", "id": 9459895959, "lat": 48.6872595, "lon": 14.066368}, {"type": "node", "id": 9459895960, "lat": 48.6872271, "lon": 14.0663743}, {"type": "node", "id": 9459895961, "lat": 48.6872313, "lon": 14.0664245}, {"type": "node", "id": 9459895962, "lat": 48.6872637, "lon": 14.0664182}, {"type": "node", "id": 9459895981, "lat": 48.6802084, "lon": 14.0619592, "tags": {"ele": "744", "natural": "peak"}}, {"type": "node", "id": 9463651872, "lat": 48.6544971, "lon": 14.0351803}, {"type": "node", "id": 9463651873, "lat": 48.6544656, "lon": 14.0352205}, {"type": "node", "id": 9463651874, "lat": 48.6544985, "lon": 14.0352795}, {"type": "node", "id": 9463651875, "lat": 48.65453, "lon": 14.0352393}, {"type": "node", "id": 9493170468, "lat": 48.7331282, "lon": 14.0106941, "tags": {"direction": "0-360", "tourism": "viewpoint"}}, {"type": "node", "id": 9505835902, "lat": 48.6393265, "lon": 14.1169877, "tags": {"ele": "1011", "natural": "peak", "source": "\u010c\u00daZK"}}, {"type": "node", "id": 9520462252, "lat": 48.7203378, "lon": 14.0209047, "tags": {"ele": "805", "natural": "peak", "source": "\u010c\u00daZK"}}, {"type": "node", "id": 9520462253, "lat": 48.739162, "lon": 14.0215442, "tags": {"ele": "764", "natural": "peak", "source": "\u010c\u00daZK"}}, {"type": "node", "id": 9554639061, "lat": 48.5566967, "lon": 14.1211961, "tags": {"ele": "768", "name": "Grubbauernfelsen", "natural": "peak"}}, {"type": "node", "id": 9554639062, "lat": 48.5570198, "lon": 14.1218452, "tags": {"hiking": "yes", "information": "guidepost", "tourism": "information"}}, {"type": "node", "id": 9779089339, "lat": 48.6613878, "lon": 14.1658683, "tags": {"information": "map", "map_size": "region", "map_type": "street", "tourism": "information"}}, {"type": "node", "id": 9779232955, "lat": 48.6617228, "lon": 14.1661793, "tags": {"information": "terminal", "tourism": "information"}}, {"type": "node", "id": 9799543153, "lat": 48.5873482, "lon": 14.1188065, "tags": {"information": "map", "tourism": "information"}}, {"type": "node", "id": 9852765728, "lat": 48.6625606, "lon": 14.0407157, "tags": {"information": "guidepost", "name": "Gl\u00f6ckelschleuse", "tourism": "information"}}, {"type": "node", "id": 9969878631, "lat": 48.5980547, "lon": 14.1232093, "tags": {"ele": "811", "name": "Hn\u011bd\u00fd vrch", "natural": "peak"}}, {"type": "node", "id": 10056464591, "lat": 48.6355852, "lon": 14.0445493, "tags": {"information": "board", "name": "\u017delezn\u00e1 opona", "name:cs": "\u017delezn\u00e1 opona", "name:de": "Eiserner Vorhang", "tourism": "information"}}, {"type": "node", "id": 10222143764, "lat": 48.6674508, "lon": 14.0034424, "tags": {"information": "guidepost", "tourism": "information"}}, {"type": "node", "id": 10284810360, "lat": 48.6195608, "lon": 14.0452999, "tags": {"information": "board", "tourism": "information"}}, {"type": "node", "id": 10922209154, "lat": 48.5781991, "lon": 14.0405874}, {"type": "node", "id": 10922209155, "lat": 48.5782084, "lon": 14.0406073}, {"type": "node", "id": 10922209156, "lat": 48.5781748, "lon": 14.0406429}, {"type": "node", "id": 10922209157, "lat": 48.5781656, "lon": 14.040623}, {"type": "node", "id": 11057227931, "lat": 48.6552385, "lon": 14.0092031, "tags": {"information": "guidepost", "tourism": "information"}}, {"type": "node", "id": 11057227933, "lat": 48.6543028, "lon": 14.0107182, "tags": {"information": "guidepost", "tourism": "information"}}, {"type": "node", "id": 11057258642, "lat": 48.6555877, "lon": 14.0397363, "tags": {"information": "guidepost", "tourism": "information"}}, {"type": "node", "id": 11057258650, "lat": 48.6557226, "lon": 14.0319795, "tags": {"information": "guidepost", "tourism": "information"}}, {"type": "node", "id": 11057258651, "lat": 48.6559072, "lon": 14.0314201, "tags": {"information": "guidepost", "tourism": "information"}}, {"type": "node", "id": 11057258652, "lat": 48.656161, "lon": 14.0310793, "tags": {"information": "guidepost", "tourism": "information"}}, {"type": "node", "id": 11057258654, "lat": 48.6563761, "lon": 14.0298596, "tags": {"information": "guidepost", "tourism": "information"}}, {"type": "node", "id": 11057258656, "lat": 48.6558026, "lon": 14.026694, "tags": {"information": "guidepost", "tourism": "information"}}, {"type": "node", "id": 11057258658, "lat": 48.6542409, "lon": 14.0253693, "tags": {"information": "guidepost", "tourism": "information"}}, {"type": "node", "id": 11057258659, "lat": 48.6543825, "lon": 14.0222351, "tags": {"information": "guidepost", "tourism": "information"}}, {"type": "node", "id": 11057258661, "lat": 48.653425, "lon": 14.0208501, "tags": {"information": "guidepost", "tourism": "information"}}, {"type": "node", "id": 11057258662, "lat": 48.6530141, "lon": 14.0180601, "tags": {"information": "guidepost", "tourism": "information"}}, {"type": "node", "id": 11057258663, "lat": 48.6536748, "lon": 14.0133855, "tags": {"information": "guidepost", "tourism": "information"}}, {"type": "node", "id": 11057293547, "lat": 48.6562552, "lon": 14.0275268, "tags": {"information": "guidepost", "tourism": "information"}}, {"type": "node", "id": 11123737116, "lat": 48.6604295, "lon": 14.1976957, "tags": {"information": "guidepost", "tourism": "information"}}, {"type": "node", "id": 11154440358, "lat": 48.5892752, "lon": 14.1634014, "tags": {"direction": "245", "information": "board", "name": "Achtung Staatsgrenze", "tourism": "information"}}, {"type": "node", "id": 11224298288, "lat": 48.6206654, "lon": 14.0828284, "tags": {"ele": "867", "natural": "peak"}}, {"type": "node", "id": 11224496535, "lat": 48.6058292, "lon": 14.0776661, "tags": {"ele": "858", "natural": "peak"}}, {"type": "node", "id": 11227876789, "lat": 48.7084612, "lon": 14.003512, "tags": {"direction": "5", "information": "board", "inscription": "Pozor St\u00e1tn\u00ed hranice", "name": "Pozor St\u00e1tn\u00ed hranice", "tourism": "information"}}, {"type": "node", "id": 11227876790, "lat": 48.7079891, "lon": 14.0041443, "tags": {"direction": "75", "information": "board", "inscription": "Pozor St\u00e1tn\u00ed hranice", "name": "Pozor St\u00e1tn\u00ed hranice", "tourism": "information"}}, {"type": "node", "id": 11227876792, "lat": 48.7055566, "lon": 14.009382, "tags": {"direction": "65", "information": "board", "inscription": "Pozor St\u00e1tn\u00ed hranice", "name": "Pozor St\u00e1tn\u00ed hranice", "tourism": "information"}}, {"type": "node", "id": 11227876793, "lat": 48.7048619, "lon": 14.009838, "tags": {"information": "board", "inscription": "Pozor St\u00e1tn\u00ed hranice", "name": "Pozor St\u00e1tn\u00ed hranice", "tourism": "information"}}, {"type": "node", "id": 11227876794, "lat": 48.7041061, "lon": 14.0092076, "tags": {"information": "board", "inscription": "Pozor St\u00e1tn\u00ed hranice", "name": "Pozor St\u00e1tn\u00ed hranice", "tourism": "information"}}, {"type": "node", "id": 11227984464, "lat": 48.6977559, "lon": 14.015767, "tags": {"direction": "75", "information": "board", "inscription": "Pozor St\u00e1tn\u00ed hranice", "name": "Pozor St\u00e1tn\u00ed hranice", "tourism": "information"}}, {"type": "node", "id": 11228016296, "lat": 48.6963861, "lon": 14.016239, "tags": {"direction": "25", "information": "board", "inscription": "Pozor St\u00e1tn\u00ed hranice", "name": "Pozor St\u00e1tn\u00ed hranice", "tourism": "information"}}, {"type": "node", "id": 11228016297, "lat": 48.696075, "lon": 14.0182487, "tags": {"direction": "95", "information": "board", "inscription": "Pozor St\u00e1tn\u00ed hranice", "name": "Pozor St\u00e1tn\u00ed hranice", "tourism": "information"}}, {"type": "node", "id": 11228016298, "lat": 48.6939522, "lon": 14.0183378, "tags": {"direction": "120", "information": "board", "inscription": "Pozor St\u00e1tn\u00ed hranice", "name": "Pozor St\u00e1tn\u00ed hranice", "tourism": "information"}}, {"type": "node", "id": 11228016299, "lat": 48.6923517, "lon": 14.01629, "tags": {"direction": "110", "information": "board", "inscription": "Pozor St\u00e1tn\u00ed hranice", "name": "Pozor St\u00e1tn\u00ed hranice", "tourism": "information"}}, {"type": "node", "id": 11228016300, "lat": 48.6912327, "lon": 14.0182742, "tags": {"direction": "40", "information": "board", "inscription": "Pozor St\u00e1tn\u00ed hranice", "name": "Pozor St\u00e1tn\u00ed hranice", "tourism": "information"}}, {"type": "node", "id": 11228016301, "lat": 48.6904572, "lon": 14.0210744, "tags": {"information": "board", "inscription": "Pozor St\u00e1tn\u00ed hranice", "name": "Pozor St\u00e1tn\u00ed hranice", "tourism": "information"}}, {"type": "node", "id": 11228016302, "lat": 48.6891433, "lon": 14.0255028, "tags": {"direction": "50", "information": "board", "inscription": "Pozor St\u00e1tn\u00ed hranice", "name": "Pozor St\u00e1tn\u00ed hranice", "tourism": "information"}}, {"type": "node", "id": 11228016303, "lat": 48.6871478, "lon": 14.0257736, "tags": {"information": "board", "inscription": "Pozor St\u00e1tn\u00ed hranice", "name": "Pozor St\u00e1tn\u00ed hranice", "tourism": "information"}}, {"type": "node", "id": 11228016304, "lat": 48.6867264, "lon": 14.0270477, "tags": {"information": "board", "inscription": "Pozor St\u00e1tn\u00ed hranice", "name": "Pozor St\u00e1tn\u00ed hranice", "tourism": "information"}}, {"type": "node", "id": 11228016305, "lat": 48.6854939, "lon": 14.0286946, "tags": {"information": "board", "inscription": "Pozor St\u00e1tn\u00ed hranice", "name": "Pozor St\u00e1tn\u00ed hranice", "tourism": "information"}}, {"type": "node", "id": 11228016306, "lat": 48.6846935, "lon": 14.0286704, "tags": {"direction": "140", "information": "board", "inscription": "Pozor St\u00e1tn\u00ed hranice", "name": "Pozor St\u00e1tn\u00ed hranice", "tourism": "information"}}, {"type": "node", "id": 11228016307, "lat": 48.6839241, "lon": 14.0261753, "tags": {"board_type": "warning", "direction": "85", "information": "board", "inscription": "POZOR St\u00e1tn\u00ed hranice", "tourism": "information"}}, {"type": "node", "id": 11228016308, "lat": 48.6828741, "lon": 14.0271235, "tags": {"direction": "35", "information": "board", "inscription": "Pozor St\u00e1tn\u00ed hranice", "name": "Pozor St\u00e1tn\u00ed hranice", "tourism": "information"}}, {"type": "node", "id": 11228016309, "lat": 48.6818221, "lon": 14.0294268, "tags": {"information": "board", "inscription": "Pozor St\u00e1tn\u00ed hranice", "name": "Pozor St\u00e1tn\u00ed hranice", "tourism": "information"}}, {"type": "node", "id": 11228022014, "lat": 48.6807026, "lon": 14.0312763, "tags": {"information": "board", "inscription": "Pozor St\u00e1tn\u00ed hranice", "name": "Pozor St\u00e1tn\u00ed hranice", "tourism": "information"}}, {"type": "node", "id": 11228022015, "lat": 48.6797112, "lon": 14.0335489, "tags": {"direction": "100", "information": "board", "inscription": "Pozor St\u00e1tn\u00ed hranice", "name": "Pozor St\u00e1tn\u00ed hranice", "tourism": "information"}}, {"type": "node", "id": 11228542015, "lat": 48.6156234, "lon": 14.0678697, "tags": {"board_type": "history", "information": "board", "name": "N\u011bmeck\u00fd Rychn\u016fvek", "name:de": "Deutsch Reichenau", "tourism": "information"}}, {"type": "node", "id": 11228622613, "lat": 48.6773621, "lon": 14.0374304, "tags": {"direction": "45", "information": "board", "inscription": "Pozor St\u00e1tn\u00ed hranice", "name": "Pozor St\u00e1tn\u00ed hranice", "tourism": "information"}}, {"type": "node", "id": 11228820634, "lat": 48.6527966, "lon": 14.0292219, "tags": {"information": "board", "inscription": "Pozor St\u00e1tn\u00ed hranice", "name": "Pozor St\u00e1tn\u00ed hranice", "tourism": "information"}}, {"type": "node", "id": 11228820635, "lat": 48.6526694, "lon": 14.0241744, "tags": {"direction": "315", "information": "board", "inscription": "Achtung Staatsgrenze", "name": "Achtung Staatsgrenze", "tourism": "information"}}, {"type": "node", "id": 11228864676, "lat": 48.6541861, "lon": 14.035736, "tags": {"board_type": "warning", "direction": "180", "information": "board", "inscription": "POZOR St\u00e1tn\u00ed hranice", "tourism": "information"}}, {"type": "node", "id": 11228865893, "lat": 48.6543373, "lon": 14.0351631, "tags": {"board_type": "warning", "direction": "185", "information": "board", "inscription": "POZOR St\u00e1tn\u00ed hranice", "tourism": "information"}}, {"type": "node", "id": 11228865894, "lat": 48.654348, "lon": 14.035164, "tags": {"direction": "5", "information": "board", "name": "\u010cESK\u00c1 REPUBLIKA", "tourism": "information"}}, {"type": "node", "id": 11229503697, "lat": 48.6478021, "lon": 14.0242813, "tags": {"direction": "90", "information": "board", "inscription": "Pozor St\u00e1tn\u00ed hranice", "name": "Pozor St\u00e1tn\u00ed hranice", "tourism": "information"}}, {"type": "node", "id": 11229568328, "lat": 48.6307818, "lon": 14.0230628, "tags": {"direction": "50", "information": "board", "inscription": "Pozor St\u00e1tn\u00ed hranice", "name": "Pozor St\u00e1tn\u00ed hranice", "tourism": "information"}}, {"type": "node", "id": 11229568329, "lat": 48.6290312, "lon": 14.029205, "tags": {"direction": "5", "information": "board", "inscription": "Pozor St\u00e1tn\u00ed hranice", "name": "Pozor St\u00e1tn\u00ed hranice", "tourism": "information"}}, {"type": "node", "id": 11229576493, "lat": 48.6396627, "lon": 14.0105443, "tags": {"direction": "315", "information": "board", "name": "Achtung Staatsgrenze", "tourism": "information"}}, {"type": "node", "id": 11229576495, "lat": 48.6385273, "lon": 14.0132198, "tags": {"direction": "45", "information": "board", "inscription": "Pozor St\u00e1tn\u00ed hranice", "name": "Pozor St\u00e1tn\u00ed hranice", "tourism": "information"}}, {"type": "node", "id": 11229576497, "lat": 48.6339326, "lon": 14.0205, "tags": {"direction": "60", "information": "board", "inscription": "Pozor St\u00e1tn\u00ed hranice", "name": "Pozor St\u00e1tn\u00ed hranice", "tourism": "information"}}, {"type": "node", "id": 11229576498, "lat": 48.6324995, "lon": 14.0231808, "tags": {"direction": "35", "information": "board", "inscription": "Pozor St\u00e1tn\u00ed hranice", "name": "Pozor St\u00e1tn\u00ed hranice", "tourism": "information"}}, {"type": "node", "id": 11229594844, "lat": 48.6114397, "lon": 14.107881, "tags": {"board_type": "history", "information": "board", "name": "Pase\u010dn\u00e1", "name:de": "Reiterschlag", "tourism": "information"}}, {"type": "node", "id": 11229666745, "lat": 48.6278648, "lon": 14.0340421, "tags": {"direction": "330", "information": "board", "inscription": "Pozor St\u00e1tn\u00ed hranice", "name": "Pozor St\u00e1tn\u00ed hranice", "tourism": "information"}}, {"type": "node", "id": 11229666746, "lat": 48.6279842, "lon": 14.0343872, "tags": {"direction": "215", "information": "board", "inscription": "\u010cesk\u00e1 republika", "name": "\u010cesk\u00e1 republika", "tourism": "information"}}, {"type": "node", "id": 11229721434, "lat": 48.6281129, "lon": 14.0351271, "tags": {"direction": "5", "information": "board", "inscription": "Pozor St\u00e1tn\u00ed hranice", "name": "Pozor St\u00e1tn\u00ed hranice", "tourism": "information"}}, {"type": "node", "id": 11229721435, "lat": 48.6282756, "lon": 14.0394991, "tags": {"direction": "320", "information": "board", "inscription": "Pozor St\u00e1tn\u00ed hranice", "name": "Pozor St\u00e1tn\u00ed hranice", "tourism": "information"}}, {"type": "node", "id": 11229721436, "lat": 48.6287755, "lon": 14.0427982, "tags": {"direction": "10", "information": "board", "inscription": "Pozor St\u00e1tn\u00ed hranice", "name": "Pozor St\u00e1tn\u00ed hranice", "tourism": "information"}}, {"type": "node", "id": 11229745137, "lat": 48.6280473, "lon": 14.0467196, "tags": {"direction": "30", "information": "board", "inscription": "Pozor St\u00e1tn\u00ed hranice", "name": "Pozor St\u00e1tn\u00ed hranice", "tourism": "information"}}, {"type": "node", "id": 11229746305, "lat": 48.6265566, "lon": 14.0479866, "tags": {"direction": "170", "information": "board", "inscription": "Pozor St\u00e1tn\u00ed hranice", "name": "Pozor St\u00e1tn\u00ed hranice", "tourism": "information"}}, {"type": "node", "id": 11229746306, "lat": 48.6222217, "lon": 14.0464297, "tags": {"direction": "100", "information": "board", "inscription": "Pozor St\u00e1tn\u00ed hranice", "name": "Pozor St\u00e1tn\u00ed hranice", "tourism": "information"}}, {"type": "node", "id": 11229746307, "lat": 48.6199066, "lon": 14.0454245, "tags": {"direction": "95", "information": "board", "inscription": "Pozor St\u00e1tn\u00ed hranice", "name": "Pozor St\u00e1tn\u00ed hranice", "tourism": "information"}}, {"type": "node", "id": 11229746308, "lat": 48.6187581, "lon": 14.0450638, "tags": {"direction": "150", "information": "board", "inscription": "Pozor St\u00e1tn\u00ed hranice", "name": "Pozor St\u00e1tn\u00ed hranice", "tourism": "information"}}, {"type": "node", "id": 11229746309, "lat": 48.6188941, "lon": 14.0454909, "tags": {"direction": "315", "information": "board", "inscription": "Achtung Staatsgrenze", "name": "Achtung Staatsgrenze", "tourism": "information"}}, {"type": "node", "id": 11229746310, "lat": 48.6171795, "lon": 14.0409648, "tags": {"direction": "95", "information": "board", "inscription": "Pozor St\u00e1tn\u00ed hranice", "name": "Pozor St\u00e1tn\u00ed hranice", "tourism": "information"}}, {"type": "node", "id": 11229780973, "lat": 48.6128584, "lon": 14.0422837, "tags": {"direction": "20", "information": "board", "inscription": "Pozor St\u00e1tn\u00ed hranice", "name": "Pozor St\u00e1tn\u00ed hranice", "tourism": "information"}}, {"type": "node", "id": 11229788534, "lat": 48.6066464, "lon": 14.0617975, "tags": {"direction": "345", "information": "board", "inscription": "Pozor St\u00e1tn\u00ed hranice", "name": "Pozor St\u00e1tn\u00ed hranice", "tourism": "information"}}, {"type": "node", "id": 11229788535, "lat": 48.6063281, "lon": 14.0654734, "tags": {"direction": "25", "information": "board", "inscription": "Pozor St\u00e1tn\u00ed hranice", "name": "Pozor St\u00e1tn\u00ed hranice", "tourism": "information"}}, {"type": "node", "id": 11229808768, "lat": 48.6112823, "lon": 14.0482221, "tags": {"direction": "20", "information": "board", "inscription": "Pozor St\u00e1tn\u00ed hranice", "name": "Pozor St\u00e1tn\u00ed hranice", "tourism": "information"}}, {"type": "node", "id": 11229808769, "lat": 48.6082373, "lon": 14.051088, "tags": {"direction": "95", "information": "board", "inscription": "Pozor St\u00e1tn\u00ed hranice", "name": "Pozor St\u00e1tn\u00ed hranice", "tourism": "information"}}, {"type": "node", "id": 11229808770, "lat": 48.6044139, "lon": 14.0552784, "tags": {"direction": "0", "information": "board", "inscription": "Pozor St\u00e1tn\u00ed hranice", "name": "Pozor St\u00e1tn\u00ed hranice", "tourism": "information"}}, {"type": "node", "id": 11229808771, "lat": 48.6059046, "lon": 14.0594304, "tags": {"direction": "305", "information": "board", "inscription": "Pozor St\u00e1tn\u00ed hranice", "name": "Pozor St\u00e1tn\u00ed hranice", "tourism": "information"}}, {"type": "node", "id": 11229818496, "lat": 48.6064901, "lon": 14.0697802, "tags": {"direction": "75", "information": "board", "inscription": "Pozor St\u00e1tn\u00ed hranice", "name": "Pozor St\u00e1tn\u00ed hranice", "tourism": "information"}}, {"type": "node", "id": 11229818497, "lat": 48.6042642, "lon": 14.0695496, "tags": {"information": "board", "inscription": "Pozor St\u00e1tn\u00ed hranice", "name": "Pozor St\u00e1tn\u00ed hranice", "tourism": "information"}}, {"type": "node", "id": 11229818498, "lat": 48.6017899, "lon": 14.0666179, "tags": {"direction": "100", "information": "board", "inscription": "Pozor St\u00e1tn\u00ed hranice", "name": "Pozor St\u00e1tn\u00ed hranice", "tourism": "information"}}, {"type": "node", "id": 11229861859, "lat": 48.5990246, "lon": 14.0663378, "tags": {"direction": "95", "information": "board", "inscription": "Pozor St\u00e1tn\u00ed hranice", "name": "Pozor St\u00e1tn\u00ed hranice", "tourism": "information"}}, {"type": "node", "id": 11229861860, "lat": 48.5950392, "lon": 14.067074, "tags": {"direction": "0", "information": "board", "inscription": "Pozor St\u00e1tn\u00ed hranice", "name": "Pozor St\u00e1tn\u00ed hranice", "tourism": "information"}}, {"type": "node", "id": 11229885858, "lat": 48.5977833, "lon": 14.0707095, "tags": {"direction": "300", "information": "board", "inscription": "Pozor St\u00e1tn\u00ed hranice", "name": "Pozor St\u00e1tn\u00ed hranice", "tourism": "information"}}, {"type": "node", "id": 11229885860, "lat": 48.5998879, "lon": 14.0737078, "tags": {"direction": "15", "information": "board", "inscription": "Pozor St\u00e1tn\u00ed hranice", "name": "Pozor St\u00e1tn\u00ed hranice", "tourism": "information"}}, {"type": "node", "id": 11229885861, "lat": 48.599691, "lon": 14.0788711, "tags": {"direction": "0", "information": "board", "inscription": "Pozor St\u00e1tn\u00ed hranice", "name": "Pozor St\u00e1tn\u00ed hranice", "tourism": "information"}}, {"type": "node", "id": 11229885862, "lat": 48.5995686, "lon": 14.0802256, "tags": {"direction": "355", "information": "board", "inscription": "Pozor St\u00e1tn\u00ed hranice", "name": "Pozor St\u00e1tn\u00ed hranice", "tourism": "information"}}, {"type": "node", "id": 11229885863, "lat": 48.5997801, "lon": 14.084033, "tags": {"direction": "10", "information": "board", "inscription": "Pozor St\u00e1tn\u00ed hranice", "name": "Pozor St\u00e1tn\u00ed hranice", "tourism": "information"}}, {"type": "node", "id": 11229886190, "lat": 48.6001016, "lon": 14.0857825, "tags": {"information": "board", "inscription": "Pozor St\u00e1tn\u00ed hranice", "name": "Pozor St\u00e1tn\u00ed hranice", "tourism": "information"}}, {"type": "node", "id": 11229886191, "lat": 48.5992351, "lon": 14.0929533, "tags": {"direction": "20", "information": "board", "inscription": "Pozor St\u00e1tn\u00ed hranice", "name": "Pozor St\u00e1tn\u00ed hranice", "tourism": "information"}}, {"type": "node", "id": 11229886192, "lat": 48.5990648, "lon": 14.09467, "tags": {"information": "board", "inscription": "Pozor St\u00e1tn\u00ed hranice", "name": "Pozor St\u00e1tn\u00ed hranice", "tourism": "information"}}, {"type": "node", "id": 11230008642, "lat": 48.598295, "lon": 14.0981475, "tags": {"information": "board", "inscription": "Pozor St\u00e1tn\u00ed hranice", "name": "Pozor St\u00e1tn\u00ed hranice", "tourism": "information"}}, {"type": "node", "id": 11230008643, "lat": 48.5962968, "lon": 14.0975963, "tags": {"direction": "100", "information": "board", "inscription": "Pozor St\u00e1tn\u00ed hranice", "name": "Pozor St\u00e1tn\u00ed hranice", "tourism": "information"}}, {"type": "node", "id": 11230008646, "lat": 48.5923257, "lon": 14.095748, "tags": {"direction": "75", "information": "board", "inscription": "Pozor St\u00e1tn\u00ed hranice", "name": "Pozor St\u00e1tn\u00ed hranice", "tourism": "information"}}, {"type": "node", "id": 11230008647, "lat": 48.5910359, "lon": 14.1005157, "tags": {"direction": "15", "information": "board", "inscription": "Pozor St\u00e1tn\u00ed hranice", "name": "Pozor St\u00e1tn\u00ed hranice", "tourism": "information"}}, {"type": "node", "id": 11230008648, "lat": 48.5898436, "lon": 14.1043218, "tags": {"direction": "20", "information": "board", "inscription": "Pozor St\u00e1tn\u00ed hranice", "name": "Pozor St\u00e1tn\u00ed hranice", "tourism": "information"}}, {"type": "node", "id": 11230008649, "lat": 48.5895748, "lon": 14.1068914, "tags": {"direction": "355", "information": "board", "inscription": "Pozor St\u00e1tn\u00ed hranice", "name": "Pozor St\u00e1tn\u00ed hranice", "tourism": "information"}}, {"type": "node", "id": 11230008650, "lat": 48.5894968, "lon": 14.108651, "tags": {"information": "board", "inscription": "Achtung Staatsgrenze", "name": "Achtung Staatsgrenze", "tourism": "information"}}, {"type": "node", "id": 11230008651, "lat": 48.5894397, "lon": 14.1142251, "tags": {"direction": "190", "information": "board", "name": "Achtung Staatsgrenze", "tourism": "information"}}, {"type": "node", "id": 11230681638, "lat": 48.5893885, "lon": 14.1643921, "tags": {"direction": "350", "information": "board", "inscription": "Pozor St\u00e1tn\u00ed hranice", "name": "Pozor St\u00e1tn\u00ed hranice", "tourism": "information"}}, {"type": "node", "id": 11230681639, "lat": 48.5904027, "lon": 14.168472, "tags": {"direction": "155", "information": "board", "name": "Achtung Staatsgrenze", "tourism": "information"}}, {"type": "node", "id": 11230681640, "lat": 48.5909546, "lon": 14.1730279, "tags": {"direction": "310", "information": "board", "inscription": "Pozor St\u00e1tn\u00ed hranice", "name": "Pozor St\u00e1tn\u00ed hranice", "tourism": "information"}}, {"type": "node", "id": 11230681641, "lat": 48.5914106, "lon": 14.1757959, "tags": {"direction": "185", "information": "board", "name": "\u010cesk\u00e1 republika", "tourism": "information"}}, {"type": "node", "id": 11230681642, "lat": 48.5911897, "lon": 14.1759247, "tags": {"direction": "0", "information": "board", "inscription": "Pozor St\u00e1tn\u00ed hranice", "name": "Pozor St\u00e1tn\u00ed hranice", "tourism": "information"}}, {"type": "node", "id": 11230681643, "lat": 48.5911578, "lon": 14.1770244, "tags": {"direction": "0", "information": "board", "inscription": "Pozor St\u00e1tn\u00ed hranice", "name": "Pozor St\u00e1tn\u00ed hranice", "tourism": "information"}}, {"type": "node", "id": 11248541991, "lat": 48.6030289, "lon": 14.1645451, "tags": {"ele": "761", "natural": "peak"}}, {"type": "node", "id": 11248542000, "lat": 48.6004201, "lon": 14.1469294, "tags": {"ele": "810", "natural": "peak"}}, {"type": "node", "id": 11248542006, "lat": 48.6023692, "lon": 14.1267874, "tags": {"ele": "828", "natural": "peak"}}, {"type": "node", "id": 11262841822, "lat": 48.7141957, "lon": 14.0348174, "tags": {"information": "board", "name": "Pam\u00e1tn\u00e9 stromy", "tourism": "information"}}, {"type": "node", "id": 11263200398, "lat": 48.7155646, "lon": 14.0350269, "tags": {"information": "board", "name": "Ra\u010d\u00ednsk\u00e1 prameni\u0161t\u011b", "tourism": "information"}}, {"type": "node", "id": 11296251725, "lat": 48.6775969, "lon": 14.0348776, "tags": {"board_type": "warning", "direction": "0", "information": "board", "inscription": "POZOR St\u00e1tn\u00ed hranice", "tourism": "information"}}, {"type": "node", "id": 11296277314, "lat": 48.6769991, "lon": 14.0390203, "tags": {"board_type": "warning", "direction": "65", "information": "board", "inscription": "POZOR St\u00e1tn\u00ed hranice", "tourism": "information"}}, {"type": "node", "id": 11297516836, "lat": 48.646112, "lon": 14.0234086, "tags": {"direction": "85", "information": "board", "inscription": "Pozor St\u00e1tn\u00ed hranice", "name": "Pozor St\u00e1tn\u00ed hranice", "tourism": "information"}}, {"type": "node", "id": 11297516837, "lat": 48.6449743, "lon": 14.0218643, "tags": {"direction": "150", "information": "board", "inscription": "Pozor St\u00e1tn\u00ed hranice", "name": "Pozor St\u00e1tn\u00ed hranice", "tourism": "information"}}, {"type": "node", "id": 11297516838, "lat": 48.6429965, "lon": 14.0167573, "tags": {"direction": "130", "information": "board", "inscription": "Pozor St\u00e1tn\u00ed hranice", "name": "Pozor St\u00e1tn\u00ed hranice", "tourism": "information"}}, {"type": "node", "id": 11297638105, "lat": 48.6349686, "lon": 14.0196714, "tags": {"direction": "75", "information": "board", "inscription": "Pozor St\u00e1tn\u00ed hranice", "name": "Pozor St\u00e1tn\u00ed hranice", "tourism": "information"}}, {"type": "node", "id": 11297638106, "lat": 48.6267978, "lon": 14.0301629, "tags": {"direction": "95", "information": "board", "name": "Pozor St\u00e1tn\u00ed hranice", "tourism": "information"}}, {"type": "node", "id": 11303169218, "lat": 48.5901873, "lon": 14.1712444, "tags": {"direction": "155", "information": "board", "name": "Achtung Staatsgrenze", "tourism": "information"}}, {"type": "node", "id": 11669507732, "lat": 48.6429618, "lon": 14.1049129, "tags": {"board_type": "history", "information": "board", "name": "Svat\u00fd Tom\u00e1\u0161", "tourism": "information"}}, {"type": "node", "id": 11833945490, "lat": 48.585309, "lon": 14.0588724}, {"type": "node", "id": 11833945491, "lat": 48.585271, "lon": 14.0588743}, {"type": "node", "id": 11833945492, "lat": 48.5852771, "lon": 14.0589521}, {"type": "node", "id": 11833945493, "lat": 48.5853102, "lon": 14.0589429}, {"type": "node", "id": 11881625346, "lat": 48.6752375, "lon": 14.0344962, "tags": {"information": "guidepost", "tourism": "information"}}, {"type": "node", "id": 11881625355, "lat": 48.6719391, "lon": 14.0296823, "tags": {"information": "guidepost", "tourism": "information"}}, {"type": "node", "id": 11881625356, "lat": 48.6721127, "lon": 14.0293516, "tags": {"information": "guidepost", "tourism": "information"}}, {"type": "node", "id": 11881790534, "lat": 48.6719913, "lon": 14.0683965, "tags": {"information": "guidepost", "tourism": "information"}}, {"type": "node", "id": 11881790535, "lat": 48.6723574, "lon": 14.0690576, "tags": {"information": "guidepost", "tourism": "information"}}, {"type": "node", "id": 11881803880, "lat": 48.6082043, "lon": 14.1039407, "tags": {"information": "guidepost", "tourism": "information"}}, {"type": "node", "id": 11881803904, "lat": 48.6031824, "lon": 14.1171047, "tags": {"information": "board", "name": "Anton\u00edn M\u011bs\u00ed\u010dek", "tourism": "information"}}, {"type": "node", "id": 11881803945, "lat": 48.5985568, "lon": 14.1471231, "tags": {"amenity": "shelter", "shelter_type": "picnic_shelter"}}, {"type": "node", "id": 11881803951, "lat": 48.6020252, "lon": 14.1742343, "tags": {"information": "guidepost", "tourism": "information"}}, {"type": "node", "id": 11881803952, "lat": 48.6023993, "lon": 14.173776, "tags": {"information": "guidepost", "tourism": "information"}}, {"type": "node", "id": 11881803982, "lat": 48.600596, "lon": 14.1762866, "tags": {"information": "guidepost", "tourism": "information"}}, {"type": "node", "id": 11883296213, "lat": 48.71121, "lon": 14.1570891, "tags": {"board_type": "warning", "information": "board", "name": "POZOR! Nach\u00e1z\u00edte se v oblasti v\u00fdskytu vlka obecn\u00e9ho.", "tourism": "information"}}, {"type": "node", "id": 11897268495, "lat": 48.7334196, "lon": 14.11841, "tags": {"amenity": "shelter", "bench": "yes", "lit": "no", "shelter_type": "gazebo"}}, {"type": "node", "id": 12062776105, "lat": 48.664185, "lon": 14.1688807, "tags": {"board_type": "sport", "information": "board", "name": "MTB traily m\u011bstyse Frymburk", "tourism": "information"}}, {"type": "node", "id": 12062779241, "lat": 48.6633343, "lon": 14.1679338, "tags": {"information": "map", "map_size": "region", "map_type": "topo", "name": "Turistick\u00e9 trasy Lipno n. Vltavou - Frymburk", "tourism": "information"}}, {"type": "node", "id": 12200003829, "lat": 48.6756656, "lon": 14.1683142, "tags": {"information": "map", "name": "MTB traily Frymburku", "tourism": "information"}}, {"type": "node", "id": 12702444268, "lat": 48.7450522, "lon": 14.1191135, "tags": {"board_type": "nature", "information": "board", "tourism": "information"}}, {"type": "node", "id": 12946027846, "lat": 48.7392525, "lon": 14.1106137, "tags": {"board_type": "information", "information": "board", "name": "Cyklostezka", "tourism": "information"}}, {"type": "node", "id": 13121292227, "lat": 48.6570007, "lon": 14.1775094, "tags": {"information": "map", "map_size": "landscape", "map_type": "toposcope", "tourism": "information"}}, {"type": "node", "id": 13121296818, "lat": 48.6570002, "lon": 14.1775311, "tags": {"tourism": "viewpoint"}}, {"type": "node", "id": 13184994100, "lat": 48.6280281, "lon": 14.0343018, "tags": {"ele": "740", "hiking": "yes", "information": "guidepost", "name": "Doln\u00ed Hrani\u010dn\u00e1", "operator": "cz:K\u010cT", "tourism": "information"}}, {"type": "node", "id": 13241106172, "lat": 48.6079744, "lon": 14.1076747, "tags": {"information": "nma", "tourism": "information"}}, {"type": "node", "id": 13270966837, "lat": 48.5894284, "lon": 14.1070208, "tags": {"board_type": "history", "information": "board", "name": "Schwedenschanze", "name:cs": "\u0160v\u00e9dsk\u00e9 \u0161ance", "tourism": "information"}}, {"type": "node", "id": 13270966845, "lat": 48.5998588, "lon": 14.084179, "tags": {"information": "map", "tourism": "information"}}, {"type": "node", "id": 13270966848, "lat": 48.6021182, "lon": 14.0849951, "tags": {"information": "map", "tourism": "information"}}, {"type": "node", "id": 13281215366, "lat": 48.6420268, "lon": 14.1456525, "tags": {"amenity": "shelter", "shelter_type": "picnic_shelter"}}, {"type": "way", "id": 83890120, "nodes": [3368185816, 3368185817, 976471886, 976471863, 976471844, 976471877, 3368185815, 3368185814, 3368185816], "tags": {"addr:city": "St. Stefan-Afiesl", "addr:country": "AT", "addr:housenumber": "18", "addr:place": "Oberafiesl", "addr:postcode": "4184", "building": "yes", "ele": "840", "email": "huette@avrohrbach.onmicrosoft.com", "fee": "yes", "image": "https://www.alpenverein.at/rohrbach_wAssets/img/galleries/alben/14_Helfenberger_Huette/2014_04_05_Huette_Praesentationsfotos/Helfenberger_Huette_01.jpg", "internet_access": "wlan", "internet_access:fee": "customers", "massif": "Ausseralpine Gebiete - \u00d6sterr.", "name": "Helfenberger H\u00fctte", "operator": "\u00d6sterreichischer Alpenverein, Sektion Rohrbach", "reservation": "required", "source": "geoimage.at", "tourism": "alpine_hut", "website": "https://www.alpenverein.at/rohrbach/kontakt/Huette/index.php"}}, {"type": "way", "id": 477456798, "nodes": [4708089624, 4708089621, 4708089622, 4708089623, 4708089624], "tags": {"amenity": "shelter", "shelter_type": "public_transport"}}, {"type": "way", "id": 554551080, "nodes": [5351605242, 5351605241, 5351605240, 5351605239, 5351605242], "tags": {"amenity": "shelter", "building": "yes"}}, {"type": "way", "id": 583867911, "nodes": [5581829039, 5581829038, 5581829037, 5581829036, 5581829039], "tags": {"amenity": "shelter", "building": "yes"}}, {"type": "way", "id": 1026037784, "nodes": [9459895959, 9459895960, 9459895961, 9459895962, 9459895959], "tags": {"amenity": "shelter", "building": "yes", "shelter_type": "lean_to"}}, {"type": "way", "id": 1026457325, "nodes": [9463651872, 9463651873, 9463651874, 9463651875, 9463651872], "tags": {"amenity": "shelter", "building": "yes", "name": "Robert Baldassari H\u00fctte"}}, {"type": "way", "id": 1175394146, "nodes": [10922209154, 10922209155, 10922209156, 10922209157, 10922209154], "tags": {"amenity": "shelter", "building": "yes"}}, {"type": "way", "id": 1274516822, "nodes": [11833945490, 11833945491, 11833945492, 11833945493, 11833945490], "tags": {"amenity": "shelter", "building": "shed"}}]}