{"version": 0.6, "generator": "Overpass API 0.7.62.8 e802775f", "osm3s": {"timestamp_osm_base": "2026-01-05T15:31:00Z", "copyright": "The data included in this document is from www.openstreetmap.org. The data is made available under ODbL."}, "elements": [{"type": "node", "id": 393949955, "lat": 49.5890718, "lon": 12.7045576, "tags": {"ele": "450", "hiking": "yes", "information": "guidepost", "name": "B\u011bl\u00e1 n. Radbuzou (rozc.)", "operator": "cz:K\u010cT", "ref": "DO102", "tourism": "information"}}, {"type": "node", "id": 394859322, "lat": 49.5652254, "lon": 12.6589906, "tags": {"ele": "482", "hiking": "yes", "information": "guidepost", "name": "Nov\u00fd Dv\u016fr - Pila", "name:cs": "Nov\u00fd Dv\u016fr - Pila", "operator": "cz:K\u010cT", "place": "locality", "ref": "DO178", "tourism": "information"}}, {"type": "node", "id": 394913880, "lat": 49.5912377, "lon": 12.7173601, "tags": {"ele": "442", "hiking": "yes", "information": "guidepost", "name": "B\u011bl\u00e1 nad Radbuzou", "operator": "cz:K\u010cT", "ref": "DO103", "tourism": "information"}}, {"type": "node", "id": 394913889, "lat": 49.5890591, "lon": 12.720916, "tags": {"ele": "455", "hiking": "yes", "information": "guidepost", "name": "B\u011bl\u00e1 n. Radb. (\u017dST)", "operator": "cz:K\u010cT", "ref": "DO104", "tourism": "information"}}, {"type": "node", "id": 444841658, "lat": 49.6359856, "lon": 12.7787073, "tags": {"ele": "463", "hiking": "yes", "information": "guidepost", "name": "Borek u Tachova (rozc.)", "operator": "cz:K\u010cT", "ref": "6705/7;TC157", "tourism": "information"}}, {"type": "node", "id": 444841672, "lat": 49.6348689, "lon": 12.7680865, "tags": {"description": "Rozhledna u obce Bernartice po mod\u0159e zna\u010den\u00e9 trase sm\u011br Borek 4km.", "ele": "468", "hiking": "yes", "information": "guidepost", "name": "Borek u Tachova (\u017est)", "operator": "cz:K\u010cT", "ref": "TC156;1450/0", "tourism": "information"}}, {"type": "node", "id": 444841707, "lat": 49.6343801, "lon": 12.7565166, "tags": {"description": "Rekrea\u010dn\u00ed rybn\u00edk 16 ha zvan\u00fd t\u00e9\u017e Chobot na Dubeck\u00e9m potoce. Autokempink. Srubov\u00e9 a chatov\u00e9 ubytov\u00e1n\u00ed.", "ele": "474", "hiking": "yes", "information": "guidepost", "name": "Sycher\u00e1k, rybn\u00edk", "operator": "cz:K\u010cT", "ref": "TC155;1450/21,5;6705/0", "tourism": "information"}}, {"type": "node", "id": 444848334, "lat": 49.6313973, "lon": 12.722338, "tags": {"description": "Na n\u00e1vr\u0161\u00ed na vsi kostel architekta Michaela P\u0159\u00edp. r. 1384. Dnes barokn\u00ed jednolodn\u00ed.", "ele": "490", "hiking": "yes", "information": "guidepost", "name": "Dubec", "operator": "cz:K\u010cT", "ref": "1400/7,5;TC154", "tourism": "information"}}, {"type": "node", "id": 946082406, "lat": 49.5689636, "lon": 12.6192905, "tags": {"ele": "640", "hiking": "yes", "information": "guidepost", "name": "Valdorf", "operator": "cz:K\u010cT", "ref": "DO099", "source": "survey", "tourism": "information"}}, {"type": "node", "id": 946083098, "lat": 49.5690649, "lon": 12.6195317, "tags": {"amenity": "shelter", "fireplace": "no", "shelter_type": "picnic_shelter"}}, {"type": "node", "id": 956727531, "lat": 49.5991906, "lon": 12.7610109, "tags": {"ele": "662", "name": "\u010cern\u00e1 Hora", "name:cs": "\u010cern\u00e1 Hora", "name:de": "Tschernahora", "natural": "peak"}}, {"type": "node", "id": 1223452720, "lat": 49.6534293, "lon": 12.7385647, "tags": {"ele": "508", "hiking": "yes", "information": "guidepost", "name": "Jadru\u017e", "operator": "cz:K\u010cT", "ref": "TC674", "tourism": "information"}}, {"type": "node", "id": 1223452746, "lat": 49.7099608, "lon": 12.7783342, "tags": {"ele": "470", "hiking": "yes", "information": "guidepost", "name": "Bor (z\u00e1mek)", "operator": "cz:K\u010cT", "ref": "TC508", "tourism": "information"}}, {"type": "node", "id": 1223452752, "lat": 49.7171955, "lon": 12.7779793, "tags": {"ele": "472", "hiking": "yes", "information": "guidepost", "name": "Bor (\u017est)", "operator": "cz:K\u010cT", "ref": "TC507", "tourism": "information"}}, {"type": "node", "id": 1223452765, "lat": 49.6398839, "lon": 12.6642883, "tags": {"ele": "675", "hiking": "yes", "information": "guidepost", "name": "Svat\u00e1 Apolena", "operator": "cz:K\u010cT", "ref": "TC528", "tourism": "information"}}, {"type": "node", "id": 1223452780, "lat": 49.6691696, "lon": 12.7732826, "tags": {"ele": "440", "information": "guidepost", "name": "Str\u00e1\u017e u Tachova (n\u00e1m)", "tourism": "information"}}, {"type": "node", "id": 1247415294, "lat": 49.6653896, "lon": 12.6224386, "tags": {"ele": "580", "hiking": "yes", "information": "guidepost", "name": "Mil\u00ed\u0159e", "operator": "cz:K\u010cT", "ref": "TC147", "tourism": "information"}}, {"type": "node", "id": 1247415378, "lat": 49.6652685, "lon": 12.6224199, "tags": {"man_made": "tower", "name": "Mil\u00ed\u0159e u Rozvadova", "tourism": "viewpoint", "tower:construction": "lattice", "tower:type": "observation"}}, {"type": "node", "id": 1247415392, "lat": 49.6498975, "lon": 12.7807253, "tags": {"ele": "450", "hiking": "yes", "information": "guidepost", "name": "Valcha", "operator": "cz:K\u010cT", "ref": "TC671", "tourism": "information"}}, {"type": "node", "id": 1247415454, "lat": 49.6619168, "lon": 12.7939948, "tags": {"ele": "442", "hiking": "yes", "information": "guidepost", "name": "Hamr", "operator": "cz:K\u010cT", "ref": "TC673", "tourism": "information"}}, {"type": "node", "id": 1247415635, "lat": 49.6628451, "lon": 12.6598945, "tags": {"ele": "681", "hiking": "yes", "information": "guidepost", "name": "Pod Ov\u010d\u00edm kopcem", "operator": "cz:K\u010cT", "ref": "TC148", "tourism": "information"}}, {"type": "node", "id": 1247415690, "lat": 49.6510058, "lon": 12.66351, "tags": {"ele": "742", "hiking": "yes", "information": "guidepost", "name": "U k\u0159\u00ed\u017eku", "operator": "cz:K\u010cT", "ref": "TC527", "tourism": "information"}}, {"type": "node", "id": 1347102072, "lat": 49.6670852, "lon": 12.6770281, "tags": {"tourism": "viewpoint"}}, {"type": "node", "id": 1899850773, "lat": 49.6495409, "lon": 12.6878965}, {"type": "node", "id": 1899850775, "lat": 49.6495092, "lon": 12.6877845}, {"type": "node", "id": 1996871330, "lat": 49.7103851, "lon": 12.6673944, "tags": {"ele": "525", "hiking": "yes", "information": "guidepost", "name": "Labu\u0165", "operator": "cz:K\u010cT", "ref": "TC525", "tourism": "information"}}, {"type": "node", "id": 1996871334, "lat": 49.730971, "lon": 12.6769591, "tags": {"ele": "509", "hiking": "yes", "information": "guidepost", "name": "Nov\u00e9 Sedli\u0161t\u011b", "operator": "cz:K\u010cT", "ref": "TC523", "tourism": "information"}}, {"type": "node", "id": 1996871335, "lat": 49.6743657, "lon": 12.6757555, "tags": {"ele": "679", "hiking": "yes", "information": "guidepost", "name": "P\u0159imda (n\u00e1m\u011bst\u00ed)", "official_name": "P\u0159imda (n\u00e1m.)", "operator": "cz:K\u010cT", "ref": "TC150", "tourism": "information"}}, {"type": "node", "id": 1996871336, "lat": 49.7435802, "lon": 12.6949124, "tags": {"information": "guidepost", "name": "Star\u00e9 Sedli\u0161t\u011b (n\u00e1m)", "tourism": "information"}}, {"type": "node", "id": 1996871339, "lat": 49.7394275, "lon": 12.7008054, "tags": {"ele": "505", "hiking": "yes", "information": "guidepost", "name": "Star\u00e9 Sedli\u0161t\u011b (\u017est)", "operator": "cz:K\u010cT", "ref": "TC521", "tourism": "information"}}, {"type": "node", "id": 2349956117, "lat": 49.5653445, "lon": 12.7538906, "tags": {"amenity": "shelter", "shelter_type": "weather_shelter"}}, {"type": "node", "id": 2359332966, "lat": 49.5663743, "lon": 12.713438, "tags": {"ele": "570", "information": "guidepost", "name": "Hle\u010fsebe (myslivna)", "tourism": "information"}}, {"type": "node", "id": 2359332976, "lat": 49.5599154, "lon": 12.7716581, "tags": {"ele": "450", "hiking": "yes", "information": "guidepost", "name": "Hostou\u0148", "operator": "cz:K\u010cT", "ref": "DO182", "tourism": "information"}}, {"type": "node", "id": 2359332980, "lat": 49.5782874, "lon": 12.6358714, "tags": {"ele": "540", "hiking": "yes", "information": "guidepost", "name": "Karlova Hu\u0165", "operator": "cz:K\u010cT", "ref": "DO100", "tourism": "information"}}, {"type": "node", "id": 2359332983, "lat": 49.5796752, "lon": 12.792826, "tags": {"ele": "450", "hiking": "yes", "information": "guidepost", "name": "M\u00edrkovice", "operator": "cz:K\u010cT", "ref": "DO261", "tourism": "information"}}, {"type": "node", "id": 2359332993, "lat": 49.6110279, "lon": 12.7994674, "tags": {"ele": "530", "hiking": "yes", "information": "guidepost", "name": "P\u0159es", "operator": "cz:K\u010cT", "ref": "DO183", "tourism": "information"}}, {"type": "node", "id": 2359332996, "lat": 49.581035, "lon": 12.6655963, "tags": {"ele": "475", "hiking": "yes", "information": "guidepost", "name": "Smolov", "operator": "cz:K\u010cT", "ref": "DO101", "tourism": "information"}}, {"type": "node", "id": 2359333001, "lat": 49.5812086, "lon": 12.7159697, "tags": {"ele": "485", "hiking": "yes", "information": "guidepost", "name": "U \u010cern\u00e9ho rybn\u00edka (rozcest\u00ed)", "operator": "cz:K\u010cT", "ref": "DO180", "tourism": "information"}}, {"type": "node", "id": 2359333004, "lat": 49.5762253, "lon": 12.7451476, "tags": {"ele": "435", "hiking": "yes", "information": "guidepost", "name": "\u00dajezd Svat\u00e9ho K\u0159\u00ed\u017ee", "operator": "cz:K\u010cT", "ref": "DO181", "tourism": "information"}}, {"type": "node", "id": 2361224756, "lat": 49.5856158, "lon": 12.7637574, "tags": {"ele": "564", "name": "Z\u00e1meck\u00fd vrch", "name:cs": "Z\u00e1meck\u00fd vrch", "name:de": "Schlossberg", "natural": "peak"}}, {"type": "node", "id": 2364636059, "lat": 49.6236568, "lon": 12.6770034, "tags": {"ele": "601", "name": "\u010capka", "natural": "peak"}}, {"type": "node", "id": 2364636065, "lat": 49.6111726, "lon": 12.6659313, "tags": {"ele": "739", "name": "Kamenn\u00fd vrch", "name:cs": "Kamenn\u00fd vrch", "natural": "peak"}}, {"type": "node", "id": 2366082845, "lat": 49.7453727, "lon": 12.6947643, "tags": {"bicycle": "yes", "hiking": "yes", "information": "map", "map_size": "region", "map_type": "topo", "tourism": "information"}}, {"type": "node", "id": 2409132958, "lat": 49.6258181, "lon": 12.6982998, "tags": {"amenity": "shelter", "shelter_type": "picnic_shelter"}}, {"type": "node", "id": 2626252677, "lat": 49.7055364, "lon": 12.7708454}, {"type": "node", "id": 2626252678, "lat": 49.7055368, "lon": 12.7709703}, {"type": "node", "id": 2626252724, "lat": 49.7058271, "lon": 12.7708458}, {"type": "node", "id": 2626252725, "lat": 49.7058262, "lon": 12.7709637}, {"type": "node", "id": 2626265806, "lat": 49.7173909, "lon": 12.7782924}, {"type": "node", "id": 2626265809, "lat": 49.7175244, "lon": 12.7783197}, {"type": "node", "id": 2889297105, "lat": 49.5672213, "lon": 12.6399155, "tags": {"ele": "690.3", "name": "Muflon\u00ed vrch", "name:cs": "Muflon\u00ed vrch", "name:de": "Kuhberg", "natural": "peak", "source": "cuzk:km"}}, {"type": "node", "id": 2993996361, "lat": 49.576061, "lon": 12.6340473}, {"type": "node", "id": 2993996362, "lat": 49.5761037, "lon": 12.6339287}, {"type": "node", "id": 2993996363, "lat": 49.5761819, "lon": 12.6341577}, {"type": "node", "id": 2993996364, "lat": 49.5762269, "lon": 12.6340373}, {"type": "node", "id": 3643413581, "lat": 49.6879301, "lon": 12.781585}, {"type": "node", "id": 3643413582, "lat": 49.6879185, "lon": 12.781523}, {"type": "node", "id": 3643413583, "lat": 49.6880068, "lon": 12.7815495}, {"type": "node", "id": 3643413584, "lat": 49.6879954, "lon": 12.7814896}, {"type": "node", "id": 3771372013, "lat": 49.654045, "lon": 12.7953231}, {"type": "node", "id": 3771372014, "lat": 49.6540722, "lon": 12.795254}, {"type": "node", "id": 3771372015, "lat": 49.6540953, "lon": 12.7954028}, {"type": "node", "id": 3771372016, "lat": 49.6540943, "lon": 12.7954016}, {"type": "node", "id": 3771372017, "lat": 49.6540961, "lon": 12.7954086}, {"type": "node", "id": 3771372018, "lat": 49.6540974, "lon": 12.7954141}, {"type": "node", "id": 3771372019, "lat": 49.6540993, "lon": 12.7954192}, {"type": "node", "id": 3771372020, "lat": 49.6541029, "lon": 12.7953809}, {"type": "node", "id": 3771372021, "lat": 49.6541017, "lon": 12.7954237}, {"type": "node", "id": 3771372022, "lat": 49.6541045, "lon": 12.7954277}, {"type": "node", "id": 3771372023, "lat": 49.6541077, "lon": 12.7954309}, {"type": "node", "id": 3771372024, "lat": 49.6541112, "lon": 12.7954332}, {"type": "node", "id": 3771372025, "lat": 49.6541148, "lon": 12.7954347}, {"type": "node", "id": 3771372026, "lat": 49.6541186, "lon": 12.7954353}, {"type": "node", "id": 3771372027, "lat": 49.6541224, "lon": 12.795435}, {"type": "node", "id": 3771372028, "lat": 49.6541264, "lon": 12.7951377}, {"type": "node", "id": 3771372029, "lat": 49.6541625, "lon": 12.7953478}, {"type": "node", "id": 3771372030, "lat": 49.6541784, "lon": 12.7953635}, {"type": "node", "id": 3771372031, "lat": 49.6541854, "lon": 12.7952922}, {"type": "node", "id": 3771372032, "lat": 49.6542017, "lon": 12.7953084}, {"type": "node", "id": 3771372033, "lat": 49.6542137, "lon": 12.7952246}, {"type": "node", "id": 4589509922, "lat": 49.664076, "lon": 12.6776494, "tags": {"ele": "756.6", "name": "\u0160iben\u00edk", "name:de": "Galgenberg", "natural": "peak", "wikidata": "Q116695591"}}, {"type": "node", "id": 5048878294, "lat": 49.6903089, "lon": 12.6917258, "tags": {"FIXME": "correct position", "ele": "650.5", "name": "Jalovcov\u00fd vrch", "name:de": "Grammelberg", "natural": "peak", "source": "cuzk:km"}}, {"type": "node", "id": 5306250774, "lat": 49.6795435, "lon": 12.6668624, "tags": {"board_type": "history", "information": "board", "tourism": "information"}}, {"type": "node", "id": 5306250776, "lat": 49.680698, "lon": 12.6688008, "tags": {"board_type": "history", "information": "board", "tourism": "information"}}, {"type": "node", "id": 5306277102, "lat": 49.6797955, "lon": 12.6668109, "tags": {"tourism": "viewpoint"}}, {"type": "node", "id": 5358534946, "lat": 49.6947016, "lon": 12.6838392, "tags": {"ele": "576", "hiking": "yes", "information": "guidepost", "name": "\u00dajezd pod P\u0159imdou", "operator": "cz:K\u010cT", "ref": "TC526", "tourism": "information"}}, {"type": "node", "id": 5358705634, "lat": 49.6497509, "lon": 12.634213, "tags": {"ele": "555", "hiking": "yes", "information": "guidepost", "name": "Apolensk\u00fd p\u0159\u00edkop", "operator": "cz:K\u010cT", "ref": "TC691", "tourism": "information"}}, {"type": "node", "id": 5358780673, "lat": 49.628775, "lon": 12.6456177, "tags": {"ele": "595", "hiking": "yes", "information": "guidepost", "name": "Nov\u00e1 Ves", "operator": "cz:K\u010cT", "ref": "TC093", "tourism": "information"}}, {"type": "node", "id": 5358780679, "lat": 49.6176337, "lon": 12.6610941, "tags": {"ele": "630", "hiking": "yes", "information": "guidepost", "name": "Nad rybn\u00ed\u010dkem", "operator": "cz:K\u010cT", "ref": "TC092", "tourism": "information"}}, {"type": "node", "id": 5358780720, "lat": 49.6257101, "lon": 12.7007747, "tags": {"ele": "500", "hiking": "yes", "information": "guidepost", "name": "t\u0159eme\u0161n\u00e9", "operator": "cz:K\u010cT", "ref": "TC074", "tourism": "information"}}, {"type": "node", "id": 5358782445, "lat": 49.6481636, "lon": 12.6793384, "tags": {"ele": "570", "hiking": "yes", "information": "guidepost", "name": "M\u00e1lkov", "operator": "cz:K\u010cT", "ref": "TC094", "tourism": "information"}}, {"type": "node", "id": 5358782446, "lat": 49.6444226, "lon": 12.6899922, "tags": {"ele": "570", "hiking": "yes", "information": "guidepost", "name": "Pod R\u00e1jovem", "operator": "cz:K\u010cT", "ref": "TC095", "tourism": "information"}}, {"type": "node", "id": 5358818071, "lat": 49.652262, "lon": 12.7381915, "tags": {"ele": "508", "hiking": "yes", "information": "guidepost", "name": "Jadru\u017e", "operator": "cz:K\u010cT", "ref": "TC674", "tourism": "information"}}, {"type": "node", "id": 5360445941, "lat": 49.7299616, "lon": 12.7838749, "tags": {"ele": "476", "hiking": "yes", "information": "guidepost", "name": "\u010ce\u010dkovice", "operator": "cz:K\u010cT", "ref": "TC506", "tourism": "information"}}, {"type": "node", "id": 5398243615, "lat": 49.6934246, "lon": 12.7673364, "tags": {"ele": "482", "hiking": "yes", "information": "guidepost", "name": "\u00daho\u0159\u00ed rybn\u00edk", "operator": "cz:K\u010cT", "ref": "TC509", "tourism": "information"}}, {"type": "node", "id": 5398282791, "lat": 49.6436517, "lon": 12.7877038}, {"type": "node", "id": 5398282792, "lat": 49.6436457, "lon": 12.7876901}, {"type": "node", "id": 5398282793, "lat": 49.6436234, "lon": 12.7877133}, {"type": "node", "id": 5398282794, "lat": 49.6436817, "lon": 12.7878464}, {"type": "node", "id": 5398282795, "lat": 49.6437994, "lon": 12.7877242}, {"type": "node", "id": 5398282796, "lat": 49.6437831, "lon": 12.7876868}, {"type": "node", "id": 5398282797, "lat": 49.643798, "lon": 12.7876714}, {"type": "node", "id": 5398282798, "lat": 49.6437787, "lon": 12.7876272}, {"type": "node", "id": 5398282799, "lat": 49.6437637, "lon": 12.7876427}, {"type": "node", "id": 5398282800, "lat": 49.6437472, "lon": 12.7876048}, {"type": "node", "id": 5403555312, "lat": 49.5759721, "lon": 12.6942891, "tags": {"ele": "510", "hiking": "yes", "information": "guidepost", "name": "Lesn\u00ed rozcest\u00ed", "operator": "cz:K\u010cT", "ref": "DO179", "tourism": "information"}}, {"type": "node", "id": 5631258019, "lat": 49.6977068, "lon": 12.7341326, "tags": {"fixme": "aircraft type", "historic": "aircraft", "name": "jet", "tourism": "attraction"}}, {"type": "node", "id": 5975254909, "lat": 49.6656143, "lon": 12.6568597, "tags": {"ele": "705.4", "natural": "peak", "source": "cuzk:km"}}, {"type": "node", "id": 5975254910, "lat": 49.6656322, "lon": 12.6528014, "tags": {"ele": "705.5", "name": "Ov\u010d\u00ed kopec", "name:de": "Schafberg", "natural": "peak", "source": "cuzk:km"}}, {"type": "node", "id": 5975254911, "lat": 49.6580924, "lon": 12.6595272, "tags": {"ele": "720", "name": "P\u0161eni\u010dn\u00fd vrch", "name:de": "Weitzenberg", "natural": "peak", "source": "cuzk:km"}}, {"type": "node", "id": 5975254912, "lat": 49.6696985, "lon": 12.6391078, "tags": {"ele": "650.5", "name": "\u017didovsk\u00e1 str\u00e1\u0148", "name:de": "Judenrang", "natural": "peak", "source": "cuzk:km"}}, {"type": "node", "id": 5975254913, "lat": 49.6643857, "lon": 12.6281098, "tags": {"ele": "631.3", "name": "Tom\u00e1\u0161ka", "name:de": "Damasker Berg", "natural": "peak", "source": "cuzk:km"}}, {"type": "node", "id": 5975298575, "lat": 49.6480257, "lon": 12.6663342, "tags": {"ele": "760.9", "name": "M\u00e1lkovsk\u00fd vrch", "name:de": "Molgauberg", "natural": "peak", "source": "cuzk:km"}}, {"type": "node", "id": 5975327258, "lat": 49.682183, "lon": 12.6857171, "tags": {"ele": "708.5", "name": "L\u00edskov\u00fd vrch", "name:de": "Pechlb\u00fchl", "natural": "peak", "source": "cuzk:km"}}, {"type": "node", "id": 5975339001, "lat": 49.653158, "lon": 12.6335135, "tags": {"ele": "615.6", "name": "Such\u00fd kopec", "name:de": "D\u00fcrrenberg", "natural": "peak", "source": "cuzk:km"}}, {"type": "node", "id": 5975339002, "lat": 49.6524674, "lon": 12.6410252, "tags": {"ele": "625.2", "name": "Na V\u00fdhledech", "name:de": "Egerrang", "natural": "peak", "source": "cuzk:km"}}, {"type": "node", "id": 5975926294, "lat": 49.6891291, "lon": 12.6917956, "tags": {"ele": "648.7", "natural": "peak", "source": "cuzk:km"}}, {"type": "node", "id": 5975926311, "lat": 49.6764068, "lon": 12.711833, "tags": {"ele": "583.1", "name": "K\u0159\u00ed\u017eov\u00fd vrch", "name:de": "Dreikreuzberg", "natural": "peak", "source": "cuzk:km"}}, {"type": "node", "id": 5997599211, "lat": 49.5723309, "lon": 12.6451262, "tags": {"ele": "662", "name": "Dlouh\u00fd vrch", "name:de": "Rutschberg", "natural": "peak", "source": "\u010c\u00daZK"}}, {"type": "node", "id": 6378678734, "lat": 49.5652498, "lon": 12.6590817, "tags": {"fixme": "exact location", "hiking": "yes", "information": "guidepost", "name": "Nov\u00fd Dv\u016fr (pila)", "ref": "DO178", "tourism": "information"}}, {"type": "node", "id": 6437945830, "lat": 49.6541261, "lon": 12.7954337}, {"type": "node", "id": 6437945883, "lat": 49.6355943, "lon": 12.7787396}, {"type": "node", "id": 6437945884, "lat": 49.6356104, "lon": 12.7787768}, {"type": "node", "id": 6437946085, "lat": 49.6356443, "lon": 12.7787432}, {"type": "node", "id": 6437946086, "lat": 49.6356286, "lon": 12.7787058}, {"type": "node", "id": 6517840575, "lat": 49.5593916, "lon": 12.7132795}, {"type": "node", "id": 6517840576, "lat": 49.5593621, "lon": 12.7132462}, {"type": "node", "id": 6517840577, "lat": 49.5593286, "lon": 12.7132691}, {"type": "node", "id": 6517840578, "lat": 49.5593247, "lon": 12.7133252}, {"type": "node", "id": 6517840579, "lat": 49.5593543, "lon": 12.7133584}, {"type": "node", "id": 6517840580, "lat": 49.5593878, "lon": 12.7133356}, {"type": "node", "id": 6517869433, "lat": 49.6229444, "lon": 12.6914544, "tags": {"amenity": "shelter", "shelter_type": "picnic_shelter"}}, {"type": "node", "id": 6567669014, "lat": 49.6819417, "lon": 12.6121624, "tags": {"ele": "593", "name": "Skl\u00e1rensk\u00fd vrch", "name:de": "Antenb\u00fchl", "natural": "peak"}}, {"type": "node", "id": 6773974761, "lat": 49.6051645, "lon": 12.7232938, "tags": {"amenity": "shelter"}}, {"type": "node", "id": 7657214683, "lat": 49.5598979, "lon": 12.7721429, "tags": {"board_type": "history", "information": "board", "tourism": "information"}}, {"type": "node", "id": 7695092061, "lat": 49.7415661, "lon": 12.6044082, "tags": {"ele": "678", "name": "Brtn\u00edk", "name:de": "Zeidelberg", "natural": "peak"}}, {"type": "node", "id": 7695092062, "lat": 49.7337446, "lon": 12.6302432, "tags": {"ele": "683", "natural": "peak"}}, {"type": "node", "id": 7695092063, "lat": 49.7390145, "lon": 12.6429462, "tags": {"ele": "680", "name:cs": "\u00da\u0161avsk\u00fd vrch", "name:de": "Uschauer Berg", "natural": "peak"}}, {"type": "node", "id": 7695092064, "lat": 49.7113549, "lon": 12.625308, "tags": {"ele": "724", "name:cs": "Slepi\u010d\u00ed vrch", "natural": "peak"}}, {"type": "node", "id": 7695092065, "lat": 49.7277528, "lon": 12.6299857, "tags": {"ele": "694", "name:cs": "Str\u00e1\u017en\u00fd vrch", "natural": "peak"}}, {"type": "node", "id": 7695092066, "lat": 49.7262548, "lon": 12.6173257, "tags": {"ele": "707", "name": "Po\u0159ejovsk\u00fd vrch", "name:de": "H\u00f6llerberg", "natural": "peak"}}, {"type": "node", "id": 7695092067, "lat": 49.7177649, "lon": 12.6138496, "tags": {"ele": "766", "name:cs": "Ple\u0161ivec", "name:de": "Ple\u00dfberg", "natural": "peak"}}, {"type": "node", "id": 7699437377, "lat": 49.5720298, "lon": 12.6907008, "tags": {"ele": "611", "name": "Smolovsk\u00fd vrch", "natural": "peak", "source": "\u010c\u00daZK"}}, {"type": "node", "id": 7699437378, "lat": 49.5678284, "lon": 12.6932852, "tags": {"ele": "618", "name": "Byst\u0159ick\u00fd vrch", "natural": "peak", "source": "\u010c\u00daZK"}}, {"type": "node", "id": 7699437379, "lat": 49.558339, "lon": 12.6823731, "tags": {"ele": "708", "name": "V\u00fd\u0161ina", "name:de": "Neubauh\u00f6he", "natural": "peak", "source": "\u010c\u00daZK", "wikidata": "Q23824216"}}, {"type": "node", "id": 7699437380, "lat": 49.5684789, "lon": 12.668867, "tags": {"ele": "564", "name": "Srn\u010d\u00ed vrch", "name:de": "M\u00fchlwald", "natural": "peak", "source": "\u010c\u00daZK"}}, {"type": "node", "id": 7699437381, "lat": 49.587902, "lon": 12.6730727, "tags": {"ele": "562", "natural": "peak", "source": "\u010c\u00daZK"}}, {"type": "node", "id": 7699437382, "lat": 49.6033681, "lon": 12.6480102, "tags": {"ele": "589", "natural": "peak"}}, {"type": "node", "id": 7699437383, "lat": 49.5847956, "lon": 12.6352225, "tags": {"ele": "659", "name": "Bukovina", "name:de": "Heinzenberg", "natural": "peak", "source": "\u010c\u00daZK"}}, {"type": "node", "id": 7699437384, "lat": 49.5824208, "lon": 12.6576662, "tags": {"ele": "567", "name": "Nad rybn\u00edkem", "name:cs": "Nad rybn\u00edkem", "natural": "peak", "source": "\u010c\u00daZK"}}, {"type": "node", "id": 7699444591, "lat": 49.6968391, "lon": 12.6441478, "tags": {"ele": "692", "name": "Farsk\u00e1 str\u00e1\u0148", "natural": "peak"}}, {"type": "node", "id": 7699444592, "lat": 49.6909539, "lon": 12.6306724, "tags": {"ele": "629", "name": "K\u00e1men", "name:de": "Steinknock", "natural": "peak"}}, {"type": "node", "id": 7699444593, "lat": 49.6910094, "lon": 12.653675, "tags": {"ele": "647", "name": "Sp\u00e1leni\u0161t\u011b", "name:de": "Hoher Brand", "natural": "peak"}}, {"type": "node", "id": 7699444594, "lat": 49.684346, "lon": 12.6449203, "tags": {"ele": "637", "name": "\u0160ibeni\u010dn\u00ed vrch", "natural": "peak"}}, {"type": "node", "id": 7699444600, "lat": 49.628504, "lon": 12.6420021, "tags": {"ele": "634", "natural": "peak"}}, {"type": "node", "id": 7699444601, "lat": 49.6190517, "lon": 12.6144504, "tags": {"ele": "571", "name": "Buk\u00e1\u010d", "natural": "peak", "source": "\u010c\u00daZK"}}, {"type": "node", "id": 7699444602, "lat": 49.6187102, "lon": 12.6517592, "tags": {"ele": "606", "name": "L\u00edskov\u00e1", "name:de": "H\u00e4uslberg", "natural": "peak", "source": "\u010c\u00daZK"}}, {"type": "node", "id": 7699444603, "lat": 49.6369955, "lon": 12.6403284, "tags": {"ele": "663", "name": "Kamenice", "natural": "peak"}}, {"type": "node", "id": 7699444604, "lat": 49.6387603, "lon": 12.6332688, "tags": {"ele": "655", "name": "Kamenice", "natural": "peak"}}, {"type": "node", "id": 7699444605, "lat": 49.6397608, "lon": 12.6383543, "tags": {"ele": "649", "name": "Srn\u00ed vrch", "natural": "peak"}}, {"type": "node", "id": 7699476985, "lat": 49.5714568, "lon": 12.620759, "tags": {"ele": "641", "name": "U vodojemu", "name:cs": "U vodojemu", "natural": "peak", "source": "\u010c\u00daZK"}}, {"type": "node", "id": 7699476986, "lat": 49.573051, "lon": 12.6535979, "tags": {"ele": "553", "natural": "peak", "source": "\u010c\u00daZK"}}, {"type": "node", "id": 7699476988, "lat": 49.5604625, "lon": 12.6078414, "tags": {"ele": "731", "name": "U Sv\u00edcnov\u00e9 jedle", "name:cs": "U Sv\u00edcnov\u00e9 jedle", "natural": "peak", "source": "\u010c\u00daZK"}}, {"type": "node", "id": 7699476989, "lat": 49.564276, "lon": 12.6401138, "tags": {"ele": "676", "natural": "peak"}}, {"type": "node", "id": 7700744352, "lat": 49.6761403, "lon": 12.6143217, "tags": {"ele": "584", "natural": "peak"}}, {"type": "node", "id": 7700744353, "lat": 49.6721967, "lon": 12.6258874, "tags": {"ele": "581", "natural": "peak"}}, {"type": "node", "id": 7700744354, "lat": 49.6975608, "lon": 12.62784, "tags": {"ele": "648", "name": "Ml\u00fdnsk\u00fd vrch", "name:de": "M\u00fchlberg", "natural": "peak"}}, {"type": "node", "id": 7700777178, "lat": 49.6520918, "lon": 12.6115, "tags": {"ele": "521", "name": "\u0160est\u00fd \u017eelezn\u00fd hamr", "name:de": "Sechsterhammer", "natural": "peak"}}, {"type": "node", "id": 7700777179, "lat": 49.687178, "lon": 12.602005, "tags": {"natural": "peak"}}, {"type": "node", "id": 7723952871, "lat": 49.5942169, "lon": 12.6503706, "tags": {"ele": "584", "natural": "peak"}}, {"type": "node", "id": 7723952872, "lat": 49.5980834, "lon": 12.6475382, "tags": {"ele": "579", "natural": "peak"}}, {"type": "node", "id": 7723952873, "lat": 49.6019357, "lon": 12.6207804, "tags": {"ele": "553", "natural": "peak"}}, {"type": "node", "id": 7723952874, "lat": 49.5980834, "lon": 12.6150942, "tags": {"ele": "538", "natural": "peak"}}, {"type": "node", "id": 8725477583, "lat": 49.667507, "lon": 12.6316479, "tags": {"board_type": "history", "information": "board", "name": "P\u00e1len\u00ed d\u0159ev\u011bn\u00e9ho uhl\u00ed v mil\u00ed\u0159\u00edch", "ref": "8", "tourism": "information"}}, {"type": "node", "id": 8783734392, "lat": 49.6139356, "lon": 12.773366, "tags": {"ele": "558", "name": "U K\u0159\u00ed\u017eku", "natural": "peak"}}, {"type": "node", "id": 8783734393, "lat": 49.6086521, "lon": 12.742188, "tags": {"ele": "551", "natural": "peak"}}, {"type": "node", "id": 8783734398, "lat": 49.672162, "lon": 12.7549285, "tags": {"ele": "516", "name": "\u010cihadlo", "natural": "peak"}}, {"type": "node", "id": 8783734399, "lat": 49.660489, "lon": 12.7560496, "tags": {"ele": "573", "name": "V\u00fdhled", "natural": "peak"}}, {"type": "node", "id": 8922767615, "lat": 49.5913625, "lon": 12.7162254, "tags": {"information": "office", "tourism": "information"}}, {"type": "node", "id": 9000623857, "lat": 49.6229241, "lon": 12.6913992, "tags": {"board_type": "history", "information": "board", "name": "Bezd\u011bkov", "ref": "3", "tourism": "information"}}, {"type": "node", "id": 9000623858, "lat": 49.6390869, "lon": 12.6625306, "tags": {"board_type": "history", "information": "board", "name": "M\u00e1lkov - kostel sv. Apoleny", "tourism": "information"}}, {"type": "node", "id": 9000623859, "lat": 49.6410729, "lon": 12.664247, "tags": {"board_type": "history", "information": "board", "name": "Svat\u00e1 Apolena", "ref": "8", "tourism": "information"}}, {"type": "node", "id": 9000623861, "lat": 49.665357, "lon": 12.6225023, "tags": {"board_type": "history", "information": "board", "name": "Rozhledna Mil\u00ed\u0159e", "ref": "7", "tourism": "information"}}, {"type": "node", "id": 9000623862, "lat": 49.6653126, "lon": 12.6224966, "tags": {"amenity": "shelter", "shelter_type": "picnic_shelter"}}, {"type": "node", "id": 9000625826, "lat": 49.5806447, "lon": 12.7152319, "tags": {"amenity": "shelter", "shelter_type": "picnic_shelter"}}, {"type": "node", "id": 9000625839, "lat": 49.5986469, "lon": 12.6866698, "tags": {"ele": "542", "hiking": "yes", "information": "guidepost", "name": "Pod H\u016frkou", "operator": "cz:K\u010cT", "ref": "TC139", "tourism": "information"}}, {"type": "node", "id": 9000625842, "lat": 49.6235273, "lon": 12.6932509, "tags": {"ele": "500", "hiking": "yes", "information": "guidepost", "name": "T\u0159eme\u0161n\u00e9", "operator": "cz:K\u010cT", "ref": "TC074", "tourism": "information"}}, {"type": "node", "id": 9460524950, "lat": 49.6749106, "lon": 12.6758871, "tags": {"email": "infocentrum@mestoprimda.cz", "information": "office", "internet_access": "wlan", "name": "Informa\u010dn\u00ed centrum P\u0159imda", "name:en": "Tourist Office P\u0159imda", "name:it": "Ufficio Turistico de P\u0159imda", "phone": "+420 725 966 455", "tourism": "information", "website": "https://www.mestoprimda.cz/volny-cas/infocentrum/"}}, {"type": "node", "id": 9611534591, "lat": 49.665373, "lon": 12.6019909, "tags": {"ele": "530.4", "natural": "peak"}}, {"type": "node", "id": 9672873147, "lat": 49.6796205, "lon": 12.6671614}, {"type": "node", "id": 9672873148, "lat": 49.6795985, "lon": 12.6671215}, {"type": "node", "id": 9672873149, "lat": 49.679572, "lon": 12.6671562}, {"type": "node", "id": 9672873150, "lat": 49.679594, "lon": 12.6671962}, {"type": "node", "id": 9672873206, "lat": 49.6826898, "lon": 12.6684113, "tags": {"ele": "848.1", "name": "P\u0159imda", "name:cs": "P\u0159imda", "name:de": "Pfraumberg", "natural": "peak", "source": "cuzk:km", "website": "https://lokality.geology.cz/385", "wikidata": "Q23822144", "wikipedia": "cs:P\u0159imda (\u010cesk\u00fd les)"}}, {"type": "node", "id": 9672873207, "lat": 49.6798914, "lon": 12.6688651, "tags": {"information": "board", "tourism": "information"}}, {"type": "node", "id": 9672873208, "lat": 49.679346, "lon": 12.6668878, "tags": {"direction": "180", "tourism": "viewpoint"}}, {"type": "node", "id": 9672873215, "lat": 49.673869, "lon": 12.6496936, "tags": {"information": "board", "tourism": "information"}}, {"type": "node", "id": 9916978415, "lat": 49.6747831, "lon": 12.6759517, "tags": {"information": "board", "name": "Jind\u0159ich Josef Vil\u00e9m hrab\u011b Kolowrat-Krakowsk\u00fd", "tourism": "information"}}, {"type": "node", "id": 9921235018, "lat": 49.7485169, "lon": 12.6972831, "tags": {"amenity": "shelter", "bench": "yes", "shelter_type": "picnic_shelter"}}, {"type": "node", "id": 9921235040, "lat": 49.7455237, "lon": 12.6800148}, {"type": "node", "id": 9921235041, "lat": 49.7455439, "lon": 12.6799564}, {"type": "node", "id": 9921235042, "lat": 49.7454898, "lon": 12.6799175}, {"type": "node", "id": 9921235043, "lat": 49.7454702, "lon": 12.6799776}, {"type": "node", "id": 9921235063, "lat": 49.6240388, "lon": 12.696625, "tags": {"access": "yes", "amenity": "shelter", "bench": "yes", "camp_type": "non_designated", "fireplace": "no", "group_only": "no", "motor_vehicle": "yes", "name": "Alt\u00e1n u z\u0159\u00edc. kostela", "scout": "no", "shelter_type": "gazebo", "table": "yes", "toilets": "no"}}, {"type": "node", "id": 10136231207, "lat": 49.5762501, "lon": 12.6898537, "tags": {"bicycle": "yes", "information": "map", "map_size": "region", "map_type": "topo", "name": "Paneuropa Route", "tourism": "information"}}, {"type": "node", "id": 10136231208, "lat": 49.5762561, "lon": 12.6898121, "tags": {"board_type": "history", "information": "board", "tourism": "information"}}, {"type": "node", "id": 10136231211, "lat": 49.5903826, "lon": 12.7171868, "tags": {"amenity": "shelter", "shelter_type": "picnic_shelter"}}, {"type": "node", "id": 10136231213, "lat": 49.5898408, "lon": 12.7014202}, {"type": "node", "id": 10136231214, "lat": 49.5898362, "lon": 12.7014466}, {"type": "node", "id": 10136231215, "lat": 49.5898587, "lon": 12.701456}, {"type": "node", "id": 10136231216, "lat": 49.5898633, "lon": 12.7014296}, {"type": "node", "id": 10304758945, "lat": 49.6952974, "lon": 12.7230562, "tags": {"amenity": "shelter"}}, {"type": "node", "id": 10778309299, "lat": 49.7508202, "lon": 12.7811289}, {"type": "node", "id": 10778309300, "lat": 49.7507794, "lon": 12.7811004}, {"type": "node", "id": 10778309301, "lat": 49.750763, "lon": 12.781157}, {"type": "node", "id": 10778309302, "lat": 49.7508037, "lon": 12.7811855}, {"type": "node", "id": 10779480205, "lat": 49.733367, "lon": 12.738391, "tags": {"amenity": "shelter", "bench": "yes", "shelter_type": "public_transport"}}, {"type": "node", "id": 10779480206, "lat": 49.7187049, "lon": 12.7335089, "tags": {"amenity": "shelter", "bench": "yes", "shelter_type": "public_transport"}}, {"type": "node", "id": 10779480214, "lat": 49.6727502, "lon": 12.7217675, "tags": {"amenity": "shelter", "bench": "yes", "bin": "no", "name": "P\u0159imda, Kundratice", "public_transport": "platform", "shelter": "yes", "shelter_type": "public_transport", "tactile_paving": "no"}}, {"type": "node", "id": 10779480217, "lat": 49.6575637, "lon": 12.7203194, "tags": {"amenity": "shelter", "bench": "yes", "bus": "yes", "name": "P\u0159imda, Mal\u00e9 Dvorce", "public_transport": "platform", "shelter": "yes", "shelter_type": "public_transport"}}, {"type": "node", "id": 10793520297, "lat": 49.6940469, "lon": 12.683495, "tags": {"amenity": "shelter", "bench": "yes", "bin": "yes", "bus": "yes", "name": "P\u0159imda, \u00dajezd p. P\u0159imdou", "public_transport": "platform", "shelter": "yes", "shelter_type": "public_transport"}}, {"type": "node", "id": 10793520332, "lat": 49.7009833, "lon": 12.7016446, "tags": {"amenity": "shelter", "bench": "yes", "bin": "yes", "bus": "yes", "name": "P\u0159imda, Ml\u00fdnec", "public_transport": "platform", "shelter_type": "public_transport"}}, {"type": "node", "id": 10824307583, "lat": 49.7086991, "lon": 12.7783278, "tags": {"amenity": "shelter", "bench": "yes", "bin": "yes", "bus": "yes", "departures_board": "timetable", "name": "Bor, z\u00e1mek", "public_transport": "platform", "shelter": "yes", "shelter_type": "public_transport"}}, {"type": "node", "id": 10824307711, "lat": 49.6356279, "lon": 12.7787595}, {"type": "node", "id": 10837562599, "lat": 49.6962838, "lon": 12.7467018}, {"type": "node", "id": 10837562600, "lat": 49.696265, "lon": 12.7466628}, {"type": "node", "id": 10837562601, "lat": 49.6962356, "lon": 12.7466968}, {"type": "node", "id": 10837562602, "lat": 49.6962544, "lon": 12.7467358}, {"type": "node", "id": 10924174327, "lat": 49.7353629, "lon": 12.7393817, "tags": {"amenity": "shelter", "bench": "yes", "bin": "yes", "departures_board": "timetable", "highway": "platform", "name": "Doly", "name:cs": "Doly", "name:de": "Tholl", "public_transport": "platform", "railway": "halt", "shelter_type": "public_transport", "train": "yes"}}, {"type": "node", "id": 10982355137, "lat": 49.7175206, "lon": 12.7783689}, {"type": "node", "id": 10982355138, "lat": 49.7173859, "lon": 12.7783452}, {"type": "node", "id": 11038620704, "lat": 49.576381, "lon": 12.7454876, "tags": {"information": "map", "name": "Doma\u017elicko", "tourism": "information"}}, {"type": "node", "id": 11038640438, "lat": 49.5621844, "lon": 12.7616919, "tags": {"information": "board", "tourism": "information"}}, {"type": "node", "id": 11038665322, "lat": 49.5763897, "lon": 12.7455211, "tags": {"description": "Po stop\u00e1ch chodsk\u00e9 historie", "information": "board", "name": "\u00dajezd sv. K\u0159\u00ed\u017ee", "ref": "15", "tourism": "information"}}, {"type": "node", "id": 11055674360, "lat": 49.6959231, "lon": 12.746711}, {"type": "node", "id": 11055674361, "lat": 49.6959384, "lon": 12.746745}, {"type": "node", "id": 11055674362, "lat": 49.695954, "lon": 12.7467283}, {"type": "node", "id": 11055674363, "lat": 49.6959386, "lon": 12.7466943}, {"type": "node", "id": 11068880302, "lat": 49.7097686, "lon": 12.7781267, "tags": {"information": "board", "name": "Z\u00e1mek Bor", "tourism": "information"}}, {"type": "node", "id": 11099216707, "lat": 49.6485614, "lon": 12.7814731, "tags": {"description": "Zvl\u00e1\u0161t\u011b chr\u00e1n\u011bn\u00e1 \u00fazem\u00ed Plze\u0148sk\u00e9ho kraje", "information": "board", "name": "P\u0159\u00edrodn\u00ed pam\u00e1tka Valcha", "tourism": "information"}}, {"type": "node", "id": 11099521233, "lat": 49.6779614, "lon": 12.6697125, "tags": {"information": "board", "name": "Sucho a k\u016frovec", "tourism": "information"}}, {"type": "node", "id": 11099525278, "lat": 49.6774281, "lon": 12.6711353, "tags": {"information": "board", "name": "Pov\u011bst o hradu P\u0159imda", "tourism": "information"}}, {"type": "node", "id": 11303190704, "lat": 49.6467677, "lon": 12.6837037, "tags": {"board_type": "history", "information": "board", "name": "Bodenm\u00fchle", "tourism": "information", "website": "https://stezka-milire-vodnimlyny.webnode.cz/ns-vodni-mlyny/boden-muhle/"}}, {"type": "node", "id": 11303190705, "lat": 49.6495349, "lon": 12.6881052}, {"type": "node", "id": 11303190706, "lat": 49.6488248, "lon": 12.6864892, "tags": {"board_type": "history", "information": "board", "name": "Weissm\u00fchle", "tourism": "information", "website": "https://stezka-milire-vodnimlyny.webnode.cz/ns-vodni-mlyny/wiessemuhle/"}}, {"type": "node", "id": 11303190708, "lat": 49.6410536, "lon": 12.6859536, "tags": {"board_type": "history", "information": "board", "name": "Stahlnm\u00fchle", "tourism": "information", "website": "https://stezka-milire-vodnimlyny.webnode.cz/ns-vodni-mlyny/stahlmuhle/"}}, {"type": "node", "id": 11303190729, "lat": 49.6495836, "lon": 12.6882343, "tags": {"board_type": "history", "information": "board", "name": "Krommelm\u00fchle", "tourism": "information", "website": "https://stezka-milire-vodnimlyny.webnode.cz/ns-vodni-mlyny/krommelmuhle/"}}, {"type": "node", "id": 11303190730, "lat": 49.6504638, "lon": 12.6867496, "tags": {"board_type": "history", "information": "board", "name": "S\u00e4gem\u00fchle", "tourism": "information", "website": "https://stezka-milire-vodnimlyny.webnode.cz/ns-vodni-mlyny/sagemuhle/"}}, {"type": "node", "id": 11303190740, "lat": 49.6496407, "lon": 12.6879518}, {"type": "node", "id": 11303190741, "lat": 49.6496553, "lon": 12.6881823}, {"type": "node", "id": 11303190742, "lat": 49.649546, "lon": 12.6881855}, {"type": "node", "id": 11303190743, "lat": 49.6494728, "lon": 12.6878072}, {"type": "node", "id": 11308256755, "lat": 49.7475655, "lon": 12.6857399}, {"type": "node", "id": 11368826164, "lat": 49.6751356, "lon": 12.674775, "tags": {"amenity": "shelter", "shelter_type": "public_transport"}}, {"type": "node", "id": 11503408791, "lat": 49.6401848, "lon": 12.6634481, "tags": {"abandoned": "village", "abandoned:place": "village", "access": "yes", "archaeological_site": "settlement", "civilization": "modern", "historic": "ruins", "historic:place": "village", "name": "Zanikl\u00e1 ves Svat\u00e1 Apolena", "place": "locality", "ruins": "village", "ruins:place": "village", "ruins:village": "yes", "tourism": "attraction", "village:end_date": "1948"}}, {"type": "node", "id": 11646733640, "lat": 49.6012015, "lon": 12.7294697, "tags": {"shelter": "yes", "tourism": "viewpoint", "tower:type": "observation"}}, {"type": "node", "id": 11778003658, "lat": 49.703068, "lon": 12.7348209, "tags": {"end_date": "1990", "historic": "military", "name": "b\u00fdval\u00e9 cvi\u010di\u0161t\u011b \u010cSLA Bor u Tachova", "tourism": "attraction"}}, {"type": "node", "id": 11778003661, "lat": 49.7019248, "lon": 12.626492, "tags": {"end_date": "1990", "historic": "military", "name": "B\u00fdval\u00e1 tankov\u00e1 st\u0159elnice", "tourism": "attraction"}}, {"type": "node", "id": 11778003663, "lat": 49.7171039, "lon": 12.6499825, "tags": {"end_date": "1960", "historic": "military", "name": "B\u00fdval\u00e1 vojensk\u00e1 st\u0159elnice", "tourism": "attraction"}}, {"type": "node", "id": 11816469996, "lat": 49.6750657, "lon": 12.6762498, "tags": {"amenity": "shelter", "bench": "yes", "bin": "yes", "check_date": "2024-04-14"}}, {"type": "node", "id": 11816502809, "lat": 49.6431424, "lon": 12.7671838, "tags": {"board_type": "wildlife", "check_date": "2024-04-14", "information": "board", "name": "Boreck\u00e9 t\u016fn\u011b", "tourism": "information"}}, {"type": "node", "id": 11867158251, "lat": 49.7315071, "lon": 12.7711392, "tags": {"disused:watermill": "yes", "name": "Zanikl\u00fd Li\u0161\u010d\u00ed ml\u00fdn", "tourism": "attraction", "watermill": "yes", "watermill:disused": "yes"}}, {"type": "node", "id": 11945014829, "lat": 49.6942221, "lon": 12.7993112, "tags": {"description": "Z kruhov\u00e9 cihelny se \u0161estic\u00ed su\u0161\u00e1ren z\u016fstal v lese jen kom\u00edn a rybn\u00edk v m\u00edst\u011b hlini\u0161t\u011b.", "end_date": "1949", "name": "B\u00fdval\u00e1 Boje\u010dnick\u00e1 cihelna", "name:de": "Woschen\u00e4cker", "tourism": "attraction"}}, {"type": "node", "id": 12012283816, "lat": 49.6494721, "lon": 12.7808429, "tags": {"information": "board", "tourism": "information"}}, {"type": "node", "id": 12012283817, "lat": 49.6491923, "lon": 12.7807304, "tags": {"noexit": "yes"}}, {"type": "node", "id": 12012283818, "lat": 49.6492305, "lon": 12.7808015}, {"type": "node", "id": 12012283821, "lat": 49.6487559, "lon": 12.7814705, "tags": {"information": "board", "tourism": "information"}}, {"type": "node", "id": 12012283822, "lat": 49.6487633, "lon": 12.7813331, "tags": {"amenity": "shelter"}}, {"type": "node", "id": 12012283898, "lat": 49.6424134, "lon": 12.7809172}, {"type": "node", "id": 12012283899, "lat": 49.6423467, "lon": 12.7809182}, {"type": "node", "id": 12012283900, "lat": 49.642347, "lon": 12.7809683}, {"type": "node", "id": 12012283901, "lat": 49.6424138, "lon": 12.7809673}, {"type": "node", "id": 12012283924, "lat": 49.6524948, "lon": 12.7883338, "tags": {"amenity": "shelter", "shelter_type": "picnic_shelter"}}, {"type": "node", "id": 12058989108, "lat": 49.7233747, "lon": 12.7598805, "tags": {"name": "\u0160ibeni\u010dn\u00ed vrch", "natural": "peak"}}, {"type": "node", "id": 12059453890, "lat": 49.6734626, "lon": 12.6160654, "tags": {"name": "Zanikl\u00e1 ves Frauent\u00e1l", "name:de": "Hochofen", "tourism": "attraction", "wikidata": "Q14602129", "wikipedia": "cs:Frauent\u00e1l"}}, {"type": "node", "id": 12059453936, "lat": 49.6731283, "lon": 12.6070471, "tags": {"information": "board", "name": "Zanikl\u00e1 ves Frauenthal", "tourism": "information", "website": "https://ceskymlesem.eu/frauenthal-u-svate-kateriny.html"}}, {"type": "node", "id": 12059453951, "lat": 49.6738968, "lon": 12.6077774, "tags": {"information": "board", "name": "NS Rozvadov 11 - Frauenthal", "tourism": "information"}}, {"type": "node", "id": 12059453956, "lat": 49.6742212, "lon": 12.6542339}, {"type": "node", "id": 12059453957, "lat": 49.6742907, "lon": 12.6543189}, {"type": "node", "id": 12059453958, "lat": 49.6742239, "lon": 12.6544493}, {"type": "node", "id": 12059453959, "lat": 49.6741543, "lon": 12.6543642}, {"type": "node", "id": 12059453960, "lat": 49.6735134, "lon": 12.6567203}, {"type": "node", "id": 12059453961, "lat": 49.6734366, "lon": 12.6566886}, {"type": "node", "id": 12059453962, "lat": 49.6734161, "lon": 12.6568074}, {"type": "node", "id": 12059453963, "lat": 49.6734928, "lon": 12.6568391}, {"type": "node", "id": 12059453964, "lat": 49.6720492, "lon": 12.6603804}, {"type": "node", "id": 12059453965, "lat": 49.6719637, "lon": 12.6604045}, {"type": "node", "id": 12059453966, "lat": 49.671975, "lon": 12.6605003}, {"type": "node", "id": 12059453967, "lat": 49.6720605, "lon": 12.6604762}, {"type": "node", "id": 12059453968, "lat": 49.6646986, "lon": 12.6630744, "tags": {"name": "Zanikl\u00e1 samota Hammelh\u00fctte", "tourism": "attraction"}}, {"type": "node", "id": 12059453969, "lat": 49.6940026, "lon": 12.7674364}, {"type": "node", "id": 12059453999, "lat": 49.7193153, "lon": 12.685595, "tags": {"end_date": "1960", "name": "Zanikl\u00fd Nov\u00fd ml\u00fdn", "start_date": "1565", "tourism": "attraction"}}, {"type": "node", "id": 12059454016, "lat": 49.7044941, "lon": 12.6430929, "tags": {"abandoned": "village", "name": "Zanikl\u00e1 ves Bohuslav", "name:de": "Wusleben", "tourism": "attraction"}}, {"type": "node", "id": 12059454017, "lat": 49.7359562, "lon": 12.6144635, "tags": {"name": "Zanikl\u00e1 tvrz Po\u0159ejov", "tourism": "attraction"}}, {"type": "node", "id": 12069399457, "lat": 49.67267, "lon": 12.7697799, "tags": {"description": "Nau\u010dn\u00e1 stezka Str\u00e1\u017e - Soum\u011b\u0159", "information": "board", "name": "Cesta ke h\u0159bitovu, tra\u0165 a \u00dahlavka", "ref": "2", "tourism": "information"}}, {"type": "node", "id": 12118644509, "lat": 49.6717743, "lon": 12.7236629, "tags": {"information": "map", "map_size": "region", "map_type": "topo", "tourism": "information"}}, {"type": "node", "id": 12118644510, "lat": 49.6717548, "lon": 12.7236766, "tags": {"amenity": "shelter", "bench": "yes", "covered": "yes", "leisure": "picnic_table", "lit": "no", "material": "wood"}}, {"type": "node", "id": 12130647053, "lat": 49.7218512, "lon": 12.7606044, "tags": {"board_type": "history", "information": "board", "name": "\u0160ibeni\u010dn\u00ed vrch Bor", "name:de": "Galgenberg", "tourism": "information"}}, {"type": "node", "id": 12188675489, "lat": 49.7315234, "lon": 12.6516406}, {"type": "node", "id": 12188675490, "lat": 49.7315013, "lon": 12.6516399}, {"type": "node", "id": 12188675491, "lat": 49.731501, "lon": 12.6516621}, {"type": "node", "id": 12188675492, "lat": 49.7315231, "lon": 12.6516628}, {"type": "node", "id": 12188677802, "lat": 49.7085786, "lon": 12.7763053}, {"type": "node", "id": 12188677803, "lat": 49.7085676, "lon": 12.7762817}, {"type": "node", "id": 12188677804, "lat": 49.7085458, "lon": 12.7762838}, {"type": "node", "id": 12188677805, "lat": 49.7085364, "lon": 12.7763145}, {"type": "node", "id": 12188677806, "lat": 49.7085485, "lon": 12.7763448}, {"type": "node", "id": 12188677807, "lat": 49.7085734, "lon": 12.7763408}, {"type": "node", "id": 12430335666, "lat": 49.6725993, "lon": 12.7665223}, {"type": "node", "id": 12430335667, "lat": 49.6726632, "lon": 12.7664502}, {"type": "node", "id": 12430335668, "lat": 49.6728266, "lon": 12.7667953}, {"type": "node", "id": 12430335669, "lat": 49.6727655, "lon": 12.7668685}, {"type": "node", "id": 12430335670, "lat": 49.6725393, "lon": 12.7667197}, {"type": "node", "id": 12430335671, "lat": 49.6724739, "lon": 12.7667524}, {"type": "node", "id": 12430335672, "lat": 49.6725182, "lon": 12.7669538}, {"type": "node", "id": 12430335673, "lat": 49.6725821, "lon": 12.7669158}, {"type": "node", "id": 12430335870, "lat": 49.6827691, "lon": 12.7510625}, {"type": "node", "id": 12430335871, "lat": 49.6827247, "lon": 12.7510121}, {"type": "node", "id": 12430335872, "lat": 49.6826301, "lon": 12.7512239}, {"type": "node", "id": 12430335873, "lat": 49.6826803, "lon": 12.7512764}, {"type": "node", "id": 12430335888, "lat": 49.6971323, "lon": 12.7635575}, {"type": "node", "id": 12430335889, "lat": 49.6965021, "lon": 12.7622201}, {"type": "node", "id": 12430335890, "lat": 49.6964167, "lon": 12.7621926}, {"type": "node", "id": 12430335891, "lat": 49.6961533, "lon": 12.7629851}, {"type": "node", "id": 12430335892, "lat": 49.6960429, "lon": 12.7632383}, {"type": "node", "id": 12430335893, "lat": 49.6956297, "lon": 12.7639045}, {"type": "node", "id": 12430335894, "lat": 49.6953892, "lon": 12.7640999}, {"type": "node", "id": 12430335895, "lat": 49.6951311, "lon": 12.764374}, {"type": "node", "id": 12430335896, "lat": 49.694938, "lon": 12.7646264}, {"type": "node", "id": 12430335897, "lat": 49.6943973, "lon": 12.7663824}, {"type": "node", "id": 12430335898, "lat": 49.6939584, "lon": 12.7674164}, {"type": "node", "id": 12430335899, "lat": 49.6944675, "lon": 12.767582}, {"type": "node", "id": 12430335900, "lat": 49.6947835, "lon": 12.7676715}, {"type": "node", "id": 12430335901, "lat": 49.6951978, "lon": 12.7663417}, {"type": "node", "id": 12430335902, "lat": 49.6956841, "lon": 12.7647485}, {"type": "node", "id": 12430335903, "lat": 49.6954576, "lon": 12.7644988}, {"type": "node", "id": 12430335904, "lat": 49.6954559, "lon": 12.7644527}, {"type": "node", "id": 12430335905, "lat": 49.6961405, "lon": 12.7637009}, {"type": "node", "id": 12430335906, "lat": 49.6961932, "lon": 12.7636846}, {"type": "node", "id": 12430335907, "lat": 49.6964267, "lon": 12.7639126}, {"type": "node", "id": 12430335908, "lat": 49.6964829, "lon": 12.7639289}, {"type": "node", "id": 12430335909, "lat": 49.6970622, "lon": 12.7636765}, {"type": "node", "id": 12430335910, "lat": 49.6971236, "lon": 12.7636304}, {"type": "node", "id": 12638280767, "lat": 49.7094263, "lon": 12.7800075}, {"type": "node", "id": 12638280768, "lat": 49.7094147, "lon": 12.7800028}, {"type": "node", "id": 12638280769, "lat": 49.7094088, "lon": 12.7800384}, {"type": "node", "id": 12638280770, "lat": 49.7094204, "lon": 12.780043}, {"type": "node", "id": 12732705784, "lat": 49.6667794, "lon": 12.6177784, "tags": {"amenity": "shelter", "shelter_type": "weather_shelter"}}, {"type": "node", "id": 12732705812, "lat": 49.6681746, "lon": 12.6144589, "tags": {"information": "guidepost", "tourism": "information"}}, {"type": "node", "id": 12732705850, "lat": 49.6730395, "lon": 12.6067999, "tags": {"name": "Ovdod vody z vodn\u00edho kola", "tourism": "attraction", "tunnel": "yes"}}, {"type": "node", "id": 12732705863, "lat": 49.6730527, "lon": 12.6067948, "tags": {"information": "board", "tourism": "information"}}, {"type": "node", "id": 12732705864, "lat": 49.6730346, "lon": 12.6069947, "tags": {"information": "board", "name": "Kolowratsk\u00e1 \u017eelez\u00e1rna", "tourism": "information"}}, {"type": "node", "id": 12732705916, "lat": 49.6734908, "lon": 12.6087947, "tags": {"information": "board", "name": "Frauenthal u Svat\u00e9 kate\u0159iny", "tourism": "information"}}, {"type": "node", "id": 12733638481, "lat": 49.6763948, "lon": 12.6528737, "tags": {"information": "board", "name": "Kolowrat\u016fv rybn\u00edk", "tourism": "information"}}, {"type": "node", "id": 12734025082, "lat": 49.6761042, "lon": 12.6542317, "tags": {"information": "board", "name": "M\u00edlovsk\u00e1 l\u00edpa", "tourism": "information", "website": "https://www.svazekdomazlicko.cz/qn/07c71e58.html"}}, {"type": "node", "id": 12777016570, "lat": 49.6760267, "lon": 12.6541785, "tags": {"information": "board", "name": "Zastaven\u00ed \u010d. 8 - P\u0159imdsk\u00e1 NS", "tourism": "information"}}, {"type": "node", "id": 12777016872, "lat": 49.6509426, "lon": 12.6864216}, {"type": "node", "id": 12777016873, "lat": 49.6509606, "lon": 12.6865067}, {"type": "node", "id": 12777016874, "lat": 49.6508731, "lon": 12.6865509}, {"type": "node", "id": 12777016875, "lat": 49.6508551, "lon": 12.6864659}, {"type": "node", "id": 12777887424, "lat": 49.6481704, "lon": 12.6791323, "tags": {"information": "board", "name": "M\u00e1lkov - \u0161kola", "tourism": "information"}}, {"type": "node", "id": 12896281762, "lat": 49.6514816, "lon": 12.7828077}, {"type": "node", "id": 12896281763, "lat": 49.6515121, "lon": 12.782903}, {"type": "node", "id": 12896281764, "lat": 49.6513848, "lon": 12.7829999}, {"type": "node", "id": 12896281765, "lat": 49.6513544, "lon": 12.7829046}, {"type": "node", "id": 12896300964, "lat": 49.7474976, "lon": 12.6858353}, {"type": "node", "id": 12896300965, "lat": 49.7473895, "lon": 12.685651}, {"type": "node", "id": 12896300966, "lat": 49.7474574, "lon": 12.6855556}, {"type": "node", "id": 12956284197, "lat": 49.6344073, "lon": 12.756577, "tags": {"information": "map", "map_type": "topo", "name": "B\u011bl\u00e1 nad Radbuzou", "tourism": "information"}}, {"type": "node", "id": 12994676013, "lat": 49.7435945, "lon": 12.7294704, "tags": {"amenity": "shelter", "shelter_type": "lean_to"}}, {"type": "node", "id": 13115070671, "lat": 49.6687513, "lon": 12.7673841, "tags": {"amenity": "shelter"}}, {"type": "node", "id": 13115070678, "lat": 49.6658668, "lon": 12.7800488, "tags": {"name": "Str\u00e1\u017esk\u00e1 H\u016frka", "natural": "peak"}}, {"type": "way", "id": 257011140, "nodes": [2626252677, 2626252724, 2626252725, 2626252678, 2626252677], "tags": {"alt_name:de": "Drathm\u00fchle;Trothm\u00fchle;Tradtm\u00fchle;Trottm\u00fchle", "area": "yes", "building": "watermill", "building:material": "masonry", "building:ruian:type": "15", "building:use": "no", "disused:watermill": "yes", "man_made": "watermill", "name": "Dra\u017esk\u00fd ml\u00fdn", "ref:ruian:building": "48281697", "roof:shape": "gabled", "source": "cuzk:ruian", "tourism": "attraction", "type": "multipolygon"}}, {"type": "way", "id": 295658497, "nodes": [2993996364, 2993996363, 2993996361, 2993996362, 2993996364], "tags": {"access": "private", "addr:city": "B\u011bl\u00e1 nad Radbuzou", "addr:country": "CZ", "addr:housenumber": "ev.1", "addr:place": "Karlova Hu\u0165", "addr:postcode": "34525", "addr:provisionalnumber": "1", "area": "yes", "building": "watermill", "building:material": "masonry", "building:use": "residential", "disused:watermill": "yes", "man_made": "watermill", "ref:ruian:addr": "6859844", "ref:ruian:building": "6814514", "roof:shape": "gabled", "source": "cuzk:ruian", "source:addr": "cuzk:ruian", "tourism": "attraction", "type": "multipolygon"}}, {"type": "way", "id": 359664102, "nodes": [3643413584, 3643413583, 3643413581, 3643413582, 3643413584], "tags": {"amenity": "shelter", "building": "transportation", "building:ruian:type": "17", "departures_board": "timetable", "ref:ruian:building": "42918804", "shelter": "yes", "shelter_type": "public_transport", "source": "cuzk:ruian", "train": "yes"}}, {"type": "way", "id": 373716936, "nodes": [6437945830, 3771372027, 3771372026, 3771372025, 3771372024, 3771372023, 3771372022, 3771372021, 3771372019, 3771372018, 3771372017, 3771372015, 3771372016, 3771372020, 3771372013, 3771372014, 3771372028]}, {"type": "way", "id": 559742785, "nodes": [5398282800, 5398282799, 5398282798, 5398282797, 5398282796, 5398282795, 5398282794, 5398282793, 5398282792, 5398282791, 5398282800], "tags": {"addr:city": "Str\u00e1\u017e", "addr:country": "CZ", "addr:housenumber": "ev.1", "addr:place": "Bernartice", "addr:postcode": "34802", "addr:provisionalnumber": "1", "building": "yes", "building:ruian:type": "8", "ref:ruian:addr": "15585921", "ref:ruian:building": "15474305", "source": "cuzk:ruian", "source:addr": "cuzk:ruian", "tourism": "attraction"}}, {"type": "way", "id": 686807780, "nodes": [6437946086, 6437946085, 10824307711, 6437945884, 6437945883, 6437946086], "tags": {"amenity": "shelter", "bench": "yes", "bin": "yes", "building": "transportation", "building:ruian:type": "17", "bus": "yes", "departures_board": "timetable", "fixme": "name", "public_transport": "platform", "ref:ruian:building": "92439977", "shelter": "yes", "shelter_type": "public_transport", "source": "cuzk:ruian"}}, {"type": "way", "id": 694236445, "nodes": [6517840580, 6517840579, 6517840578, 6517840577, 6517840576, 6517840575, 6517840580], "tags": {"amenity": "shelter", "fireplace": "yes", "shelter_type": "weather_shelter"}}, {"type": "way", "id": 1052520916, "nodes": [9672873147, 9672873148, 9672873149, 9672873150, 9672873147], "tags": {"amenity": "shelter", "building": "yes", "shelter_type": "gazebo"}}, {"type": "way", "id": 1082549297, "nodes": [9921235040, 9921235041, 9921235042, 9921235043, 9921235040], "tags": {"amenity": "shelter", "building": "yes", "shelter_type": "public_transport"}}, {"type": "way", "id": 1107831042, "nodes": [10136231216, 10136231215, 10136231214, 10136231213, 10136231216], "tags": {"amenity": "shelter", "shelter_type": "picnic_shelter"}}, {"type": "way", "id": 1159018390, "nodes": [10778309299, 10778309300, 10778309301, 10778309302, 10778309299], "tags": {"amenity": "shelter", "shelter_type": "public_transport"}}, {"type": "way", "id": 1165135922, "nodes": [10837562599, 10837562600, 10837562601, 10837562602, 10837562599], "tags": {"amenity": "shelter", "area": "yes", "building": "transportation", "shelter_type": "public_transport"}}, {"type": "way", "id": 1182673940, "nodes": [2626265809, 2626265806]}, {"type": "way", "id": 1182673942, "nodes": [2626265809, 10982355137, 10982355138, 2626265806]}, {"type": "way", "id": 1190700023, "nodes": [11055674360, 11055674361, 11055674362, 11055674363, 11055674360], "tags": {"amenity": "shelter", "building": "yes", "shelter_type": "public_transport"}}, {"type": "way", "id": 1219863559, "nodes": [11303190740, 11303190741, 11303190742, 11303190705, 11303190743, 1899850775]}, {"type": "way", "id": 1219863561, "nodes": [1899850775, 1899850773, 11303190740], "tags": {"admin_level": "10", "boundary": "administrative", "source": "cuzk:ruian"}}, {"type": "way", "id": 1296343669, "nodes": [3771372028, 3771372033, 3771372031, 3771372032, 3771372030, 3771372029]}, {"type": "way", "id": 1296343670, "nodes": [3771372029, 6437945830]}, {"type": "way", "id": 1296343693, "nodes": [12012283817, 12012283818], "tags": {"bridge": "yes", "highway": "path", "layer": "1", "name": "Kamenn\u00e1 l\u00e1vka", "tourism": "attraction"}}, {"type": "way", "id": 1296343708, "nodes": [12012283898, 12012283899, 12012283900, 12012283901, 12012283898], "tags": {"amenity": "shelter", "building": "roof", "layer": "1", "leisure": "picnic_table", "shelter_type": "lean_to"}}, {"type": "way", "id": 1302035965, "nodes": [12059453956, 12059453957, 12059453958, 12059453959, 12059453956], "tags": {"area": "yes", "building": "watermill", "historic": "ruins", "man_made": "watermill", "name": "zanikl\u00fd Doln\u00ed Brandl\u016fv ml\u00fdn", "ruins": "yes", "tourism": "attraction"}}, {"type": "way", "id": 1302035966, "nodes": [12059453960, 12059453961, 12059453962, 12059453963, 12059453960], "tags": {"area": "yes", "historic": "watermill", "name": "Zanikl\u00fd Horn\u00ed Brandl\u016fv ml\u00fdn", "ruins": "yes", "tourism": "attraction"}}, {"type": "way", "id": 1302035967, "nodes": [12059453964, 12059453965, 12059453966, 12059453967, 12059453964], "tags": {"abandoned:building": "watermill", "area": "yes", "name": "b\u00fdval\u00fd Nov\u00fd ml\u00fdn", "name:de": "ehemalige Neum\u00fchle", "sorting_name": "Nov\u00fd ml\u00fdn", "sorting_name:de": "Neum\u00fchle", "tourism": "attraction"}}, {"type": "way", "id": 1316976296, "nodes": [12188675489, 12188675490, 12188675491, 12188675492, 12188675489], "tags": {"amenity": "shelter", "area": "yes", "building": "roof"}}, {"type": "way", "id": 1316976299, "nodes": [12188677802, 12188677803, 12188677804, 12188677805, 12188677806, 12188677807, 12188677802], "tags": {"amenity": "shelter", "area": "yes", "shelter_type": "gazebo"}}, {"type": "way", "id": 1343427051, "nodes": [12430335666, 12430335667, 12430335668, 12430335669, 12430335666], "tags": {"area": "yes", "building": "ruins"}}, {"type": "way", "id": 1343427052, "nodes": [12430335671, 12430335672, 12430335673], "tags": {"building": "ruins"}}, {"type": "way", "id": 1343427053, "nodes": [12430335673, 12430335670]}, {"type": "way", "id": 1343427054, "nodes": [12430335670, 12430335671], "tags": {"building": "ruins"}}, {"type": "way", "id": 1343427090, "nodes": [12430335870, 12430335871, 12430335872, 12430335873, 12430335870], "tags": {"abandoned:building": "watermill", "disused:watermill": "yes", "historic": "watermill", "name": "Star\u00fd ml\u00fdn (z\u0159\u00edc.)", "ruins": "yes", "tourism": "attraction", "watermill": "yes", "watermill:disused": "yes"}}, {"type": "way", "id": 1343427094, "nodes": [12430335888, 12430335889, 12430335890, 12430335891, 12430335892, 12430335893, 12430335894, 12430335895, 12430335896, 12430335897, 12430335898, 12059453969, 12430335899, 12430335900, 12430335901, 12430335902, 12430335903, 12430335904, 12430335905, 12430335906, 12430335907, 12430335908, 12430335909, 12430335910, 12430335888], "tags": {"archaeological_site": "settlement", "historic": "archaeological_site", "name": "Zanikl\u00e1 ves Bore\u010dek", "tourism": "attraction"}}, {"type": "way", "id": 1364715265, "nodes": [12638280767, 12638280768, 12638280769, 12638280770, 12638280767], "tags": {"amenity": "shelter", "bench": "yes", "building": "yes", "shelter_type": "public_transport"}}, {"type": "way", "id": 1380086221, "nodes": [12777016872, 12777016873, 12777016874, 12777016875, 12777016872], "tags": {"abandoned:man_made": "watermill", "area": "yes", "building": "ruins", "historic": "watermill", "man_made": "watermill", "name": "Z\u0159\u00edcenina S\u00e4gem\u00fchle", "ruins": "watermill", "tourism": "attraction", "was:building": "watermill", "watermill": "yes"}}, {"type": "way", "id": 1393199736, "nodes": [12896281765, 12896281764, 12896281763, 12896281762, 12896281765], "tags": {"access": "private", "building": "yes", "disused:watermill": "yes", "man_made": "watermill", "name": "Doln\u00ed Ml\u00fdn", "name:de": "Neum\u00fchle", "tourism": "attraction"}}, {"type": "way", "id": 1393200221, "nodes": [12896300966, 12896300965, 12896300964, 11308256755, 12896300966], "tags": {"building": "ruins", "name": "Kamenn\u00fd ml\u00fdn", "name:de": "Steinm\u00fchle", "ruins": "watermill", "tourism": "attraction", "was:man_made": "watermill", "watermill": "yes"}}, {"type": "relation", "id": 15986063, "members": [{"type": "way", "ref": 1182673940, "role": "outer"}, {"type": "way", "ref": 1182673942, "role": "outer"}], "tags": {"amenity": "shelter", "area": "yes", "building": "roof", "shelter_type": "public_transport", "type": "multipolygon"}}, {"type": "relation", "id": 16627726, "members": [{"type": "way", "ref": 1219863561, "role": "outer"}, {"type": "way", "ref": 1219863559, "role": "outer"}], "tags": {"area": "yes", "building": "ruins", "historic": "watermill", "name": "Z\u0159\u00edcenina Krommelm\u00fchle", "ruins": "watermill", "tourism": "attraction", "type": "multipolygon", "was:man_made": "watermill", "watermill": "yes"}}, {"type": "relation", "id": 17769199, "members": [{"type": "way", "ref": 1296343670, "role": "outer"}, {"type": "way", "ref": 373716936, "role": "outer"}, {"type": "way", "ref": 1296343669, "role": "outer"}], "tags": {"access": "private", "addr:city": "Str\u00e1\u017e", "addr:conscriptionnumber": "167", "addr:country": "CZ", "addr:housenumber": "167", "addr:place": "Str\u00e1\u017e", "addr:postcode": "34802", "area": "yes", "building": "watermill", "building:flats": "1", "building:levels": "1", "building:material": "masonry", "building:ruian:type": "7", "building:use": "residential", "disused:watermill": "yes", "inscription": "Sommerfrische Tschankaum\u00fchle", "man_made": "watermill", "name": "\u010cankovsk\u00fd ml\u00fdn", "name:de": "Tschankaum\u00fchle", "ref:ruian:addr": "15668797", "ref:ruian:building": "15555810", "roof:shape": "gabled", "source": "cuzk:ruian", "source:addr": "cuzk:ruian", "tourism": "attraction", "type": "multipolygon"}}, {"type": "relation", "id": 18435112, "members": [{"type": "way", "ref": 1343427052, "role": "outer"}, {"type": "way", "ref": 1343427053, "role": "outer"}, {"type": "way", "ref": 1343427054, "role": "outer"}, {"type": "way", "ref": 1343427051, "role": "outer"}], "tags": {"abandoned:building": "watermill", "area": "yes", "disused:watermill": "yes", "historic": "watermill", "name": "Ruiny Klementova ml\u00fdna", "name:de": "Klementm\u00fchle", "ruins": "yes", "tourism": "attraction", "type": "multipolygon", "watermill": "yes", "watermill:disused": "yes"}}]}