{"version": 0.6, "generator": "Overpass API 0.7.62.8 e802775f", "osm3s": {"timestamp_osm_base": "2026-01-05T15:41:15Z", "copyright": "The data included in this document is from www.openstreetmap.org. The data is made available under ODbL."}, "elements": [{"type": "node", "id": 444841647, "lat": 49.6647238, "lon": 12.8634515, "tags": {"information": "map", "tourism": "information"}}, {"type": "node", "id": 444841656, "lat": 49.6338591, "lon": 12.8186982, "tags": {"description": "Obec na okraji oblasti klidu Valcha", "ele": "510", "hiking": "yes", "information": "guidepost", "name": "Strachovice", "operator": "cz:K\u010cT", "ref": "DO128", "tourism": "information"}}, {"type": "node", "id": 765749619, "lat": 49.7152292, "lon": 12.9820005, "tags": {"ele": "414", "hiking": "yes", "information": "guidepost", "name": "Kostel svat\u00e9ho Jakuba", "official_name": "Kostel sv. Jakuba", "operator": "cz:K\u010cT", "ref": "TC622", "source": "survey", "tourism": "information"}}, {"type": "node", "id": 765749622, "lat": 49.7119682, "lon": 12.9971739, "tags": {"ele": "404", "hiking": "yes", "information": "guidepost", "name": "Kladruby \u2013 kl\u00e1\u0161ter", "operator": "cz:K\u010cT", "ref": "TC029", "tourism": "information"}}, {"type": "node", "id": 765749644, "lat": 49.7111975, "lon": 12.9865362, "tags": {"ele": "384", "hiking": "yes", "information": "guidepost", "name": "\u00dahlavka (rozc.)", "operator": "cz:K\u010cT", "ref": "TC401", "tourism": "information"}}, {"type": "node", "id": 948366501, "lat": 49.6542131, "lon": 12.8875974}, {"type": "node", "id": 972775222, "lat": 49.6004421, "lon": 12.8867109, "tags": {"amenity": "shelter"}}, {"type": "node", "id": 972775322, "lat": 49.6035042, "lon": 12.8647687, "tags": {"description": "9. zast\u00e1vka", "information": "board", "name": "Nau\u010dn\u00e1 stezka sedmiho\u0159\u00ed", "tourism": "information"}}, {"type": "node", "id": 972775451, "lat": 49.6086335, "lon": 12.8875006, "tags": {"board_type": "history", "description": "Nau\u010dn\u00e1 stezka Sedmiho\u0159\u00ed", "information": "board", "name": "Nau\u010dn\u00e1 stezka Sedmiho\u0159\u00ed", "ref": "3", "tourism": "information"}}, {"type": "node", "id": 972775662, "lat": 49.6256928, "lon": 12.8593335, "tags": {"ele": "525", "hiking": "yes", "information": "guidepost", "name": "Pod Racovsk\u00fdm vrchem", "operator": "cz:K\u010cT", "ref": "DO130", "tourism": "information"}}, {"type": "node", "id": 972775720, "lat": 49.6181533, "lon": 12.8559968, "tags": {"ele": "540", "hiking": "yes", "information": "guidepost", "name": "NS u Vidic (rozc.)", "operator": "cz:K\u010cT", "ref": "DO185", "tourism": "information"}}, {"type": "node", "id": 972775818, "lat": 49.6183519, "lon": 12.8655893, "tags": {"board_type": "wildlife", "description": "6. zast\u00e1vka", "information": "board", "name": "Nau\u010dn\u00e1 stezka sedmiho\u0159\u00ed", "tourism": "information"}}, {"type": "node", "id": 972775858, "lat": 49.6047862, "lon": 12.8604409, "tags": {"ele": "600", "hiking": "yes", "information": "guidepost", "name": "Rozsocha", "operator": "cz:K\u010cT", "ref": "DO251", "tourism": "information"}}, {"type": "node", "id": 972775869, "lat": 49.6189346, "lon": 12.8691844, "tags": {"ele": "490", "hiking": "yes", "information": "guidepost", "name": "Pod jedlov\u00fdm vrchem (rozc.)", "operator": "cz:K\u010cT", "ref": "DO124", "tourism": "information"}}, {"type": "node", "id": 972775896, "lat": 49.6004493, "lon": 12.8867167, "tags": {"information": "board", "name": "Nau\u010dn\u00e1 stezka Sedmiho\u0159\u00ed", "ref": "1", "tourism": "information"}}, {"type": "node", "id": 972775909, "lat": 49.6085498, "lon": 12.8876599, "tags": {"ele": "490", "hiking": "yes", "information": "guidepost", "name": "U ru\u010di\u010dek", "operator": "cz:K\u010cT", "ref": "DO123", "tourism": "information"}}, {"type": "node", "id": 972776054, "lat": 49.6181405, "lon": 12.8557513, "tags": {"board_type": "nature", "description": "7. zast\u00e1vka", "information": "board", "name": "Sedlo pod Racovsk\u00fdm vrchem", "ref": "7", "tourism": "information"}}, {"type": "node", "id": 972776079, "lat": 49.6027121, "lon": 12.8782085, "tags": {"description": "10. zast\u00e1vka", "information": "board", "name": "Nau\u010dn\u00e1 stezka sedmiho\u0159\u00ed", "tourism": "information"}}, {"type": "node", "id": 972776112, "lat": 49.6149591, "lon": 12.8567023, "tags": {"ele": "592", "hiking": "yes", "information": "guidepost", "name": "Vidick\u00fd vrch", "operator": "cz:K\u010cT", "ref": "DO252", "tourism": "information"}}, {"type": "node", "id": 972776274, "lat": 49.6070956, "lon": 12.8588864, "tags": {"board_type": "history", "description": "9. zast\u00e1vka", "information": "board", "name": "Nau\u010dn\u00e1 stezka sedmiho\u0159\u00ed", "tourism": "information"}}, {"type": "node", "id": 972776332, "lat": 49.6144287, "lon": 12.853292, "tags": {"board_type": "plants", "description": "8. zast\u00e1vka", "information": "board", "name": "Nau\u010dn\u00e1 stezka sedmiho\u0159\u00ed", "tourism": "information"}}, {"type": "node", "id": 972776355, "lat": 49.6045435, "lon": 12.8900986, "tags": {"board_type": "nature", "description": "Nau\u010dn\u00e1 stezka Sedmiho\u0159\u00ed", "information": "board", "name": "Lesn\u00ed hospod\u00e1\u0159stv\u00ed", "ref": "2", "tourism": "information"}}, {"type": "node", "id": 972776370, "lat": 49.6264114, "lon": 12.8742035, "tags": {"ele": "460", "hiking": "yes", "information": "guidepost", "name": "Chlum (rozc.)", "operator": "cz:K\u010cT", "ref": "DO126", "tourism": "information"}}, {"type": "node", "id": 972776452, "lat": 49.6006993, "lon": 12.8872493, "tags": {"ele": "450", "hiking": "yes", "information": "guidepost", "name": "M\u00ed\u0159kovsk\u00e9 rybn\u00edky", "operator": "cz:K\u010cT", "ref": "DO122", "tourism": "information"}}, {"type": "node", "id": 973958451, "lat": 49.6267077, "lon": 12.8346014, "tags": {"ele": "587", "hiking": "yes", "information": "guidepost", "name": "Va\u010dina", "operator": "cz:K\u010cT", "ref": "DO129", "tourism": "information"}}, {"type": "node", "id": 973958813, "lat": 49.6276671, "lon": 12.8008698, "tags": {"ele": "510", "hiking": "yes", "information": "guidepost", "name": "Bernartice", "operator": "cz:K\u010cT", "ref": "DO127", "tourism": "information"}}, {"type": "node", "id": 1094161774, "lat": 49.6994833, "lon": 12.9724425, "tags": {"ele": "390", "hiking": "yes", "information": "guidepost", "name": "b\u00fdval\u00fd Ko\u010dovsk\u00fd ml\u00fdn", "operator": "cz:K\u010cT", "ref": "TC402", "tourism": "information"}}, {"type": "node", "id": 1116772018, "lat": 49.6746442, "lon": 12.9287476, "tags": {"ele": "410", "information": "guidepost", "name": "Tun\u011bchodsk\u00fd ml\u00fdn na \u00dahlavce", "tourism": "information"}}, {"type": "node", "id": 1116772124, "lat": 49.6941344, "lon": 12.9494017, "tags": {"ele": "396", "hiking": "yes", "information": "guidepost", "name": "B\u00fdval\u00fd Benis\u016fv ml\u00fdn na \u00dahlavce", "operator": "cz:K\u010cT", "ref": "TC403", "tourism": "information"}}, {"type": "node", "id": 1116772138, "lat": 49.6538146, "lon": 12.899795, "tags": {"ele": "426", "hiking": "yes", "information": "guidepost", "name": "Prostibo\u0159", "operator": "cz:K\u010cT", "ref": "TC406", "tourism": "information"}}, {"type": "node", "id": 1116772161, "lat": 49.6559139, "lon": 12.9112283, "tags": {"ele": "436", "hiking": "yes", "information": "guidepost", "name": "Kopec", "operator": "cz:K\u010cT", "ref": "TC405", "tourism": "information"}}, {"type": "node", "id": 2165299832, "lat": 49.6665556, "lon": 12.9843575, "tags": {"ele": "539", "name": "\u0160ibeni\u010dn\u00ed vrch", "name:de": "Galgenberg", "natural": "peak", "source": "survey"}}, {"type": "node", "id": 2294788172, "lat": 49.7152646, "lon": 12.9806446, "tags": {"information": "map", "source": "survey", "tourism": "information"}}, {"type": "node", "id": 2294788189, "lat": 49.74172, "lon": 12.9987699, "tags": {"information": "board", "name": "\u0160tola Anton\u00edna Padu\u00e1nsk\u00fd", "source": "survey", "tourism": "information"}}, {"type": "node", "id": 2351828930, "lat": 49.6049177, "lon": 12.8599874, "tags": {"ele": "600", "name": "Rozsocha", "natural": "peak"}}, {"type": "node", "id": 2357183824, "lat": 49.6541264, "lon": 12.9266485, "tags": {"ele": "483", "name": "Valu\u0161ka", "natural": "peak"}}, {"type": "node", "id": 2357183825, "lat": 49.6348965, "lon": 12.886307, "tags": {"ele": "512", "name": "Nad myslivnou", "natural": "peak"}}, {"type": "node", "id": 2357183826, "lat": 49.6420391, "lon": 12.9105542, "tags": {"ele": "481", "name": "Li\u0161\u010d\u00ed vrch", "natural": "peak"}}, {"type": "node", "id": 2359332985, "lat": 49.5935873, "lon": 12.813116, "tags": {"ele": "460", "hiking": "yes", "information": "guidepost", "name": "M\u011blnice", "operator": "cz:K\u010cT", "ref": "DO262", "tourism": "information"}}, {"type": "node", "id": 2359332986, "lat": 49.5757376, "lon": 12.9088012, "tags": {"ele": "430", "hiking": "yes", "information": "guidepost", "name": "Nov\u00fd Dv\u016fr", "operator": "cz:K\u010cT", "ref": "DO249", "tourism": "information"}}, {"type": "node", "id": 2359333023, "lat": 49.6182247, "lon": 12.8557092, "tags": {"access": "yes", "amenity": "shelter", "backcountry": "yes", "camp_site": "basic", "description": "bivakovac\u00ed p\u0159\u00edst\u0159e\u0161ek", "drinking_water": "no", "fireplace": "yes", "group_only": "no", "name": "U Vidic", "scout": "no", "shelter": "yes", "shelter_type": "lean_to", "tourism": "camp_site"}}, {"type": "node", "id": 2576022405, "lat": 49.710743, "lon": 12.85861}, {"type": "node", "id": 2576022406, "lat": 49.710758, "lon": 12.858846}, {"type": "node", "id": 2576022408, "lat": 49.710833, "lon": 12.858596}, {"type": "node", "id": 2576022410, "lat": 49.710849, "lon": 12.858831}, {"type": "node", "id": 2627615962, "lat": 49.6480081, "lon": 12.9295983, "tags": {"amenity": "shelter", "source": "survey"}}, {"type": "node", "id": 2627615973, "lat": 49.6487592, "lon": 12.9272872, "tags": {"source": "survey", "tourism": "information"}}, {"type": "node", "id": 2627616120, "lat": 49.6592412, "lon": 12.9827326, "tags": {"amenity": "shelter", "source": "survey"}}, {"type": "node", "id": 2627616125, "lat": 49.6594795, "lon": 12.9823532, "tags": {"source": "survey", "tourism": "information"}}, {"type": "node", "id": 2998280434, "lat": 49.720868, "lon": 13.0000235, "tags": {"ele": "386", "hiking": "yes", "information": "guidepost", "name": "Pekelsk\u00fd ml\u00fdn", "operator": "cz:K\u010cT", "ref": "TC028", "tourism": "information"}}, {"type": "node", "id": 3822170393, "lat": 49.5875616, "lon": 12.994706, "tags": {"hiking": "yes", "information": "guidepost", "name": "Bukovec", "operator": "cz:K\u010cT", "ref": "DO134", "tourism": "information"}}, {"type": "node", "id": 4704523369, "lat": 49.7117746, "lon": 12.9934132}, {"type": "node", "id": 4704523370, "lat": 49.7118051, "lon": 12.993565}, {"type": "node", "id": 4704523371, "lat": 49.711877, "lon": 12.9935306}, {"type": "node", "id": 4704523372, "lat": 49.7118464, "lon": 12.9933788}, {"type": "node", "id": 5007934633, "lat": 49.6265313, "lon": 12.8759256, "tags": {"ele": "480", "hiking": "yes", "information": "guidepost", "name": "Skaln\u00ed m\u00edsy", "operator": "cz:K\u010cT", "ref": "DO505", "tourism": "information"}}, {"type": "node", "id": 5360445939, "lat": 49.7154583, "lon": 12.8126389, "tags": {"hiking": "yes", "information": "guidepost", "name": "Skvi\u0159\u00edn", "operator": "cz:K\u010cT", "ref": "TC121", "tourism": "information"}}, {"type": "node", "id": 5360511901, "lat": 49.7423009, "lon": 12.8491169, "tags": {"ele": "490", "hiking": "yes", "information": "guidepost", "name": "U D\u00e1lnice", "operator": "cz:K\u010cT", "ref": "TC504", "tourism": "information"}}, {"type": "node", "id": 5360592431, "lat": 49.7480136, "lon": 12.880995, "tags": {"ele": "514", "hiking": "yes", "information": "guidepost", "name": "Lom \u017est", "operator": "cz:K\u010cT", "ref": "TC514", "tourism": "information"}}, {"type": "node", "id": 5360991691, "lat": 49.7473412, "lon": 12.9402101, "tags": {"ele": "384", "hiking": "yes", "information": "guidepost", "name": "Mil\u00edkov", "operator": "cz:K\u010cT", "ref": "TC007", "tourism": "information"}}, {"type": "node", "id": 5361071496, "lat": 49.7421033, "lon": 12.9737431, "tags": {"ele": "416", "hiking": "yes", "information": "guidepost", "name": "Pod Romanem", "operator": "cz:K\u010cT", "ref": "TC006", "tourism": "information"}}, {"type": "node", "id": 5361071497, "lat": 49.7493308, "lon": 12.9995888, "tags": {"ele": "352", "hiking": "yes", "information": "guidepost", "name": "U Branky", "operator": "cz:K\u010cT", "ref": "TC004", "tourism": "information"}}, {"type": "node", "id": 5361071498, "lat": 49.7517812, "lon": 12.9988861, "tags": {"ele": "350", "hiking": "yes", "information": "guidepost", "name": "Kostel\u00edk Panny Marie", "operator": "cz:K\u010cT", "ref": "TC025", "tourism": "information"}}, {"type": "node", "id": 5380691926, "lat": 49.5632879, "lon": 12.9926366, "tags": {"ele": "450", "hiking": "yes", "information": "guidepost", "name": "Doubrava", "operator": "cz:K\u010cT", "ref": "DO163", "tourism": "information"}}, {"type": "node", "id": 5387119440, "lat": 49.664937, "lon": 12.9413044, "tags": {"ele": "472", "hiking": "yes", "information": "guidepost", "name": "U k\u0159\u00ed\u017ee", "operator": "cz:K\u010cT", "ref": "TC044", "tourism": "information"}}, {"type": "node", "id": 5387119461, "lat": 49.6809792, "lon": 12.955032, "tags": {"ele": "462", "hiking": "yes", "information": "guidepost", "name": "Milevo", "operator": "cz:K\u010cT", "ref": "TC043", "tourism": "information"}}, {"type": "node", "id": 5389361556, "lat": 49.6419528, "lon": 12.8778917, "tags": {"ele": "438", "hiking": "yes", "information": "guidepost", "name": "Darmy\u0161l", "operator": "cz:K\u010cT", "ref": "TC407", "tourism": "information"}}, {"type": "node", "id": 5389443697, "lat": 49.6238719, "lon": 12.9042631, "tags": {"ele": "440", "hiking": "yes", "information": "guidepost", "name": "Mezholezy", "operator": "cz:K\u010cT", "ref": "DO131", "tourism": "information"}}, {"type": "node", "id": 5392126065, "lat": 49.5541605, "lon": 12.9232156, "tags": {"ele": "410", "hiking": "yes", "information": "guidepost", "name": "Kocourov", "operator": "cz:K\u010cT", "ref": "DO247", "tourism": "information"}}, {"type": "node", "id": 5392193753, "lat": 49.565111, "lon": 12.9142517, "tags": {"ele": "410", "hiking": "yes", "information": "guidepost", "name": "Doln\u00ed Metelsko", "operator": "cz:K\u010cT", "ref": "DO248", "tourism": "information"}}, {"type": "node", "id": 5392246902, "lat": 49.58897, "lon": 12.8807526, "tags": {"ele": "480", "hiking": "yes", "information": "guidepost", "name": "M\u00ed\u0159kov", "operator": "cz:K\u010cT", "ref": "DO121", "tourism": "information"}}, {"type": "node", "id": 5392247421, "lat": 49.5904783, "lon": 12.9100559, "tags": {"bicycle": "no", "ele": "430", "hiking": "yes", "information": "guidepost", "name": "K\u0159akov", "operator": "cz:K\u010cT", "ref": "DO250", "tourism": "information"}}, {"type": "node", "id": 5392323543, "lat": 49.5934936, "lon": 12.8515953, "tags": {"ele": "480", "hiking": "yes", "information": "guidepost", "name": "Dv\u016fr Nasetice", "operator": "cz:K\u010cT", "ref": "DO120", "tourism": "information"}}, {"type": "node", "id": 5392495216, "lat": 49.5538682, "lon": 12.8208679, "tags": {"ele": "507", "hiking": "yes", "information": "guidepost", "name": "Pt\u00e1\u010dn\u00edk", "operator": "cz:K\u010cT", "ref": "DO116", "tourism": "information"}}, {"type": "node", "id": 5392495274, "lat": 49.5665166, "lon": 12.8338283, "tags": {"ele": "400", "hiking": "yes", "information": "guidepost", "name": "Tasnovice", "operator": "cz:K\u010cT", "ref": "DO117", "tourism": "information"}}, {"type": "node", "id": 5392495285, "lat": 49.5662835, "lon": 12.8249663, "tags": {"ele": "470", "hiking": "yes", "information": "guidepost", "name": "Sv. Vav\u0159inec kostel", "operator": "cz:K\u010cT", "ref": "DO281", "tourism": "information"}}, {"type": "node", "id": 5392495622, "lat": 49.5800105, "lon": 12.8303951, "tags": {"ele": "440", "hiking": "yes", "information": "guidepost", "name": "Oplotec", "operator": "cz:K\u010cT", "ref": "DO119", "tourism": "information"}}, {"type": "node", "id": 5747793957, "lat": 49.6308875, "lon": 12.870242, "tags": {"ele": "610", "name": "Chlum", "natural": "peak"}}, {"type": "node", "id": 6187778811, "lat": 49.6296618, "lon": 12.8643343, "tags": {"ele": "580", "natural": "peak"}}, {"type": "node", "id": 6187779092, "lat": 49.6275206, "lon": 12.8618157, "tags": {"ele": "572", "natural": "peak"}}, {"type": "node", "id": 6187788712, "lat": 49.622003, "lon": 12.8556413, "tags": {"ele": "619", "name": "Racovsk\u00fd vrch", "natural": "peak"}}, {"type": "node", "id": 6187788713, "lat": 49.6135293, "lon": 12.8563276, "tags": {"ele": "589", "name": "T\u0159\u00edstolec", "natural": "peak"}}, {"type": "node", "id": 6187788714, "lat": 49.6129693, "lon": 12.8519313, "tags": {"ele": "552", "natural": "peak"}}, {"type": "node", "id": 6187788715, "lat": 49.6067619, "lon": 12.8631029, "tags": {"name": "582", "natural": "peak"}}, {"type": "node", "id": 6187788716, "lat": 49.6073505, "lon": 12.869435, "tags": {"ele": "582", "name": "P\u00edse\u010dn\u00fd vrch", "natural": "peak"}}, {"type": "node", "id": 6187788717, "lat": 49.6055446, "lon": 12.8813778, "tags": {"ele": "562", "name": "Rybni\u010dn\u00ed vrch", "natural": "peak"}}, {"type": "node", "id": 6187788718, "lat": 49.6129969, "lon": 12.8720427, "tags": {"ele": "523", "name": "Jedlov\u00fd vrch", "natural": "peak"}}, {"type": "node", "id": 6187795864, "lat": 49.6151036, "lon": 12.8808661, "tags": {"ele": "545", "name": "Stinn\u00fd vrch", "natural": "peak"}}, {"type": "node", "id": 6187795865, "lat": 49.6074931, "lon": 12.9001888, "tags": {"ele": "563", "name": "K\u0159akovsk\u00fd vrch", "natural": "peak"}}, {"type": "node", "id": 6187795866, "lat": 49.6124428, "lon": 12.9040785, "tags": {"ele": "532", "name": "Mal\u00fd K\u0159akovsk\u00fd vrch", "natural": "peak"}}, {"type": "node", "id": 6187795867, "lat": 49.6026434, "lon": 12.9324848, "tags": {"ele": "522", "name": "Prase\u010d\u00ed", "natural": "peak"}}, {"type": "node", "id": 6187795868, "lat": 49.611607, "lon": 12.9287064, "tags": {"ele": "519", "name": "Semn\u011bvick\u00fd les", "natural": "peak"}}, {"type": "node", "id": 6437944059, "lat": 49.6343332, "lon": 12.8193467}, {"type": "node", "id": 6437944060, "lat": 49.6343617, "lon": 12.8194025}, {"type": "node", "id": 6437944061, "lat": 49.634387, "lon": 12.8193721}, {"type": "node", "id": 6437944062, "lat": 49.634358, "lon": 12.8193159}, {"type": "node", "id": 6480976612, "lat": 49.5665445, "lon": 12.8275037, "tags": {"ele": "470", "hiking": "yes", "information": "guidepost", "name": "Svat\u00fd Vav\u0159inec odb.", "operator": "cz:K\u010cT", "ref": "DO118", "tourism": "information"}}, {"type": "node", "id": 7640739752, "lat": 49.6051619, "lon": 12.860747, "tags": {"board_type": "geology", "information": "board", "name": "Kulovit\u00e9 v\u011btr\u00e1n\u00ed \u017eul", "ref": "13", "tourism": "information"}}, {"type": "node", "id": 7657278879, "lat": 49.5977696, "lon": 12.9288134, "tags": {"information": "map", "map_size": "region", "map_type": "topo", "tourism": "information"}}, {"type": "node", "id": 7657278880, "lat": 49.5976131, "lon": 12.9284942, "tags": {"board_type": "nature", "information": "board", "tourism": "information"}}, {"type": "node", "id": 7657278881, "lat": 49.5977583, "lon": 12.9283333, "tags": {"board_type": "history", "information": "board", "tourism": "information"}}, {"type": "node", "id": 7657312092, "lat": 49.5891764, "lon": 12.8797189, "tags": {"information": "map", "map_size": "region", "map_type": "topo", "tourism": "information"}}, {"type": "node", "id": 7662369558, "lat": 49.6399007, "lon": 12.843554, "tags": {"information": "map", "map_size": "region", "map_type": "topo", "tourism": "information"}}, {"type": "node", "id": 7662369559, "lat": 49.6398789, "lon": 12.8435862, "tags": {"board_type": "history", "information": "board", "tourism": "information"}}, {"type": "node", "id": 7662369564, "lat": 49.642018, "lon": 12.8778259, "tags": {"board_type": "history", "information": "board", "tourism": "information"}}, {"type": "node", "id": 7662369565, "lat": 49.6420093, "lon": 12.8778622, "tags": {"information": "map", "map_size": "region", "map_type": "topo", "tourism": "information"}}, {"type": "node", "id": 7681260474, "lat": 49.6535305, "lon": 12.8978862, "tags": {"information": "board", "tourism": "information"}}, {"type": "node", "id": 7681260476, "lat": 49.6535791, "lon": 12.8979036, "tags": {"information": "board", "tourism": "information"}}, {"type": "node", "id": 7681277286, "lat": 49.6566361, "lon": 12.9905096, "tags": {"information": "board", "tourism": "information"}}, {"type": "node", "id": 7681277289, "lat": 49.7388975, "lon": 12.8191285, "tags": {"information": "board", "name": "Malovice", "tourism": "information"}}, {"type": "node", "id": 8719496653, "lat": 49.7434707, "lon": 13.0003128, "tags": {"hiking": "yes", "information": "guidepost", "name": "U \u0160est\u00e1k\u016f", "operator": "cz:K\u010cT", "ref": "TC138", "tourism": "information"}}, {"type": "node", "id": 8719496660, "lat": 49.7492355, "lon": 12.9994209, "tags": {"information": "map", "tourism": "information"}}, {"type": "node", "id": 8783734394, "lat": 49.6606279, "lon": 12.8036749, "tags": {"ele": "494", "name": "Hamersk\u00fd vrch", "natural": "peak"}}, {"type": "node", "id": 8783734395, "lat": 49.6535991, "lon": 12.8052199, "tags": {"ele": "509", "name": "Homolka", "natural": "peak"}}, {"type": "node", "id": 8783734396, "lat": 49.6450792, "lon": 12.8033692, "tags": {"ele": "579", "name": "Homole", "natural": "peak"}}, {"type": "node", "id": 8783734397, "lat": 49.6388784, "lon": 12.8022158, "tags": {"ele": "579", "name": "P\u00edskov\u00fd vrch", "natural": "peak"}}, {"type": "node", "id": 8783781693, "lat": 49.5529042, "lon": 12.8218603, "tags": {"ele": "507", "name": "Pt\u00e1\u010dn\u00edk", "natural": "peak"}}, {"type": "node", "id": 8922581666, "lat": 49.5896035, "lon": 12.881343, "tags": {"amenity": "shelter", "shelter_type": "picnic_shelter"}}, {"type": "node", "id": 8922581667, "lat": 49.6247967, "lon": 12.9046591, "tags": {"board_type": "notice", "description": "\u00da\u0159edn\u00ed deska O\u00da Mezholezy", "information": "board", "tourism": "information"}}, {"type": "node", "id": 9004872266, "lat": 49.7133736, "lon": 12.8160054}, {"type": "node", "id": 9004872267, "lat": 49.7134621, "lon": 12.8158479}, {"type": "node", "id": 9004872268, "lat": 49.7134211, "lon": 12.8157931}, {"type": "node", "id": 9004872269, "lat": 49.713333, "lon": 12.8159504}, {"type": "node", "id": 9674849610, "lat": 49.6080336, "lon": 12.8612206, "tags": {"tourism": "viewpoint"}}, {"type": "node", "id": 9674866203, "lat": 49.6540814, "lon": 12.9242595, "tags": {"information": "board", "tourism": "information"}}, {"type": "node", "id": 9674866211, "lat": 49.6647246, "lon": 12.9843882, "tags": {"tourism": "viewpoint"}}, {"type": "node", "id": 9743482386, "lat": 49.6064279, "lon": 12.8629819, "tags": {"tourism": "viewpoint"}}, {"type": "node", "id": 10269547704, "lat": 49.639651, "lon": 12.9212771, "tags": {"information": "map", "tourism": "information"}}, {"type": "node", "id": 10779388187, "lat": 49.7421467, "lon": 12.8387046, "tags": {"amenity": "shelter", "name": "Bor, M\u00e1lkovice", "public_transport": "platform", "shelter_type": "public_transport"}}, {"type": "node", "id": 10821129176, "lat": 49.7120589, "lon": 12.9972028, "tags": {"board_type": "history", "description": "P\u0159\u00edroda a ekosyst\u00e9my v okol\u00ed Kladrub", "information": "board", "name": "Kladrubsk\u00fd kl\u00e1\u0161ter", "ref": "01", "tourism": "information"}}, {"type": "node", "id": 10821140797, "lat": 49.7114196, "lon": 12.9914366, "tags": {"board_type": "nature", "description": "P\u0159\u00edroda a ekosyst\u00e9my v okol\u00ed Kladrub", "information": "board", "name": "Vegeta\u010dn\u00ed patra", "ref": "04", "tourism": "information"}}, {"type": "node", "id": 10821180351, "lat": 49.7109053, "lon": 12.9970567, "tags": {"board_type": "nature", "description": "P\u0159\u00edroda a ekosyst\u00e9my v okol\u00ed Kladrub", "information": "board", "name": "Jak dlouho roste strom?", "ref": "02", "tourism": "information"}}, {"type": "node", "id": 10821198767, "lat": 49.7152053, "lon": 12.9833722, "tags": {"description": "P\u0159\u00edroda a ekosyst\u00e9my v okol\u00ed Kladrub", "information": "board", "name": "Zemsk\u00e9 stezky", "ref": "07", "tourism": "information"}}, {"type": "node", "id": 10821201793, "lat": 49.7108214, "lon": 12.9869833, "tags": {"board_type": "nature", "description": "P\u0159\u00edroda a ekosyst\u00e9my v okol\u00ed Kladrub", "information": "board", "name": "\u0158eka \u00dahlavka", "ref": "05", "tourism": "information"}}, {"type": "node", "id": 10960067231, "lat": 49.7470319, "lon": 12.9394398}, {"type": "node", "id": 10960067232, "lat": 49.7469992, "lon": 12.9393511}, {"type": "node", "id": 10960067233, "lat": 49.7469656, "lon": 12.9393808}, {"type": "node", "id": 10960067234, "lat": 49.7469983, "lon": 12.9394695}, {"type": "node", "id": 11005504578, "lat": 49.634583, "lon": 12.8207182}, {"type": "node", "id": 11005504579, "lat": 49.6345539, "lon": 12.8206109}, {"type": "node", "id": 11005504580, "lat": 49.6345204, "lon": 12.8206326}, {"type": "node", "id": 11005504581, "lat": 49.6345494, "lon": 12.8207398}, {"type": "node", "id": 11005568821, "lat": 49.6655894, "lon": 12.8631761}, {"type": "node", "id": 11005568822, "lat": 49.6656395, "lon": 12.8631873}, {"type": "node", "id": 11005568823, "lat": 49.6656268, "lon": 12.8633165}, {"type": "node", "id": 11005568824, "lat": 49.6655763, "lon": 12.8633023}, {"type": "node", "id": 11148198019, "lat": 49.6899758, "lon": 12.8984878, "tags": {"ele": "494", "name": "Kle\u0161tiny", "natural": "peak"}}, {"type": "node", "id": 11193279500, "lat": 49.7132914, "lon": 12.813229, "tags": {"amenity": "shelter", "bench": "yes", "bin": "yes", "highway": "platform", "name": "Skvi\u0159\u00edn", "name:cs": "Skvi\u0159\u00edn", "name:de": "Speierling", "operator": "cz:S\u017dDC", "public_transport": "platform", "railway": "halt", "railway:ref": "765651", "shelter": "yes", "shelter_type": "public_transport", "train": "yes", "wikidata": "Q66888522"}}, {"type": "node", "id": 11207362889, "lat": 49.7218405, "lon": 12.9049078, "tags": {"information": "map", "map_type": "scheme", "tourism": "information"}}, {"type": "node", "id": 11207362890, "lat": 49.7219253, "lon": 12.9048782, "tags": {"information": "board", "tourism": "information"}}, {"type": "node", "id": 11308256756, "lat": 49.7013841, "lon": 12.8919077, "tags": {"name": "zanikl\u00fd V\u00fdrovsk\u00fd ml\u00fdn", "name:de": "Wierauer M\u00fchle", "tourism": "attraction", "was:building": "watermill", "was:man_made": "watermill", "watermill": "yes"}}, {"type": "node", "id": 11378137197, "lat": 49.6868206, "lon": 12.9362622}, {"type": "node", "id": 11378137198, "lat": 49.6868789, "lon": 12.936304}, {"type": "node", "id": 11378137199, "lat": 49.6868637, "lon": 12.9363483}, {"type": "node", "id": 11378137200, "lat": 49.6868262, "lon": 12.9363196}, {"type": "node", "id": 11395000622, "lat": 49.7048048, "lon": 12.8693418, "tags": {"access": "yes", "amenity": "shelter", "beds": "no", "bench": "yes", "shelter_type": "lean_to", "table": "yes"}}, {"type": "node", "id": 11403030762, "lat": 49.7049882, "lon": 12.8836647, "tags": {"access": "yes", "amenity": "shelter", "bench": "yes", "drinking_water": "no", "shelter_type": "basic_hut", "shower": "no", "tourism": "wilderness_hut"}}, {"type": "node", "id": 11415577781, "lat": 49.7210725, "lon": 12.9991455}, {"type": "node", "id": 11415577782, "lat": 49.72097, "lon": 12.9989043}, {"type": "node", "id": 11415577783, "lat": 49.7209272, "lon": 12.9989478}, {"type": "node", "id": 11415577784, "lat": 49.7210297, "lon": 12.999189}, {"type": "node", "id": 11738342515, "lat": 49.6238614, "lon": 12.8092164, "tags": {"hiking": "yes", "information": "guidepost", "name": "rozhledna B\u0159ezinka odb.", "operator": "cz:K\u010cT", "tourism": "information"}}, {"type": "node", "id": 11738342516, "lat": 49.614516, "lon": 12.8358883, "tags": {"ele": "500", "hiking": "yes", "information": "guidepost", "name": "Vidice", "operator": "cz:K\u010cT", "ref": "DO184", "tourism": "information"}}, {"type": "node", "id": 11795742800, "lat": 49.7218829, "lon": 12.9048463}, {"type": "node", "id": 11795742801, "lat": 49.7218628, "lon": 12.9048547}, {"type": "node", "id": 11795742802, "lat": 49.7218674, "lon": 12.9048811}, {"type": "node", "id": 11795742803, "lat": 49.7218875, "lon": 12.9048727}, {"type": "node", "id": 11795742809, "lat": 49.7218485, "lon": 12.9048518, "tags": {"tourism": "viewpoint"}}, {"type": "node", "id": 11945014802, "lat": 49.6548895, "lon": 12.8866555}, {"type": "node", "id": 11945014804, "lat": 49.6548226, "lon": 12.8866827}, {"type": "node", "id": 11945014805, "lat": 49.6547592, "lon": 12.8867504}, {"type": "node", "id": 11945014806, "lat": 49.6546326, "lon": 12.8869}, {"type": "node", "id": 11945014807, "lat": 49.6545364, "lon": 12.8869903}, {"type": "node", "id": 11945014808, "lat": 49.6545023, "lon": 12.8870815}, {"type": "node", "id": 11945014809, "lat": 49.6543422, "lon": 12.8872846}, {"type": "node", "id": 11945014810, "lat": 49.6542448, "lon": 12.8874511}, {"type": "node", "id": 11945014830, "lat": 49.6571688, "lon": 12.9103258}, {"type": "node", "id": 11945014831, "lat": 49.6571986, "lon": 12.9104025}, {"type": "node", "id": 11945014832, "lat": 49.6570804, "lon": 12.9105105}, {"type": "node", "id": 11945014833, "lat": 49.6570601, "lon": 12.9104415}, {"type": "node", "id": 11973472351, "lat": 49.7343111, "lon": 12.8435647, "tags": {"information": "board", "tourism": "information"}}, {"type": "node", "id": 11973472368, "lat": 49.7417916, "lon": 12.8616681, "tags": {"name": "Pokusn\u00e1 plocha V\u00daLHM - Bene\u0161ovice", "tourism": "attraction", "website": "https://www.vulhm.cz/monitoring-stavu-lesa/"}}, {"type": "node", "id": 11973472369, "lat": 49.7417144, "lon": 12.8617741, "tags": {"information": "board", "name": "Monitoring lesn\u00edch ekosyst\u00e9m\u016f", "tourism": "information"}}, {"type": "node", "id": 12151928362, "lat": 49.6071401, "lon": 12.8285719, "tags": {"name": "Sedlov\u00fd vrch", "natural": "peak", "place": "locality", "website": "https://lokality.geology.cz/400"}}, {"type": "node", "id": 12855838616, "lat": 49.6136336, "lon": 12.8348364, "tags": {"amenity": "shelter"}}, {"type": "node", "id": 12855838617, "lat": 49.6136563, "lon": 12.8347819, "tags": {"information": "board", "tourism": "information"}}, {"type": "node", "id": 12865048012, "lat": 49.715053, "lon": 12.9935136, "tags": {"information": "board", "name": "Svat\u00fd Jan Nepomuck\u00fd", "tourism": "information"}}, {"type": "node", "id": 12865094655, "lat": 49.7163402, "lon": 12.9959735, "tags": {"amenity": "shelter", "shelter_type": "picnic_shelter"}}, {"type": "node", "id": 13019694449, "lat": 49.5632264, "lon": 12.9926785, "tags": {"amenity": "shelter", "shelter_type": "picnic_shelter"}}, {"type": "node", "id": 13021025501, "lat": 49.5542511, "lon": 12.9230326, "tags": {"amenity": "shelter", "shelter_type": "picnic_shelter"}}, {"type": "node", "id": 13021025502, "lat": 49.5539012, "lon": 12.9218899, "tags": {"amenity": "shelter", "shelter_type": "picnic_shelter"}}, {"type": "node", "id": 13021025503, "lat": 49.5540519, "lon": 12.9218579, "tags": {"board_type": "history", "information": "board", "name": "Kocourov", "tourism": "information"}}, {"type": "node", "id": 13021025506, "lat": 49.5534014, "lon": 12.9204987, "tags": {"board_type": "history", "information": "board", "name": "Kocourov", "tourism": "information"}}, {"type": "node", "id": 13021209797, "lat": 49.5798009, "lon": 12.830354, "tags": {"amenity": "shelter", "shelter_type": "picnic_shelter"}}, {"type": "node", "id": 13021219621, "lat": 49.6006488, "lon": 12.8870422, "tags": {"bicycle": "yes", "information": "guidepost", "name": "Mi\u0159kovsk\u00e9 rybn\u00edky", "operator": "cz:K\u010cT", "tourism": "information"}}, {"type": "node", "id": 13021219622, "lat": 49.6067099, "lon": 12.8917053, "tags": {"amenity": "shelter", "shelter_type": "picnic_shelter"}}, {"type": "node", "id": 13021219623, "lat": 49.6126631, "lon": 12.8780582, "tags": {"board_type": "nature", "description": "Nau\u010dn\u00e1 stezka Sedmiho\u0159\u00ed", "information": "board", "name": "Geologick\u00e9 pom\u011bry Sedmiho\u0159\u00ed", "ref": "4", "tourism": "information"}}, {"type": "node", "id": 13021219625, "lat": 49.6142673, "lon": 12.8688897, "tags": {"board_type": "nature", "description": "Nau\u010dn\u00e1 stezka Sedmiho\u0159\u00ed", "information": "board", "name": "Kamenick\u00e9 \u0159emeslo v Sedmiho\u0159\u00ed", "ref": "5", "tourism": "information"}}, {"type": "node", "id": 13021219631, "lat": 49.6237187, "lon": 12.9559056, "tags": {"amenity": "shelter", "shelter_type": "picnic_shelter"}}, {"type": "node", "id": 13021219633, "lat": 49.6311735, "lon": 12.9791405, "tags": {"amenity": "shelter", "shelter_type": "picnic_shelter"}}, {"type": "node", "id": 13021238257, "lat": 49.633296, "lon": 12.8968686, "tags": {"bicycle": "yes", "information": "guidepost", "name": "Mezholezsk\u00fd rybn\u00edk", "operator": "cz:K\u010cT", "tourism": "information"}}, {"type": "node", "id": 13067336897, "lat": 49.7120293, "lon": 12.9974062, "tags": {"amenity": "shelter", "shelter_type": "picnic_shelter"}}, {"type": "node", "id": 13067351204, "lat": 49.7161583, "lon": 12.9966325, "tags": {"board_type": "history", "description": "P\u0159\u00edroda a ekosyst\u00e9my v okol\u00ed Kladrub", "information": "board", "name": "Kalv\u00e1rie", "ref": "15", "tourism": "information"}}, {"type": "node", "id": 13067351206, "lat": 49.7161841, "lon": 12.9956364, "tags": {"tourism": "viewpoint"}}, {"type": "node", "id": 13067351216, "lat": 49.7189011, "lon": 12.9994649, "tags": {"board_type": "nature", "description": "P\u0159\u00edroda a ekosyst\u00e9my v okol\u00ed Kladrub", "information": "board", "name": "Mravenci a mraveni\u0161t\u011b", "ref": "14", "tourism": "information"}}, {"type": "node", "id": 13069392035, "lat": 49.7191328, "lon": 12.9878392, "tags": {"board_type": "nature", "description": "P\u0159\u00edroda a ekosyst\u00e9my v okol\u00ed Kladrub", "information": "board", "name": "Kudy tekla \u00dahlavka", "ref": "11", "tourism": "information"}}, {"type": "node", "id": 13069392036, "lat": 49.7186973, "lon": 12.9860432, "tags": {"board_type": "nature", "description": "P\u0159\u00edroda a ekosyst\u00e9my v okol\u00ed Kladrub", "information": "board", "name": "T\u011b\u017eba rud", "ref": "10", "tourism": "information"}}, {"type": "node", "id": 13069392037, "lat": 49.7158954, "lon": 12.9889175, "tags": {"board_type": "nature", "description": "P\u0159\u00edroda a ekosyst\u00e9my v okol\u00ed Kladrub", "information": "board", "name": "\u010cist\u00edrna odpadn\u00edch vod", "ref": "9", "tourism": "information"}}, {"type": "node", "id": 13069392038, "lat": 49.7155441, "lon": 12.9867375, "tags": {"board_type": "history", "description": "P\u0159\u00edroda a ekosyst\u00e9my v okol\u00ed Kladrub", "information": "board", "name": "\u0160kolstv\u00ed v Kladrubech", "ref": "8", "tourism": "information"}}, {"type": "node", "id": 13069392039, "lat": 49.7148642, "lon": 12.9820785, "tags": {"board_type": "history", "description": "P\u0159\u00edroda a ekosyst\u00e9my v okol\u00ed Kladrub", "information": "board", "name": "Historie Kladrub", "ref": "6", "tourism": "information"}}, {"type": "node", "id": 13069392041, "lat": 49.7107135, "lon": 12.9886404, "tags": {"amenity": "shelter", "shelter_type": "picnic_shelter"}}, {"type": "node", "id": 13069392042, "lat": 49.7117306, "lon": 12.993384, "tags": {"board_type": "history", "description": "P\u0159\u00edroda a ekosyst\u00e9my v okol\u00ed Kladrub", "information": "board", "name": "Divadlo v p\u0159\u00edrod\u011b", "ref": "3", "tourism": "information"}}, {"type": "way", "id": 251377800, "nodes": [2576022410, 2576022406, 2576022405, 2576022408, 2576022410], "tags": {"access": "private", "addr:city": "Bor", "addr:country": "CZ", "addr:housenumber": "ev.9", "addr:place": "Holost\u0159evy", "addr:postcode": "34802", "addr:provisionalnumber": "9", "alt_name:de": "Haberm\u00fchle", "area": "yes", "building": "watermill", "building:material": "masonry", "building:use": "residential", "disused:watermill": "yes", "man_made": "watermill", "name": "Havl\u016fv ml\u00fdn", "name:de": "Habelm\u00fchle", "ref:ruian:addr": "15618633", "roof:shape": "gabled", "source": "cuzk:km", "source:addr": "cuzk:ruian", "tourism": "attraction", "type": "multipolygon"}}, {"type": "way", "id": 477042898, "nodes": [4704523372, 4704523371, 4704523370, 4704523369, 4704523372], "tags": {"building:ruian:type": "15", "end_date": "1970", "name": "Zanikl\u00e9 divadlo v p\u0159\u00edrod\u011b", "ref:ruian:building": "38288397", "ruins": "remnants", "ruins:building": "theatre", "source": "cuzk:ruian", "start_date": "1730", "tourism": "attraction"}}, {"type": "way", "id": 686807614, "nodes": [6437944062, 6437944061, 6437944060, 6437944059, 6437944062], "tags": {"amenity": "shelter", "bench": "yes", "bin": "yes", "building": "transportation", "building:ruian:type": "19", "bus": "yes", "covered": "yes", "departures_board": "timetable", "highway": "bus_stop", "name": "Strachovice", "official_name": "Str\u00e1\u017e, Strachovice", "public_transport": "platform", "ref:CIS_JR": "33427", "ref:ruian:building": "38315084", "shelter": "yes", "shelter_type": "public_transport", "source": "cuzk:ruian"}}, {"type": "way", "id": 972921237, "nodes": [9004872269, 9004872268, 9004872267, 9004872266, 9004872269], "tags": {"access": "private", "addr:conscriptionnumber": "68", "addr:housenumber": "68", "addr:place": "Skvi\u0159\u00edn", "addr:postcode": "34802", "area": "yes", "building": "watermill", "building:levels": "1", "building:material": "masonry", "building:ruian:type": "19", "building:use": "residential", "disused:watermill": "yes", "man_made": "watermill", "name": "Skvi\u0159\u00ednsk\u00fd ml\u00fdn", "name:de": "Speierlinger M\u00fchle", "ref:ruian:addr": "78331111", "ref:ruian:building": "93962665", "roof:shape": "gabled", "source": "cuzk:ruian", "start_date": "2018-04-23", "tourism": "attraction", "type": "multipolygon"}}, {"type": "way", "id": 1180046802, "nodes": [10960067231, 10960067232, 10960067233, 10960067234, 10960067231], "tags": {"amenity": "shelter", "area": "yes", "building": "roof", "shelter_type": "weather_shelter"}}, {"type": "way", "id": 1184807463, "nodes": [11005504578, 11005504579, 11005504580, 11005504581, 11005504578], "tags": {"amenity": "shelter", "area": "yes", "building": "roof"}}, {"type": "way", "id": 1184807480, "nodes": [11005568821, 11005568822, 11005568823, 11005568824]}, {"type": "way", "id": 1184807482, "nodes": [11005568824, 11005568821]}, {"type": "way", "id": 1226993980, "nodes": [11378137197, 11378137198, 11378137199, 11378137200, 11378137197], "tags": {"access": "yes", "amenity": "shelter", "bench": "yes", "building": "cabin", "shelter_type": "lean_to", "tourism": "wilderness_hut"}}, {"type": "way", "id": 1230935719, "nodes": [11415577781, 11415577782, 11415577783, 11415577784, 11415577781], "tags": {"access": "permissive", "amenity": "shelter", "bench": "yes", "building": "shelter", "fee": "no", "shelter_type": "lean_to", "toilets": "yes"}}, {"type": "way", "id": 1270406830, "nodes": [11795742800, 11795742801, 11795742802, 11795742803, 11795742800], "tags": {"amenity": "shelter", "area": "yes", "covered": "yes", "leisure": "picnic_table"}}, {"type": "way", "id": 1288038703, "nodes": [11945014802, 11945014804, 11945014805, 11945014806, 11945014807, 11945014808, 11945014809, 11945014810, 948366501], "tags": {"name": "b\u00fdv. ml\u00fdnsk\u00fd n\u00e1hon", "tourism": "attraction", "waterway": "drystream"}}, {"type": "way", "id": 1288038708, "nodes": [11945014830, 11945014831, 11945014832, 11945014833, 11945014830], "tags": {"area": "yes", "description": "Pam\u00e1tkov\u011b chr\u00e1n\u011bn\u00fd kamenn\u00fd silni\u010dn\u00ed most p\u0159es \u0159eku \u00dahlavku z p\u0159elomu 18. a 19. stolet\u00ed se dv\u011bma valen\u011b klenut\u00fdmi oblouky.", "historic": "bridge", "layer": "1", "man_made": "bridge", "tourism": "attraction", "website": "https://www.pamatkovykatalog.cz/silnicni-most-14799502", "wikidata": "Q38089077"}}, {"type": "relation", "id": 16017438, "members": [{"type": "way", "ref": 1184807482, "role": "outer"}, {"type": "way", "ref": 1184807480, "role": "outer"}], "tags": {"amenity": "shelter", "building": "roof", "leisure": "outdoor_seating", "type": "multipolygon"}}]}