{"version": 0.6, "generator": "Overpass API 0.7.62.8 e802775f", "osm3s": {"timestamp_osm_base": "2026-01-05T16:22:02Z", "copyright": "The data included in this document is from www.openstreetmap.org. The data is made available under ODbL."}, "elements": [{"type": "node", "id": 30078457, "lat": 49.9717784, "lon": 13.6468709, "tags": {"ele": "372", "hiking": "yes", "information": "guidepost", "name": "Ch\u0159\u00ed\u010d", "operator": "cz:K\u010cT", "ref": "PS387", "tourism": "information"}}, {"type": "node", "id": 901474064, "lat": 49.9584615, "lon": 13.6959882, "tags": {"ele": "258", "hiking": "yes", "information": "guidepost", "name": "Kalinova Ves", "operator": "cz:K\u010cT", "ref": "RA107", "tourism": "information"}}, {"type": "node", "id": 901474190, "lat": 49.9542932, "lon": 13.6879481, "tags": {"ele": "323", "hiking": "yes", "information": "guidepost", "name": "Zv\u00edkovec", "operator": "cz:K\u010cT", "ref": "0202/47;RO106", "tourism": "information"}}, {"type": "node", "id": 971092426, "lat": 50.0751463, "lon": 13.7783661, "tags": {"hiking": "yes", "information": "guidepost", "name": "Doln\u00ed Chlum", "operator": "cz:K\u010cT", "ref": "RA080", "tourism": "information"}}, {"type": "node", "id": 1107564757, "lat": 49.9557227, "lon": 13.7941605, "tags": {"ele": "505", "name": "Jezev\u010diny", "natural": "peak"}}, {"type": "node", "id": 1107564775, "lat": 49.9587646, "lon": 13.7944409, "tags": {"ele": "503", "name": "Zelen\u00fd vrch", "natural": "peak"}}, {"type": "node", "id": 1107564776, "lat": 49.9560093, "lon": 13.7699119, "tags": {"ele": "452", "name": "Str\u00e1\u017ei\u0161t\u011b", "natural": "peak"}}, {"type": "node", "id": 1107564777, "lat": 49.9692927, "lon": 13.7884485, "tags": {"ele": "427", "name": "Vosn\u00edk", "natural": "peak"}}, {"type": "node", "id": 1107564778, "lat": 49.9620331, "lon": 13.7979665, "tags": {"ele": "471", "name": "Zadn\u00ed vrch", "natural": "peak"}}, {"type": "node", "id": 1107593560, "lat": 49.9801231, "lon": 13.8002942, "tags": {"ele": "510", "name": "Vysok\u00fd vrch", "natural": "peak"}}, {"type": "node", "id": 1107593565, "lat": 49.9728402, "lon": 13.7962793, "tags": {"ele": "424", "name": "V\u00e1penn\u00fd vrch", "natural": "peak"}}, {"type": "node", "id": 1107618284, "lat": 49.9528412, "lon": 13.7898647, "tags": {"ele": "523", "name": "Hol\u00fd vrch", "natural": "peak"}}, {"type": "node", "id": 1260959988, "lat": 49.9599493, "lon": 13.7448724, "tags": {"tourism": "viewpoint"}}, {"type": "node", "id": 1293192214, "lat": 50.1044786, "lon": 13.7324492}, {"type": "node", "id": 1293192220, "lat": 50.1044219, "lon": 13.7324355}, {"type": "node", "id": 1293192316, "lat": 50.1043714, "lon": 13.7326062}, {"type": "node", "id": 1293192375, "lat": 50.104481, "lon": 13.732429}, {"type": "node", "id": 1293192379, "lat": 50.1043967, "lon": 13.7324294}, {"type": "node", "id": 1293192434, "lat": 50.1044259, "lon": 13.7324149}, {"type": "node", "id": 1293241280, "lat": 50.1041165, "lon": 13.7286267}, {"type": "node", "id": 1293241382, "lat": 50.1040847, "lon": 13.7288218}, {"type": "node", "id": 1293241561, "lat": 50.1041252, "lon": 13.7286582}, {"type": "node", "id": 1293241802, "lat": 50.1041297, "lon": 13.7286319}, {"type": "node", "id": 1293241823, "lat": 50.1042859, "lon": 13.7285977}, {"type": "node", "id": 1293241896, "lat": 50.1042406, "lon": 13.7288921}, {"type": "node", "id": 1293241962, "lat": 50.104131, "lon": 13.7285375}, {"type": "node", "id": 1293242021, "lat": 50.1041126, "lon": 13.7286542}, {"type": "node", "id": 1385995815, "lat": 49.9688345, "lon": 13.7201903, "tags": {"information": "guidepost", "tourism": "information"}}, {"type": "node", "id": 1705954341, "lat": 50.0752261, "lon": 13.7017067, "tags": {"hiking": "yes", "information": "guidepost", "name": "Lubn\u00e1", "operator": "cz:K\u010cT", "ref": "RA028", "tourism": "information"}}, {"type": "node", "id": 1705954363, "lat": 50.0486489, "lon": 13.6700276, "tags": {"hiking": "yes", "information": "guidepost", "name": "Malinov\u00e1", "operator": "cz:K\u010cT", "ref": "RA030", "tourism": "information"}}, {"type": "node", "id": 1705954380, "lat": 50.036826, "lon": 13.6678491, "tags": {"hiking": "yes", "information": "guidepost", "name": "Ov\u010d\u00edn", "tourism": "information"}}, {"type": "node", "id": 1705954409, "lat": 50.0975478, "lon": 13.6537725, "tags": {"highway": "street_lamp", "hiking": "yes", "information": "guidepost", "name": "Senomaty", "operator": "cz:K\u010cT", "ref": "RA124", "tourism": "information"}}, {"type": "node", "id": 1705954440, "lat": 50.0249878, "lon": 13.6596417, "tags": {"hiking": "yes", "information": "guidepost", "name": "Zho\u0159", "operator": "cz:K\u010cT", "ref": "RA031", "tourism": "information"}}, {"type": "node", "id": 1705971147, "lat": 50.1043189, "lon": 13.7211274, "tags": {"ele": "320", "hiking": "yes", "information": "guidepost", "name": "Rakovn\u00edk (u stadionu)", "official_name": "Rakovn\u00edk, u stadionu", "operator": "cz:K\u010cT", "panoramax": "372021d5-73f1-43a0-8531-8eaa35e18864", "ref": "RA027", "tourism": "information"}}, {"type": "node", "id": 1705971356, "lat": 50.0588425, "lon": 13.6773375, "tags": {"hiking": "yes", "information": "guidepost", "name": "\u017d\u010f\u00e1ry", "operator": "cz:K\u010cT", "ref": "RA029", "tourism": "information"}}, {"type": "node", "id": 1712055463, "lat": 50.0327173, "lon": 13.6801522, "tags": {"alt_name": "\u0160trajc\u00edgl", "ele": "474", "name": "Soudn\u00fd vrch", "natural": "peak"}}, {"type": "node", "id": 1716489307, "lat": 50.0452047, "lon": 13.7304838, "tags": {"ele": "471", "name": "Jedlina", "natural": "peak"}}, {"type": "node", "id": 1716489311, "lat": 50.017991, "lon": 13.6167383, "tags": {"ele": "462", "name": "Na Husov\u011b p\u0159est\u00e1vce", "natural": "peak"}}, {"type": "node", "id": 1716489312, "lat": 50.005545, "lon": 13.6116623, "tags": {"ele": "428", "name": "Nad obc\u00ed", "natural": "peak"}}, {"type": "node", "id": 1716489314, "lat": 50.0218987, "lon": 13.6996471, "tags": {"ele": "492", "name": "Novovesk\u00e1 H\u016frka", "natural": "peak"}}, {"type": "node", "id": 1716489316, "lat": 50.0322424, "lon": 13.7193235, "tags": {"ele": "458", "name": "Obecn\u00ed vrch", "natural": "peak"}}, {"type": "node", "id": 1716489318, "lat": 50.0283649, "lon": 13.7086796, "tags": {"ele": "490", "name": "Oujezdsk\u00e1 H\u016frka", "natural": "peak"}}, {"type": "node", "id": 1716489319, "lat": 50.0369354, "lon": 13.6662173, "tags": {"alt_name": "Zho\u0159sk\u00fd ov\u010d\u00edn", "ele": "474", "name": "Ov\u010d\u00edn", "natural": "peak"}}, {"type": "node", "id": 1716489322, "lat": 50.0152255, "lon": 13.6008154, "tags": {"ele": "471", "name": "Velk\u00fd kopec", "natural": "peak"}}, {"type": "node", "id": 1730594784, "lat": 49.965096, "lon": 13.76702}, {"type": "node", "id": 1730594788, "lat": 49.96511, "lon": 13.767118}, {"type": "node", "id": 1730594808, "lat": 49.965128, "lon": 13.767009}, {"type": "node", "id": 1730594826, "lat": 49.96514, "lon": 13.767108}, {"type": "node", "id": 1987680780, "lat": 49.9707782, "lon": 13.7747061, "tags": {"ele": "264", "hiking": "yes", "information": "guidepost", "name": "Skryje (most)", "operator": "cz:K\u010cT", "ref": "RA036", "tourism": "information"}}, {"type": "node", "id": 2090996869, "lat": 49.9731829, "lon": 13.7899469}, {"type": "node", "id": 2090996873, "lat": 49.9732416, "lon": 13.7906006}, {"type": "node", "id": 2090996875, "lat": 49.9733463, "lon": 13.7894801}, {"type": "node", "id": 2090996881, "lat": 49.9735293, "lon": 13.7911022}, {"type": "node", "id": 2090996884, "lat": 49.9736522, "lon": 13.7901011}, {"type": "node", "id": 2090996886, "lat": 49.9737778, "lon": 13.7909806}, {"type": "node", "id": 2090996887, "lat": 49.9738016, "lon": 13.7907504}, {"type": "node", "id": 2090997995, "lat": 49.9979787, "lon": 13.7917473, "tags": {"tourism": "viewpoint"}}, {"type": "node", "id": 2159905433, "lat": 49.9641979, "lon": 13.7539847, "tags": {"ele": "347", "name": "Na Kl\u016f\u010dku", "natural": "peak"}}, {"type": "node", "id": 2180071629, "lat": 50.0569347, "lon": 13.7364719}, {"type": "node", "id": 2180071634, "lat": 50.0569396, "lon": 13.7364302}, {"type": "node", "id": 2180071699, "lat": 50.0569878, "lon": 13.736487}, {"type": "node", "id": 2180071703, "lat": 50.0569918, "lon": 13.7364454}, {"type": "node", "id": 2180072937, "lat": 50.0620169, "lon": 13.7421988}, {"type": "node", "id": 2180072939, "lat": 50.0620179, "lon": 13.7421527}, {"type": "node", "id": 2180072950, "lat": 50.062075, "lon": 13.7422024}, {"type": "node", "id": 2180072961, "lat": 50.062076, "lon": 13.7421558}, {"type": "node", "id": 2363629004, "lat": 50.0011328, "lon": 13.6366113, "tags": {"fixme": "resurvey, position is only approximate, based on info on other guideposts", "hiking": "yes", "information": "guidepost", "name": "M\u00e1ch\u016fv ml\u00fdn", "operator": "cz:K\u010cT", "ref": "RA011", "tourism": "information"}}, {"type": "node", "id": 2383549730, "lat": 49.9751912, "lon": 13.7037022, "tags": {"tourism": "viewpoint"}}, {"type": "node", "id": 2620195716, "lat": 49.9734392, "lon": 13.7912959, "tags": {"hiking": "yes", "information": "guidepost", "mapillary": "773130995329827", "name": "T\u00fd\u0159ov (z\u0159\u00edcenina)", "official_name": "T\u00fd\u0159ov (z\u0159\u00edc.)", "operator": "cz:K\u010cT", "ref": "RA042", "tourism": "information"}}, {"type": "node", "id": 2620195717, "lat": 49.9733864, "lon": 13.7897991, "tags": {"direction": "200-360", "tourism": "viewpoint"}}, {"type": "node", "id": 2620275335, "lat": 49.9696584, "lon": 13.772967, "tags": {"hiking": "yes", "information": "guidepost", "operator": "obec Skryje", "ref": "none", "tourism": "information"}}, {"type": "node", "id": 2635822374, "lat": 49.9696254, "lon": 13.7916655, "tags": {"tourism": "viewpoint"}}, {"type": "node", "id": 2785105395, "lat": 50.0461993, "lon": 13.7622869}, {"type": "node", "id": 2785105401, "lat": 50.0462082, "lon": 13.7622607}, {"type": "node", "id": 2785105409, "lat": 50.0462314, "lon": 13.7623132}, {"type": "node", "id": 2785105415, "lat": 50.0462403, "lon": 13.762287}, {"type": "node", "id": 2862094929, "lat": 49.9719635, "lon": 13.6462852}, {"type": "node", "id": 2862094930, "lat": 49.9719635, "lon": 13.6463583}, {"type": "node", "id": 2862094931, "lat": 49.9720394, "lon": 13.6462852}, {"type": "node", "id": 2862094932, "lat": 49.9720394, "lon": 13.6463583}, {"type": "node", "id": 2960288171, "lat": 49.9674214, "lon": 13.7059834, "tags": {"name": "Vyhl\u00eddka Na Plaz\u00edch", "tourism": "viewpoint"}}, {"type": "node", "id": 3201445945, "lat": 50.0956621, "lon": 13.6465955}, {"type": "node", "id": 3392142185, "lat": 50.1039301, "lon": 13.7331405}, {"type": "node", "id": 3392142186, "lat": 50.103942, "lon": 13.7332224}, {"type": "node", "id": 3392142188, "lat": 50.1039597, "lon": 13.7330648}, {"type": "node", "id": 3392142190, "lat": 50.1039955, "lon": 13.7332408}, {"type": "node", "id": 3392142191, "lat": 50.1040148, "lon": 13.7330801}, {"type": "node", "id": 3392142192, "lat": 50.1040257, "lon": 13.7331681}, {"type": "node", "id": 3392151095, "lat": 50.1042621, "lon": 13.7287724}, {"type": "node", "id": 3392151096, "lat": 50.1042601, "lon": 13.7287718}, {"type": "node", "id": 3392151097, "lat": 50.1042705, "lon": 13.7287208}, {"type": "node", "id": 3392151098, "lat": 50.1042686, "lon": 13.7287201}, {"type": "node", "id": 3392151099, "lat": 50.1042881, "lon": 13.7285993}, {"type": "node", "id": 3392601012, "lat": 50.1044156, "lon": 13.7325704, "tags": {"addr:city": "Rakovn\u00edk", "addr:conscriptionnumber": "167", "addr:country": "CZ", "addr:housenumber": "167", "addr:place": "Rakovn\u00edk I", "addr:postcode": "26901", "addr:street": "Husovo n\u00e1m\u011bst\u00ed", "email": "icentrum@knihovna-rakovnik.cz", "information": "office", "name": "M\u011bstsk\u00e9 informa\u010dn\u00ed centrum", "opening_hours": "Mo-Fr 09:00-17:00", "operator": "M\u011bsto Rakovn\u00edk", "phone": "+420 702 218 001", "tourism": "information", "website": "https://www.infocentrum-rakovnik.cz/"}}, {"type": "node", "id": 3406741404, "lat": 50.1039364, "lon": 13.7321278, "tags": {"hiking": "yes", "information": "guidepost", "name": "Rakovn\u00edk (n\u00e1m.)", "operator": "cz:K\u010cT", "ref": "RA026", "tourism": "information"}}, {"type": "node", "id": 3414127371, "lat": 50.1027844, "lon": 13.7315722, "tags": {"check_date": "2023-09-29", "fee": "no", "information": "terminal", "internet_access": "no", "name": "Audiovizu\u00e1ln\u00ed termin\u00e1l", "tourism": "information"}}, {"type": "node", "id": 3414127372, "lat": 50.1037421, "lon": 13.7338926, "tags": {"check_date": "2023-10-01", "fee": "no", "information": "terminal", "internet_access": "no", "name": "Audiovizu\u00e1ln\u00ed termin\u00e1l", "tourism": "information"}}, {"type": "node", "id": 3414127373, "lat": 50.1006162, "lon": 13.7370829, "tags": {"hiking": "yes", "information": "guidepost", "name": "Rakovn\u00edk (u baz\u00e9nu)", "official_name": "Rakovn\u00edk u baz\u00e9nu", "old_name": "Rakovn\u00edk (k\u00a0vlaku)", "old_ref": "0040/17", "operator": "cz:K\u010cT", "ref": "RA082", "tourism": "information"}}, {"type": "node", "id": 3621556054, "lat": 50.0377215, "lon": 13.6478735}, {"type": "node", "id": 3621556057, "lat": 50.037741, "lon": 13.6478555}, {"type": "node", "id": 3621556058, "lat": 50.037741, "lon": 13.6479242}, {"type": "node", "id": 3621556060, "lat": 50.0377607, "lon": 13.6479064}, {"type": "node", "id": 4038789359, "lat": 50.0086516, "lon": 13.7709912, "tags": {"natural": "peak"}}, {"type": "node", "id": 4038789361, "lat": 50.0085667, "lon": 13.7708839, "tags": {"tourism": "viewpoint"}}, {"type": "node", "id": 4038789370, "lat": 50.0069549, "lon": 13.7667859, "tags": {"ele": "461", "name": "Novosedlsk\u00fd vrch", "natural": "peak"}}, {"type": "node", "id": 4038789371, "lat": 50.0067453, "lon": 13.7671644, "tags": {"tourism": "viewpoint"}}, {"type": "node", "id": 4038812675, "lat": 49.9771622, "lon": 13.7630633, "tags": {"ele": "424", "name": "Mile\u010d", "natural": "peak"}}, {"type": "node", "id": 4052387676, "lat": 49.9518574, "lon": 13.7328712, "tags": {"natural": "peak"}}, {"type": "node", "id": 4073069546, "lat": 50.0182108, "lon": 13.6385757, "tags": {"hiking": "yes", "information": "guidepost", "name": "Krakovec - z\u0159\u00edc.", "operator": "cz:K\u010cT", "ref": "RA012", "source": "survey", "tourism": "information"}}, {"type": "node", "id": 4166959219, "lat": 49.9536941, "lon": 13.6906863, "tags": {"hiking": "yes", "horse": "yes", "information": "guidepost", "name": "Zv\u00edkovec", "operator": "cz:K\u010cT", "ref": "597;293;613", "tourism": "information"}}, {"type": "node", "id": 4350732026, "lat": 50.0570108, "lon": 13.7364754, "tags": {"ele": "463", "hiking": "yes", "information": "guidepost", "name": "Pavl\u00edkov", "operator": "cz:K\u010cT", "ref": "RA194", "tourism": "information"}}, {"type": "node", "id": 4350732027, "lat": 50.0594096, "lon": 13.7253617, "tags": {"ele": "506", "hiking": "yes", "information": "guidepost", "name": "Rozhledna Seneck\u00e1 hora", "operator": "cz:K\u010cT", "ref": "RA193", "tourism": "information"}}, {"type": "node", "id": 4350732028, "lat": 50.0642799, "lon": 13.6887048, "tags": {"ele": "473", "hiking": "yes", "information": "guidepost", "name": "Seneck\u00e1 hora rozc", "operator": "cz:K\u010cT", "ref": "RA133", "tourism": "information"}}, {"type": "node", "id": 4350732029, "lat": 50.0666766, "lon": 13.7056135, "tags": {"ele": "418", "hiking": "yes", "information": "guidepost", "name": "Senec", "operator": "cz:K\u010cT", "ref": "RA141", "tourism": "information"}}, {"type": "node", "id": 4350880912, "lat": 50.087536, "lon": 13.631141, "tags": {"hiking": "yes", "information": "guidepost", "name": "\u0160anov", "operator": "cz:K\u010cT", "ref": "RA125", "tourism": "information"}}, {"type": "node", "id": 4350929564, "lat": 50.0418264, "lon": 13.6028479, "tags": {"hiking": "yes", "information": "guidepost", "name": "V\u0161esulov \u017est", "operator": "cz:K\u010cT", "ref": "RA015", "tourism": "information"}}, {"type": "node", "id": 4350929565, "lat": 50.0397214, "lon": 13.6111896, "tags": {"hiking": "yes", "information": "guidepost", "name": "V\u0161esulov", "operator": "cz:K\u010cT", "ref": "RA014", "tourism": "information"}}, {"type": "node", "id": 4350930951, "lat": 50.0301906, "lon": 13.6320679, "tags": {"hiking": "yes", "information": "guidepost", "name": "\u0160ipsk\u00fd ml\u00fdn", "operator": "cz:K\u010cT", "ref": "RA013", "tourism": "information"}}, {"type": "node", "id": 4351417395, "lat": 49.9948663, "lon": 13.6642887, "tags": {"hiking": "yes", "information": "guidepost", "name": "Marek", "operator": "cz:K\u010cT", "ref": "RA008", "tourism": "information"}}, {"type": "node", "id": 4351417396, "lat": 49.9941421, "lon": 13.6911644, "tags": {"hiking": "yes", "horse": "yes", "information": "guidepost", "name": "Mod\u0159ejovice", "operator": "cz:K\u010cT", "ref": "3075/3;RA032", "tourism": "information"}}, {"type": "node", "id": 4351417397, "lat": 49.99969, "lon": 13.7148195, "tags": {"hiking": "yes", "information": "guidepost", "name": "Slabce", "operator": "cz:K\u010cT", "ref": "RA033", "tourism": "information"}}, {"type": "node", "id": 4351485096, "lat": 49.9851672, "lon": 13.7534128, "tags": {"hiking": "yes", "information": "guidepost", "name": "H\u0159ebe\u010dn\u00edky", "operator": "cz:K\u010cT", "ref": "RA040", "tourism": "information"}}, {"type": "node", "id": 4351485097, "lat": 50.0007414, "lon": 13.7551324, "tags": {"ele": "433", "hiking": "yes", "information": "guidepost", "name": "Novosedly (rozcest\u00ed)", "official_name": "Novosedly (rozc.)", "operator": "cz:K\u010cT", "ref": "RA041", "tourism": "information"}}, {"type": "node", "id": 4351485098, "lat": 50.0081346, "lon": 13.7559622, "tags": {"ele": "396", "hiking": "yes", "information": "guidepost", "name": "Novosedly", "operator": "cz:K\u010cT", "ref": "RA046", "tourism": "information"}}, {"type": "node", "id": 4351486679, "lat": 49.9947527, "lon": 13.7355037, "tags": {"ele": "410", "hiking": "yes", "information": "guidepost", "name": "\u00dajezdec", "operator": "cz:K\u010cT", "ref": "RA034", "tourism": "information"}}, {"type": "node", "id": 4351486680, "lat": 49.9714855, "lon": 13.7485365, "tags": {"ele": "319", "hiking": "yes", "information": "guidepost", "name": "\u0160lovice", "operator": "cz:K\u010cT", "ref": "RA035", "tourism": "information"}}, {"type": "node", "id": 4408975495, "lat": 49.9642446, "lon": 13.7670586, "tags": {"hiking": "yes", "information": "guidepost", "name": "Skryje", "operator": "cz:K\u010cT", "ref": "RA037", "tourism": "information"}}, {"type": "node", "id": 4623945674, "lat": 50.1045377, "lon": 13.7324689}, {"type": "node", "id": 4623945675, "lat": 50.1045083, "lon": 13.7326436}, {"type": "node", "id": 4643730637, "lat": 50.0013897, "lon": 13.6165087, "tags": {"ele": "403", "hiking": "yes", "information": "guidepost", "name": "Mil\u00ed\u010dov", "operator": "cz:K\u010cT", "ref": "PS073", "tourism": "information"}}, {"type": "node", "id": 4643730772, "lat": 49.9925066, "lon": 13.6178284, "tags": {"ele": "345", "hiking": "yes", "information": "guidepost", "name": "Uhrovic ml\u00fdn", "operator": "cz:K\u010cT", "ref": "PS072", "tourism": "information"}}, {"type": "node", "id": 4644435358, "lat": 49.9762289, "lon": 13.6772169, "tags": {"hiking": "yes", "information": "guidepost", "name": "\u010certovec", "operator": "cz:K\u010cT", "ref": "RA007", "tourism": "information"}}, {"type": "node", "id": 4644435378, "lat": 49.9627224, "lon": 13.7177666, "tags": {"hiking": "yes", "information": "guidepost", "name": "Hradi\u0161t\u011b", "operator": "cz:K\u010cT", "ref": "RA009", "tourism": "information"}}, {"type": "node", "id": 4644473936, "lat": 49.9603292, "lon": 13.7423303, "tags": {"hiking": "yes", "information": "guidepost", "name": "\u010cil\u00e1", "operator": "cz:K\u010cT", "ref": "0001/3", "tourism": "information"}}, {"type": "node", "id": 4644473937, "lat": 49.9594962, "lon": 13.7510142, "tags": {"ele": "257", "hiking": "yes", "information": "guidepost", "name": "Slapnice", "operator": "cz:K\u010cT", "ref": "0001/4", "tourism": "information"}}, {"type": "node", "id": 4646774820, "lat": 50.0019487, "lon": 13.7897456, "tags": {"check_date": "2022-06-24", "ele": "413", "hiking": "yes", "information": "guidepost", "name": "K\u0159ini\u0161t\u011b (h\u00e1jovna)", "official_name": "K\u0159ini\u0161t\u011b (h\u00e1j.)", "operator": "cz:K\u010cT", "ref": "RA056", "tourism": "information"}}, {"type": "node", "id": 4677832984, "lat": 49.9998122, "lon": 13.7116481}, {"type": "node", "id": 4677832985, "lat": 49.9998724, "lon": 13.7117305}, {"type": "node", "id": 4677832986, "lat": 49.9998913, "lon": 13.7116914}, {"type": "node", "id": 4677832987, "lat": 49.9998476, "lon": 13.7115656}, {"type": "node", "id": 4677833290, "lat": 50.0008844, "lon": 13.7105675}, {"type": "node", "id": 4677833291, "lat": 50.0009568, "lon": 13.7105354}, {"type": "node", "id": 5074087682, "lat": 49.9713671, "lon": 13.6830674, "tags": {"ele": "414", "name": "Dubensko", "natural": "peak", "wikidata": "Q72091723"}}, {"type": "node", "id": 5074095216, "lat": 49.9835393, "lon": 13.6457687, "tags": {"ele": "445", "name": "Duben\u010dice", "natural": "peak"}}, {"type": "node", "id": 5074097953, "lat": 49.9858156, "lon": 13.6854174, "tags": {"ele": "410", "name": "\u010certov\u00fd kopec", "natural": "peak"}}, {"type": "node", "id": 5074106240, "lat": 49.9915268, "lon": 13.7175924, "tags": {"ele": "421", "name": "B\u00edl\u00fd k\u00e1men", "natural": "peak"}}, {"type": "node", "id": 5074108362, "lat": 49.9846109, "lon": 13.7636382, "tags": {"ele": "417", "name": "T\u00fd\u0159ovick\u00fd vrch", "natural": "peak"}}, {"type": "node", "id": 5074109631, "lat": 49.9858385, "lon": 13.7367712, "tags": {"ele": "445", "name": "Str\u00e1\u017e", "natural": "peak"}}, {"type": "node", "id": 5142662298, "lat": 50.0996657, "lon": 13.7358568, "tags": {"hiking": "yes", "information": "guidepost", "name": "Rakovn\u00edk (vlak)", "official_name": "Rakovn\u00edl (\u017dST)", "old_ref": "0040/17", "operator": "cz:K\u010cT", "ref": "RA181", "tourism": "information"}}, {"type": "node", "id": 5143500853, "lat": 50.092494, "lon": 13.7515262, "tags": {"hiking": "yes", "information": "guidepost", "operator": "cz:K\u010cT", "ref": "none", "tourism": "information"}}, {"type": "node", "id": 5151351502, "lat": 49.9696728, "lon": 13.7731205}, {"type": "node", "id": 5151351503, "lat": 49.9696679, "lon": 13.7731493}, {"type": "node", "id": 5151351504, "lat": 49.9696497, "lon": 13.7731418}, {"type": "node", "id": 5151351505, "lat": 49.9696546, "lon": 13.7731129}, {"type": "node", "id": 5151351508, "lat": 49.9802116, "lon": 13.7848944}, {"type": "node", "id": 5151351509, "lat": 49.9802222, "lon": 13.7849223}, {"type": "node", "id": 5151351510, "lat": 49.9802051, "lon": 13.784938}, {"type": "node", "id": 5151351511, "lat": 49.9801945, "lon": 13.7849101}, {"type": "node", "id": 5224170697, "lat": 50.0479597, "lon": 13.6675654}, {"type": "node", "id": 5224170698, "lat": 50.0479696, "lon": 13.6676188}, {"type": "node", "id": 5224170699, "lat": 50.0479937, "lon": 13.6676075}, {"type": "node", "id": 5224170700, "lat": 50.0479835, "lon": 13.6675529}, {"type": "node", "id": 5598617862, "lat": 49.9626005, "lon": 13.7794465, "tags": {"information": "board", "name": "NS Skryjsk\u00fd luh", "ref": "2", "tourism": "information"}}, {"type": "node", "id": 5598617863, "lat": 49.966624, "lon": 13.7776145, "tags": {"information": "board", "name": "NS Skryjsk\u00fd luh", "ref": "1", "tourism": "information"}}, {"type": "node", "id": 5598617878, "lat": 49.953948, "lon": 13.7801713, "tags": {"information": "board", "name": "NS Skryjsk\u00fd luh", "ref": "4", "tourism": "information"}}, {"type": "node", "id": 5598617880, "lat": 49.9567673, "lon": 13.7793043, "tags": {"information": "board", "name": "NS Skryjsk\u00fd luh", "ref": "4", "tourism": "information"}}, {"type": "node", "id": 5598617881, "lat": 49.9594937, "lon": 13.7805864, "tags": {"tourism": "attraction"}}, {"type": "node", "id": 5598617885, "lat": 49.9595904, "lon": 13.7803678, "tags": {"information": "board", "name": "NS Skryjsk\u00fd luh", "ref": "3", "tourism": "information"}}, {"type": "node", "id": 5598619924, "lat": 49.9647733, "lon": 13.7703687, "tags": {"information": "board", "name": "NS Po stop\u011b trilobita \u010d. 4: Trilobit", "ref": "4", "tourism": "information"}}, {"type": "node", "id": 5598619925, "lat": 49.9691536, "lon": 13.7760894, "tags": {"information": "board", "mapillary": "3546761135465934", "name": "NS Skryjsk\u00fd luh", "ref": "1", "tourism": "information"}}, {"type": "node", "id": 5598619926, "lat": 49.9663923, "lon": 13.7737966, "tags": {"information": "board", "name": "NS Po stop\u011b trilobita \u010d. 5: Nad hladinou mo\u0159e", "ref": "5", "tourism": "information"}}, {"type": "node", "id": 5598619927, "lat": 49.9675651, "lon": 13.7726544, "tags": {"information": "board", "name": "NS Po stop\u011b trilobita \u010d. 6: V luhu", "ref": "6", "tourism": "information"}}, {"type": "node", "id": 5598619928, "lat": 49.9687047, "lon": 13.7730791, "tags": {"information": "board", "name": "NS Po stop\u011b trilobita \u010d. 9: Su\u0165ovi\u0161t\u011b", "ref": "9", "tourism": "information"}}, {"type": "node", "id": 5598619929, "lat": 49.9688021, "lon": 13.7737373, "tags": {"information": "board", "name": "NS Po stop\u011b trilobita \u010d. 8: Kuk\u00e1tko", "ref": "8", "tourism": "information"}}, {"type": "node", "id": 5598619930, "lat": 49.968899, "lon": 13.7744903, "tags": {"information": "board", "name": "NS Po stop\u011b trilobita \u010d. 7: Oto\u010dka", "ref": "7", "tourism": "information"}}, {"type": "node", "id": 5598619931, "lat": 49.9696499, "lon": 13.7729941, "tags": {"information": "board", "name": "Skryje, Luh", "tourism": "information"}}, {"type": "node", "id": 5931915150, "lat": 50.0617385, "lon": 13.6792065, "tags": {"ele": "240", "natural": "peak"}}, {"type": "node", "id": 5932709400, "lat": 50.1016506, "lon": 13.7366115}, {"type": "node", "id": 5932709401, "lat": 50.1016366, "lon": 13.7366121}, {"type": "node", "id": 5932709402, "lat": 50.1016235, "lon": 13.7366194}, {"type": "node", "id": 5932709403, "lat": 50.1016124, "lon": 13.7366327}, {"type": "node", "id": 5932709404, "lat": 50.1016046, "lon": 13.7366507}, {"type": "node", "id": 5932709405, "lat": 50.1016397, "lon": 13.7367489}, {"type": "node", "id": 5932709406, "lat": 50.101655, "lon": 13.7367475}, {"type": "node", "id": 5932709407, "lat": 50.1016691, "lon": 13.736738}, {"type": "node", "id": 5932709408, "lat": 50.1016803, "lon": 13.7367217}, {"type": "node", "id": 5932709409, "lat": 50.1016872, "lon": 13.7367003}, {"type": "node", "id": 5932709410, "lat": 50.1016007, "lon": 13.7366717}, {"type": "node", "id": 5932709411, "lat": 50.1016012, "lon": 13.7366934}, {"type": "node", "id": 5932709412, "lat": 50.101606, "lon": 13.7367139}, {"type": "node", "id": 5932709413, "lat": 50.1016146, "lon": 13.736731}, {"type": "node", "id": 5932709414, "lat": 50.1016263, "lon": 13.736743}, {"type": "node", "id": 5932709415, "lat": 50.1016891, "lon": 13.7366766}, {"type": "node", "id": 5932709416, "lat": 50.1016857, "lon": 13.7366533}, {"type": "node", "id": 5932709417, "lat": 50.1016774, "lon": 13.7366332}, {"type": "node", "id": 5932709418, "lat": 50.1016652, "lon": 13.7366187}, {"type": "node", "id": 6258570830, "lat": 50.0817166, "lon": 13.631549, "tags": {"ele": "404", "name": "Kukle", "natural": "peak"}}, {"type": "node", "id": 6258570831, "lat": 50.0847073, "lon": 13.6390824, "tags": {"tourism": "viewpoint"}}, {"type": "node", "id": 6258570832, "lat": 50.0848359, "lon": 13.6521721, "tags": {"board_type": "history", "direction": "105", "information": "board", "mapillary": "851827789970678", "tourism": "information"}}, {"type": "node", "id": 6258600917, "lat": 50.098634, "lon": 13.6768504, "tags": {"ele": "406", "name": "\u0160iben\u00edk", "natural": "peak"}}, {"type": "node", "id": 6258600927, "lat": 50.098872, "lon": 13.6787281, "tags": {"tourism": "viewpoint"}}, {"type": "node", "id": 6339818121, "lat": 50.095792, "lon": 13.645571, "tags": {"amenity": "shelter", "shelter_type": "picnic_shelter"}}, {"type": "node", "id": 7101258475, "lat": 50.0592819, "lon": 13.7258564, "tags": {"ele": "506", "name": "Seneck\u00e1 hora", "natural": "peak"}}, {"type": "node", "id": 7342749403, "lat": 49.9936279, "lon": 13.7866639, "tags": {"ele": "251", "hiking": "yes", "information": "guidepost", "name": "U Kou\u0159imeck\u00e9 ryb\u00e1rny", "operator": "cz:K\u010cT", "ref": "RA055", "tourism": "information"}}, {"type": "node", "id": 7466212404, "lat": 50.1004457, "lon": 13.7333836}, {"type": "node", "id": 7466726187, "lat": 50.0593981, "lon": 13.7253706, "tags": {"board_type": "history", "check_date": "2024-10-25", "description": "Turistick\u00e1 stezka s rozhlednou v Pavl\u00edkov\u011b", "information": "board", "name": "Rozhledna Seneck\u00e1 hora", "ref": "7", "tourism": "information"}}, {"type": "node", "id": 7466727754, "lat": 50.0649392, "lon": 13.7429725, "tags": {"board_type": "history", "description": "Turistick\u00e1 stezka s rozhlednou v Pavl\u00edkov\u011b", "information": "board", "name": "Zakladatel \u017dateck\u00e9ho muzea", "ref": "2", "tourism": "information"}}, {"type": "node", "id": 7781898492, "lat": 49.9997433, "lon": 13.7123416, "tags": {"board_type": "history", "information": "board", "name": "Slabce", "tourism": "information"}}, {"type": "node", "id": 7781898871, "lat": 49.9996743, "lon": 13.7147462, "tags": {"board_type": "history", "information": "board", "tourism": "information"}}, {"type": "node", "id": 8251527526, "lat": 49.9558519, "lon": 13.6829589, "tags": {"tourism": "viewpoint"}}, {"type": "node", "id": 8337142334, "lat": 50.0956394, "lon": 13.6465999}, {"type": "node", "id": 8337142335, "lat": 50.0956737, "lon": 13.6467434}, {"type": "node", "id": 8337142336, "lat": 50.0956515, "lon": 13.6467477}, {"type": "node", "id": 8916590612, "lat": 49.9721834, "lon": 13.790693, "tags": {"board_type": "nature", "direction": "35", "information": "board", "mapillary": "1295176975541457", "name": "EVL T\u00fd\u0159ov: Oupo\u0159sk\u00fd potok", "tourism": "information"}}, {"type": "node", "id": 8916590613, "lat": 49.9736213, "lon": 13.7907654, "tags": {"information": "board", "mapillary": "646643945178582", "name": "NPR T\u00fd\u0159ov a hrad T\u00fd\u0159ov", "tourism": "information"}}, {"type": "node", "id": 9073806162, "lat": 50.0979282, "lon": 13.6546111, "tags": {"description": "elektronick\u00e1 \u00fa\u0159edn\u00ed deska", "information": "terminal", "name": "\u00da\u0159edn\u00ed deska", "operator": "local", "tourism": "information"}}, {"type": "node", "id": 9103285815, "lat": 50.0569171, "lon": 13.7364436, "tags": {"information": "board", "name": "Nav\u0161tivte v Pavl\u00edkov\u011b", "tourism": "information"}}, {"type": "node", "id": 9103285816, "lat": 50.0568844, "lon": 13.7364329, "tags": {"information": "board", "name": "M\u011bstys Pavl\u00edkov a okol\u00ed", "tourism": "information"}}, {"type": "node", "id": 9201877500, "lat": 49.9651359, "lon": 13.7671331, "tags": {"information": "map", "name": "CHKO K\u0159ivokl\u00e1tsko", "tourism": "information"}}, {"type": "node", "id": 9201918827, "lat": 49.9650643, "lon": 13.7669362, "tags": {"information": "map", "name": "Skryje", "tourism": "information"}}, {"type": "node", "id": 9201981925, "lat": 49.9688011, "lon": 13.7768256, "tags": {"information": "board", "name": "N\u00e1rodn\u00ed p\u0159\u00edrodn\u00ed rezervace T\u00fd\u0159ov", "tourism": "information"}}, {"type": "node", "id": 9201982107, "lat": 49.9650184, "lon": 13.7794395, "tags": {"information": "board", "name": "NS Skryjsk\u00fd luh", "tourism": "information"}}, {"type": "node", "id": 9202004925, "lat": 49.9696562, "lon": 13.7730261, "tags": {"information": "board", "name": "NS Skryjsk\u00fd luh", "tourism": "information"}}, {"type": "node", "id": 9209247737, "lat": 49.9643651, "lon": 13.7677261, "tags": {"information": "board", "name": "NS Po stop\u011b trilobita \u010d. 3: Barrande", "tourism": "information"}}, {"type": "node", "id": 9209247738, "lat": 49.9645825, "lon": 13.7658726, "tags": {"information": "board", "name": "NS Po stop\u011b trilobita \u010d. 2: P\u0159ehl\u00eddka hornin", "tourism": "information"}}, {"type": "node", "id": 9209247739, "lat": 49.9655771, "lon": 13.7676891, "tags": {"information": "board", "name": "NS Po stop\u011b trilobita \u010d. 12: Permsk\u00e1 katastrofa", "tourism": "information"}}, {"type": "node", "id": 9209247740, "lat": 49.9660747, "lon": 13.7680986, "tags": {"information": "board", "name": "NS Po stop\u011b trilobita \u010d. 11: P\u0159esko\u010d, p\u0159elez", "tourism": "information"}}, {"type": "node", "id": 9209247741, "lat": 49.9683803, "lon": 13.7721219, "tags": {"information": "board", "name": "NS Po stop\u011b trilobita \u010d. 10: Trilobit, str\u00e1\u017ece kraje", "tourism": "information"}}, {"type": "node", "id": 9278554558, "lat": 50.065662, "lon": 13.8000658, "tags": {"ele": "290", "hiking": "yes", "information": "guidepost", "name": "La\u0161ovice (\u017est)", "operator": "cz:K\u010cT", "ref": "RA079", "tourism": "information"}}, {"type": "node", "id": 9609815423, "lat": 50.0997345, "lon": 13.7356745, "tags": {"information": "map", "source": "survey;gps;own streetlevel imagery", "tourism": "information"}}, {"type": "node", "id": 9611766513, "lat": 50.1005994, "lon": 13.7371692, "tags": {"description": "Cyklistick\u00e1 nau\u010dn\u00e1 stezka", "information": "board", "name": "Botanick\u00e1 zahrada", "ref": "3", "source": "survey;gps;Fody imagery", "tourism": "information"}}, {"type": "node", "id": 9611767170, "lat": 50.1034423, "lon": 13.7233481, "tags": {"description": "NS Rakovn\u00edk", "direction": "210", "information": "board", "mapillary": "2044988522662624", "name": "Zelen\u00e9 m\u011bsto", "operator": "M\u011bsto Rakovn\u00edk", "ref": "10", "tourism": "information"}}, {"type": "node", "id": 9612969782, "lat": 50.0308629, "lon": 13.6400007}, {"type": "node", "id": 9612969783, "lat": 50.0308615, "lon": 13.6399873}, {"type": "node", "id": 9612969784, "lat": 50.0308573, "lon": 13.6399755}, {"type": "node", "id": 9612969785, "lat": 50.0308508, "lon": 13.6399665}, {"type": "node", "id": 9612969786, "lat": 50.0308133, "lon": 13.6400116}, {"type": "node", "id": 9612969787, "lat": 50.0308167, "lon": 13.6400227}, {"type": "node", "id": 9612969788, "lat": 50.0308222, "lon": 13.6400316}, {"type": "node", "id": 9612969789, "lat": 50.0308293, "lon": 13.6400374}, {"type": "node", "id": 9612969790, "lat": 50.0308427, "lon": 13.6399615}, {"type": "node", "id": 9612969791, "lat": 50.030834, "lon": 13.6399611}, {"type": "node", "id": 9612969792, "lat": 50.0308257, "lon": 13.6399653}, {"type": "node", "id": 9612969793, "lat": 50.0308188, "lon": 13.6399735}, {"type": "node", "id": 9612969794, "lat": 50.0308141, "lon": 13.639985}, {"type": "node", "id": 9612969795, "lat": 50.0308122, "lon": 13.6399981}, {"type": "node", "id": 9612969796, "lat": 50.0308371, "lon": 13.6400396}, {"type": "node", "id": 9612969797, "lat": 50.0308449, "lon": 13.6400379}, {"type": "node", "id": 9612969798, "lat": 50.0308521, "lon": 13.6400324}, {"type": "node", "id": 9612969799, "lat": 50.0308578, "lon": 13.6400238}, {"type": "node", "id": 9612969800, "lat": 50.0308615, "lon": 13.6400129}, {"type": "node", "id": 9854404131, "lat": 50.0176154, "lon": 13.7846302, "tags": {"ele": "302", "hiking": "yes", "information": "guidepost", "name": "V Habrov\u00e9m Lou\u017eku", "operator": "cz:K\u010cT", "ref": "RA045", "tourism": "information"}}, {"type": "node", "id": 9860213150, "lat": 49.9708577, "lon": 13.7750969, "tags": {"horse": "yes", "information": "guidepost", "operator": "cz:K\u010cT", "ref": "312;325;621", "tourism": "information"}}, {"type": "node", "id": 9860285139, "lat": 49.9974743, "lon": 13.7929983, "tags": {"board_type": "nature", "description": "Jeden z nejv\u00fdznamn\u011bj\u0161\u00edch odkryv\u016f pol\u0161t\u00e1\u0159ov\u00fdch l\u00e1v v \u010cesk\u00e9m masivu", "information": "board", "name": "PR \u010certova sk\u00e1la", "ref": "none", "tourism": "information"}}, {"type": "node", "id": 9860285140, "lat": 50.0004045, "lon": 13.7863773, "tags": {"amenity": "shelter", "shelter_type": "picnic_shelter"}}, {"type": "node", "id": 9860431497, "lat": 49.9962661, "lon": 13.7373744, "tags": {"bicycle": "yes", "information": "guidepost", "operator": "cz:K\u010cT", "ref": "none", "tourism": "information"}}, {"type": "node", "id": 10244821430, "lat": 50.0568347, "lon": 13.7368397, "tags": {"information": "board", "name": "Anderle", "tourism": "information"}}, {"type": "node", "id": 10246515187, "lat": 50.0622303, "lon": 13.7422097, "tags": {"information": "board", "tourism": "information"}}, {"type": "node", "id": 10246521283, "lat": 50.0582011, "lon": 13.7375636, "tags": {"information": "board", "name": "Ani po u\u010denci, ani po um\u011blci", "tourism": "information"}}, {"type": "node", "id": 11076565168, "lat": 49.9725678, "lon": 13.6469537, "tags": {"information": "map", "tourism": "information"}}, {"type": "node", "id": 11174387530, "lat": 50.0959529, "lon": 13.685564, "tags": {"name": "Replika d\u011blost\u0159eleck\u00e9 reduty", "tourism": "attraction"}}, {"type": "node", "id": 11204157439, "lat": 50.1040864, "lon": 13.7208248, "tags": {"direction": "25", "information": "map", "tourism": "information"}}, {"type": "node", "id": 11204382791, "lat": 50.1029018, "lon": 13.7259429, "tags": {"board_type": "notice", "information": "board", "tourism": "information"}}, {"type": "node", "id": 11207357920, "lat": 50.1042665, "lon": 13.7287452, "tags": {"entrance": "main"}}, {"type": "node", "id": 11239815888, "lat": 50.0916793, "lon": 13.7224626}, {"type": "node", "id": 11239815889, "lat": 50.0916811, "lon": 13.722482}, {"type": "node", "id": 11239815890, "lat": 50.091705, "lon": 13.7224768}, {"type": "node", "id": 11239815891, "lat": 50.0917125, "lon": 13.7225613}, {"type": "node", "id": 11239815892, "lat": 50.0916329, "lon": 13.7225786}, {"type": "node", "id": 11239815893, "lat": 50.0916257, "lon": 13.7224991}, {"type": "node", "id": 11239815894, "lat": 50.0916489, "lon": 13.7224941}, {"type": "node", "id": 11239815895, "lat": 50.0916467, "lon": 13.7224697}, {"type": "node", "id": 11243059112, "lat": 50.037725, "lon": 13.6477266, "tags": {"information": "map", "map_size": "region", "name": "Mikoregion Balk\u00e1n", "tourism": "information"}}, {"type": "node", "id": 11262406813, "lat": 50.0963434, "lon": 13.6486472}, {"type": "node", "id": 11262406814, "lat": 50.0962791, "lon": 13.648663}, {"type": "node", "id": 11262406815, "lat": 50.0962917, "lon": 13.6487881}, {"type": "node", "id": 11262406816, "lat": 50.096356, "lon": 13.6487723}, {"type": "node", "id": 11262426651, "lat": 50.0951329, "lon": 13.6390518, "tags": {"amenity": "shelter", "bench": "no", "lit": "no", "shelter_type": "gazebo"}}, {"type": "node", "id": 11327656379, "lat": 50.1044094, "lon": 13.7326167, "tags": {"entrance": "yes", "ref": "C"}}, {"type": "node", "id": 11331768111, "lat": 50.1021083, "lon": 13.728477, "tags": {"direction": "190", "information": "map", "tourism": "information"}}, {"type": "node", "id": 11360048215, "lat": 50.0938511, "lon": 13.7506857, "tags": {"information": "map", "map_size": "region", "map_type": "topo", "tourism": "information"}}, {"type": "node", "id": 11364162940, "lat": 50.0964302, "lon": 13.6480517}, {"type": "node", "id": 11364162941, "lat": 50.096378, "lon": 13.6480633}, {"type": "node", "id": 11364162942, "lat": 50.0963825, "lon": 13.6481129}, {"type": "node", "id": 11364162943, "lat": 50.0964348, "lon": 13.6481012}, {"type": "node", "id": 11364162945, "lat": 50.0964224, "lon": 13.6480534}, {"type": "node", "id": 11371172024, "lat": 50.1017377, "lon": 13.7141104}, {"type": "node", "id": 11371172025, "lat": 50.1016955, "lon": 13.7141538}, {"type": "node", "id": 11371172026, "lat": 50.1016803, "lon": 13.7141178}, {"type": "node", "id": 11371172027, "lat": 50.1017224, "lon": 13.7140744}, {"type": "node", "id": 11382414379, "lat": 50.1043887, "lon": 13.7324856}, {"type": "node", "id": 11382414381, "lat": 50.104376, "lon": 13.7325742}, {"type": "node", "id": 11382414383, "lat": 50.1044571, "lon": 13.7324229}, {"type": "node", "id": 11382418671, "lat": 50.1043848, "lon": 13.7325123}, {"type": "node", "id": 11382418969, "lat": 50.1043887, "lon": 13.7324854}, {"type": "node", "id": 11392060854, "lat": 50.1005831, "lon": 13.7331522, "tags": {"information": "map", "tourism": "information"}}, {"type": "node", "id": 11468860972, "lat": 50.0788917, "lon": 13.7343893, "tags": {"board_type": "history", "direction": "111", "information": "board", "name": "Valachovsk\u00e1 jeskyn\u011b", "tourism": "information"}}, {"type": "node", "id": 11469046164, "lat": 50.0752222, "lon": 13.7013118, "tags": {"information": "map", "mapillary": "1065254874735293", "tourism": "information"}}, {"type": "node", "id": 11486926142, "lat": 50.1023353, "lon": 13.732809, "tags": {"board_type": "history", "information": "board", "name": "Sokolovna", "tourism": "information"}}, {"type": "node", "id": 11486930560, "lat": 50.1024855, "lon": 13.7375248, "tags": {"board_type": "history", "information": "board", "name": "Obchodn\u00ed \u0161kola", "tourism": "information"}}, {"type": "node", "id": 11486962376, "lat": 50.1040777, "lon": 13.733709, "tags": {"board_type": "history", "information": "board", "name": "Mayerova vila a Lechn\u00fd\u0159ovna", "tourism": "information"}}, {"type": "node", "id": 11497144771, "lat": 50.099517, "lon": 13.7409504, "tags": {"direction": "270", "information": "map", "map_size": "region", "map_type": "topo", "tourism": "information"}}, {"type": "node", "id": 11498100656, "lat": 50.0940918, "lon": 13.7526559, "tags": {"board_type": "nature", "information": "board", "tourism": "information"}}, {"type": "node", "id": 11498100657, "lat": 50.0942524, "lon": 13.7527194, "tags": {"board_type": "nature", "information": "board", "tourism": "information"}}, {"type": "node", "id": 11498100668, "lat": 50.0937431, "lon": 13.7506969, "tags": {"bicycle": "yes", "information": "guidepost", "tourism": "information"}}, {"type": "node", "id": 11503674237, "lat": 50.0979752, "lon": 13.7674788}, {"type": "node", "id": 11503674238, "lat": 50.0979766, "lon": 13.7674262}, {"type": "node", "id": 11503674239, "lat": 50.0980148, "lon": 13.7674288}, {"type": "node", "id": 11503674240, "lat": 50.0980134, "lon": 13.7674813}, {"type": "node", "id": 11542385161, "lat": 50.0753478, "lon": 13.7778595}, {"type": "node", "id": 11542385162, "lat": 50.0753411, "lon": 13.7779028}, {"type": "node", "id": 11542385163, "lat": 50.0753021, "lon": 13.7778883}, {"type": "node", "id": 11542385164, "lat": 50.0753087, "lon": 13.777845}, {"type": "node", "id": 11542396488, "lat": 50.0853199, "lon": 13.7665236, "tags": {"information": "board", "tourism": "information"}}, {"type": "node", "id": 11542396489, "lat": 50.0853761, "lon": 13.7664254, "tags": {"information": "board", "tourism": "information"}}, {"type": "node", "id": 11542396499, "lat": 50.0879613, "lon": 13.7636425, "tags": {"information": "board", "tourism": "information"}}, {"type": "node", "id": 11641139448, "lat": 50.1015079, "lon": 13.7332845, "tags": {"board_type": "sport", "information": "board", "tourism": "information"}}, {"type": "node", "id": 11691560187, "lat": 50.0985356, "lon": 13.6563709, "tags": {"board_type": "history", "information": "board", "mapillary": "4042889839324512", "name": "Celda Klou\u010dek", "ref": "none", "tourism": "information"}}, {"type": "node", "id": 11818689304, "lat": 50.0398524, "lon": 13.6136027, "tags": {"information": "map", "name": "V\u0161esulov", "tourism": "information"}}, {"type": "node", "id": 11847283295, "lat": 50.0173168, "lon": 13.6389637, "tags": {"information": "board", "name": "St\u00e1tn\u00ed hrad Krakovec", "tourism": "information"}}, {"type": "node", "id": 11883467782, "lat": 50.0975176, "lon": 13.6539874, "tags": {"board_type": "history", "information": "board", "mapillary": "1145628850428399", "name": "Statek \u010dp. 55, Fara a socha", "ref": "none", "tourism": "information"}}, {"type": "node", "id": 11883469594, "lat": 50.0972433, "lon": 13.6536089, "tags": {"board_type": "history", "information": "board", "mapillary": "606533405416712", "name": "Kostely, k\u0159\u00ed\u017ee, sochy svat\u00fdch", "ref": "none", "tourism": "information"}}, {"type": "node", "id": 11990940734, "lat": 50.0891682, "lon": 13.7622773, "tags": {"hiking": "yes", "information": "guidepost", "name": "Pap\u00edrna (rozc.)", "operator": "cz:K\u010cT", "ref": "0040/15", "ref_1": "RA081", "tourism": "information"}}, {"type": "node", "id": 12042307124, "lat": 50.0983585, "lon": 13.6544075, "tags": {"description": "turistick\u00e1 a cyklistick\u00e1 mapa", "information": "map", "map_size": "region", "map_type": "topo", "name": "M\u011bstys Senomaty a okol\u00ed", "tourism": "information"}}, {"type": "node", "id": 12042307125, "lat": 50.0982895, "lon": 13.653809, "tags": {"bicycle": "yes", "highway": "street_lamp", "information": "guidepost", "operator": "cz:K\u010cT", "ref": "none", "tourism": "information"}}, {"type": "node", "id": 12042307126, "lat": 50.0958068, "lon": 13.6456651, "tags": {"information": "map", "map_size": "region", "map_type": "topo", "name": "Senomaty", "tourism": "information"}}, {"type": "node", "id": 12139485116, "lat": 49.9662944, "lon": 13.7334791, "tags": {"tourism": "viewpoint"}}, {"type": "node", "id": 12290448246, "lat": 50.0917356, "lon": 13.6285654}, {"type": "node", "id": 12290448247, "lat": 50.091738, "lon": 13.6286095}, {"type": "node", "id": 12290448248, "lat": 50.09177, "lon": 13.6286054}, {"type": "node", "id": 12290448249, "lat": 50.0917676, "lon": 13.6285613}, {"type": "node", "id": 12292509220, "lat": 50.1002938, "lon": 13.7344577}, {"type": "node", "id": 12292509221, "lat": 50.1002769, "lon": 13.7345172}, {"type": "node", "id": 12292509222, "lat": 50.1002901, "lon": 13.7345264}, {"type": "node", "id": 12292509223, "lat": 50.100307, "lon": 13.7344669}, {"type": "node", "id": 12292509224, "lat": 50.1003556, "lon": 13.7342231}, {"type": "node", "id": 12292509225, "lat": 50.1003237, "lon": 13.7343518}, {"type": "node", "id": 12292509226, "lat": 50.1003371, "lon": 13.7343599}, {"type": "node", "id": 12292509227, "lat": 50.100369, "lon": 13.7342312}, {"type": "node", "id": 12292509228, "lat": 50.1004177, "lon": 13.7339879}, {"type": "node", "id": 12292509229, "lat": 50.1003831, "lon": 13.7341169}, {"type": "node", "id": 12292509230, "lat": 50.1003977, "lon": 13.7341264}, {"type": "node", "id": 12292509231, "lat": 50.1004323, "lon": 13.7339974}, {"type": "node", "id": 12292509232, "lat": 50.1004794, "lon": 13.7337555}, {"type": "node", "id": 12292509233, "lat": 50.1004457, "lon": 13.7338846}, {"type": "node", "id": 12292509234, "lat": 50.1004599, "lon": 13.7338936}, {"type": "node", "id": 12292509235, "lat": 50.1004935, "lon": 13.7337644}, {"type": "node", "id": 12292509236, "lat": 50.1005426, "lon": 13.7335206}, {"type": "node", "id": 12292509237, "lat": 50.100509, "lon": 13.7336496}, {"type": "node", "id": 12292509238, "lat": 50.1005222, "lon": 13.7336579}, {"type": "node", "id": 12292509239, "lat": 50.1005557, "lon": 13.7335289}, {"type": "node", "id": 12292509240, "lat": 50.1005867, "lon": 13.7333537}, {"type": "node", "id": 12292509241, "lat": 50.1005698, "lon": 13.7334165}, {"type": "node", "id": 12292509242, "lat": 50.1005829, "lon": 13.7334251}, {"type": "node", "id": 12292509243, "lat": 50.1005998, "lon": 13.7333623}, {"type": "node", "id": 12292509254, "lat": 50.100765, "lon": 13.7336595}, {"type": "node", "id": 12292509255, "lat": 50.1007498, "lon": 13.7336605}, {"type": "node", "id": 12292509256, "lat": 50.1007518, "lon": 13.7337272}, {"type": "node", "id": 12292509257, "lat": 50.1007669, "lon": 13.7337262}, {"type": "node", "id": 12292509258, "lat": 50.1007708, "lon": 13.7338771}, {"type": "node", "id": 12292509259, "lat": 50.1007544, "lon": 13.7338769}, {"type": "node", "id": 12292509260, "lat": 50.1007537, "lon": 13.7340175}, {"type": "node", "id": 12292509261, "lat": 50.1007701, "lon": 13.7340177}, {"type": "node", "id": 12292509262, "lat": 50.1007703, "lon": 13.7341327}, {"type": "node", "id": 12292509263, "lat": 50.1007539, "lon": 13.7341325}, {"type": "node", "id": 12292509264, "lat": 50.1007532, "lon": 13.734273}, {"type": "node", "id": 12292509265, "lat": 50.1007696, "lon": 13.7342732}, {"type": "node", "id": 12292509266, "lat": 50.1007699, "lon": 13.7343855}, {"type": "node", "id": 12292509267, "lat": 50.1007534, "lon": 13.7343853}, {"type": "node", "id": 12292509268, "lat": 50.1007534, "lon": 13.7344995}, {"type": "node", "id": 12292509269, "lat": 50.1007692, "lon": 13.7344992}, {"type": "node", "id": 12292509270, "lat": 50.1007661, "lon": 13.7346729}, {"type": "node", "id": 12292509271, "lat": 50.100751, "lon": 13.7346643}, {"type": "node", "id": 12292509272, "lat": 50.1007358, "lon": 13.7347294}, {"type": "node", "id": 12292509273, "lat": 50.1007509, "lon": 13.7347379}, {"type": "node", "id": 12292509286, "lat": 50.100463, "lon": 13.7333965}, {"type": "node", "id": 12292509287, "lat": 50.1004458, "lon": 13.7334526}, {"type": "node", "id": 12292509288, "lat": 50.1004285, "lon": 13.7334397}, {"type": "node", "id": 12292509291, "lat": 50.1003817, "lon": 13.7335935}, {"type": "node", "id": 12292509292, "lat": 50.1003958, "lon": 13.7336034}, {"type": "node", "id": 12292509293, "lat": 50.1003808, "lon": 13.7336554}, {"type": "node", "id": 12292509294, "lat": 50.1003667, "lon": 13.7336456}, {"type": "node", "id": 12292509295, "lat": 50.1003364, "lon": 13.7337556}, {"type": "node", "id": 12292509296, "lat": 50.1003503, "lon": 13.7337643}, {"type": "node", "id": 12292509297, "lat": 50.1003239, "lon": 13.7338669}, {"type": "node", "id": 12292509298, "lat": 50.10031, "lon": 13.7338582}, {"type": "node", "id": 12292509299, "lat": 50.1002872, "lon": 13.7339425}, {"type": "node", "id": 12292509300, "lat": 50.1003014, "lon": 13.7339518}, {"type": "node", "id": 12292524801, "lat": 50.1002668, "lon": 13.7340807}, {"type": "node", "id": 12292524802, "lat": 50.1002526, "lon": 13.7340714}, {"type": "node", "id": 12292524803, "lat": 50.1002294, "lon": 13.7341585}, {"type": "node", "id": 12292524804, "lat": 50.1002431, "lon": 13.7341676}, {"type": "node", "id": 12292524805, "lat": 50.1002087, "lon": 13.7342952}, {"type": "node", "id": 12292524806, "lat": 50.1001949, "lon": 13.7342861}, {"type": "node", "id": 12292524807, "lat": 50.1001718, "lon": 13.7343733}, {"type": "node", "id": 12292524808, "lat": 50.1001868, "lon": 13.7343832}, {"type": "node", "id": 12292524809, "lat": 50.1001523, "lon": 13.7345101}, {"type": "node", "id": 12292524810, "lat": 50.1001373, "lon": 13.7345003}, {"type": "node", "id": 12292524823, "lat": 50.1008785, "lon": 13.7339056}, {"type": "node", "id": 12292524824, "lat": 50.1008634, "lon": 13.7339055}, {"type": "node", "id": 12292524825, "lat": 50.1008629, "lon": 13.7340103}, {"type": "node", "id": 12292524826, "lat": 50.1008781, "lon": 13.7340105}, {"type": "node", "id": 12292524827, "lat": 50.1008739, "lon": 13.7337627}, {"type": "node", "id": 12292524828, "lat": 50.1008617, "lon": 13.7337642}, {"type": "node", "id": 12292524829, "lat": 50.1008649, "lon": 13.7338261}, {"type": "node", "id": 12292524830, "lat": 50.1008771, "lon": 13.7338246}, {"type": "node", "id": 12292524831, "lat": 50.1008631, "lon": 13.7341248}, {"type": "node", "id": 12292524832, "lat": 50.1008632, "lon": 13.7341896}, {"type": "node", "id": 12292524833, "lat": 50.1008783, "lon": 13.7341896}, {"type": "node", "id": 12292524834, "lat": 50.1008781, "lon": 13.7341248}, {"type": "node", "id": 12292524835, "lat": 50.1008776, "lon": 13.734343}, {"type": "node", "id": 12292524836, "lat": 50.1008616, "lon": 13.734343}, {"type": "node", "id": 12292524837, "lat": 50.1008614, "lon": 13.7344807}, {"type": "node", "id": 12292524838, "lat": 50.1008775, "lon": 13.7344808}, {"type": "node", "id": 12292524839, "lat": 50.1008768, "lon": 13.7346011}, {"type": "node", "id": 12292524840, "lat": 50.1008607, "lon": 13.7346011}, {"type": "node", "id": 12292524841, "lat": 50.1008605, "lon": 13.7347388}, {"type": "node", "id": 12292524842, "lat": 50.1008766, "lon": 13.7347389}, {"type": "node", "id": 12292524857, "lat": 50.1004045, "lon": 13.7348901}, {"type": "node", "id": 12292524858, "lat": 50.1003982, "lon": 13.7349181}, {"type": "node", "id": 12292524859, "lat": 50.1002871, "lon": 13.7348577}, {"type": "node", "id": 12292524860, "lat": 50.1002933, "lon": 13.7348296}, {"type": "node", "id": 12292524871, "lat": 50.1001024, "lon": 13.7346129, "tags": {"information": "map", "map_type": "public_transport", "tourism": "information"}}, {"type": "node", "id": 12294571825, "lat": 50.0754536, "lon": 13.6995621}, {"type": "node", "id": 12294571826, "lat": 50.0754647, "lon": 13.6995928}, {"type": "node", "id": 12294571827, "lat": 50.0754419, "lon": 13.6996127}, {"type": "node", "id": 12294571828, "lat": 50.0754308, "lon": 13.699582}, {"type": "node", "id": 12294571832, "lat": 50.0787055, "lon": 13.7003736}, {"type": "node", "id": 12294571833, "lat": 50.0787012, "lon": 13.7004009}, {"type": "node", "id": 12294571834, "lat": 50.078728, "lon": 13.7004112}, {"type": "node", "id": 12294571835, "lat": 50.0787324, "lon": 13.7003839}, {"type": "node", "id": 12294571837, "lat": 50.083285, "lon": 13.6956648}, {"type": "node", "id": 12294571838, "lat": 50.0832745, "lon": 13.695691}, {"type": "node", "id": 12294571839, "lat": 50.0833441, "lon": 13.6957588}, {"type": "node", "id": 12294571840, "lat": 50.0833546, "lon": 13.6957327}, {"type": "node", "id": 12294571841, "lat": 50.0835065, "lon": 13.6959345}, {"type": "node", "id": 12294571842, "lat": 50.0834943, "lon": 13.6959533}, {"type": "node", "id": 12294571843, "lat": 50.0834367, "lon": 13.6958623}, {"type": "node", "id": 12294571844, "lat": 50.0834489, "lon": 13.6958435}, {"type": "node", "id": 12294571853, "lat": 50.0822892, "lon": 13.7241296}, {"type": "node", "id": 12294571854, "lat": 50.0822911, "lon": 13.7241584}, {"type": "node", "id": 12294571855, "lat": 50.0822613, "lon": 13.724163}, {"type": "node", "id": 12294571856, "lat": 50.0822595, "lon": 13.7241342}, {"type": "node", "id": 12304430462, "lat": 50.0671687, "lon": 13.6380443}, {"type": "node", "id": 12304430463, "lat": 50.0671433, "lon": 13.6380462}, {"type": "node", "id": 12304430464, "lat": 50.0671459, "lon": 13.6381294}, {"type": "node", "id": 12304430465, "lat": 50.0671713, "lon": 13.6381274}, {"type": "node", "id": 12304430466, "lat": 50.0668566, "lon": 13.6382605}, {"type": "node", "id": 12304430467, "lat": 50.0668315, "lon": 13.6382723}, {"type": "node", "id": 12304430468, "lat": 50.0668467, "lon": 13.6383505}, {"type": "node", "id": 12304430469, "lat": 50.0668718, "lon": 13.6383386}, {"type": "node", "id": 12304430475, "lat": 50.0874628, "lon": 13.6300676}, {"type": "node", "id": 12304430476, "lat": 50.0874354, "lon": 13.630115}, {"type": "node", "id": 12304430477, "lat": 50.0874471, "lon": 13.6301315}, {"type": "node", "id": 12304430478, "lat": 50.0874746, "lon": 13.6300841}, {"type": "node", "id": 12311580144, "lat": 50.0202159, "lon": 13.6375489}, {"type": "node", "id": 12311580145, "lat": 50.0201742, "lon": 13.6375752}, {"type": "node", "id": 12311580146, "lat": 50.0201876, "lon": 13.637627}, {"type": "node", "id": 12311580147, "lat": 50.0202293, "lon": 13.6376007}, {"type": "node", "id": 12469010225, "lat": 50.0981056, "lon": 13.6538114, "tags": {"bicycle": "yes", "information": "guidepost", "tourism": "information"}}, {"type": "node", "id": 12469010228, "lat": 50.0982748, "lon": 13.6542388, "tags": {"bicycle": "yes", "highway": "street_lamp", "information": "guidepost", "operator": "cz:K\u010cT", "tourism": "information"}}, {"type": "node", "id": 12504323558, "lat": 50.0141779, "lon": 13.6167618, "tags": {"direction": "55", "information": "map", "map_size": "region", "map_type": "topo", "tourism": "information"}}, {"type": "node", "id": 12504323562, "lat": 50.0138531, "lon": 13.6170797, "tags": {"board_type": "notice", "information": "board", "tourism": "information"}}, {"type": "node", "id": 12504323565, "lat": 50.0120754, "lon": 13.6195527}, {"type": "node", "id": 12504323566, "lat": 50.01209, "lon": 13.6196055}, {"type": "node", "id": 12504323567, "lat": 50.0120565, "lon": 13.619628}, {"type": "node", "id": 12504323568, "lat": 50.0120418, "lon": 13.6195752}, {"type": "node", "id": 12504323576, "lat": 50.0016129, "lon": 13.6162003, "tags": {"board_type": "notice", "direction": "290", "information": "board", "tourism": "information"}}, {"type": "node", "id": 12504323577, "lat": 50.0015452, "lon": 13.6161674, "tags": {"direction": "290", "information": "map", "map_size": "region", "map_type": "topo", "tourism": "information"}}, {"type": "node", "id": 12732693235, "lat": 50.1006177, "lon": 13.7329904, "tags": {"information": "board", "tourism": "information"}}, {"type": "node", "id": 12749895892, "lat": 50.0846952, "lon": 13.6231847, "tags": {"amenity": "shelter", "bench": "yes", "mapillary": "3094568397377474"}}, {"type": "node", "id": 12956215353, "lat": 50.0015233, "lon": 13.655483, "tags": {"tourism": "viewpoint"}}, {"type": "node", "id": 12956570832, "lat": 50.0849658, "lon": 13.7383285, "tags": {"tourism": "viewpoint"}}, {"type": "node", "id": 12956742658, "lat": 49.9998632, "lon": 13.7117416}, {"type": "node", "id": 12956742659, "lat": 49.9997603, "lon": 13.7119699}, {"type": "node", "id": 12956742660, "lat": 49.9997125, "lon": 13.7119018}, {"type": "node", "id": 12956742661, "lat": 49.9998063, "lon": 13.7116797}, {"type": "node", "id": 12956742662, "lat": 49.9997773, "lon": 13.7120416}, {"type": "node", "id": 12956742663, "lat": 49.9998973, "lon": 13.7119159}, {"type": "node", "id": 12956742664, "lat": 49.9998769, "lon": 13.711862}, {"type": "node", "id": 12956742665, "lat": 49.9998405, "lon": 13.7118982}, {"type": "node", "id": 12956742666, "lat": 49.9998427, "lon": 13.7119071}, {"type": "node", "id": 12956742667, "lat": 49.999758, "lon": 13.7119938}, {"type": "node", "id": 12956742670, "lat": 50.0000103, "lon": 13.7117873}, {"type": "node", "id": 12956742672, "lat": 49.9999882, "lon": 13.7118095}, {"type": "node", "id": 12956742673, "lat": 49.9999747, "lon": 13.7117809}, {"type": "node", "id": 12956742674, "lat": 49.9999969, "lon": 13.7117579}, {"type": "node", "id": 12956742675, "lat": 49.9998802, "lon": 13.7118709}, {"type": "node", "id": 12956742676, "lat": 49.9997469, "lon": 13.7112765}, {"type": "node", "id": 12956742677, "lat": 49.9997203, "lon": 13.711203}, {"type": "node", "id": 12956742678, "lat": 49.9996865, "lon": 13.7112357}, {"type": "node", "id": 12956742679, "lat": 49.9997172, "lon": 13.711311}, {"type": "node", "id": 12956742690, "lat": 50.0009612, "lon": 13.7104609}, {"type": "node", "id": 12956742691, "lat": 50.0008854, "lon": 13.7104819}, {"type": "node", "id": 12956742692, "lat": 50.0009732, "lon": 13.7105578}, {"type": "node", "id": 12956742693, "lat": 50.0009616, "lon": 13.7105616}, {"type": "node", "id": 12956743825, "lat": 49.9997397, "lon": 13.7122934, "tags": {"information": "board", "name": "Slabecko", "tourism": "information"}}, {"type": "node", "id": 12959668371, "lat": 50.0922616, "lon": 13.751733, "tags": {"board_type": "nature", "information": "board", "tourism": "information"}}, {"type": "node", "id": 12984226700, "lat": 50.0420887, "lon": 13.7718638, "tags": {"ele": "428", "name": "Homolka", "natural": "peak"}}, {"type": "node", "id": 12984246801, "lat": 50.053992, "lon": 13.7501814, "tags": {"ele": "473", "name": "Rem\u00edzsk\u00fd vrch", "natural": "peak"}}, {"type": "node", "id": 12985184670, "lat": 50.0359118, "lon": 13.7775201, "tags": {"ele": "421", "name": "Ro\u0161kal", "natural": "peak"}}, {"type": "node", "id": 12985184685, "lat": 50.0284627, "lon": 13.7811815, "tags": {"ele": "429", "name": "Kamenn\u00e1", "natural": "peak"}}, {"type": "node", "id": 12996148657, "lat": 50.0284401, "lon": 13.708306, "tags": {"tourism": "viewpoint"}}, {"type": "node", "id": 13077516141, "lat": 50.0275621, "lon": 13.6331493, "tags": {"natural": "peak"}}, {"type": "node", "id": 13077516161, "lat": 50.0168426, "lon": 13.6471575, "tags": {"natural": "peak"}}, {"type": "node", "id": 13077516162, "lat": 50.0275253, "lon": 13.6571361, "tags": {"natural": "peak"}}, {"type": "node", "id": 13077533568, "lat": 49.9948453, "lon": 13.7418968, "tags": {"ele": "431", "name": "H\u00e1jek", "natural": "peak"}}, {"type": "node", "id": 13077533569, "lat": 49.9983454, "lon": 13.7756572, "tags": {"natural": "peak"}}, {"type": "node", "id": 13086466177, "lat": 50.1038506, "lon": 13.732094, "tags": {"city": "yes", "information": "guidepost", "ref": "none", "tourism": "information"}}, {"type": "node", "id": 13161892610, "lat": 49.963109, "lon": 13.719052, "tags": {"information": "board", "tourism": "information"}}, {"type": "node", "id": 13161980399, "lat": 49.9688744, "lon": 13.7811598, "tags": {"check_date": "2025-09-21", "mapillary": "1851389815762614", "name": "Oskarova vyhl\u00eddka", "tourism": "viewpoint"}}, {"type": "node", "id": 13161983002, "lat": 49.9714133, "lon": 13.7725976, "tags": {"information": "board", "mapillary": "1086538100361285", "tourism": "information"}}, {"type": "node", "id": 13161991522, "lat": 49.9680328, "lon": 13.7473912, "tags": {"information": "board", "mapillary": "1164392775748259", "tourism": "information"}}, {"type": "node", "id": 13161991524, "lat": 49.9713275, "lon": 13.7531555, "tags": {"hiking": "yes", "information": "guidepost", "mapillary": "1128749188695919", "name": "Elektrick\u00e1 cesta V\u00e1clava \u010cecha", "tourism": "information"}}, {"type": "node", "id": 13269845007, "lat": 49.9669481, "lon": 13.7028209, "tags": {"ele": "373", "name": "Plazy", "natural": "peak"}}, {"type": "node", "id": 13269845008, "lat": 50.0386788, "lon": 13.7173267, "tags": {"ele": "451", "name": "Svat\u00fd Jan", "natural": "peak"}}, {"type": "node", "id": 13269845034, "lat": 50.0321678, "lon": 13.7119403, "tags": {"ele": "461", "name": "T\u0159i lipky", "natural": "peak"}}, {"type": "node", "id": 13269845050, "lat": 50.0355151, "lon": 13.7138598, "tags": {"natural": "peak"}}, {"type": "node", "id": 13269845051, "lat": 50.04244, "lon": 13.6945608, "tags": {"ele": "494", "name": "Ko\u010dkov", "natural": "peak"}}, {"type": "node", "id": 13430436847, "lat": 50.1035268, "lon": 13.7342801, "tags": {"information": "board", "name": "Horniny", "tourism": "information"}}, {"type": "way", "id": 114115908, "nodes": [1293192379, 11382418969, 11382414379, 11382418671, 11382414381, 1293192316, 11327656379, 4623945675, 4623945674, 1293192214, 1293192375, 11382414383, 1293192434, 1293192220, 1293192379], "tags": {"building": "public", "building:levels": "3", "building:levels:underground": "1", "building:ruian:type": "3", "description": "Budova C", "height": "15.55", "information": "office", "operator": "M\u011bsto Rakovn\u00edk", "ref:ruian:building": "8591482", "roof:levels": "1", "source": "cuzk:ruian", "tourism": "information"}}, {"type": "way", "id": 114125285, "nodes": [3392151099, 3392151098, 3392151097, 11207357920, 3392151095, 3392151096, 1293241896, 1293241382, 1293242021, 1293241561, 1293241802, 1293241280, 1293241962, 1293241823, 3392151099], "tags": {"addr:city": "Rakovn\u00edk", "addr:conscriptionnumber": "27", "addr:country": "CZ", "addr:housenumber": "27", "addr:place": "Rakovn\u00edk I", "addr:postcode": "26901", "addr:street": "Husovo n\u00e1m\u011bst\u00ed", "amenity": "townhall", "building": "residential", "building:flats": "1", "building:levels": "1", "building:ruian:type": "3", "name": "M\u011bstsk\u00fd \u00fa\u0159ad Rakovn\u00edk", "phone": "+420 313 259 111", "ref:ruian:building": "8590320", "short_name": "M\u011b\u00da Rakovn\u00edk", "source": "cuzk:ruian", "tourism": "attraction", "website": "https://www.mesto-rakovnik.cz/", "wikidata": "Q31961628", "wikipedia": "cs:Rakovnick\u00e1 radnice"}}, {"type": "way", "id": 161059507, "nodes": [1730594788, 1730594784, 1730594808, 1730594826, 1730594788], "tags": {"amenity": "shelter", "building": "transportation", "shelter_type": "public_transport", "source": "cuzk:km"}}, {"type": "way", "id": 199047146, "nodes": [2090996884, 2090996875, 2090996869, 2090996873, 2090996881, 2090996886, 2090996887, 2090996884], "tags": {"access": "yes", "historic": "ruins", "name": "T\u00fd\u0159ov", "ruins": "castle", "tourism": "attraction"}}, {"type": "way", "id": 207758441, "nodes": [2180071634, 2180071703, 2180071699, 2180071629, 2180071634], "tags": {"amenity": "shelter", "building": "shed", "building:ruian:type": "5", "ref:ruian:building": "49659286", "shelter_type": "public_transport", "source": "cuzk:ruian"}}, {"type": "way", "id": 207758629, "nodes": [2180072937, 2180072939, 2180072961, 2180072950, 2180072937], "tags": {"amenity": "shelter", "building": "yes", "building:ruian:type": "19", "ref:ruian:building": "48756041", "shelter_type": "public_transport", "source": "cuzk:ruian"}}, {"type": "way", "id": 273677249, "nodes": [2785105401, 2785105415, 2785105409, 2785105395, 2785105401], "tags": {"amenity": "shelter", "building": "civic", "building:ruian:type": "5", "ref:ruian:building": "44456166", "shelter_type": "public_transport", "source": "cuzk:ruian"}}, {"type": "way", "id": 282270626, "nodes": [2862094931, 2862094932, 2862094930, 2862094929, 2862094931], "tags": {"amenity": "shelter"}}, {"type": "way", "id": 332096762, "nodes": [3392142191, 3392142192, 3392142190, 3392142186, 3392142185, 3392142188, 3392142191], "tags": {"addr:city": "Rakovn\u00edk", "addr:country": "CZ", "addr:place": "Rakovn\u00edk I", "addr:postcode": "26901", "building": "yes", "man_made": "tower", "name": "Velk\u00e1 zvonice p\u0159i kostele svat\u00e9ho Bartolom\u011bje", "name:cs": "Velk\u00e1 zvonice p\u0159i kostele svat\u00e9ho Bartolom\u011bje", "name:en": "Gothic Belfry at Saint. Bartholomew", "source": "cuzk:km", "start_date": "1526", "tourism": "attraction", "tower:type": "bell_tower"}}, {"type": "way", "id": 356751475, "nodes": [3621556057, 3621556060, 3621556058, 3621556054, 3621556057], "tags": {"amenity": "shelter", "ref:ruian:building": "38589648", "shelter_type": "public_transport"}}, {"type": "way", "id": 473724569, "nodes": [4677832987, 4677832986, 4677832985, 4677832984, 4677832987], "tags": {"amenity": "shelter", "building": "yes"}}, {"type": "way", "id": 530498764, "nodes": [5151351502, 5151351503, 5151351504, 5151351505, 5151351502], "tags": {"amenity": "shelter", "building": "transportation", "shelter_type": "public_transport"}}, {"type": "way", "id": 530498766, "nodes": [5151351508, 5151351509, 5151351510, 5151351511, 5151351508], "tags": {"amenity": "shelter", "building": "transportation", "shelter_type": "public_transport"}}, {"type": "way", "id": 539945649, "nodes": [5224170700, 5224170699, 5224170698, 5224170697, 5224170700], "tags": {"amenity": "shelter", "building:ruian:type": "5", "ref:ruian:building": "50235001", "shelter_type": "public_transport", "source": "cuzk:ruian"}}, {"type": "way", "id": 628408232, "nodes": [5932709415, 5932709416, 5932709417, 5932709418, 5932709400, 5932709401, 5932709402, 5932709403, 5932709404, 5932709410, 5932709411, 5932709412, 5932709413, 5932709414, 5932709405, 5932709406, 5932709407, 5932709408, 5932709409, 5932709415], "tags": {"amenity": "shelter", "bin": "yes", "building": "yes", "name": "Hudebn\u00ed amfite\u00e1tr"}}, {"type": "way", "id": 1044734405, "nodes": [9612969796, 9612969797, 9612969798, 9612969799, 9612969800, 9612969782, 9612969783, 9612969784, 9612969785, 9612969790, 9612969791, 9612969792, 9612969793, 9612969794, 9612969795, 9612969786, 9612969787, 9612969788, 9612969789, 9612969796], "tags": {"amenity": "shelter", "shelter_type": "gazebo"}}, {"type": "way", "id": 1213141484, "nodes": [11239815888, 11239815889, 11239815890, 11239815891, 11239815892, 11239815893, 11239815894, 11239815895, 11239815888], "tags": {"amenity": "shelter", "building": "yes"}}, {"type": "way", "id": 1215551372, "nodes": [11262406813, 11262406814, 11262406815, 11262406816, 11262406813], "tags": {"amenity": "shelter", "building": "yes"}}, {"type": "way", "id": 1215551377, "nodes": [8337142334, 8337142336, 8337142335, 3201445945, 8337142334], "tags": {"amenity": "shelter", "bench": "yes", "bin": "yes", "building": "yes", "lit": "yes", "shelter_type": "public_transport"}}, {"type": "way", "id": 1225425415, "nodes": [11364162940, 11364162945, 11364162941, 11364162942, 11364162943, 11364162940], "tags": {"amenity": "shelter", "building": "yes", "shelter_type": "gazebo"}}, {"type": "way", "id": 1226200525, "nodes": [11371172024, 11371172025, 11371172026, 11371172027, 11371172024], "tags": {"amenity": "shelter", "bench": "yes", "bin": "yes", "building": "yes", "shelter_type": "public_transport"}}, {"type": "way", "id": 1238371030, "nodes": [11503674237, 11503674238, 11503674239, 11503674240, 11503674237], "tags": {"amenity": "shelter", "building": "yes", "shelter_type": "gazebo"}}, {"type": "way", "id": 1242145007, "nodes": [11542385161, 11542385162, 11542385163, 11542385164, 11542385161], "tags": {"amenity": "shelter", "building": "yes"}}, {"type": "way", "id": 1328422560, "nodes": [12290448246, 12290448247, 12290448248, 12290448249, 12290448246], "tags": {"amenity": "shelter", "building": "yes", "shelter_type": "public_transport"}}, {"type": "way", "id": 1328644076, "nodes": [12292509220, 12292509221, 12292509222, 12292509223, 12292509220], "tags": {"amenity": "shelter", "bench": "yes", "bin": "no", "building": "yes", "check_date": "2024-10-27", "shelter_type": "public_transport"}}, {"type": "way", "id": 1328644077, "nodes": [12292509224, 12292509225, 12292509226, 12292509227, 12292509224], "tags": {"amenity": "shelter", "bench": "yes", "bin": "no", "building": "yes", "check_date": "2024-10-27", "shelter_type": "public_transport"}}, {"type": "way", "id": 1328644078, "nodes": [12292509228, 12292509229, 12292509230, 12292509231, 12292509228], "tags": {"amenity": "shelter", "bench": "yes", "bin": "no", "building": "yes", "check_date": "2024-10-27", "shelter_type": "public_transport"}}, {"type": "way", "id": 1328644079, "nodes": [12292509232, 12292509233, 12292509234, 12292509235, 12292509232], "tags": {"amenity": "shelter", "bench": "yes", "bin": "no", "building": "yes", "check_date": "2024-10-27", "shelter_type": "public_transport"}}, {"type": "way", "id": 1328644080, "nodes": [12292509236, 12292509237, 12292509238, 12292509239, 12292509236], "tags": {"amenity": "shelter", "bench": "yes", "bin": "no", "building": "yes", "check_date": "2024-10-27", "shelter_type": "public_transport"}}, {"type": "way", "id": 1328644081, "nodes": [12292509240, 12292509241, 12292509242, 12292509243, 12292509240], "tags": {"amenity": "shelter", "bench": "yes", "bin": "no", "building": "yes", "check_date": "2024-10-27", "shelter_type": "public_transport"}}, {"type": "way", "id": 1328644087, "nodes": [12292509254, 12292509255, 12292509256, 12292509257, 12292509254], "tags": {"amenity": "shelter", "bench": "yes", "bin": "no", "building": "yes", "check_date": "2024-10-27", "shelter_type": "public_transport"}}, {"type": "way", "id": 1328644088, "nodes": [12292509258, 12292509259, 12292509260, 12292509261, 12292509258], "tags": {"amenity": "shelter", "bench": "yes", "bin": "no", "building": "yes", "check_date": "2024-10-27", "shelter_type": "public_transport"}}, {"type": "way", "id": 1328644089, "nodes": [12292509262, 12292509263, 12292509264, 12292509265, 12292509262], "tags": {"amenity": "shelter", "bench": "yes", "bin": "no", "building": "yes", "check_date": "2024-10-27", "shelter_type": "public_transport"}}, {"type": "way", "id": 1328644090, "nodes": [12292509266, 12292509267, 12292509268, 12292509269, 12292509266], "tags": {"amenity": "shelter", "bench": "yes", "bin": "no", "building": "yes", "check_date": "2024-10-27", "shelter_type": "public_transport"}}, {"type": "way", "id": 1328644091, "nodes": [12292509270, 12292509271, 12292509272, 12292509273, 12292509270], "tags": {"amenity": "shelter", "bench": "yes", "bin": "no", "building": "yes", "check_date": "2024-10-27", "shelter_type": "public_transport"}}, {"type": "way", "id": 1328644096, "nodes": [7466212404, 12292509286, 12292509287, 12292509288, 7466212404], "tags": {"amenity": "shelter", "bench": "yes", "bin": "no", "building": "yes", "check_date": "2024-10-27", "shelter_type": "public_transport"}}, {"type": "way", "id": 1328644097, "nodes": [12292509291, 12292509292, 12292509293, 12292509294, 12292509291], "tags": {"amenity": "shelter", "bench": "yes", "bin": "no", "building": "yes", "check_date": "2024-10-27", "shelter_type": "public_transport"}}, {"type": "way", "id": 1328644098, "nodes": [12292509295, 12292509296, 12292509297, 12292509298, 12292509295], "tags": {"amenity": "shelter", "bench": "yes", "bin": "no", "building": "yes", "check_date": "2024-10-27", "shelter_type": "public_transport"}}, {"type": "way", "id": 1328644099, "nodes": [12292509299, 12292509300, 12292524801, 12292524802, 12292509299], "tags": {"amenity": "shelter", "bench": "yes", "bin": "no", "building": "yes", "check_date": "2024-10-27", "shelter_type": "public_transport"}}, {"type": "way", "id": 1328644100, "nodes": [12292524803, 12292524804, 12292524805, 12292524806, 12292524803], "tags": {"amenity": "shelter", "bench": "yes", "bin": "no", "building": "yes", "check_date": "2024-10-27", "shelter_type": "public_transport"}}, {"type": "way", "id": 1328644101, "nodes": [12292524807, 12292524808, 12292524809, 12292524810, 12292524807], "tags": {"amenity": "shelter", "bench": "yes", "bin": "no", "building": "yes", "check_date": "2024-10-27", "shelter_type": "public_transport"}}, {"type": "way", "id": 1328644103, "nodes": [12292524823, 12292524824, 12292524825, 12292524826, 12292524823], "tags": {"amenity": "shelter", "bench": "yes", "bin": "no", "building": "yes", "check_date": "2024-10-27", "shelter_type": "public_transport"}}, {"type": "way", "id": 1328644104, "nodes": [12292524827, 12292524828, 12292524829, 12292524830, 12292524827], "tags": {"amenity": "shelter", "bench": "yes", "bin": "no", "building": "yes", "check_date": "2024-10-27", "shelter_type": "public_transport"}}, {"type": "way", "id": 1328644105, "nodes": [12292524831, 12292524832, 12292524833, 12292524834, 12292524831], "tags": {"amenity": "shelter", "bench": "yes", "bin": "no", "building": "yes", "shelter_type": "public_transport"}}, {"type": "way", "id": 1328644106, "nodes": [12292524835, 12292524836, 12292524837, 12292524838, 12292524835], "tags": {"amenity": "shelter", "bench": "yes", "bin": "no", "building": "yes", "check_date": "2024-10-27", "shelter_type": "public_transport"}}, {"type": "way", "id": 1328644107, "nodes": [12292524839, 12292524840, 12292524841, 12292524842, 12292524839], "tags": {"amenity": "shelter", "bench": "yes", "bin": "no", "building": "yes", "check_date": "2024-10-27", "shelter_type": "public_transport"}}, {"type": "way", "id": 1328644110, "nodes": [12292524857, 12292524858, 12292524859, 12292524860, 12292524857], "tags": {"amenity": "shelter", "bench": "yes", "bin": "no", "building": "yes", "check_date": "2024-10-27", "shelter_type": "public_transport"}}, {"type": "way", "id": 1328878759, "nodes": [12294571825, 12294571826, 12294571827, 12294571828, 12294571825], "tags": {"amenity": "shelter", "building": "yes", "shelter_type": "public_transport"}}, {"type": "way", "id": 1328878760, "nodes": [12294571832, 12294571833, 12294571834, 12294571835, 12294571832], "tags": {"amenity": "shelter", "building": "yes", "shelter_type": "public_transport"}}, {"type": "way", "id": 1328878761, "nodes": [12294571837, 12294571838, 12294571839, 12294571840, 12294571837], "tags": {"amenity": "shelter", "bench": "no", "bin": "no", "building": "yes", "shelter_type": "public_transport"}}, {"type": "way", "id": 1328878762, "nodes": [12294571841, 12294571842, 12294571843, 12294571844, 12294571841], "tags": {"amenity": "shelter", "bench": "yes", "bin": "no", "building": "yes", "shelter_type": "public_transport"}}, {"type": "way", "id": 1328878764, "nodes": [12294571853, 12294571854, 12294571855, 12294571856, 12294571853], "tags": {"amenity": "shelter", "building": "yes", "shelter_type": "public_transport"}}, {"type": "way", "id": 1329900104, "nodes": [12304430462, 12304430463, 12304430464, 12304430465, 12304430462], "tags": {"amenity": "shelter", "building": "yes", "shelter_type": "public_transport"}}, {"type": "way", "id": 1329900105, "nodes": [12304430466, 12304430467, 12304430468, 12304430469, 12304430466], "tags": {"amenity": "shelter", "building": "yes", "shelter_type": "public_transport"}}, {"type": "way", "id": 1329900108, "nodes": [12304430475, 12304430476, 12304430477, 12304430478, 12304430475], "tags": {"amenity": "shelter", "building": "yes", "shelter_type": "public_transport"}}, {"type": "way", "id": 1330602398, "nodes": [12311580144, 12311580145, 12311580146, 12311580147, 12311580144], "tags": {"amenity": "shelter", "building": "yes", "shelter_type": "public_transport"}}, {"type": "way", "id": 1351554191, "nodes": [12504323565, 12504323566, 12504323567, 12504323568, 12504323565], "tags": {"amenity": "shelter", "building": "yes", "shelter_type": "gazebo"}}, {"type": "way", "id": 1410089845, "nodes": [12956742658, 12956742659, 12956742660, 12956742661, 12956742658], "tags": {"amenity": "shelter", "building": "yes"}}, {"type": "way", "id": 1410089846, "nodes": [12956742662, 12956742663, 12956742675, 12956742664, 12956742665, 12956742666, 12956742667, 12956742662], "tags": {"amenity": "shelter", "building": "yes"}}, {"type": "way", "id": 1410089848, "nodes": [12956742670, 12956742672, 12956742673, 12956742674, 12956742670], "tags": {"amenity": "shelter", "building": "yes"}}, {"type": "way", "id": 1410089849, "nodes": [12956742672, 12956742663, 12956742675, 12956742673, 12956742672], "tags": {"amenity": "shelter", "building": "yes"}}, {"type": "way", "id": 1410089850, "nodes": [12956742676, 12956742677, 12956742678, 12956742679, 12956742676], "tags": {"amenity": "shelter", "building": "yes"}}, {"type": "way", "id": 1410089853, "nodes": [12956742690, 12956742691, 4677833290, 4677833291, 12956742693, 12956742692, 12956742690], "tags": {"amenity": "shelter", "building": "yes"}}]}