{"version": 0.6, "generator": "Overpass API 0.7.62.8 e802775f", "osm3s": {"timestamp_osm_base": "2026-01-05T15:46:15Z", "copyright": "The data included in this document is from www.openstreetmap.org. The data is made available under ODbL."}, "elements": [{"type": "node", "id": 444824166, "lat": 49.7417303, "lon": 13.0006956, "tags": {"ele": "392", "hiking": "yes", "information": "guidepost", "name": "St\u0159\u00edbro (vlak)", "operator": "cz:K\u010cT", "ref": "TC005", "tourism": "information"}}, {"type": "node", "id": 881061880, "lat": 49.6571545, "lon": 13.1985382, "tags": {"ele": "342", "hiking": "yes", "information": "guidepost", "name": "Chot\u011b\u0161ov - \u017est", "operator": "cz:K\u010cT", "ref": "PJ606", "tourism": "information"}}, {"type": "node", "id": 881061899, "lat": 49.6438712, "lon": 13.1678065, "tags": {"ele": "340", "hiking": "yes", "information": "guidepost", "name": "Stod (odb. k H\u00e1ji)", "operator": "cz:K\u010cT", "ref": "PJ604", "short_name": "Stod (odb. k H\u00e1ji)", "tourism": "information"}}, {"type": "node", "id": 886413598, "lat": 49.6239871, "lon": 13.0510994, "tags": {"hiking": "yes", "information": "guidepost", "name": "Na soutoku", "operator": "cz:K\u010cT", "ref": "PJ601", "tourism": "information"}}, {"type": "node", "id": 1650535651, "lat": 49.6067464, "lon": 13.1944512, "tags": {"ele": "396", "hiking": "yes", "information": "guidepost", "name": "Dv\u016fr Ma\u0161krov", "operator": "cz:K\u010cT", "ref": "PJ556", "tourism": "information"}}, {"type": "node", "id": 1650535652, "lat": 49.5972262, "lon": 13.1019822, "tags": {"ele": "361", "hiking": "yes", "information": "guidepost", "name": "Hol\u00fd\u0161ov (\u017est)", "operator": "cz:K\u010cT", "ref": "DO153", "tourism": "information"}}, {"type": "node", "id": 1650535653, "lat": 49.6036595, "lon": 13.164975, "tags": {"ele": "380", "hiking": "yes", "information": "guidepost", "name": "L\u00ed\u0161ina", "operator": "cz:K\u010cT", "ref": "PJ557", "tourism": "information"}}, {"type": "node", "id": 1650535654, "lat": 49.6377763, "lon": 13.1658449, "tags": {"ele": "336", "hiking": "yes", "information": "guidepost", "name": "Stod - most", "operator": "cz:K\u010cT", "ref": "PJ553", "tourism": "information"}}, {"type": "node", "id": 1650535655, "lat": 49.5972102, "lon": 13.1352768, "tags": {"ele": "420", "hiking": "yes", "information": "guidepost", "name": "Trn\u00fd", "operator": "cz:K\u010cT", "ref": "PJ559", "tourism": "information"}}, {"type": "node", "id": 1650535656, "lat": 49.566964, "lon": 13.1346262, "tags": {"ele": "488", "hiking": "yes", "information": "guidepost", "name": "Vyt\u016f\u0148 (h\u00e1j.)", "operator": "cz:K\u010cT", "ref": "PJ588", "tourism": "information"}}, {"type": "node", "id": 1650535657, "lat": 49.6032652, "lon": 13.1378178, "tags": {"ele": "424", "hiking": "yes", "information": "guidepost", "name": "Za H\u016frkou", "operator": "cz:K\u010cT", "ref": "PJ558", "tourism": "information"}}, {"type": "node", "id": 1650535659, "lat": 49.5709747, "lon": 13.106638, "tags": {"ele": "390", "hiking": "yes", "information": "guidepost", "name": "Horn\u00ed Kamenice", "operator": "cz:K\u010cT", "ref": "PJ060", "tourism": "information"}}, {"type": "node", "id": 2252796034, "lat": 49.626449, "lon": 13.1828513, "tags": {"board_type": "nature", "information": "board", "name": "Rybn\u00edky na Vrabin\u011b", "ref": "4", "tourism": "information"}}, {"type": "node", "id": 2252796265, "lat": 49.6386408, "lon": 13.1692195, "tags": {"board_type": "history", "check_date": "2022-10-16", "information": "board", "name": "Pivovarnictv\u00ed", "ref": "2", "source": "survey", "tourism": "information"}}, {"type": "node", "id": 2252796318, "lat": 49.6316487, "lon": 13.1720347, "tags": {"board_type": "history", "information": "board", "name": "\u0160ibeni\u010dn\u00ed vrch", "name:cs": "\u0160ibeni\u010dn\u00ed vrch", "name:de": "Galgenberg", "ref": "3", "tourism": "information"}}, {"type": "node", "id": 2318305711, "lat": 49.5683809, "lon": 13.0047249, "tags": {"FIXME": "poloha nep\u0159esn\u00e1", "hiking": "yes", "information": "guidepost", "name": "Mal\u00fd Malahov", "operator": "cz:K\u010cT", "ref": "DO135", "tourism": "information"}}, {"type": "node", "id": 2673349642, "lat": 49.67455, "lon": 13.0256167, "tags": {"amenity": "shelter", "shelter_type": "picnic_shelter"}}, {"type": "node", "id": 2998350990, "lat": 49.7116742, "lon": 13.039765, "tags": {"ele": "484", "hiking": "yes", "information": "guidepost", "name": "B\u0159ezovka", "operator": "cz:K\u010cT", "ref": "TC065", "tourism": "information"}}, {"type": "node", "id": 2998350991, "lat": 49.7102896, "lon": 13.0873207, "tags": {"ele": "380", "hiking": "yes", "information": "guidepost", "name": "He\u0159manova Hu\u0165", "operator": "cz:K\u010cT", "ref": "TC050", "tourism": "information"}}, {"type": "node", "id": 2998350992, "lat": 49.7196875, "lon": 13.0565674, "tags": {"ele": "484", "hiking": "yes", "information": "guidepost", "name": "Nov\u00fd Dv\u016fr", "operator": "cz:K\u010cT", "ref": "TC041", "tourism": "information"}}, {"type": "node", "id": 3313338339, "lat": 49.5606758, "lon": 13.1978735, "tags": {"ele": "380", "hiking": "yes", "information": "guidepost", "name": "Merkl\u00edn", "operator": "cz:K\u010cT", "ref": "PJ591", "tourism": "information"}}, {"type": "node", "id": 3671127785, "lat": 49.5563874, "lon": 13.1021366, "tags": {"ele": "400", "hiking": "yes", "information": "guidepost", "name": "Holub\u00ed hlava", "operator": "cz:K\u010cT", "tourism": "information"}}, {"type": "node", "id": 3878747771, "lat": 49.6361914, "lon": 13.1229277, "tags": {"ele": "355", "hiking": "yes", "information": "guidepost", "name": "Hradec (\u017eelezni\u010dn\u00ed stanice)", "official_name": "Hradec (\u017est)", "operator": "cz:K\u010cT", "ref": "PJ603", "tourism": "information"}}, {"type": "node", "id": 3878827617, "lat": 49.6211897, "lon": 13.0822126, "tags": {"ele": "395", "hiking": "yes", "information": "guidepost", "name": "V Hanovk\u00e1ch", "operator": "cz:K\u010cT", "ref": "PJ602", "tourism": "information"}}, {"type": "node", "id": 3878840607, "lat": 49.6399567, "lon": 13.1561942, "tags": {"ele": "356", "hiking": "yes", "information": "guidepost", "name": "Stod - \u017est", "operator": "cz:K\u010cT", "ref": "PJ551", "tourism": "information"}}, {"type": "node", "id": 3878864695, "lat": 49.6402522, "lon": 13.1616097, "tags": {"ele": "342", "hiking": "yes", "information": "guidepost", "name": "Stod (pivovar)", "operator": "cz:K\u010cT", "ref": "PJ552", "tourism": "information"}}, {"type": "node", "id": 3926246821, "lat": 49.5562753, "lon": 13.1022088, "tags": {"amenity": "shelter", "shelter_type": "picnic_shelter"}}, {"type": "node", "id": 4156439056, "lat": 49.5546232, "lon": 13.0213792, "tags": {"ele": "400", "hiking": "yes", "information": "guidepost", "name": "Puclice", "operator": "cz:K\u010cT", "ref": "DO146", "tourism": "information"}}, {"type": "node", "id": 4266770789, "lat": 49.6785667, "lon": 13.1640572, "tags": {"name": "Sportovni strelnice-brokove discipliny", "tourism": "attraction"}}, {"type": "node", "id": 4397217650, "lat": 49.7428214, "lon": 13.1632052, "tags": {"hiking": "yes", "information": "guidepost", "name": "U \u010cerven\u00e9ho k\u0159\u00ed\u017ee", "operator": "cz:K\u010cT", "ref": "PS361", "tourism": "information"}}, {"type": "node", "id": 4474684481, "lat": 49.590133, "lon": 13.1035129, "tags": {"ele": "387", "hiking": "yes", "information": "guidepost", "name": "Hol\u00fd\u0161ov", "operator": "cz:K\u010cT", "ref": "DO305", "tourism": "information"}}, {"type": "node", "id": 4474684482, "lat": 49.615314, "lon": 13.1123589, "tags": {"ele": "380", "hiking": "yes", "information": "guidepost", "name": "Hradeck\u00e1 Sk\u00e1la", "operator": "cz:K\u010cT", "ref": "PJ031", "tourism": "information"}}, {"type": "node", "id": 4474684484, "lat": 49.6165339, "lon": 13.1420456, "tags": {"ele": "396", "hiking": "yes", "information": "guidepost", "name": "Mo\u0161na", "operator": "cz:K\u010cT", "ref": "PJ709", "tourism": "information"}}, {"type": "node", "id": 4813460327, "lat": 49.6452242, "lon": 13.16907, "tags": {"check_date": "2025-10-28", "information": "board", "name": "H\u00e1j umu\u010den\u00fdch", "tourism": "information"}}, {"type": "node", "id": 4904963715, "lat": 49.7241164, "lon": 13.1413738, "tags": {"ele": "380", "hiking": "yes", "information": "guidepost", "name": "Rochlov (\u017est)", "operator": "cz:K\u010cT", "ref": "PS041", "tourism": "information"}}, {"type": "node", "id": 4972842591, "lat": 49.5637123, "lon": 13.1180513, "tags": {"ele": "507", "name": "Kamenn\u00e1 hora", "name:cs": "Kamenn\u00e1 hora", "name:de": "Wittunaberg", "natural": "peak"}}, {"type": "node", "id": 5073894854, "lat": 49.6843138, "lon": 13.1803522, "tags": {"ele": "381", "name": "Jetelov\u00fd vrch", "natural": "peak"}}, {"type": "node", "id": 5073899251, "lat": 49.6863125, "lon": 13.1346241, "tags": {"ele": "403", "name": "T\u0159\u00edkopec", "natural": "peak"}}, {"type": "node", "id": 5073901507, "lat": 49.691604, "lon": 13.0872152, "tags": {"ele": "444", "name": "\u017delezn\u00fd kopec", "natural": "peak"}}, {"type": "node", "id": 5073908004, "lat": 49.722246, "lon": 13.0526771, "tags": {"ele": "491", "name": "Kamenn\u00fd vr\u0161ek", "natural": "peak"}}, {"type": "node", "id": 5073910222, "lat": 49.7332021, "lon": 13.0457473, "tags": {"ele": "467", "name": "Po\u0159\u00edzek", "natural": "peak"}}, {"type": "node", "id": 5073911837, "lat": 49.7290129, "lon": 13.0216345, "tags": {"ele": "523", "name": "Jirn\u00e1", "natural": "peak", "summit:cross": "no"}}, {"type": "node", "id": 5073912449, "lat": 49.7464831, "lon": 13.027884, "tags": {"ele": "469.3", "natural": "peak"}}, {"type": "node", "id": 5074006324, "lat": 49.7488193, "lon": 13.1259584, "tags": {"ele": "502", "name": "Harabaska", "natural": "peak"}}, {"type": "node", "id": 5074009421, "lat": 49.7382674, "lon": 13.1907975, "tags": {"ele": "456", "name": "Dobr\u00e1k", "natural": "peak"}}, {"type": "node", "id": 5363004889, "lat": 49.7487623, "lon": 13.126055, "tags": {"ele": "500", "hiking": "yes", "information": "guidepost", "name": "Harabaska", "operator": "cz:K\u010cT", "ref": "PS320", "tourism": "information"}}, {"type": "node", "id": 5370593389, "lat": 49.7458125, "lon": 13.1888777, "tags": {"ele": "405", "hiking": "yes", "information": "guidepost", "name": "Doubrava", "operator": "cz:K\u010cT", "ref": "PS029", "tourism": "information"}}, {"type": "node", "id": 5370593398, "lat": 49.7371735, "lon": 13.1699306, "tags": {"ele": "451", "hiking": "yes", "information": "guidepost", "name": "U Ma\u0161ka", "operator": "cz:K\u010cT", "ref": "PS043", "tourism": "information"}}, {"type": "node", "id": 5370593440, "lat": 49.7304506, "lon": 13.1464291, "tags": {"hiking": "yes", "information": "guidepost", "name": "Rochlov", "operator": "cz:K\u010cT", "ref": "PS040", "tourism": "information"}}, {"type": "node", "id": 5370666952, "lat": 49.6461803, "lon": 13.1698716, "tags": {"ele": "340", "hiking": "yes", "information": "guidepost", "name": "H\u00e1j umu\u010den\u00fdch", "operator": "cz:K\u010cT", "ref": "PJ746", "tourism": "information"}}, {"type": "node", "id": 5370694073, "lat": 49.6432729, "lon": 13.1971818, "tags": {"ele": "333", "hiking": "yes", "information": "guidepost", "name": "Chot\u011b\u0161ov u jezu", "operator": "cz:K\u010cT", "ref": "PJ605", "tourism": "information"}}, {"type": "node", "id": 5380753125, "lat": 49.5960146, "lon": 13.0135471, "tags": {"ele": "455", "hiking": "yes", "information": "guidepost", "name": "Pod lesem", "operator": "cz:K\u010cT", "ref": "DO162", "tourism": "information"}}, {"type": "node", "id": 5380753141, "lat": 49.6045361, "lon": 13.0426329, "tags": {"ele": "440", "hiking": "yes", "information": "guidepost", "name": "V\u0161ekary", "operator": "cz:K\u010cT", "ref": "DO161", "tourism": "information"}}, {"type": "node", "id": 5380795430, "lat": 49.6309779, "lon": 13.0299032, "tags": {"ele": "414", "hiking": "yes", "information": "guidepost", "name": "Hradi\u0161tany", "operator": "cz:K\u010cT", "ref": "PJ600", "tourism": "information"}}, {"type": "node", "id": 5380822516, "lat": 49.6565024, "lon": 13.0363673, "tags": {"ele": "428", "hiking": "yes", "information": "guidepost", "name": "Nedra\u017eice", "operator": "cz:K\u010cT", "ref": "PJ599", "tourism": "information"}}, {"type": "node", "id": 5382354504, "lat": 49.6747518, "lon": 13.0254239, "tags": {"ele": "486", "hiking": "yes", "information": "guidepost", "name": "Kostelec", "operator": "cz:K\u010cT", "ref": "TC049", "tourism": "information"}}, {"type": "node", "id": 5957405902, "lat": 49.7502597, "lon": 13.0241976, "tags": {"ele": "456.4", "natural": "peak"}}, {"type": "node", "id": 5957405903, "lat": 49.7460407, "lon": 13.0150917, "tags": {"ele": "466.7", "name": "H\u016frka", "natural": "peak"}}, {"type": "node", "id": 6482507402, "lat": 49.7416657, "lon": 13.0006228, "tags": {"hiking": "yes", "information": "guidepost", "operator": "cz:K\u010cT", "ref": "TC138", "tourism": "information"}}, {"type": "node", "id": 6494710305, "lat": 49.5576091, "lon": 13.1667709, "tags": {"hiking": "yes", "information": "guidepost", "name": "Na radosti", "operator": "cz:K\u010cT", "tourism": "information"}}, {"type": "node", "id": 7530384375, "lat": 49.7213761, "lon": 13.1828292, "tags": {"description": "Zbytky zanikl\u00fdch \u0161achti\u010dek a uheln\u00fdch dol\u016f na N\u00fd\u0159ansku. Kaple z\u00a018. stolet\u00ed.", "ele": "372", "hiking": "yes", "information": "guidepost", "name": "Kamenn\u00fd \u00dajezd", "ref": "PS319", "tourism": "information"}}, {"type": "node", "id": 7667554887, "lat": 49.7479772, "lon": 13.0729419, "tags": {"board_type": "nature", "information": "board", "tourism": "information"}}, {"type": "node", "id": 8257305870, "lat": 49.5916124, "lon": 13.1422341, "tags": {"hiking": "yes", "information": "guidepost", "name": "Flori\u00e1nsk\u00e1 stud\u00e1nka", "operator": "cz:K\u010cT", "tourism": "information"}}, {"type": "node", "id": 8257307233, "lat": 49.5873803, "lon": 13.1999767, "tags": {"ele": "410", "hiking": "yes", "information": "guidepost", "name": "Chalupy (rozc.)", "operator": "cz:K\u010cT", "ref": "PJ053", "tourism": "information"}}, {"type": "node", "id": 8257307240, "lat": 49.5883185, "lon": 13.1728107, "tags": {"ele": "370", "hiking": "yes", "information": "guidepost", "name": "\u010cel\u00e1kovy", "operator": "cz:K\u010cT", "ref": "PJ068", "tourism": "information"}}, {"type": "node", "id": 8257307241, "lat": 49.5894114, "lon": 13.152051, "tags": {"ele": "400", "hiking": "yes", "information": "guidepost", "name": "Pod Kaderovnou", "operator": "cz:K\u010cT", "tourism": "information"}}, {"type": "node", "id": 8719496669, "lat": 49.7510851, "lon": 13.0008204, "tags": {"information": "board", "name": "Miner\u00e1ly St\u0159\u00edbrsk\u00fdch rudn\u00edch \u017eil", "ref": "13", "tourism": "information"}}, {"type": "node", "id": 8719496678, "lat": 49.7506626, "lon": 13.0057509, "tags": {"board_type": "history", "information": "board", "name": "Koubkova branka", "ref": "7", "tourism": "information"}}, {"type": "node", "id": 8719496688, "lat": 49.7510047, "lon": 13.0069995, "tags": {"information": "board", "name": "Koubk\u016fv ml\u00fdn", "tourism": "information"}}, {"type": "node", "id": 8719496689, "lat": 49.7509966, "lon": 13.0069813, "tags": {"information": "board", "name": "\u0160tola Magdalena", "ref": "10", "tourism": "information"}}, {"type": "node", "id": 8719496708, "lat": 49.742306, "lon": 13.0143246, "tags": {"information": "board", "name": "J\u00e1my Antoni Verhau I. a II. horn\u00ed a doln\u00ed", "ref": "31", "tourism": "information"}}, {"type": "node", "id": 9066427843, "lat": 49.7029436, "lon": 13.1262104, "tags": {"information": "board", "tourism": "information"}}, {"type": "node", "id": 9243487791, "lat": 49.5652865, "lon": 13.1944874, "tags": {"amenity": "shelter", "bench": "yes", "shelter_type": "public_transport"}}, {"type": "node", "id": 9245644385, "lat": 49.5607489, "lon": 13.197564, "tags": {"information": "board", "name": "\u00da\u0159edn\u00ed deska", "tourism": "information"}}, {"type": "node", "id": 9245644402, "lat": 49.5613091, "lon": 13.1977296, "tags": {"direction": "-205", "information": "map", "map_size": "region", "tourism": "information"}}, {"type": "node", "id": 9960955989, "lat": 49.6372533, "lon": 13.1133842, "tags": {"information": "board", "name": "V\u00edtejte v Hradci", "tourism": "information"}}, {"type": "node", "id": 9960980936, "lat": 49.6049242, "lon": 13.0284242, "tags": {"information": "board", "name": "Historie kostela sv. Barbory a okol\u00ed", "tourism": "information"}}, {"type": "node", "id": 10148215787, "lat": 49.5853266, "lon": 13.0218582}, {"type": "node", "id": 10148215788, "lat": 49.5853186, "lon": 13.0219079}, {"type": "node", "id": 10148215789, "lat": 49.5853005, "lon": 13.021901}, {"type": "node", "id": 10148215790, "lat": 49.5853085, "lon": 13.0218513}, {"type": "node", "id": 10979542495, "lat": 49.6799054, "lon": 13.1817645, "tags": {"amenity": "shelter", "bin": "yes", "lit": "no", "name": "Kryt\u00e9 odpo\u010d\u00edvadlo", "shelter_type": "picnic_shelter"}}, {"type": "node", "id": 11143487884, "lat": 49.6729867, "lon": 13.1819083, "tags": {"description": "Nau\u010dn\u00e1 stezka Stodsko", "information": "board", "name": "Zb\u016fch a Ho\u0159\u00edkovice", "ref": "16", "tourism": "information"}}, {"type": "node", "id": 11158704524, "lat": 49.6735217, "lon": 13.1562556, "tags": {"information": "map", "name": "Cyklotrasy mikroregionu Radbuza", "tourism": "information"}}, {"type": "node", "id": 11200806220, "lat": 49.6236351, "lon": 13.1134287, "tags": {"amenity": "shelter", "shelter_type": "picnic_shelter"}}, {"type": "node", "id": 11200806229, "lat": 49.6059212, "lon": 13.0988777, "tags": {"amenity": "shelter", "shelter_type": "picnic_shelter"}}, {"type": "node", "id": 11200806230, "lat": 49.6059492, "lon": 13.0988572, "tags": {"board_type": "history", "description": "Nau\u010dn\u00e1 stezka", "information": "board", "name": "M\u011bsto Hol\u00fd\u0161ov", "ref": "2", "tourism": "information"}}, {"type": "node", "id": 11200806231, "lat": 49.6068027, "lon": 13.0862319, "tags": {"board_type": "history", "description": "Nau\u010dn\u00e1 stezka", "information": "board", "name": "Z\u00e1vod MWH Holeischen - kas\u00e1rna", "ref": "4", "tourism": "information"}}, {"type": "node", "id": 11200806232, "lat": 49.6068433, "lon": 13.0862514, "tags": {"amenity": "shelter", "shelter_type": "picnic_shelter"}}, {"type": "node", "id": 11200806233, "lat": 49.6039179, "lon": 13.0798512, "tags": {"board_type": "history", "description": "Nau\u010dn\u00e1 stezka", "information": "board", "name": "Zanikl\u00e1 obec Trubce", "ref": "6", "tourism": "information"}}, {"type": "node", "id": 11200832052, "lat": 49.5837838, "lon": 13.0621649, "tags": {"board_type": "nature", "description": "Lesn\u00ed nau\u010dn\u00e1 stezka", "information": "board", "name": "V\u00edtr", "tourism": "information"}}, {"type": "node", "id": 11200832053, "lat": 49.5822822, "lon": 13.0613237, "tags": {"board_type": "nature", "description": "Lesn\u00ed nau\u010dn\u00e1 stezka", "information": "board", "name": "Perspektiva", "tourism": "information"}}, {"type": "node", "id": 11200832054, "lat": 49.5860829, "lon": 13.0654961, "tags": {"board_type": "nature", "description": "Lesn\u00ed nau\u010dn\u00e1 stezka", "information": "board", "name": "Voda", "tourism": "information"}}, {"type": "node", "id": 11200832067, "lat": 49.5527311, "lon": 13.0708129, "tags": {"bicycle": "yes", "information": "guidepost", "name": "Sta\u0148kov", "operator": "cz:K\u010cT", "tourism": "information"}}, {"type": "node", "id": 11203374937, "lat": 49.5675905, "lon": 13.1348621, "tags": {"amenity": "shelter", "shelter_type": "picnic_shelter"}}, {"type": "node", "id": 11203374954, "lat": 49.5877476, "lon": 13.1972063, "tags": {"tourism": "viewpoint"}}, {"type": "node", "id": 11203456719, "lat": 49.6390804, "lon": 13.1660356, "tags": {"board_type": "history", "information": "board", "name": "N\u00e1m\u011bst\u00ed Komensk\u00e9ho", "ref": "1", "tourism": "information"}}, {"type": "node", "id": 11203456729, "lat": 49.6504828, "lon": 13.1546946, "tags": {"board_type": "history", "information": "board", "name": "Cihl\u00e1\u0159stv\u00ed ve Stod\u011b", "ref": "22", "tourism": "information"}}, {"type": "node", "id": 11203456730, "lat": 49.654249, "lon": 13.154123, "tags": {"board_type": "history", "information": "board", "name": "Vojsko 2", "ref": "21", "tourism": "information"}}, {"type": "node", "id": 11203456731, "lat": 49.6646897, "lon": 13.1531819, "tags": {"board_type": "history", "information": "board", "name": "Vojsko 1", "ref": "20", "tourism": "information"}}, {"type": "node", "id": 11205758455, "lat": 49.6795443, "lon": 13.1431131, "tags": {"board_type": "history", "information": "board", "name": "Kl\u00e1\u0161tern\u00ed dv\u016fr Gigant 1", "ref": "17", "tourism": "information"}}, {"type": "node", "id": 11205758460, "lat": 49.6691012, "lon": 13.1833011, "tags": {"board_type": "history", "information": "board", "name": "Hornictv\u00ed ve Zb\u016fchu", "ref": "15", "tourism": "information"}}, {"type": "node", "id": 11205758461, "lat": 49.6690959, "lon": 13.1831739, "tags": {"bicycle": "yes", "information": "guidepost", "operator": "cz:K\u010cT", "tourism": "information"}}, {"type": "node", "id": 11205758462, "lat": 49.6651249, "lon": 13.1839075, "tags": {"board_type": "history", "information": "board", "name": "\u017divot na poli", "ref": "14", "tourism": "information"}}, {"type": "node", "id": 11205758465, "lat": 49.6541412, "lon": 13.1971344, "tags": {"board_type": "history", "information": "board", "name": "Kl\u00e1\u0161ter Chot\u011b\u0161ov", "tourism": "information"}}, {"type": "node", "id": 11205758466, "lat": 49.654085, "lon": 13.1970352, "tags": {"board_type": "history", "information": "board", "name": "Chot\u011b\u0161ovsk\u00fd kl\u00e1\u0161ter 2", "ref": "13", "tourism": "information"}}, {"type": "node", "id": 11205758468, "lat": 49.6419618, "lon": 13.1962229, "tags": {"ele": "333", "hiking": "yes", "information": "guidepost", "name": "Chot\u011b\u0161ov (u jezu)", "operator": "cz:K\u010cT", "tourism": "information"}}, {"type": "node", "id": 11206131167, "lat": 49.6358359, "lon": 13.1227345, "tags": {"bicycle": "yes", "information": "guidepost", "operator": "cz:K\u010cT", "tourism": "information"}}, {"type": "node", "id": 11415577779, "lat": 49.6150835, "lon": 13.111917, "tags": {"amenity": "shelter", "camp_site": "basic", "capacity": "6", "capacity:persons": "6", "drinking_water": "yes", "fireplace": "yes", "group_only": "no", "name": "Bouda pod Hradeckou sk\u00e1lou", "scout": "no", "shelter": "yes", "shelter_type": "basic_hut", "tourism": "wilderness_hut"}}, {"type": "node", "id": 11766678208, "lat": 49.6995921, "lon": 13.1878434, "tags": {"leisure": "wildlife_hide", "man_made": "tower", "observation": "wild_animal", "tourism": "viewpoint", "tower:type": "observation"}}, {"type": "node", "id": 11766678209, "lat": 49.700366, "lon": 13.1903988, "tags": {"name": "V\u00fdb\u011bh pratur\u016f a divok\u00fdch kon\u00ed", "tourism": "attraction"}}, {"type": "node", "id": 12046404106, "lat": 49.6401122, "lon": 13.1839317, "tags": {"amenity": "shelter", "shelter_type": "picnic_shelter"}}, {"type": "node", "id": 12126696793, "lat": 49.6384857, "lon": 13.1016221, "tags": {"information": "board", "name": "Lisov", "tourism": "information"}}, {"type": "node", "id": 12377011544, "lat": 49.5548742, "lon": 13.0906812, "tags": {"board_type": "nature", "information": "board", "name": "NS Sta\u0148kovsk\u00e9 rybn\u00edky", "tourism": "information"}}, {"type": "node", "id": 12455405375, "lat": 49.5694265, "lon": 13.0041717, "tags": {"board_type": "history", "information": "board", "name": "Mal\u00fd Malahov", "tourism": "information"}}, {"type": "node", "id": 12463614813, "lat": 49.7501006, "lon": 13.0009488, "tags": {"description": "Zna\u010dky clearence 12\" 7' ozna\u010duj\u00edc\u00ed \u0161\u00ed\u0159ku m\u011bstsk\u00e9 br\u00e1ny zanechala na v\u011b\u017ei americk\u00e1 arm\u00e1da p\u0159i osvobozov\u00e1n\u00ed m\u011bsta.", "name": "Zna\u010dky clearence 12\" 7'", "tourism": "attraction"}}, {"type": "node", "id": 12463614817, "lat": 49.7491615, "lon": 13.0026957, "tags": {"information": "board", "tourism": "information"}}, {"type": "node", "id": 12463614829, "lat": 49.74974, "lon": 13.0062177, "tags": {"information": "board", "tourism": "information"}}, {"type": "node", "id": 12463614842, "lat": 49.7501457, "lon": 13.0070725, "tags": {"information": "board", "tourism": "information"}}, {"type": "node", "id": 12463614844, "lat": 49.7499114, "lon": 13.0074304, "tags": {"information": "board", "tourism": "information"}}, {"type": "node", "id": 12463615043, "lat": 49.7494588, "lon": 13.0048577, "tags": {"information": "board", "tourism": "information"}}, {"type": "node", "id": 12520338290, "lat": 49.6546235, "lon": 13.1985427, "tags": {"board_type": "history", "information": "board", "name": "P\u0159\u00edroda a lid\u00e9 - nau\u010dn\u00e1 stezka, K\u0159\u00ed\u017eov\u00fd vrch", "tourism": "information"}}, {"type": "node", "id": 12520351648, "lat": 49.6525996, "lon": 13.2004923, "tags": {"board_type": "history", "information": "board", "name": "NS Stodsko Chot\u011b\u0161ov \u010d. 12", "tourism": "information"}}, {"type": "node", "id": 12558794648, "lat": 49.6570627, "lon": 13.1998983, "tags": {"information": "map", "map_type": "topo", "name": "Chot\u011b\u0161ov", "tourism": "information"}}, {"type": "node", "id": 12600984087, "lat": 49.6548081, "lon": 13.1989661, "tags": {"information": "map", "tourism": "information"}}, {"type": "node", "id": 12623619280, "lat": 49.6723281, "lon": 13.1545052, "tags": {"board_type": "history", "information": "board", "name": "19. Kotovice a okol\u00ed", "tourism": "information"}}, {"type": "node", "id": 12623630577, "lat": 49.6997911, "lon": 13.1902724, "tags": {"board_type": "nature", "information": "board", "name": "Janovsk\u00fd mok\u0159ad", "tourism": "information"}}, {"type": "node", "id": 12623638653, "lat": 49.7017403, "lon": 13.1910295, "tags": {"board_type": "nature", "information": "board", "name": "Janovsk\u00fd mok\u0159ad", "tourism": "information"}}, {"type": "node", "id": 12703009055, "lat": 49.6078843, "lon": 13.0447426, "tags": {"direction": "S", "name": "V\u0161ekarsk\u00e1 vyhl\u00eddka", "tourism": "viewpoint"}}, {"type": "node", "id": 12794453252, "lat": 49.5529355, "lon": 13.0832966, "tags": {"ele": "438.7", "name": "Mastn\u00edk", "natural": "peak"}}, {"type": "node", "id": 12877061188, "lat": 49.6907775, "lon": 13.1201317}, {"type": "node", "id": 12877061189, "lat": 49.6907731, "lon": 13.1201917}, {"type": "node", "id": 12877061190, "lat": 49.6908069, "lon": 13.1201977}, {"type": "node", "id": 12877061191, "lat": 49.6908113, "lon": 13.1201377}, {"type": "node", "id": 12877061192, "lat": 49.6907614, "lon": 13.1202229, "tags": {"information": "board", "tourism": "information"}}, {"type": "node", "id": 12969297882, "lat": 49.7417415, "lon": 13.000707, "tags": {"information": "map", "map_size": "region", "map_type": "yes", "tourism": "information"}}, {"type": "node", "id": 12969297883, "lat": 49.7417476, "lon": 13.0007125, "tags": {"information": "board", "name": "St\u0159\u00edbro", "subject:wikidata": "Q1008750", "subject:wikipedia": "cs:St\u0159\u00edbro (okres Tachov)", "tourism": "information"}}, {"type": "node", "id": 12981961606, "lat": 49.5890627, "lon": 13.0730616}, {"type": "node", "id": 12981961607, "lat": 49.58908, "lon": 13.0731051}, {"type": "node", "id": 12981961608, "lat": 49.5890528, "lon": 13.0731308}, {"type": "node", "id": 12981961609, "lat": 49.5890355, "lon": 13.0730873}, {"type": "node", "id": 13019653200, "lat": 49.6283697, "lon": 13.1041993, "tags": {"amenity": "shelter", "shelter_type": "picnic_shelter"}}, {"type": "node", "id": 13019694401, "lat": 49.6283724, "lon": 13.1040373, "tags": {"board_type": "history", "information": "board", "name": "V9tejte v Hradci", "tourism": "information"}}, {"type": "node", "id": 13019694448, "lat": 49.5694786, "lon": 13.0042089, "tags": {"amenity": "shelter", "shelter_type": "picnic_shelter"}}, {"type": "node", "id": 13021219644, "lat": 49.6573217, "lon": 13.036241, "tags": {"amenity": "shelter", "shelter_type": "picnic_shelter"}}, {"type": "node", "id": 13021219647, "lat": 49.6864988, "lon": 13.0306915, "tags": {"amenity": "shelter", "shelter_type": "picnic_shelter"}}, {"type": "node", "id": 13021219651, "lat": 49.6957953, "lon": 13.0445288, "tags": {"amenity": "shelter", "shelter_type": "picnic_shelter"}}, {"type": "node", "id": 13021219652, "lat": 49.6978335, "lon": 13.0443543, "tags": {"amenity": "shelter", "shelter_type": "picnic_shelter"}}, {"type": "node", "id": 13021219654, "lat": 49.6715402, "lon": 13.0866422, "tags": {"amenity": "shelter", "shelter_type": "picnic_shelter"}}, {"type": "node", "id": 13067270720, "lat": 49.7503266, "lon": 13.0082975, "tags": {"board_type": "history", "information": "board", "name": "K\u0159\u00ed\u017eov\u00e1 cesta na Ron\u0161perku", "tourism": "information"}}, {"type": "node", "id": 13067270721, "lat": 49.7513532, "lon": 13.0084671, "tags": {"board_type": "history", "information": "board", "name": "Sv. Barbora", "tourism": "information"}}, {"type": "node", "id": 13067270722, "lat": 49.7517596, "lon": 13.0085405, "tags": {"board_type": "history", "information": "board", "name": "Lehk\u00e1 opevn\u011bn\u00ed \u010ceskoslovenska", "tourism": "information"}}, {"type": "node", "id": 13067351221, "lat": 49.7206574, "lon": 13.0005306, "tags": {"board_type": "nature", "description": "P\u0159\u00edroda a ekosyst\u00e9my v okol\u00ed Kladrub", "information": "board", "name": "Co v\u00edte o lese?", "ref": "13", "tourism": "information"}}, {"type": "node", "id": 13275422578, "lat": 49.6271505, "lon": 13.1996692, "tags": {"ele": "429", "name": "Obecn\u00ed vrch", "natural": "peak"}}, {"type": "node", "id": 13275422602, "lat": 49.6316666, "lon": 13.1749566, "tags": {"ele": "380", "name": "\u0160ibeni\u010dn\u00ed vrch", "natural": "peak"}}, {"type": "node", "id": 13275422603, "lat": 49.6563057, "lon": 13.1604002, "tags": {"ele": "403", "name": "Kr\u016fti hora", "natural": "peak"}}, {"type": "node", "id": 13275422604, "lat": 49.6474052, "lon": 13.1900972, "tags": {"ele": "368", "name": "Nad Lomem", "natural": "peak"}}, {"type": "node", "id": 13421392952, "lat": 49.737319, "lon": 13.0125203, "tags": {"ele": "487", "name": "My\u0161\u00ed kopec", "natural": "peak", "summit:cross": "no"}}, {"type": "node", "id": 13430203609, "lat": 49.6026011, "lon": 13.1272277, "tags": {"ele": "516", "name": "Trn\u00fd", "natural": "peak", "summit:cross": "no"}}, {"type": "node", "id": 13430303244, "lat": 49.5801052, "lon": 13.1565169, "tags": {"ele": "450", "name": "\u010cel\u00e1kovsk\u00e1 hora", "natural": "peak", "summit:cross": "no"}}, {"type": "node", "id": 13430335654, "lat": 49.567005, "lon": 13.1471601, "tags": {"amenity": "shelter", "bench": "yes", "bin": "no", "lit": "no", "lockable": "no", "wheelchair": "limited"}}, {"type": "node", "id": 13430573997, "lat": 49.5528271, "lon": 13.0832453, "tags": {"ele": "431", "name": "Mastn\u00edk", "natural": "peak", "summit:cross": "no"}}, {"type": "node", "id": 13430613933, "lat": 49.6368939, "lon": 13.1136786, "tags": {"amenity": "shelter", "bench": "yes", "bin": "yes"}}, {"type": "way", "id": 1109119767, "nodes": [10148215790, 10148215787, 10148215788, 10148215789, 10148215790], "tags": {"amenity": "shelter", "building": "yes", "shelter_type": "public_transport"}}, {"type": "way", "id": 1391140347, "nodes": [12877061191, 12877061190, 12877061189, 12877061188, 12877061191], "tags": {"building": "yes", "man_made": "tower", "material": "wood", "name": "vyhl\u00eddka Na Ciheln\u011b", "tourism": "viewpoint", "tower:type": "observation"}}, {"type": "way", "id": 1412685071, "nodes": [12981961609, 12981961606, 12981961607, 12981961608, 12981961609], "tags": {"building": "yes", "height": "4", "man_made": "tower", "material": "wood", "tourism": "viewpoint", "tower:type": "observation"}}]}