{"version": 0.6, "generator": "Overpass API 0.7.62.8 e802775f", "osm3s": {"timestamp_osm_base": "2026-01-05T16:33:14Z", "copyright": "The data included in this document is from www.openstreetmap.org. The data is made available under ODbL."}, "elements": [{"type": "node", "id": 404433341, "lat": 48.9249065, "lon": 14.1859201, "tags": {"ele": "602", "hiking": "yes", "information": "guidepost", "name": "Dobro\u010dkovsk\u00fd potok", "operator": "cz:K\u010cT", "ref": "CK004", "tourism": "information"}}, {"type": "node", "id": 444532659, "lat": 48.8775289, "lon": 14.1679844, "tags": {"ele": "646", "name": "Okrouhl\u00edk", "natural": "peak", "source": "\u010c\u00daZK"}}, {"type": "node", "id": 473505966, "lat": 48.7571756, "lon": 14.0137287, "tags": {"bicycle": "yes", "hiking": "yes", "information": "guidepost", "name": "Bli\u017e\u0161\u00ed Lhota (p\u0159\u00edvoz)", "ref": "CK420;1020/5,5", "tourism": "information"}}, {"type": "node", "id": 576699860, "lat": 48.8192613, "lon": 14.0043711, "tags": {"ele": "1145", "name": "Hv\u011bzda", "natural": "peak", "source": "cuzk:km", "source:ele": "tisicovky.cz", "source:name": "tisicovky.cz"}}, {"type": "node", "id": 576699865, "lat": 48.8196126, "lon": 14.0124759, "tags": {"ele": "1160", "name": "Hv\u011bzd\u00e1\u0159e", "natural": "peak", "source:ele": "tisicovky.cz", "source:name": "tisicovky.cz"}}, {"type": "node", "id": 576699917, "lat": 48.883795, "lon": 14.0908403, "tags": {"ele": "1191", "name": "Chlum", "natural": "peak", "source": "cuzk:km", "source:ele": "tisicovky.cz", "source:name": "tisicovky.cz"}}, {"type": "node", "id": 576705747, "lat": 48.8527015, "lon": 14.0766113, "tags": {"ele": "1039", "name": "Kamenit\u00fd vrch", "natural": "peak", "source": "tisicovky.cz"}}, {"type": "node", "id": 576717514, "lat": 48.8002778, "lon": 14.0236111, "tags": {"ele": "1001", "name": "Kapradinec", "natural": "peak", "source": "tisicovky.cz"}}, {"type": "node", "id": 576717515, "lat": 48.846832, "lon": 14.0201335, "tags": {"ele": "1237", "name": "Kn\u00ed\u017eec\u00ed stolec", "name:cs": "Kn\u00ed\u017eec\u00ed stolec", "name:de": "Fuchswiesenberg", "natural": "peak", "prominence": "430", "source": "survey"}}, {"type": "node", "id": 576717516, "lat": 48.8488327, "lon": 14.0342539, "tags": {"ele": "1228", "name": "Lys\u00e1", "natural": "peak", "source": "tisicovky.cz"}}, {"type": "node", "id": 576722560, "lat": 48.818102, "lon": 14.0199833, "tags": {"ele": "1182", "name": "Nad Hospod\u00e1rnic\u00ed", "natural": "peak", "source": "tisicovky.cz"}}, {"type": "node", "id": 576722568, "lat": 48.8975, "lon": 14.055, "tags": {"ele": "1008", "name": "Nad myslivnou", "natural": "peak", "source": "tisicovky.cz"}}, {"type": "node", "id": 576722569, "lat": 48.855737, "lon": 14.091739, "tags": {"ele": "1006", "name": "Nad myslivnou", "natural": "peak", "source": "tisicovky.cz"}}, {"type": "node", "id": 576722570, "lat": 48.87, "lon": 14.0641667, "tags": {"ele": "1053", "name": "Nad V\u00edskou", "natural": "peak", "source": "tisicovky.cz"}}, {"type": "node", "id": 576733422, "lat": 48.8496305, "lon": 14.0050715, "tags": {"ele": "1130", "name": "Skalky", "natural": "peak", "source": "tisicovky.cz"}}, {"type": "node", "id": 577323241, "lat": 48.8338889, "lon": 14.0061111, "tags": {"ele": "1080", "name": "Such\u00e1 hora", "name:cs": "Such\u00e1 hora", "name:de": "D\u00fcrrenberg", "natural": "peak", "source": "tisicovky.cz"}}, {"type": "node", "id": 577323242, "lat": 48.8152556, "lon": 14.0384026, "tags": {"ele": "1221", "name": "\u0160pi\u010d\u00e1k", "name:de": "Spitzwald", "natural": "peak", "source": "tisicovky.cz", "summit:cross": "no", "summit:register": "no", "wikidata": "Q16765434", "wikipedia": "cs:\u0160pi\u010d\u00e1k (\u017delnavsk\u00e1 hornatina)"}}, {"type": "node", "id": 577336414, "lat": 48.8208333, "lon": 14.0477778, "tags": {"ele": "1136", "name": "Vl\u010d\u00ed k\u00e1men", "name:de": "Wolfstein", "natural": "peak", "source": "tisicovky.cz"}}, {"type": "node", "id": 577336415, "lat": 48.8658333, "lon": 14.0477778, "tags": {"ele": "1042", "name": "Zlatovec", "natural": "peak", "source": "tisicovky.cz"}}, {"type": "node", "id": 577337772, "lat": 48.8751105, "lon": 14.1178315, "tags": {"ele": "1066", "name": "Ple\u0161n\u00fd", "natural": "peak", "source": "\u010c\u00daZK"}}, {"type": "node", "id": 1321038223, "lat": 48.8815355, "lon": 14.1669233, "tags": {"hiking": "yes", "information": "map", "map_size": "region", "map_type": "topo", "tourism": "information"}}, {"type": "node", "id": 1321038339, "lat": 48.8815185, "lon": 14.1669577, "tags": {"amenity": "shelter", "shelter_type": "picnic_shelter"}}, {"type": "node", "id": 1321038441, "lat": 48.8606296, "lon": 14.1818975, "tags": {"ele": "596", "hiking": "yes", "information": "guidepost", "name": "U Hvozdu", "operator": "cz:K\u010cT", "ref": "CK385", "tourism": "information"}}, {"type": "node", "id": 1321038469, "lat": 48.8947468, "lon": 14.1489248, "tags": {"ele": "653", "hiking": "yes", "information": "guidepost", "name": "Za T\u0159ebovickou v\u011b\u017e\u00ed", "operator": "cz:K\u010cT", "ref": "CK387", "tourism": "information"}}, {"type": "node", "id": 1321038471, "lat": 48.8998193, "lon": 14.1573328, "tags": {"ele": "651", "hiking": "yes", "information": "guidepost", "name": "B\u0159ezov\u00edk", "operator": "cz:K\u010cT", "ref": "CK521", "tourism": "information"}}, {"type": "node", "id": 1321038628, "lat": 48.8487102, "lon": 14.1863738, "tags": {"hiking": "yes", "information": "map", "map_size": "region", "map_type": "topo", "tourism": "information"}}, {"type": "node", "id": 1321038652, "lat": 48.8766855, "lon": 14.1726254, "tags": {"ele": "610", "hiking": "yes", "information": "guidepost", "name": "St\u0159emily", "operator": "cz:K\u010cT", "ref": "CK386", "tourism": "information"}}, {"type": "node", "id": 1407817981, "lat": 48.769741, "lon": 14.0307736, "tags": {"historic": "memorial", "memorial": "statue", "name": "Adalbert Stifter", "source": "survey", "tourism": "attraction", "wheelchair": "limited", "wikidata": "Q37285558", "wikipedia": "cs:Pomn\u00edk Adalberta Stiftera v Horn\u00ed Plan\u00e9"}}, {"type": "node", "id": 1407817997, "lat": 48.7709507, "lon": 14.0312231, "tags": {"ele": "805", "hiking": "yes", "information": "guidepost", "name": "Dobr\u00e1 Voda", "operator": "cz:K\u010cT", "ref": "CK024", "tourism": "information"}}, {"type": "node", "id": 1407818001, "lat": 48.7654771, "lon": 14.0348984, "tags": {"ele": "752", "hiking": "yes", "information": "guidepost", "name": "Horn\u00ed Plan\u00e1 (Stifter\u016fv rodn\u00fd d\u016fm)", "ref": "3398/0", "tourism": "information"}}, {"type": "node", "id": 1407818009, "lat": 48.7670435, "lon": 14.0592558, "tags": {"ele": "796", "hiking": "yes", "information": "guidepost", "name": "Jelm", "operator": "cz:K\u010cT", "ref": "CK022", "tourism": "information"}}, {"type": "node", "id": 1407818011, "lat": 48.786814, "lon": 14.0119354, "tags": {"ele": "765", "hiking": "yes", "information": "guidepost", "name": "Ma\u0148ava", "operator": "cz:K\u010cT", "ref": "CK026", "tourism": "information"}}, {"type": "node", "id": 1407818017, "lat": 48.7788842, "lon": 14.0159838, "tags": {"ele": "751", "hiking": "yes", "information": "guidepost", "name": "Pihlov", "operator": "cz:K\u010cT", "ref": "CK025", "tourism": "information"}}, {"type": "node", "id": 1407818022, "lat": 48.7626093, "lon": 14.0526061, "tags": {"hiking": "yes", "information": "guidepost", "name": "Pod O\u0159\u00edkem", "operator": "cz:K\u010cT", "tourism": "information"}}, {"type": "node", "id": 1407818028, "lat": 48.7650031, "lon": 14.0542033, "tags": {"board_type": "nature", "information": "board", "name": "Stifter\u016fv buk", "ref": "9", "tourism": "information"}}, {"type": "node", "id": 1407818030, "lat": 48.7650119, "lon": 14.0541577, "tags": {"ele": "839", "hiking": "yes", "information": "guidepost", "name": "Stifter\u016fv buk", "ref": "3398/3,5", "tourism": "information"}}, {"type": "node", "id": 1407818037, "lat": 48.7708752, "lon": 14.0530138, "tags": {"ele": "851", "hiking": "yes", "information": "guidepost", "name": "Stifter\u016fv smrk", "operator": "cz:K\u010cT", "ref": "CK197", "tourism": "information"}}, {"type": "node", "id": 1429388372, "lat": 48.7994405, "lon": 14.1457054, "tags": {"hiking": "yes", "information": "map", "map_size": "region", "map_type": "topo", "tourism": "information"}}, {"type": "node", "id": 1552192588, "lat": 48.7603215, "lon": 14.0212156, "tags": {"ele": "726", "hiking": "yes", "information": "guidepost", "name": "Horn\u00ed Plan\u00e1 (p\u0159\u00edvoz)", "operator": "cz:K\u010cT", "ref": "CK244", "tourism": "information"}}, {"type": "node", "id": 1552192602, "lat": 48.7601153, "lon": 14.0214447, "tags": {"hiking": "yes", "information": "guidepost", "name": "Horn\u00ed Plan\u00e1 (p\u0159\u00edstav)", "ref": "6420/1,5", "tourism": "information"}}, {"type": "node", "id": 1774506797, "lat": 48.9462813, "lon": 14.0128012, "tags": {"ele": "815", "hiking": "yes", "information": "guidepost", "name": "Sk\u0159\u00edn\u011b\u0159ov", "operator": "cz:K\u010cT", "ref": "PT954", "tourism": "information"}}, {"type": "node", "id": 1774507053, "lat": 48.932404, "lon": 14.0199985, "tags": {"hiking": "yes", "information": "guidepost", "name": "Koryto", "operator": "cz:K\u010cT", "ref": "PT957", "tourism": "information"}}, {"type": "node", "id": 1845019371, "lat": 48.765291, "lon": 14.1746316, "tags": {"ele": "669", "hiking": "yes", "information": "guidepost", "name": "Ho\u0159ice na \u0160umav\u011b", "ref": "6394/1", "tourism": "information"}}, {"type": "node", "id": 1857562812, "lat": 48.9085891, "lon": 14.1385139, "tags": {"ele": "671", "hiking": "yes", "information": "guidepost", "name": "Kti\u0161sk\u00fd rybn\u00edk (ch. osada)", "operator": "cz:K\u010cT", "ref": "CK388", "tourism": "information"}}, {"type": "node", "id": 1857563095, "lat": 48.9120603, "lon": 14.1730206, "tags": {"amenity": "shelter", "source": "survey"}}, {"type": "node", "id": 1872011966, "lat": 48.771156, "lon": 14.1830413, "tags": {"ele": "631", "hiking": "yes", "information": "guidepost", "name": "Ho\u0159ice na \u0160umav\u011b (\u017est)", "operator": "cz:K\u010cT", "ref": "CK189", "tourism": "information"}}, {"type": "node", "id": 1872011967, "lat": 48.7827591, "lon": 14.1349032, "tags": {"ele": "820", "hiking": "yes", "information": "guidepost", "name": "Kv\u011btu\u0161\u00edn", "operator": "cz:K\u010cT", "ref": "CK391", "tourism": "information"}}, {"type": "node", "id": 1872011968, "lat": 48.7750032, "lon": 14.1625586, "tags": {"ele": "700", "hiking": "yes", "information": "guidepost", "name": "M\u00fdto", "note": "na strom\u011b", "operator": "cz:K\u010cT", "ref": "CK389", "tourism": "information"}}, {"type": "node", "id": 1872011970, "lat": 48.779277, "lon": 14.1036197, "tags": {"amenity": "shelter", "leisure": "picnic_site", "material": "wood", "name": "U Zast\u00e1vky", "shelter_type": "picnic_shelter", "source": "survey"}}, {"type": "node", "id": 1872012233, "lat": 48.7604925, "lon": 14.0858723, "tags": {"ele": "781", "hiking": "yes", "information": "guidepost", "name": "\u017dl\u00e1bek", "operator": "cz:K\u010cT", "ref": "CK021", "tourism": "information"}}, {"type": "node", "id": 2144943821, "lat": 48.7684208, "lon": 14.1145712, "tags": {"ele": "840", "name": "Such\u00fd vrch", "natural": "peak"}}, {"type": "node", "id": 2395664423, "lat": 48.8364599, "lon": 14.010484, "tags": {"ele": "1065", "hiking": "yes", "information": "guidepost", "name": "Adolf\u016fv k\u00e1men (rozcest\u00ed)", "operator": "cz:K\u010cT", "ref": "CK452", "source": "survey", "tourism": "information"}}, {"type": "node", "id": 2395664424, "lat": 48.8473086, "lon": 14.0201451, "tags": {"ele": "1237", "hiking": "yes", "information": "guidepost", "name": "Kn\u00ed\u017eec\u00ed stolec (vrchol)", "operator": "cz:K\u010cT", "ref": "CK335", "source": "survey", "tourism": "information"}}, {"type": "node", "id": 2395664426, "lat": 48.7888172, "lon": 14.0450067, "tags": {"ele": "810", "hiking": "yes", "information": "guidepost", "name": "Ma\u0148\u00e1vka", "operator": "cz:K\u010cT", "ref": "CK329", "source": "survey", "tourism": "information"}}, {"type": "node", "id": 2395664427, "lat": 48.8419458, "lon": 14.0135048, "tags": {"board_type": "nature", "information": "board", "name": "Zastaven\u00ed - Na rozcest\u00ed", "ref": "4", "source": "survey", "tourism": "information"}}, {"type": "node", "id": 2395664428, "lat": 48.8469086, "lon": 14.0224728, "tags": {"board_type": "nature", "information": "board", "name": "Zastaven\u00ed - Pod vrcholem", "ref": "6", "source": "survey", "tourism": "information"}}, {"type": "node", "id": 2395664429, "lat": 48.8343751, "lon": 14.0104988, "tags": {"board_type": "nature", "information": "board", "name": "Zastaven\u00ed - U Adolfsteinu", "ref": "3", "source": "survey", "tourism": "information"}}, {"type": "node", "id": 2395664430, "lat": 48.849584, "lon": 14.0072285, "tags": {"board_type": "nature", "information": "board", "name": "Zastaven\u00ed - U Judeichsteinu", "ref": "8", "source": "survey", "tourism": "information"}}, {"type": "node", "id": 2395664431, "lat": 48.842167, "lon": 14.021051, "tags": {"board_type": "nature", "information": "board", "name": "Zastaven\u00ed - U pam\u00e1tn\u00edku", "ref": "5", "source": "survey", "tourism": "information"}}, {"type": "node", "id": 2395664432, "lat": 48.8472609, "lon": 14.0201313, "tags": {"board_type": "nature", "information": "board", "name": "Zastaven\u00ed - U rozhledny", "ref": "7", "source": "survey", "tourism": "information"}}, {"type": "node", "id": 2395664433, "lat": 48.8420056, "lon": 14.0208496, "tags": {"ele": "1160", "hiking": "yes", "information": "guidepost", "name": "Pam\u00e1tn\u00edk", "ref": "CK453", "source": "survey", "tourism": "information"}}, {"type": "node", "id": 2395664434, "lat": 48.8496503, "lon": 14.007212, "tags": {"ele": "1104", "hiking": "yes", "information": "guidepost", "name": "Skalky", "operator": "cz:K\u010cT", "ref": "CK336", "source": "survey", "tourism": "information"}}, {"type": "node", "id": 2395664442, "lat": 48.7883258, "lon": 14.0421154, "tags": {"bicycle": "yes", "information": "guidepost", "source": "survey", "tourism": "information"}}, {"type": "node", "id": 2395664498, "lat": 48.8495297, "lon": 14.0072749, "tags": {"amenity": "shelter", "shelter_type": "picnic_shelter", "source": "survey"}}, {"type": "node", "id": 2538058157, "lat": 48.9116934, "lon": 14.011949, "tags": {"ele": "902", "hiking": "yes", "information": "guidepost", "name": "K\u0159i\u0161\u0165anov (rozcest\u00ed)", "operator": "cz:K\u010cT", "ref": "PT971", "tourism": "information"}}, {"type": "node", "id": 3425072187, "lat": 48.9468551, "lon": 14.1832896, "tags": {"ele": "752", "name": "Vl\u010d\u00ed kopec", "natural": "peak"}}, {"type": "node", "id": 3425072192, "lat": 48.9343147, "lon": 14.1719599, "tags": {"ele": "787", "name": "\u0160iben\u00edk", "natural": "peak"}}, {"type": "node", "id": 3425072793, "lat": 48.9339553, "lon": 14.1776784, "tags": {"ele": "769", "name": "Kl\u00e1\u0161tern\u00ed les", "natural": "peak"}}, {"type": "node", "id": 3425072803, "lat": 48.9231494, "lon": 14.1891153, "tags": {"ele": "673", "name": "Malinovsk\u00fd kopec", "natural": "peak"}}, {"type": "node", "id": 3425072805, "lat": 48.9085052, "lon": 14.1901775, "tags": {"ele": "947", "name": "Bulov\u00fd", "natural": "peak"}}, {"type": "node", "id": 3425072808, "lat": 48.8842839, "lon": 14.1895016, "tags": {"ele": "763", "name": "Vl\u010dice", "natural": "peak"}}, {"type": "node", "id": 3425072809, "lat": 48.8789676, "lon": 14.1904092, "tags": {"ele": "815", "name": "Ml\u00fdnsk\u00e9 vrchy", "natural": "peak", "source": "\u010c\u00daZK"}}, {"type": "node", "id": 3425072810, "lat": 48.8843051, "lon": 14.1687091, "tags": {"ele": "678", "name": "Ml\u00fdnsk\u00fd vrch", "natural": "peak"}}, {"type": "node", "id": 3425072812, "lat": 48.8588227, "lon": 14.194115, "tags": {"ele": "660", "name": "Ml\u00fdnsk\u00fd vrch", "natural": "peak", "source": "\u010c\u00daZK"}}, {"type": "node", "id": 3450921547, "lat": 48.951066, "lon": 14.105469, "tags": {"ele": "743", "name": "Koval\u00edk\u016fv pahorek", "natural": "peak"}}, {"type": "node", "id": 3450921548, "lat": 48.9497255, "lon": 14.1201382, "tags": {"ele": "814", "name": "Lipky", "natural": "peak"}}, {"type": "node", "id": 3450921549, "lat": 48.9501853, "lon": 14.1362409, "tags": {"ele": "837", "name": "Nad Vadkovem", "natural": "peak"}}, {"type": "node", "id": 3450921553, "lat": 48.9359728, "lon": 14.0010512, "tags": {"ele": "908", "name": "Mo\u0161na", "natural": "peak"}}, {"type": "node", "id": 3450921554, "lat": 48.9288231, "lon": 14.0145879, "tags": {"ele": "947", "name": "Skeln\u00fd vrch", "natural": "peak"}}, {"type": "node", "id": 3450921555, "lat": 48.9197857, "lon": 14.0270012, "tags": {"ele": "958", "name": "Skaliny", "natural": "peak"}}, {"type": "node", "id": 3450921556, "lat": 48.9240438, "lon": 14.0426546, "tags": {"ele": "920", "name": "Vysov\u00e1 m\u00fd\u0165", "natural": "peak"}}, {"type": "node", "id": 3450921557, "lat": 48.9132216, "lon": 14.0540271, "tags": {"ele": "855", "name": "Ml\u00fdnsk\u00fd les\u00edk", "natural": "peak"}}, {"type": "node", "id": 3450921558, "lat": 48.9138703, "lon": 14.0685111, "tags": {"ele": "871", "name": "Markovsk\u00fd les\u00edk", "natural": "peak"}}, {"type": "node", "id": 3450921559, "lat": 48.9097101, "lon": 14.0882414, "tags": {"ele": "844", "name": "Nad Starou Hut\u00ed", "natural": "peak"}}, {"type": "node", "id": 3450921560, "lat": 48.9411711, "lon": 14.0502935, "tags": {"ele": "868", "name": "Jelen\u00ed hora", "natural": "peak"}}, {"type": "node", "id": 3450921561, "lat": 48.9346028, "lon": 14.0671056, "tags": {"ele": "815", "name": "Bos\u00e1k\u016fv vrch", "natural": "peak"}}, {"type": "node", "id": 3450921562, "lat": 48.9380491, "lon": 14.0898293, "tags": {"ele": "780", "name": "Ostr\u00e1 hora", "natural": "peak"}}, {"type": "node", "id": 3450921563, "lat": 48.9504441, "lon": 14.075517, "tags": {"natural": "peak"}}, {"type": "node", "id": 3450921564, "lat": 48.921809, "lon": 14.0837138, "tags": {"ele": "729", "name": "Borek", "natural": "peak"}}, {"type": "node", "id": 3450921565, "lat": 48.9250941, "lon": 14.1003757, "tags": {"ele": "809", "name": "U Milet\u00ednek", "natural": "peak"}}, {"type": "node", "id": 3450921566, "lat": 48.9255501, "lon": 14.1202526, "tags": {"ele": "911", "name": "Kti\u0161sk\u00e1 hora", "natural": "peak"}}, {"type": "node", "id": 3450921567, "lat": 48.9314593, "lon": 14.1234213, "tags": {"ele": "904", "name": "Mack\u016fv vrch", "natural": "peak"}}, {"type": "node", "id": 3450921576, "lat": 48.8584688, "lon": 14.005168, "tags": {"ele": "1081", "name": "Dlouh\u00fd h\u0159bet", "name:cs": "Dlouh\u00fd h\u0159bet", "name:de": "Langer Berg", "natural": "peak"}}, {"type": "node", "id": 3450921577, "lat": 48.9072138, "lon": 14.0193837, "tags": {"ele": "950", "name": "Farsk\u00fd vrch", "natural": "peak"}}, {"type": "node", "id": 3450921578, "lat": 48.8954147, "lon": 14.0317219, "tags": {"ele": "967", "name": "Rys\u00ed vrch", "natural": "peak"}}, {"type": "node", "id": 3450921579, "lat": 48.9009655, "lon": 14.0817612, "tags": {"ele": "893", "name": "Kamenn\u00fd vrch", "natural": "peak"}}, {"type": "node", "id": 3450921580, "lat": 48.8916127, "lon": 14.0941959, "tags": {"ele": "1025", "name": "Chlumek", "natural": "peak"}}, {"type": "node", "id": 3450921581, "lat": 48.9158516, "lon": 14.1408449, "tags": {"ele": "784", "name": "Dubov\u00fd kopec", "natural": "peak"}}, {"type": "node", "id": 3450921582, "lat": 48.8989836, "lon": 14.11884, "tags": {"ele": "789", "name": "Matu\u0161k\u016fv kopec", "natural": "peak"}}, {"type": "node", "id": 3450921583, "lat": 48.8847698, "lon": 14.1303413, "tags": {"ele": "881", "name": "Mal\u00fd Ple\u0161n\u00fd", "natural": "peak"}}, {"type": "node", "id": 3450921584, "lat": 48.8674467, "lon": 14.1457354, "tags": {"ele": "698", "name": "H\u016frka", "natural": "peak"}}, {"type": "node", "id": 3450921585, "lat": 48.8615025, "lon": 14.1693442, "tags": {"ele": "730", "name": "Nad Havaldou", "natural": "peak"}}, {"type": "node", "id": 3450921586, "lat": 48.8484857, "lon": 14.147238, "tags": {"ele": "797", "name": "Otavnice", "natural": "peak", "source": "\u010c\u00daZK"}}, {"type": "node", "id": 3450921587, "lat": 48.8505342, "lon": 14.1616588, "tags": {"ele": "818", "name": "Volanec", "natural": "peak"}}, {"type": "node", "id": 3450921588, "lat": 48.8517273, "lon": 14.1782027, "tags": {"ele": "626", "name": "B\u0159ezinka", "natural": "peak"}}, {"type": "node", "id": 3450921589, "lat": 48.8450201, "lon": 14.1919463, "tags": {"ele": "680", "name": "Nad v\u00e1penkou", "natural": "peak", "source": "\u010c\u00daZK"}}, {"type": "node", "id": 3450921591, "lat": 48.8417086, "lon": 14.0910738, "tags": {"ele": "997", "name": "Kmet", "natural": "peak"}}, {"type": "node", "id": 3450921592, "lat": 48.848395, "lon": 14.1184645, "tags": {"ele": "961", "name": "P\u0159\u00ed\u010dn\u00edk", "natural": "peak"}}, {"type": "node", "id": 3450921693, "lat": 48.8397118, "lon": 14.1284718, "tags": {"ele": "959", "name": "D\u0159ev\u00ed\u010d", "natural": "peak", "source": "\u010c\u00daZK"}}, {"type": "node", "id": 3577569708, "lat": 48.786458, "lon": 14.0796654, "tags": {"board_type": "history", "information": "board", "source": "survey", "tourism": "information"}}, {"type": "node", "id": 3768131507, "lat": 48.7672549, "lon": 14.0329824, "tags": {"addr:city": "Horn\u00ed Plan\u00e1", "addr:conscriptionnumber": "8", "addr:country": "CZ", "addr:housenumber": "8", "addr:place": "Horn\u00ed Plan\u00e1", "addr:postcode": "38226", "addr:street": "N\u00e1m\u011bst\u00ed", "information": "office", "internet_access": "wlan", "internet_access:fee": "no", "name": "Kulturn\u00ed a informa\u010dn\u00ed centrum Horn\u00ed Plan\u00e1", "phone": "+420 380 738 008", "source:addr": "cuzk:ruian", "source:loc": "survey", "tourism": "information", "website": "https://www.horniplana.cz/", "wheelchair": "yes"}}, {"type": "node", "id": 3822348016, "lat": 48.8113913, "lon": 14.1830632, "tags": {"ele": "782", "name": "Hol\u00fd kopec", "natural": "peak", "source": "\u010c\u00daZK"}}, {"type": "node", "id": 3822348018, "lat": 48.8245763, "lon": 14.195165, "tags": {"ele": "723", "name": "Vysok\u00fd vrch", "natural": "peak"}}, {"type": "node", "id": 3870786310, "lat": 48.8993739, "lon": 14.1709138, "tags": {"tourism": "viewpoint"}}, {"type": "node", "id": 3965323958, "lat": 48.7592308, "lon": 14.1722486}, {"type": "node", "id": 3965323959, "lat": 48.7592524, "lon": 14.1723321}, {"type": "node", "id": 3965323960, "lat": 48.7593083, "lon": 14.1722106}, {"type": "node", "id": 3965323961, "lat": 48.7593276, "lon": 14.1722918}, {"type": "node", "id": 4021632694, "lat": 48.9462735, "lon": 14.0127026, "tags": {"amenity": "shelter", "shelter_type": "picnic_shelter"}}, {"type": "node", "id": 4216330830, "lat": 48.8031454, "lon": 14.029823, "tags": {"ele": "926", "hiking": "yes", "information": "guidepost", "name": "Kapradinec", "operator": "cz:K\u010cT", "ref": "CK459", "tourism": "information"}}, {"type": "node", "id": 4216330831, "lat": 48.8092888, "lon": 14.0577998, "tags": {"hiking": "yes", "information": "guidepost", "name": "Li\u0161\u010d\u00ed k\u00e1men", "operator": "cz:K\u010cT", "ref": "CK458", "tourism": "information"}}, {"type": "node", "id": 4216330832, "lat": 48.7958583, "lon": 14.0522569, "tags": {"board:title": "Star\u00e9 Hut\u011b", "board:title:de": "Das Dorf Alth\u00fctten", "board_type": "history", "check_date": "2024-11-16", "information": "board", "tourism": "information"}}, {"type": "node", "id": 4216330835, "lat": 48.7996658, "lon": 14.0562496, "tags": {"name": "Na Nebi\u010dku", "tourism": "viewpoint"}}, {"type": "node", "id": 4216330851, "lat": 48.8142541, "lon": 14.0279308, "tags": {"amenity": "shelter", "bench": "yes", "shelter_type": "picnic_shelter"}}, {"type": "node", "id": 4216330853, "lat": 48.8215526, "lon": 14.0282661, "tags": {"ele": "1074", "hiking": "yes", "information": "guidepost", "name": "\u0160pi\u010d\u00e1k", "operator": "cz:K\u010cT", "ref": "CK331", "tourism": "information"}}, {"type": "node", "id": 4418950057, "lat": 48.9320943, "lon": 14.1804882, "tags": {"bicycle": "yes", "check_date": "2021-12-31", "hiking": "yes", "information": "map", "map_size": "region", "map_type": "topo", "name": "CHKO Blansk\u00fd les", "ski": "no", "tourism": "information"}}, {"type": "node", "id": 4418950061, "lat": 48.9320484, "lon": 14.1807003, "tags": {"ele": "726", "hiking": "yes", "information": "guidepost", "name": "Kuklov", "operator": "cz:K\u010cT", "ref": "PT966", "tourism": "information"}}, {"type": "node", "id": 4418950062, "lat": 48.9017146, "lon": 14.1611492, "tags": {"board:title": "Lineck\u00e1 stezka - B\u0159ezov\u00edk k\u0159i\u017eovatka", "board_type": "history", "information": "board", "tourism": "information"}}, {"type": "node", "id": 4418950063, "lat": 48.9000777, "lon": 14.1571111, "tags": {"board:title": "Lineck\u00e1 stezka - B\u0159ezov\u00edk n\u00e1ves", "board_type": "history", "information": "board", "tourism": "information"}}, {"type": "node", "id": 4418950072, "lat": 48.8946558, "lon": 14.1488292, "tags": {"bicycle": "yes", "description": "1:30000", "hiking": "yes", "information": "map", "map_size": "region", "map_type": "topo", "name": "Vojensk\u00fd \u00fajezd Boletice", "tourism": "information"}}, {"type": "node", "id": 4418957792, "lat": 48.9323808, "lon": 14.1812192, "tags": {"board_type": "history", "check_date": "2021-10-20", "information": "board", "name": "9. NS Brlo\u017eskem - Kl\u00e1\u0161ter na Kuklov\u011b", "tourism": "information"}}, {"type": "node", "id": 4456078758, "lat": 48.9171368, "lon": 14.1327467, "tags": {"ele": "760", "hiking": "yes", "information": "guidepost", "name": "Kti\u0161", "operator": "cz:K\u010cT", "ref": "PT127", "tourism": "information"}}, {"type": "node", "id": 4456078759, "lat": 48.9221941, "lon": 14.1064485, "tags": {"ele": "827", "hiking": "yes", "information": "guidepost", "name": "Kti\u0161ka", "operator": "cz:K\u010cT", "ref": "PT129", "tourism": "information"}}, {"type": "node", "id": 4456078760, "lat": 48.9038069, "lon": 14.0617919, "tags": {"ele": "942", "hiking": "yes", "information": "guidepost", "name": "Markov", "operator": "cz:K\u010cT", "ref": "PT026", "tourism": "information"}}, {"type": "node", "id": 4456078761, "lat": 48.8968309, "lon": 14.0856525, "tags": {"ele": "877", "hiking": "yes", "information": "guidepost", "name": "Pod Chloumkem", "operator": "cz:K\u010cT", "ref": "PT027", "tourism": "information"}}, {"type": "node", "id": 4456078762, "lat": 48.9073349, "lon": 14.1023135, "tags": {"ele": "815", "hiking": "yes", "information": "guidepost", "name": "Tisovka", "operator": "cz:K\u010cT", "ref": "PT028", "tourism": "information"}}, {"type": "node", "id": 4456442724, "lat": 48.9479218, "lon": 14.0917111, "tags": {"ele": "660", "hiking": "yes", "information": "guidepost", "name": "U Ml\u00fdna", "operator": "cz:K\u010cT", "ref": "PT961", "tourism": "information"}}, {"type": "node", "id": 4456442725, "lat": 48.9467732, "lon": 14.1049559, "tags": {"ele": "696", "hiking": "yes", "information": "guidepost", "name": "Z\u00e1ho\u0159\u00ed", "operator": "cz:K\u010cT", "ref": "PT960", "tourism": "information"}}, {"type": "node", "id": 4456559476, "lat": 48.9090387, "lon": 14.0201456, "tags": {"ele": "923", "hiking": "yes", "information": "guidepost", "name": "K\u0159i\u0161\u0165anov", "operator": "cz:K\u010cT", "ref": "PT972", "tourism": "information"}}, {"type": "node", "id": 4456575950, "lat": 48.9090246, "lon": 14.0201764, "tags": {"ele": "923", "hiking": "yes", "information": "guidepost", "name": "K\u0159i\u0161tanov", "operator": "cz:K\u010cT", "ref": "PT972", "tourism": "information"}}, {"type": "node", "id": 4708089619, "lat": 48.7828407, "lon": 14.0749413, "tags": {"ele": "800", "hiking": "yes", "information": "guidepost", "name": "Hod\u0148ov", "note": "na strom\u011b", "operator": "cz:K\u010cT", "ref": "CK340", "tourism": "information"}}, {"type": "node", "id": 4750542261, "lat": 48.7660215, "lon": 14.0316461, "tags": {"bicycle": "yes", "check_date": "2021-08-25", "description": "1:35000", "hiking": "yes", "information": "map", "map_size": "region", "map_type": "topo", "name": "Lipensko", "tourism": "information"}}, {"type": "node", "id": 4750542262, "lat": 48.7659946, "lon": 14.031618, "tags": {"bicycle": "yes", "check_date": "2021-08-25", "description": "1:30000", "hiking": "yes", "information": "map", "map_size": "region", "map_type": "topo", "name": "V\u00da Boletice", "tourism": "information"}}, {"type": "node", "id": 4752267625, "lat": 48.8206895, "lon": 14.0528839, "tags": {"tourism": "viewpoint"}}, {"type": "node", "id": 4822992090, "lat": 48.9312683, "lon": 14.1826093, "tags": {"board:title": "Kuglvait", "board_type": "history", "check_date": "2021-08-19", "information": "board", "tourism": "information"}}, {"type": "node", "id": 4822995252, "lat": 48.9324524, "lon": 14.1927588, "tags": {"ele": "653", "hiking": "yes", "information": "guidepost", "name": "Pod kuklovem", "operator": "cz:K\u010cT", "ref": "CK003", "tourism": "information"}}, {"type": "node", "id": 4822995344, "lat": 48.9324806, "lon": 14.1811985, "tags": {"ele": "726", "hiking": "yes", "information": "guidepost", "name": "kl\u00e1\u0161ter kuklov", "operator": "cz:K\u010cT", "ref": "PT009", "tourism": "information"}}, {"type": "node", "id": 4842032307, "lat": 48.7790664, "lon": 14.1034578, "tags": {"ele": "740", "hiking": "yes", "information": "guidepost", "name": "Hod\u0148ov \u017est", "operator": "cz:K\u010cT", "ref": "CK339", "tourism": "information"}}, {"type": "node", "id": 4892741395, "lat": 48.9396279, "lon": 14.0928853, "tags": {"amenity": "shelter", "shelter_type": "picnic_shelter"}}, {"type": "node", "id": 5035325857, "lat": 48.9199338, "lon": 14.1266236, "tags": {"amenity": "shelter", "shelter_type": "picnic_shelter"}}, {"type": "node", "id": 5035325859, "lat": 48.9193093, "lon": 14.1130288, "tags": {"amenity": "shelter", "shelter_type": "picnic_shelter"}}, {"type": "node", "id": 5313946485, "lat": 48.9332685, "lon": 14.081045, "tags": {"ele": "725", "natural": "peak"}}, {"type": "node", "id": 5313947128, "lat": 48.9004602, "lon": 14.1083372, "tags": {"information": "map", "tourism": "information"}}, {"type": "node", "id": 5313947193, "lat": 48.9191748, "lon": 14.1132653, "tags": {"ele": "842", "hiking": "yes", "information": "guidepost", "name": "Kti\u0161ka (rozc.)", "operator": "cz:K\u010cT", "tourism": "information"}}, {"type": "node", "id": 5389968043, "lat": 48.9280392, "lon": 14.1939143, "tags": {"board:title": "Hradi\u0161t\u011b \"U Ond\u0159eje\"", "board_type": "history", "information": "board", "ref": "5", "tourism": "information"}}, {"type": "node", "id": 5527678491, "lat": 48.7675602, "lon": 14.1806207}, {"type": "node", "id": 5527678492, "lat": 48.7675938, "lon": 14.1806757}, {"type": "node", "id": 5527678493, "lat": 48.7676163, "lon": 14.1806439}, {"type": "node", "id": 5527678494, "lat": 48.7675827, "lon": 14.1805889}, {"type": "node", "id": 5677528038, "lat": 48.7601648, "lon": 14.0215809, "tags": {"information": "board", "name": "Privoz", "name:en": "Ferry Boat", "tourism": "information"}}, {"type": "node", "id": 5827800758, "lat": 48.7790034, "lon": 14.1034759, "tags": {"information": "board", "tourism": "information"}}, {"type": "node", "id": 5827800759, "lat": 48.7625311, "lon": 14.1264816, "tags": {"board_type": "history", "information": "board", "name": "K O\u0159echovce", "ref": "8", "tourism": "information"}}, {"type": "node", "id": 5827800760, "lat": 48.7583336, "lon": 14.1323956, "tags": {"board_type": "history", "information": "board", "name": "Mokr\u00e1", "tourism": "information"}}, {"type": "node", "id": 5874195598, "lat": 48.8997813, "lon": 14.1573389, "tags": {"bicycle": "yes", "information": "guidepost", "tourism": "information"}}, {"type": "node", "id": 5874310001, "lat": 48.9364271, "lon": 14.1540069, "tags": {"information": "map", "tourism": "information"}}, {"type": "node", "id": 5874310002, "lat": 48.9364319, "lon": 14.1540398, "tags": {"bicycle": "yes", "information": "guidepost", "tourism": "information"}}, {"type": "node", "id": 5874310007, "lat": 48.9368689, "lon": 14.1549681, "tags": {"bicycle": "yes", "information": "guidepost", "tourism": "information"}}, {"type": "node", "id": 5937409781, "lat": 48.9387993, "lon": 14.1942932, "tags": {"board:title": "\u017divo\u010dichov\u00e9", "board_type": "nature", "information": "board", "ref": "11", "tourism": "information"}}, {"type": "node", "id": 5937409787, "lat": 48.9273946, "lon": 14.2003031, "tags": {"board:title": "Stojat\u00e9 vody", "board_type": "nature", "information": "board", "ref": "4", "tourism": "information"}}, {"type": "node", "id": 5937409788, "lat": 48.9284167, "lon": 14.1913814, "tags": {"board:title": "Dubov\u00e1 alej", "board_type": "nature", "information": "board", "ref": "6", "tourism": "information"}}, {"type": "node", "id": 5941131386, "lat": 48.9363031, "lon": 14.1539712, "tags": {"board_type": "history", "information": "board", "name": "Lineck\u00e1 stezka - Sm\u011bde\u010d - Kuklov", "tourism": "information"}}, {"type": "node", "id": 5941131388, "lat": 48.9361907, "lon": 14.1848289, "tags": {"board:title": "Kulturn\u00ed krajina", "board_type": "nature", "information": "board", "ref": "10", "tourism": "information"}}, {"type": "node", "id": 6055679585, "lat": 48.7655517, "lon": 14.0348821, "tags": {"information": "board", "name": "NS Adalberta Stiftera", "ref": "1", "tourism": "information"}}, {"type": "node", "id": 6055679586, "lat": 48.7662986, "lon": 14.0317451, "tags": {"ele": "770", "hiking": "yes", "information": "guidepost", "name": "Horn\u00ed Plan\u00e1 (n\u00e1m.)", "operator": "cz:K\u010cT", "ref": "CK023;231/34", "short_name": "Horn\u00ed Plan\u00e1 (n\u00e1m.)", "tourism": "information"}}, {"type": "node", "id": 6055765889, "lat": 48.77085, "lon": 14.0529787, "tags": {"board_type": "nature", "information": "board", "name": "Stifter\u016fv smrk", "ref": "7", "tourism": "information"}}, {"type": "node", "id": 6055765890, "lat": 48.7704681, "lon": 14.0418482, "tags": {"board_type": "nature", "information": "board", "name": "V\u00fdhled na Alpy", "ref": "6", "tourism": "information"}}, {"type": "node", "id": 6061335559, "lat": 48.7574192, "lon": 14.0144431, "tags": {"ele": "728", "hiking": "yes", "information": "guidepost", "name": "Bli\u017e\u0161\u00ed Lhota (p\u0159\u00edvoz)", "operator": "cz:K\u010cT", "ref": "CK420", "tourism": "information"}}, {"type": "node", "id": 6534298081, "lat": 48.7604625, "lon": 14.0858161, "tags": {"amenity": "shelter", "shelter_type": "picnic_shelter"}}, {"type": "node", "id": 6534298083, "lat": 48.7648503, "lon": 14.0836592, "tags": {"amenity": "shelter", "shelter_type": "picnic_shelter"}}, {"type": "node", "id": 6534298084, "lat": 48.7655494, "lon": 14.0802942, "tags": {"information": "map", "name": "Nordic Walking Horn\u00ed Plan\u00e1", "tourism": "information"}}, {"type": "node", "id": 6534314185, "lat": 48.7656385, "lon": 14.0755645, "tags": {"board_type": "nature", "information": "board", "name": "Revitalizace Ost\u0159ice", "tourism": "information"}}, {"type": "node", "id": 6534314186, "lat": 48.7646472, "lon": 14.0680619, "tags": {"amenity": "shelter", "shelter_type": "picnic_shelter"}}, {"type": "node", "id": 6534314187, "lat": 48.7669731, "lon": 14.0593557, "tags": {"amenity": "shelter", "shelter_type": "picnic_shelter"}}, {"type": "node", "id": 6534314189, "lat": 48.7656862, "lon": 14.0546656, "tags": {"name": "Vyhl\u00eddka nad Fedlem", "tourism": "viewpoint"}}, {"type": "node", "id": 6588336895, "lat": 48.7572108, "lon": 14.0135651, "tags": {"bicycle": "yes", "information": "guidepost", "name": "Bli\u017e\u0161\u00ed Lhota - p\u0159\u00edvoz", "operator": "cz:K\u010cT", "ref": "none", "tourism": "information"}}, {"type": "node", "id": 6588336896, "lat": 48.757217, "lon": 14.0135825, "tags": {"information": "map", "tourism": "information"}}, {"type": "node", "id": 6719097673, "lat": 48.7609573, "lon": 14.1139075, "tags": {"amenity": "shelter", "shelter_type": "picnic_shelter"}}, {"type": "node", "id": 6719097674, "lat": 48.7609618, "lon": 14.1138475, "tags": {"board_type": "information", "check_date": "2024-05-09", "information": "board", "ref": "9", "tourism": "information"}}, {"type": "node", "id": 7329932676, "lat": 48.8558799, "lon": 14.0018953, "tags": {"board_type": "nature", "information": "board", "name": "Zstaven\u00ed - Na Nov\u00e9 Tyrolce", "ref": "9", "source": "survey", "tourism": "information"}}, {"type": "node", "id": 7817203928, "lat": 48.7876087, "lon": 14.1079957, "tags": {"tourism": "viewpoint"}}, {"type": "node", "id": 7817205198, "lat": 48.7921633, "lon": 14.1025145, "tags": {"description": "stopy", "tourism": "information"}}, {"type": "node", "id": 7817300031, "lat": 48.7842662, "lon": 14.0940314, "tags": {"description": "stopy", "fixme": "this can't be an information point. I Thind it's a sign to walk onto the way only?", "tourism": "information"}}, {"type": "node", "id": 7817300032, "lat": 48.7843678, "lon": 14.0944028, "tags": {"description": "stopy", "tourism": "information"}}, {"type": "node", "id": 7817300034, "lat": 48.7844115, "lon": 14.0946649, "tags": {"description": "stopy", "tourism": "information"}}, {"type": "node", "id": 7817300035, "lat": 48.7844176, "lon": 14.0949071, "tags": {"description": "stopy", "tourism": "information"}}, {"type": "node", "id": 7817300036, "lat": 48.7843304, "lon": 14.0954713, "tags": {"board_type": "nature", "information": "board", "name": "stopy", "tourism": "information"}}, {"type": "node", "id": 7817300037, "lat": 48.784302, "lon": 14.0957576, "tags": {"description": "stopy", "tourism": "information"}}, {"type": "node", "id": 7817300038, "lat": 48.7845841, "lon": 14.0958606, "tags": {"description": "stopy", "tourism": "information"}}, {"type": "node", "id": 7817300040, "lat": 48.7847093, "lon": 14.0962016, "tags": {"description": "stopy", "tourism": "information"}}, {"type": "node", "id": 7817300041, "lat": 48.7848935, "lon": 14.0964023, "tags": {"description": "stopy", "tourism": "information"}}, {"type": "node", "id": 7817300042, "lat": 48.7849993, "lon": 14.0965314, "tags": {"description": "stopy", "tourism": "information"}}, {"type": "node", "id": 7817300043, "lat": 48.7852797, "lon": 14.0965733, "tags": {"description": "stopy", "tourism": "information"}}, {"type": "node", "id": 7817300045, "lat": 48.7859515, "lon": 14.0969708, "tags": {"description": "stopy", "tourism": "information"}}, {"type": "node", "id": 7817300046, "lat": 48.7860659, "lon": 14.0970778, "tags": {"name": "stopy", "tourism": "information"}}, {"type": "node", "id": 7817300047, "lat": 48.786109, "lon": 14.0971205, "tags": {"name": "stopy", "tourism": "information"}}, {"type": "node", "id": 7817300048, "lat": 48.7863366, "lon": 14.0978298, "tags": {"description": "stopy", "tourism": "information"}}, {"type": "node", "id": 7817300049, "lat": 48.7863318, "lon": 14.097995, "tags": {"description": "stopy", "tourism": "information"}}, {"type": "node", "id": 7817300050, "lat": 48.7859168, "lon": 14.0987909, "tags": {"description": "stopy", "tourism": "information"}}, {"type": "node", "id": 7817300051, "lat": 48.7860715, "lon": 14.0986357, "tags": {"description": "stopy", "tourism": "information"}}, {"type": "node", "id": 7817300053, "lat": 48.7842072, "lon": 14.093912, "tags": {"board:title": "Vlhk\u00e1 lada - p\u0159\u00edroda Boleticka", "board_type": "nature", "information": "board", "ref": "3", "tourism": "information"}}, {"type": "node", "id": 7817300054, "lat": 48.7830228, "lon": 14.0912951, "tags": {"board:title": "Obec a pastviny", "board_type": "nature", "information": "board", "ref": "2", "tourism": "information"}}, {"type": "node", "id": 7817300055, "lat": 48.7843934, "lon": 14.094502, "tags": {"board:title": "Vlhk\u00e1 lada - zamok\u0159en\u00e9 louky", "board_type": "nature", "information": "board", "ref": "4", "tourism": "information"}}, {"type": "node", "id": 7817300056, "lat": 48.7843289, "lon": 14.0955604, "tags": {"board:title": "Vlhk\u00e1 lada - Obto\u010dn\u00e1 stoka", "board_type": "nature", "information": "board", "ref": "5", "tourism": "information"}}, {"type": "node", "id": 7817300058, "lat": 48.7862645, "lon": 14.0984924, "tags": {"board:title": "Les na podm\u00e1\u010den\u00fdch stanovi\u0161t\u00edch", "board_type": "nature", "information": "board", "ref": "7", "tourism": "information"}}, {"type": "node", "id": 7817300059, "lat": 48.7877529, "lon": 14.1004793, "tags": {"board:title": "Les na podm\u00e1\u010den\u00fdch stanovi\u0161t\u00edch - zar\u016fstaj\u00edc\u00ed louky", "board_type": "plants", "information": "board", "ref": "8", "tourism": "information"}}, {"type": "node", "id": 7817300060, "lat": 48.7877691, "lon": 14.1004647, "tags": {"board:title": "Les na podm\u00e1\u010den\u00fdch stanovi\u0161t\u00edch - pt\u00e1ci na rybn\u00edku", "board_type": "nature", "information": "board", "ref": "9", "tourism": "information"}}, {"type": "node", "id": 7817300061, "lat": 48.7878459, "lon": 14.1007641, "tags": {"description": "stopy", "tourism": "information"}}, {"type": "node", "id": 7817300062, "lat": 48.7877081, "lon": 14.1004524, "tags": {"description": "stopy", "tourism": "information"}}, {"type": "node", "id": 7817300063, "lat": 48.7877873, "lon": 14.100401, "tags": {"description": "stopy", "tourism": "information"}}, {"type": "node", "id": 7817300064, "lat": 48.7880172, "lon": 14.1001613, "tags": {"description": "stopy", "tourism": "information"}}, {"type": "node", "id": 7817300066, "lat": 48.7903176, "lon": 14.0970066, "tags": {"board:title": "Les na podm\u00e1\u010den\u00fdch stanovi\u0161t\u00edch", "board_type": "nature", "information": "board", "ref": "10", "tourism": "information"}}, {"type": "node", "id": 7817300067, "lat": 48.7906772, "lon": 14.0968271, "tags": {"board:title": "Mok\u0159ad - potok Ol\u0161ina", "board_type": "nature", "information": "board", "ref": "11", "tourism": "information"}}, {"type": "node", "id": 7817300068, "lat": 48.7907533, "lon": 14.0968212, "tags": {"description": "stopy", "tourism": "information"}}, {"type": "node", "id": 7817300071, "lat": 48.7916752, "lon": 14.0974862, "tags": {"description": "stopy", "tourism": "information"}}, {"type": "node", "id": 7817300073, "lat": 48.7916272, "lon": 14.0985178, "tags": {"description": "stopy", "tourism": "information"}}, {"type": "node", "id": 7817300075, "lat": 48.7917105, "lon": 14.0990836, "tags": {"description": "stopy", "tourism": "information"}}, {"type": "node", "id": 7817300078, "lat": 48.7918753, "lon": 14.1001949, "tags": {"board:title": "Mok\u0159ad - ra\u0161elini\u0161t\u011b", "board_type": "nature", "information": "board", "ref": "12", "tourism": "information"}}, {"type": "node", "id": 7817300079, "lat": 48.7918407, "lon": 14.1008016, "tags": {"description": "stopy", "tourism": "information"}}, {"type": "node", "id": 7817300080, "lat": 48.7918786, "lon": 14.1010928, "tags": {"board:title": "Mok\u0159ad = vyhl\u00eddka", "board_type": "nature", "information": "board", "ref": "13", "tourism": "information"}}, {"type": "node", "id": 7817330286, "lat": 48.7922197, "lon": 14.1026883, "tags": {"board:title": "Mok\u0159ad - rozhledna dobrodruh\u016f", "board_type": "nature", "information": "board", "ref": "14", "tourism": "information"}}, {"type": "node", "id": 7817330287, "lat": 48.792108, "lon": 14.1036895, "tags": {"board:title": "Mok\u0159ad - pta\u010d\u00ed vyhl\u00eddka", "board_type": "nature", "information": "board", "ref": "15", "tourism": "information"}}, {"type": "node", "id": 7817330288, "lat": 48.7921709, "lon": 14.103805, "tags": {"child": "designated", "tourism": "viewpoint"}}, {"type": "node", "id": 7817330290, "lat": 48.7916468, "lon": 14.1060031, "tags": {"description": "Stopy", "tourism": "information"}}, {"type": "node", "id": 7817330292, "lat": 48.7915975, "lon": 14.1066422, "tags": {"board:title": "Mok\u0159ad - NPP Ol\u0161ina", "board_type": "plants", "information": "board", "ref": "16", "tourism": "information"}}, {"type": "node", "id": 7817330293, "lat": 48.7911579, "lon": 14.1099047, "tags": {"board:title": "Les such\u00fdch stanovi\u0161\u0165", "board_type": "plants", "information": "board", "ref": "17", "tourism": "information"}}, {"type": "node", "id": 7817330294, "lat": 48.7894983, "lon": 14.1120769, "tags": {"board:title": "Les na such\u00fdch stanovi\u0161t\u00edch - ra\u0161elinnn\u00fd les", "board_type": "plants", "information": "board", "ref": "18", "tourism": "information"}}, {"type": "node", "id": 7817330298, "lat": 48.7879547, "lon": 14.1113027, "tags": {"board:title": "Les na such\u00fdch stanovi\u0161t\u00edch - podm\u00e1\u010den\u00e1 stanovi\u0161t\u011b", "board_type": "plants", "information": "board", "ref": "19", "tourism": "information"}}, {"type": "node", "id": 7817330301, "lat": 48.7875523, "lon": 14.1080564, "tags": {"board:title": "Les na such\u00fdch stanoci\u0161t\u00edch - pta\u010d\u00ed hn\u00edzdo", "board_type": "nature", "information": "board", "ref": "21", "tourism": "information"}}, {"type": "node", "id": 7817330302, "lat": 48.7875336, "lon": 14.1080793, "tags": {"board:title": "les na such\u00fdch stanovi\u0161t\u00edch - les", "board_type": "nature", "information": "board", "ref": "20", "tourism": "information"}}, {"type": "node", "id": 7817330304, "lat": 48.7861795, "lon": 14.1095094, "tags": {"board:title": "Lesn\u00ed cesta", "board_type": "nature", "information": "board", "ref": "22", "tourism": "information"}}, {"type": "node", "id": 7817330305, "lat": 48.7861589, "lon": 14.1096233, "tags": {"information": "guidepost", "tourism": "information"}}, {"type": "node", "id": 7817392169, "lat": 48.7789687, "lon": 14.0924516, "tags": {"board:title": "Obec a pastviny", "board_type": "nature", "information": "board", "ref": "1", "tourism": "information"}}, {"type": "node", "id": 7817400265, "lat": 48.7857012, "lon": 14.0966894, "tags": {"information": "guidepost", "tourism": "information"}}, {"type": "node", "id": 7817939844, "lat": 48.7792628, "lon": 14.1035816, "tags": {"board:title": "Louky a pastviny", "board_type": "nature", "information": "board", "ref": "24", "tourism": "information"}}, {"type": "node", "id": 7817939845, "lat": 48.7782983, "lon": 14.1015155, "tags": {"board:title": "Hr\u00e1z rybn\u00edka", "board_type": "nature", "information": "board", "ref": "25", "tourism": "information"}}, {"type": "node", "id": 7817939846, "lat": 48.7783175, "lon": 14.1014786, "tags": {"board:title": "Hr\u00e1z rybn\u00edka - ryb\u00e1\u0159sk\u00e1 ba\u0161ta Ol\u0161ina", "board_type": "nature", "information": "board", "ref": "26", "tourism": "information"}}, {"type": "node", "id": 7902898683, "lat": 48.7522201, "lon": 14.0439784}, {"type": "node", "id": 7902898684, "lat": 48.7522399, "lon": 14.0439375}, {"type": "node", "id": 7902912485, "lat": 48.7522219, "lon": 14.0439174}, {"type": "node", "id": 7902912486, "lat": 48.7522021, "lon": 14.0439583}, {"type": "node", "id": 8740553943, "lat": 48.7655881, "lon": 14.1765718, "tags": {"board_type": "history", "information": "board", "tourism": "information"}}, {"type": "node", "id": 8912117017, "lat": 48.7784274, "lon": 14.09812, "tags": {"board:title": "Hr\u00e1z rybn\u00edka- nau\u010dn\u00e1 stezka", "board_type": "nature", "information": "board", "ref": "29", "tourism": "information"}}, {"type": "node", "id": 9084675896, "lat": 48.9198774, "lon": 14.1266144, "tags": {"board_type": "history", "information": "board", "name": "Kti\u0161sko - zanikl\u00e1 os\u00eddlen\u00ed", "tourism": "information"}}, {"type": "node", "id": 9084675897, "lat": 48.9192041, "lon": 14.1131674, "tags": {"board_type": "history", "information": "board", "name": "K\u0159\u00ed\u017eov\u00e1 cesta nad kapl\u00ed Dobr\u00e1 voda u Kti\u0161e", "tourism": "information"}}, {"type": "node", "id": 9084675899, "lat": 48.921998, "lon": 14.1162929, "tags": {"tourism": "viewpoint"}}, {"type": "node", "id": 9085904189, "lat": 48.9221395, "lon": 14.1065863, "tags": {"amenity": "shelter", "shelter_type": "picnic_shelter"}}, {"type": "node", "id": 9085904190, "lat": 48.9363664, "lon": 14.0942079, "tags": {"amenity": "shelter", "shelter_type": "picnic_shelter"}}, {"type": "node", "id": 9085904191, "lat": 48.9363166, "lon": 14.0942161, "tags": {"board_type": "history", "information": "board", "name": "Ostr\u00e1 hora - Scharfberg", "tourism": "information"}}, {"type": "node", "id": 9322139918, "lat": 48.7915676, "lon": 14.0970033, "tags": {"description": "stopy", "tourism": "information"}}, {"type": "node", "id": 9408098114, "lat": 48.9080874, "lon": 14.1014054, "tags": {"amenity": "shelter", "shelter_type": "picnic_shelter"}}, {"type": "node", "id": 9547851571, "lat": 48.822668, "lon": 14.1766832, "tags": {"ele": "803", "name": "Hol\u00fd vrch", "natural": "peak", "source": "\u010c\u00daZK"}}, {"type": "node", "id": 9547851572, "lat": 48.823922, "lon": 14.1630494, "tags": {"ele": "881", "name": "Krav\u00ed hora", "natural": "peak", "source": "\u010c\u00daZK"}}, {"type": "node", "id": 9547851573, "lat": 48.8313203, "lon": 14.1605656, "tags": {"ele": "895", "name": "B\u0159evni\u0161t\u011b", "natural": "peak", "source": "\u010c\u00daZK"}}, {"type": "node", "id": 9547851574, "lat": 48.8252854, "lon": 14.1271387, "tags": {"ele": "912", "name": "Vyso\u010dina", "natural": "peak", "source": "\u010c\u00daZK"}}, {"type": "node", "id": 9547851575, "lat": 48.8132147, "lon": 14.1400108, "tags": {"ele": "837", "name": "Bl\u00e1to", "natural": "peak", "source": "\u010c\u00daZK"}}, {"type": "node", "id": 9547851576, "lat": 48.803059, "lon": 14.1502661, "tags": {"ele": "832", "name": "Polensk\u00fd vrch", "natural": "peak", "source": "\u010c\u00daZK"}}, {"type": "node", "id": 9547851577, "lat": 48.8181232, "lon": 14.1990183, "tags": {"ele": "781", "name": "Ho\u0159i\u010dka", "natural": "peak", "source": "\u010c\u00daZK"}}, {"type": "node", "id": 9547851578, "lat": 48.8740834, "lon": 14.1979273, "tags": {"ele": "815", "natural": "peak", "source": "\u010c\u00daZK"}}, {"type": "node", "id": 9547851579, "lat": 48.8890974, "lon": 14.1527828, "tags": {"ele": "657", "name": "Pansk\u00fd vrch", "natural": "peak", "source": "\u010c\u00daZK"}}, {"type": "node", "id": 9615166894, "lat": 48.9300567, "lon": 14.1858931, "tags": {"board:title": "Revitalizace K\u0159em\u017esk\u00e9 kotliny", "board_type": "nature", "information": "board", "ref": "7", "tourism": "information"}}, {"type": "node", "id": 9939330531, "lat": 48.7790636, "lon": 14.1755724}, {"type": "node", "id": 9939330532, "lat": 48.7789435, "lon": 14.1756928}, {"type": "node", "id": 9939330533, "lat": 48.7789003, "lon": 14.1755935}, {"type": "node", "id": 9939330534, "lat": 48.7790204, "lon": 14.1754731}, {"type": "node", "id": 10166581447, "lat": 48.9464583, "lon": 14.0491111, "tags": {"name": "\u0160umava EVL", "tourism": "information"}}, {"type": "node", "id": 10211974405, "lat": 48.9203033, "lon": 14.1217181, "tags": {"information": "board", "tourism": "information"}}, {"type": "node", "id": 10300722502, "lat": 48.7791799, "lon": 14.0925845}, {"type": "node", "id": 10300722503, "lat": 48.7789972, "lon": 14.0926496}, {"type": "node", "id": 10300722504, "lat": 48.7789706, "lon": 14.0924777}, {"type": "node", "id": 10300722505, "lat": 48.7791533, "lon": 14.0924127}, {"type": "node", "id": 10302821482, "lat": 48.9069293, "lon": 14.0005278, "tags": {"information": "board", "name": "Josef und seine Br\u00fcder", "tourism": "information"}}, {"type": "node", "id": 10305049095, "lat": 48.7836646, "lon": 14.1191353, "tags": {"information": "map", "tourism": "information"}}, {"type": "node", "id": 10305068475, "lat": 48.7918817, "lon": 14.1012314, "tags": {"tourism": "viewpoint"}}, {"type": "node", "id": 10305068485, "lat": 48.7876604, "lon": 14.1003627, "tags": {"board:title": "Molo s pontonem", "board_type": "information", "information": "board", "tourism": "information"}}, {"type": "node", "id": 10305068486, "lat": 48.7862715, "lon": 14.0984375, "tags": {"board:title": "Plovouc\u00ed molo", "board_type": "information", "information": "board", "tourism": "information"}}, {"type": "node", "id": 10305068494, "lat": 48.7921398, "lon": 14.1027845, "tags": {"tourism": "viewpoint"}}, {"type": "node", "id": 10305073910, "lat": 48.7836804, "lon": 14.1191114, "tags": {"tourism": "viewpoint"}}, {"type": "node", "id": 10305073914, "lat": 48.7783959, "lon": 14.1007595, "tags": {"board:title": "Hr\u00e1z rybn\u00edka - panoramatick\u00e1 mapa", "board_type": "nature", "information": "board", "ref": "27", "tourism": "information"}}, {"type": "node", "id": 10305073915, "lat": 48.778436, "lon": 14.0999142, "tags": {"board:title": "Hr\u00e1z rybn\u00edka - hr\u00e1zn\u00ed domek", "board_type": "nature", "information": "board", "ref": "28", "tourism": "information"}}, {"type": "node", "id": 11010118175, "lat": 48.7724307, "lon": 14.0326089}, {"type": "node", "id": 11010118176, "lat": 48.7724489, "lon": 14.0326011}, {"type": "node", "id": 11010118177, "lat": 48.7724668, "lon": 14.0326101}, {"type": "node", "id": 11010118178, "lat": 48.7724798, "lon": 14.0326573}, {"type": "node", "id": 11010118179, "lat": 48.7724733, "lon": 14.0326798}, {"type": "node", "id": 11010118180, "lat": 48.7724605, "lon": 14.0326946}, {"type": "node", "id": 11010118181, "lat": 48.7724306, "lon": 14.0326904}, {"type": "node", "id": 11010118182, "lat": 48.7724205, "lon": 14.0326742}, {"type": "node", "id": 11010118183, "lat": 48.7724162, "lon": 14.0326529}, {"type": "node", "id": 11010118184, "lat": 48.7724186, "lon": 14.0326309}, {"type": "node", "id": 11010118185, "lat": 48.7724445, "lon": 14.032698}, {"type": "node", "id": 11010118186, "lat": 48.7724783, "lon": 14.0326329}, {"type": "node", "id": 11235377409, "lat": 48.9302483, "lon": 14.11851, "tags": {"information": "board", "tourism": "information"}}, {"type": "node", "id": 11262849538, "lat": 48.7552137, "lon": 14.0153765, "tags": {"name": "Vag\u00f3n", "name:de": "Wagon", "tourism": "attraction"}}, {"type": "node", "id": 12025810060, "lat": 48.7833383, "lon": 14.1360534}, {"type": "node", "id": 12025810061, "lat": 48.783307, "lon": 14.1360375}, {"type": "node", "id": 12025810062, "lat": 48.7833169, "lon": 14.135993}, {"type": "node", "id": 12025810063, "lat": 48.7833481, "lon": 14.1360088}, {"type": "node", "id": 12025810064, "lat": 48.7826681, "lon": 14.1352392}, {"type": "node", "id": 12025810065, "lat": 48.7826134, "lon": 14.1352415}, {"type": "node", "id": 12025810066, "lat": 48.7826152, "lon": 14.1353417}, {"type": "node", "id": 12025810067, "lat": 48.7826699, "lon": 14.1353394}, {"type": "node", "id": 12062776002, "lat": 48.7593179, "lon": 14.1722509, "tags": {"board_type": "history", "information": "board", "name": "Historie obce Ho\u0159ice na \u0160umav\u011b", "tourism": "information"}}, {"type": "node", "id": 12200003844, "lat": 48.7707229, "lon": 14.0461217, "tags": {"board_type": "nature", "information": "board", "name": "V\u00fdhled na Alpy", "tourism": "information"}}, {"type": "node", "id": 12200003845, "lat": 48.7707127, "lon": 14.0460667, "tags": {"tourism": "viewpoint"}}, {"type": "node", "id": 12232458394, "lat": 48.7688666, "lon": 14.0311546, "tags": {"board_type": "history", "information": "board", "name": "Stifter\u016fv park", "ref": "3", "tourism": "information"}}, {"type": "node", "id": 12232458399, "lat": 48.7707664, "lon": 14.0310579, "tags": {"information": "map", "name": "Nordic walking Horn\u00ed Plan\u00e1", "tourism": "information"}}, {"type": "node", "id": 12232477602, "lat": 48.7720677, "lon": 14.0311183, "tags": {"board_type": "history", "information": "board", "name": "Kaple Panny Marie Bolestn\u00e9", "ref": "5", "tourism": "information"}}, {"type": "node", "id": 12345824772, "lat": 48.8017859, "lon": 14.0371469, "tags": {"amenity": "shelter"}}, {"type": "node", "id": 12346083929, "lat": 48.7885215, "lon": 14.0504001, "tags": {"amenity": "shelter"}}, {"type": "node", "id": 12347768426, "lat": 48.7854305, "lon": 14.0967167, "tags": {"board:title": "Vlhk\u00e1 Lada", "board_type": "plants", "information": "board", "ref": "6", "tourism": "information"}}, {"type": "node", "id": 12347860036, "lat": 48.7863021, "lon": 14.109099, "tags": {"amenity": "shelter"}}, {"type": "node", "id": 12348931937, "lat": 48.778983, "lon": 14.092558, "tags": {"entrance": "main"}}, {"type": "node", "id": 12373721449, "lat": 48.9343939, "lon": 14.0588843, "tags": {"amenity": "shelter", "bench": "yes"}}, {"type": "node", "id": 12560782894, "lat": 48.940455, "lon": 14.0544104}, {"type": "node", "id": 12560782895, "lat": 48.9404362, "lon": 14.0544642}, {"type": "node", "id": 12560782896, "lat": 48.9403758, "lon": 14.0544153}, {"type": "node", "id": 12560782897, "lat": 48.9403946, "lon": 14.0543615}, {"type": "node", "id": 12560804515, "lat": 48.9464159, "lon": 14.049022, "tags": {"amenity": "shelter", "shelter_type": "lean_to"}}, {"type": "node", "id": 12560804610, "lat": 48.932526, "lon": 14.0213707}, {"type": "node", "id": 12560804611, "lat": 48.9325244, "lon": 14.0214202}, {"type": "node", "id": 12560804612, "lat": 48.9324958, "lon": 14.0214182}, {"type": "node", "id": 12560804613, "lat": 48.9324973, "lon": 14.0213686}, {"type": "node", "id": 12588056954, "lat": 48.9150388, "lon": 14.0168638}, {"type": "node", "id": 12588056955, "lat": 48.9150239, "lon": 14.0168879}, {"type": "node", "id": 12588056956, "lat": 48.9150106, "lon": 14.0168689}, {"type": "node", "id": 12588056957, "lat": 48.9150255, "lon": 14.0168448}, {"type": "node", "id": 12588056961, "lat": 48.911811, "lon": 14.0120763}, {"type": "node", "id": 12588056962, "lat": 48.9118221, "lon": 14.0121339}, {"type": "node", "id": 12588056963, "lat": 48.9117906, "lon": 14.0121479}, {"type": "node", "id": 12588056964, "lat": 48.9117796, "lon": 14.0120903}, {"type": "node", "id": 12643059414, "lat": 48.9470551, "lon": 14.0180638}, {"type": "node", "id": 12643059415, "lat": 48.947056, "lon": 14.0180934}, {"type": "node", "id": 12643059416, "lat": 48.9470424, "lon": 14.0180944}, {"type": "node", "id": 12643059417, "lat": 48.9470414, "lon": 14.0180648}, {"type": "node", "id": 12833072089, "lat": 48.9087861, "lon": 14.1842403, "tags": {"information": "board", "name": "Podhorsk\u00e1 kv\u011btnat\u00e1 bu\u010dina", "tourism": "information"}}, {"type": "node", "id": 12875922694, "lat": 48.7931262, "lon": 14.1614505, "tags": {"name": "Horn\u00ed vrch", "natural": "peak"}}, {"type": "node", "id": 12899360900, "lat": 48.9146365, "lon": 14.1306489}, {"type": "node", "id": 12899371701, "lat": 48.9146305, "lon": 14.1306736}, {"type": "node", "id": 12899371702, "lat": 48.9146127, "lon": 14.1306636}, {"type": "node", "id": 12899371703, "lat": 48.9146187, "lon": 14.1306389}, {"type": "node", "id": 12905504189, "lat": 48.9195928, "lon": 14.1263676}, {"type": "node", "id": 12905504190, "lat": 48.9195836, "lon": 14.1263926}, {"type": "node", "id": 12905504191, "lat": 48.9195634, "lon": 14.126396}, {"type": "node", "id": 12905504192, "lat": 48.9195489, "lon": 14.1263821}, {"type": "node", "id": 12905504193, "lat": 48.9195432, "lon": 14.126356}, {"type": "node", "id": 12905504194, "lat": 48.9195519, "lon": 14.1263328}, {"type": "node", "id": 12905504195, "lat": 48.9195691, "lon": 14.1263223}, {"type": "node", "id": 12905504196, "lat": 48.9195882, "lon": 14.1263345}, {"type": "node", "id": 12913445718, "lat": 48.9090583, "lon": 14.0203752}, {"type": "node", "id": 12913445719, "lat": 48.9090604, "lon": 14.0203927}, {"type": "node", "id": 12913445720, "lat": 48.9090586, "lon": 14.0204103}, {"type": "node", "id": 12913445721, "lat": 48.9089947, "lon": 14.020415}, {"type": "node", "id": 12913445722, "lat": 48.9089918, "lon": 14.0203989}, {"type": "node", "id": 12913445723, "lat": 48.9089924, "lon": 14.0203822}, {"type": "node", "id": 12913445724, "lat": 48.9089965, "lon": 14.0203666}, {"type": "node", "id": 12913445725, "lat": 48.909053, "lon": 14.0204259}, {"type": "node", "id": 12913445726, "lat": 48.9090443, "lon": 14.0204378}, {"type": "node", "id": 12913445727, "lat": 48.9090335, "lon": 14.0204446}, {"type": "node", "id": 12913445728, "lat": 48.9090218, "lon": 14.0204454}, {"type": "node", "id": 12913445729, "lat": 48.9090106, "lon": 14.0204403}, {"type": "node", "id": 12913445730, "lat": 48.9090012, "lon": 14.0204297}, {"type": "node", "id": 12913445731, "lat": 48.9090036, "lon": 14.0203538}, {"type": "node", "id": 12913445732, "lat": 48.909013, "lon": 14.0203451}, {"type": "node", "id": 12913445733, "lat": 48.9090237, "lon": 14.0203413}, {"type": "node", "id": 12913445734, "lat": 48.9090346, "lon": 14.0203428}, {"type": "node", "id": 12913445735, "lat": 48.9090447, "lon": 14.0203495}, {"type": "node", "id": 12913445736, "lat": 48.9090529, "lon": 14.0203607}, {"type": "node", "id": 12914049252, "lat": 48.9155989, "lon": 14.0182994, "tags": {"amenity": "shelter"}}, {"type": "node", "id": 13059333029, "lat": 48.947, "lon": 14.0179587, "tags": {"information": "guidepost", "tourism": "information"}}, {"type": "node", "id": 13059333030, "lat": 48.9464159, "lon": 14.0164772, "tags": {"information": "guidepost", "tourism": "information"}}, {"type": "node", "id": 13062144990, "lat": 48.9106094, "lon": 14.1387445, "tags": {"information": "board", "tourism": "information"}}, {"type": "node", "id": 13062304235, "lat": 48.9167117, "lon": 14.132515}, {"type": "node", "id": 13062304236, "lat": 48.9166966, "lon": 14.1325216}, {"type": "node", "id": 13062304237, "lat": 48.9166886, "lon": 14.132479}, {"type": "node", "id": 13062304238, "lat": 48.9167038, "lon": 14.1324724}, {"type": "node", "id": 13062478090, "lat": 48.9326731, "lon": 14.1852638}, {"type": "node", "id": 13062478091, "lat": 48.9326585, "lon": 14.1852986}, {"type": "node", "id": 13062478092, "lat": 48.9326378, "lon": 14.185306}, {"type": "node", "id": 13062478093, "lat": 48.9326105, "lon": 14.1852685}, {"type": "node", "id": 13062478094, "lat": 48.9326237, "lon": 14.1852403}, {"type": "node", "id": 13062478095, "lat": 48.9326418, "lon": 14.1852235}, {"type": "node", "id": 13062478096, "lat": 48.9326634, "lon": 14.1852376}, {"type": "node", "id": 13065522642, "lat": 48.9187608, "lon": 14.1318309}, {"type": "node", "id": 13065522643, "lat": 48.9187277, "lon": 14.1319036}, {"type": "node", "id": 13065522644, "lat": 48.9187172, "lon": 14.1318997}, {"type": "node", "id": 13065522645, "lat": 48.9187638, "lon": 14.131848}, {"type": "node", "id": 13065522646, "lat": 48.9187629, "lon": 14.1318656}, {"type": "node", "id": 13065522647, "lat": 48.918758, "lon": 14.1318817}, {"type": "node", "id": 13065522648, "lat": 48.9187498, "lon": 14.1318943}, {"type": "node", "id": 13065522649, "lat": 48.9187393, "lon": 14.1319019}, {"type": "node", "id": 13065522650, "lat": 48.9187081, "lon": 14.1318909}, {"type": "node", "id": 13065522651, "lat": 48.9187013, "lon": 14.1318782}, {"type": "node", "id": 13065522652, "lat": 48.9186974, "lon": 14.1318628}, {"type": "node", "id": 13065522653, "lat": 48.918697, "lon": 14.1318464}, {"type": "node", "id": 13065522654, "lat": 48.9187, "lon": 14.1318306}, {"type": "node", "id": 13065522655, "lat": 48.9187062, "lon": 14.1318171}, {"type": "node", "id": 13065522656, "lat": 48.9187148, "lon": 14.1318073}, {"type": "node", "id": 13065522657, "lat": 48.9187251, "lon": 14.1318021}, {"type": "node", "id": 13065522658, "lat": 48.9187359, "lon": 14.1318021}, {"type": "node", "id": 13065522659, "lat": 48.9187461, "lon": 14.1318074}, {"type": "node", "id": 13065522660, "lat": 48.9187547, "lon": 14.1318173}, {"type": "node", "id": 13069360797, "lat": 48.7691926, "lon": 14.1827312}, {"type": "node", "id": 13069360798, "lat": 48.7691535, "lon": 14.1826901}, {"type": "node", "id": 13069360799, "lat": 48.7691272, "lon": 14.1827474}, {"type": "node", "id": 13069360800, "lat": 48.7691663, "lon": 14.1827886}, {"type": "node", "id": 13069760662, "lat": 48.7680783, "lon": 14.0361355}, {"type": "node", "id": 13069760663, "lat": 48.7680525, "lon": 14.0361819}, {"type": "node", "id": 13069760664, "lat": 48.7680233, "lon": 14.0361444}, {"type": "node", "id": 13069760665, "lat": 48.7680491, "lon": 14.036098}, {"type": "node", "id": 13101614331, "lat": 48.7985577, "lon": 14.1477324}, {"type": "node", "id": 13101614332, "lat": 48.7985516, "lon": 14.1477907}, {"type": "node", "id": 13101614333, "lat": 48.7985299, "lon": 14.147784}, {"type": "node", "id": 13101614334, "lat": 48.7985362, "lon": 14.1477259}, {"type": "node", "id": 13101614335, "lat": 48.7987373, "lon": 14.1477549}, {"type": "node", "id": 13101614336, "lat": 48.7987307, "lon": 14.1478092}, {"type": "node", "id": 13101614337, "lat": 48.7987047, "lon": 14.1478018}, {"type": "node", "id": 13101614338, "lat": 48.7987113, "lon": 14.1477476}, {"type": "way", "id": 393313249, "nodes": [3965323960, 12062776002, 3965323961, 3965323959, 3965323958, 3965323960], "tags": {"amenity": "shelter", "building": "civic", "building:ruian:type": "15", "ref:ruian:building": "50080156", "source": "cuzk:ruian"}}, {"type": "way", "id": 576294807, "nodes": [5527678494, 5527678493, 5527678492, 5527678491, 5527678494], "tags": {"amenity": "shelter", "building": "yes", "shelter_type": "public_transport"}}, {"type": "way", "id": 846920763, "nodes": [7902912486, 7902912485, 7902898684, 7902898683, 7902912486], "tags": {"amenity": "shelter", "shelter_type": "public_transport"}}, {"type": "way", "id": 1084654384, "nodes": [9939330531, 9939330532, 9939330533, 9939330534, 9939330531], "tags": {"amenity": "shelter", "building": "yes"}}, {"type": "way", "id": 1126498343, "nodes": [10300722505, 10300722502, 10300722503, 12348931937, 10300722504, 10300722505], "tags": {"building": "yes", "contact:website": "https://www.vls.cz/cs/naucna-stezka-olsina/navstevnicke-stredisko", "information": "visitor_centre", "name": "N\u00e1v\u0161t\u011bvnick\u00e9 st\u0159edisko Ol\u0161ina", "name:de": "Besucherzentrum Ol\u0161ina", "name:en": "Visitors Center Ol\u0161ina", "roof:material": "plants", "tourism": "information"}}, {"type": "way", "id": 1185265184, "nodes": [11010118184, 11010118175, 11010118176, 11010118177, 11010118186, 11010118178, 11010118179, 11010118180, 11010118185, 11010118181, 11010118182, 11010118183, 11010118184], "tags": {"fee": "no", "man_made": "tower", "material": "metal", "name": "Rozhledna Dobr\u00e1 Voda", "tourism": "viewpoint", "tower:type": "observation"}}, {"type": "way", "id": 1298103598, "nodes": [12025810060, 12025810061, 12025810062, 12025810063, 12025810060], "tags": {"amenity": "shelter", "building": "yes", "shelter_type": "public_transport"}}, {"type": "way", "id": 1298103599, "nodes": [12025810064, 12025810065, 12025810066, 12025810067, 12025810064], "tags": {"amenity": "shelter", "building": "yes", "leisure": "picnic_site", "shelter_type": "picnic_shelter"}}, {"type": "way", "id": 1357138033, "nodes": [12560782894, 12560782895, 12560782896, 12560782897, 12560782894], "tags": {"amenity": "shelter", "building": "yes", "shelter_type": "public_transport"}}, {"type": "way", "id": 1357138055, "nodes": [12560804610, 12560804611, 12560804612, 12560804613, 12560804610], "tags": {"amenity": "shelter", "building": "yes", "shelter_type": "lean_to"}}, {"type": "way", "id": 1359893954, "nodes": [12588056954, 12588056955, 12588056956, 12588056957, 12588056954], "tags": {"amenity": "shelter", "building": "yes", "shelter_type": "picnic_shelter"}}, {"type": "way", "id": 1359893957, "nodes": [12588056961, 12588056962, 12588056963, 12588056964, 12588056961], "tags": {"amenity": "shelter", "building": "yes", "shelter_type": "public_transport"}}, {"type": "way", "id": 1365277290, "nodes": [12643059414, 12643059415, 12643059416, 12643059417, 12643059414], "tags": {"amenity": "shelter", "building": "roof", "shelter_type": "public_transport"}}, {"type": "way", "id": 1393538995, "nodes": [12899360900, 12899371701, 12899371702, 12899371703, 12899360900], "tags": {"amenity": "shelter", "building": "yes"}}, {"type": "way", "id": 1394126821, "nodes": [12905504189, 12905504190, 12905504191, 12905504192, 12905504193, 12905504194, 12905504195, 12905504196, 12905504189], "tags": {"amenity": "shelter", "building": "yes", "shelter_type": "gazebo"}}, {"type": "way", "id": 1395083839, "nodes": [12913445731, 12913445732, 12913445733, 12913445734, 12913445735, 12913445736, 12913445718, 12913445719, 12913445720, 12913445725, 12913445726, 12913445727, 12913445728, 12913445729, 12913445730, 12913445721, 12913445722, 12913445723, 12913445724, 12913445731], "tags": {"amenity": "shelter", "building": "yes", "shelter_type": "lean_to"}}, {"type": "way", "id": 1421410888, "nodes": [13062304235, 13062304236, 13062304237, 13062304238, 13062304235], "tags": {"amenity": "shelter", "building": "yes", "shelter_type": "public_transport"}}, {"type": "way", "id": 1421434223, "nodes": [13062478090, 13062478091, 13062478092, 13062478093, 13062478094, 13062478095, 13062478096, 13062478090], "tags": {"amenity": "shelter", "building": "yes", "shelter_type": "gazebo"}}, {"type": "way", "id": 1421766412, "nodes": [13065522650, 13065522651, 13065522652, 13065522653, 13065522654, 13065522655, 13065522656, 13065522657, 13065522658, 13065522659, 13065522660, 13065522642, 13065522645, 13065522646, 13065522647, 13065522648, 13065522649, 13065522643, 13065522644, 13065522650], "tags": {"amenity": "shelter", "building": "yes", "shelter_type": "gazebo"}}, {"type": "way", "id": 1422119397, "nodes": [13069360797, 13069360798, 13069360799, 13069360800, 13069360797], "tags": {"amenity": "shelter", "building": "yes", "shelter_type": "gazebo"}}, {"type": "way", "id": 1422163501, "nodes": [13069760662, 13069760663, 13069760664, 13069760665, 13069760662], "tags": {"amenity": "shelter", "building": "yes", "shelter_type": "gazebo"}}, {"type": "way", "id": 1425402321, "nodes": [13101614331, 13101614332, 13101614333, 13101614334, 13101614331], "tags": {"amenity": "shelter", "building": "yes", "shelter_type": "public_transport"}}, {"type": "way", "id": 1425402322, "nodes": [13101614335, 13101614336, 13101614337, 13101614338, 13101614335], "tags": {"amenity": "shelter", "building": "yes", "shelter_type": "public_transport"}}]}