{"version": 0.6, "generator": "Overpass API 0.7.62.8 e802775f", "osm3s": {"timestamp_osm_base": "2026-01-04T12:13:26Z", "copyright": "The data included in this document is from www.openstreetmap.org. The data is made available under ODbL."}, "elements": [{"type": "node", "id": 19763676, "lat": 48.7602886, "lon": 14.020976, "tags": {"amenity": "ferry_terminal", "cargo:bicycle": "yes", "cargo:motor_vehicle": "yes", "cargo:passengers": "yes", "cargo:vehicle": "yes", "ferry": "yes", "name": "Horn\u00ed Plan\u00e1 - p\u0159\u00edvoz", "public_transport": "station"}}, {"type": "node", "id": 19765760, "lat": 48.6594076, "lon": 14.1646469, "tags": {"amenity": "ferry_terminal", "cargo:bicycle": "permissive", "cargo:motor_vehicle": "no", "cargo:passengers": "yes", "ferry": "yes", "name": "Frymburk", "operator": "Rosenberger - Lipno - Line, spol s r.o.", "public_transport": "station", "website": "https://www.lipno-line.com/"}}, {"type": "node", "id": 19766429, "lat": 48.7577322, "lon": 14.0151424, "tags": {"amenity": "ferry_terminal", "cargo:bicycle": "yes", "cargo:motor_vehicle": "yes", "cargo:passengers": "yes", "cargo:vehicle": "yes", "ferry": "yes", "name": "Bli\u017e\u0161\u00ed Lhota", "operator": "Jiho\u010desk\u00e1 centr\u00e1la cestovn\u00edho ruchu", "public_transport": "station", "website": "https://www.vltava-river.com/"}}, {"type": "node", "id": 32463785, "lat": 48.8773025, "lon": 13.8615298, "tags": {"name": "Dobr\u00e1 na \u0160umav\u011b", "operator": "cz:S\u017dDC", "railway": "halt", "railway:ref": "739227", "wikidata": "Q19366341"}}, {"type": "node", "id": 32463980, "lat": 48.858939, "lon": 13.8207583, "tags": {"name": "Sto\u017eec", "name:de": "Tusset", "operator": "cz:S\u017dDC", "public_transport": "station", "railway": "station", "railway:ref": "739425", "train": "yes", "uic_ref": "5402937", "wikidata": "Q66888373"}}, {"type": "node", "id": 32464040, "lat": 48.9233412, "lon": 13.802662, "tags": {"name": "Lenora zast\u00e1vka", "operator": "cz:S\u017dDC", "railway": "halt", "railway:ref": "751529", "wikidata": "Q66888374"}}, {"type": "node", "id": 32466124, "lat": 48.8485328, "lon": 13.9107404, "tags": {"name": "P\u011bkn\u00e1", "railway": "halt", "train": "yes", "uic_ref": "5402336", "wikidata": "Q19401225"}}, {"type": "node", "id": 32466279, "lat": 48.8063096, "lon": 13.9387838, "tags": {"name": "Ovesn\u00e1", "railway": "halt", "train": "yes", "uic_ref": "5402308", "wikidata": "Q19401079"}}, {"type": "node", "id": 32466321, "lat": 48.7899423, "lon": 13.9534299, "tags": {"name": "Nov\u00e1 Pec", "name:de": "Neuofen", "operator": "cz:S\u017dDC", "public_transport": "station", "railway": "station", "railway:ref": "758920", "train": "yes", "uic_ref": "5402166", "wheelchair": "yes", "wikidata": "Q15886947"}}, {"type": "node", "id": 32521935, "lat": 48.6195418, "lon": 14.3216152, "tags": {"name": "T\u011bchoraz", "operator": "cz:S\u017dDC", "railway": "halt", "railway:position": "10.6", "railway:ref": "747626", "uic_ref": "5474762", "wikidata": "Q19401525"}}, {"type": "node", "id": 227233071, "lat": 48.7714983, "lon": 14.1828673, "tags": {"name": "Ho\u0159ice na \u0160umav\u011b", "name:cs": "Ho\u0159ice na \u0160umav\u011b", "name:de": "H\u00f6ritz", "operator": "cz:S\u017dDC", "public_transport": "station", "railway": "station", "railway:ref": "759720", "train": "yes", "uic_ref": "5401146", "wikidata": "Q15886817"}}, {"type": "node", "id": 227233394, "lat": 48.7986248, "lon": 14.1479491, "tags": {"alt_name:de": "Stein im B\u00f6hmerwalde", "name": "Poln\u00e1 na \u0160umav\u011b", "name:cs": "Poln\u00e1 na \u0160umav\u011b", "name:de": "Stein im B\u00f6hmerwald", "operator": "cz:S\u017dDC", "public_transport": "station", "railway": "station", "railway:ref": "759621", "train": "yes", "uic_ref": "5402442", "wikidata": "Q15886992"}}, {"type": "node", "id": 265561560, "lat": 48.6442784, "lon": 14.2861354, "tags": {"name": "\u010certova St\u011bna", "name:de": "Teufelswand", "operator": "cz:S\u017dDC", "railway": "halt", "railway:position": "14.8", "railway:ref": "747824", "uic_ref": "5474782", "wikidata": "Q19400498"}}, {"type": "node", "id": 265563377, "lat": 48.6340338, "lon": 14.2440397, "tags": {"name": "Lipno nad Vltavou", "name:cs": "Lipno nad Vltavou", "name:de": "Lippen", "name:pl": "Lipno nad We\u0142taw\u0105", "operator": "cz:S\u017dDC", "public_transport": "stop_position", "railway": "station", "railway:position": "22.0", "railway:ref": "748129", "train": "yes", "uic_ref": "5474812", "wikidata": "Q17749936"}}, {"type": "node", "id": 265563389, "lat": 48.6244369, "lon": 14.2453118, "tags": {"name": "Lou\u010dovice zast\u00e1vka", "operator": "cz:S\u017dDC", "railway": "halt", "railway:position": "20.7", "railway:ref": "748020", "uic_ref": "5474802", "wikidata": "Q18180387"}}, {"type": "node", "id": 282348962, "lat": 48.6365628, "lon": 13.9754309, "tags": {"name": "Schl\u00e4gl", "operator": "\u00d6BB", "public_transport": "stop_position", "railway": "halt", "railway:ref": "Oep H1", "uic_ref": "8101516", "wikidata": "Q111267187"}}, {"type": "node", "id": 295752029, "lat": 48.7367959, "lon": 14.0980834, "tags": {"amenity": "ferry_terminal", "cargo:bicycle": "yes", "cargo:motor_vehicle": "no", "cargo:passengers": "yes", "ferry": "yes", "name": "\u010cern\u00e1 v Po\u0161umav\u00ed", "operator": "Rosenberger - Lipno - Line, spol s r.o.", "phone": "+420602403364", "public_transport": "station", "website": "https://www.lipno-line.com/"}}, {"type": "node", "id": 295786033, "lat": 48.7835295, "lon": 13.9866681, "tags": {"name": "Pernek-Hory", "railway": "halt", "wikidata": "Q56325048"}}, {"type": "node", "id": 306856825, "lat": 48.9260301, "lon": 13.9694656, "tags": {"name": "Sp\u00e1lenec", "railway": "halt", "wikidata": "Q19401443"}}, {"type": "node", "id": 314063219, "lat": 48.865751, "lon": 14.2834918, "tags": {"aerialway": "yes", "name": "Kle\u0165", "public_transport": "stop_position"}}, {"type": "node", "id": 314064763, "lat": 48.8932025, "lon": 14.3245875, "tags": {"name": "Holubov", "name:de": "Adolfsthal", "operator": "cz:S\u017dDC", "railway": "halt", "railway:ref": "760520", "wikidata": "Q18817196"}}, {"type": "node", "id": 331305303, "lat": 48.7369135, "lon": 13.9204746, "tags": {"aerialway": "station", "public_transport": "station"}}, {"type": "node", "id": 331305348, "lat": 48.7339383, "lon": 13.8555377, "tags": {"aerialway": "station", "public_transport": "station"}}, {"type": "node", "id": 343630160, "lat": 48.8295879, "lon": 13.794186, "tags": {"name": "Nov\u00e9 \u00dadol\u00ed", "operator": "cz:S\u017dDC", "public_transport": "station", "railway": "station", "railway:ref": "739524", "ref": "GW 81xx", "ref_name": "Nove Udoli", "train": "yes", "uic_ref": "5402195", "wikidata": "Q66888444", "wikipedia": "cs:Nov\u00e9 \u00dadol\u00ed (n\u00e1dra\u017e\u00ed)"}}, {"type": "node", "id": 514661246, "lat": 48.813015, "lon": 14.2654059, "tags": {"name": "K\u00e1jov", "name:cs": "K\u00e1jov", "name:de": "Gojau", "operator": "cz:S\u017dDC", "public_transport": "station", "railway": "station", "railway:ref": "759928", "train": "yes", "uic_ref": "5401411", "wikidata": "Q15886889"}}, {"type": "node", "id": 650356773, "lat": 48.7427481, "lon": 14.0868927, "tags": {"name": "\u010cern\u00e1 v\u00a0Po\u0161umav\u00ed", "operator": "cz:S\u017dDC", "public_transport": "station", "railway": "station", "railway:ref": "759225", "train": "yes", "uic_ref": "5400722"}}, {"type": "node", "id": 836915172, "lat": 48.8117719, "lon": 14.3227752, "tags": {"amenity": "bus_station", "bus": "yes", "departures_board": "realtime", "departures_board:speech_output": "no", "name": "\u010cesk\u00fd Krumlov, autobusov\u00e9 n\u00e1dra\u017e\u00ed", "name:en": "Cesky Krumlov, Bus Station", "name:ko": "AN\ud130\ubbf8\ub110", "public_transport": "station", "wheelchair": "yes", "wikidata": "Q67180286", "wikipedia": "cs:Autobusov\u00e9 n\u00e1dra\u017e\u00ed \u010cesk\u00fd Krumlov"}}, {"type": "node", "id": 959813947, "lat": 48.799448, "lon": 14.1203253, "tags": {"name": "Pole\u010dnice", "name:cs": "Pole\u010dnice", "name:de": "Neustift", "operator": "cz:S\u017dDC", "public_transport": "station", "railway": "station", "railway:ref": "759522", "train": "yes", "uic_ref": "5402434", "wikidata": "Q15886990"}}, {"type": "node", "id": 959813962, "lat": 48.7788505, "lon": 14.1042533, "tags": {"name": "Hod\u0148ov", "operator": "cz:S\u017dDC", "railway": "halt", "railway:ref": "759423", "wikidata": "Q19400686"}}, {"type": "node", "id": 959813966, "lat": 48.7638373, "lon": 14.1009378, "tags": {"name": "\u017dl\u00e1bek", "operator": "cz:S\u017dDC", "railway": "halt", "railway:ref": "759324", "wikidata": "Q19401729"}}, {"type": "node", "id": 959813981, "lat": 48.7887112, "lon": 14.240416, "tags": {"name": "Mezipoto\u010d\u00ed", "operator": "cz:S\u017dDC", "railway": "halt", "railway:ref": "759829", "wikidata": "Q19400962"}}, {"type": "node", "id": 959813994, "lat": 48.7521847, "lon": 14.0441391, "tags": {"name": "Horn\u00ed Plan\u00e1 zast\u00e1vka", "operator": "cz:S\u017dDC", "railway": "halt", "railway:ref": "758623", "wikidata": "Q19061177"}}, {"type": "node", "id": 974438835, "lat": 48.8658672, "lon": 14.2835822}, {"type": "node", "id": 974438849, "lat": 48.8657304, "lon": 14.2835275}, {"type": "node", "id": 974438855, "lat": 48.8658131, "lon": 14.2833842}, {"type": "node", "id": 974438868, "lat": 48.8658232, "lon": 14.2836505}, {"type": "node", "id": 974438898, "lat": 48.8658803, "lon": 14.2834693}, {"type": "node", "id": 974438909, "lat": 48.865801, "lon": 14.283621}, {"type": "node", "id": 974438926, "lat": 48.8658379, "lon": 14.2835437}, {"type": "node", "id": 974438938, "lat": 48.8657815, "lon": 14.2836548}, {"type": "node", "id": 1109448963, "lat": 48.7369237, "lon": 13.9205157}, {"type": "node", "id": 1109449456, "lat": 48.7369131, "lon": 13.9205187}, {"type": "node", "id": 1744017324, "lat": 48.9079788, "lon": 13.8291485, "tags": {"name": "Soumarsk\u00fd Most", "name:cs": "Soumarsk\u00fd Most", "name:de": "Soumarsk\u00fd Most", "operator": "cz:S\u017dDC", "public_transport": "stop_position", "railway": "halt", "railway:ref": "752121", "request_stop": "yes", "train": "yes", "wikidata": "Q66888478"}}, {"type": "node", "id": 2062382482, "lat": 48.6333396, "lon": 14.1722705, "tags": {"amenity": "ferry_terminal", "cargo:bicycle": "yes", "cargo:motor_vehicle": "no", "cargo:passengers": "yes", "cargo:vehicle": "no", "ferry": "yes", "name": "P\u0159edn\u00ed V\u00fdto\u0148", "operator": "Rosenberger - Lipno - Line, spol s r.o.", "phone": "+420602403364", "public_transport": "station", "website": "https://www.lipno-line.com/"}}, {"type": "node", "id": 2062382523, "lat": 48.6352658, "lon": 14.2250108, "tags": {"amenity": "ferry_terminal", "cargo:bicycle": "yes", "cargo:motor_vehicle": "no", "cargo:passengers": "yes", "cargo:vehicle": "no", "ferry": "yes", "name": "Lipno nad Vltavou", "operator": "Rosenberger - Lipno - Line, spol s r.o.", "phone": "+420602403364", "public_transport": "station", "website": "https://www.lipno-line.com/"}}, {"type": "node", "id": 2062385637, "lat": 48.6970183, "lon": 14.0742166, "tags": {"amenity": "ferry_terminal", "cargo:bicycle": "yes", "cargo:motor_vehicle": "no", "cargo:passengers": "yes", "cargo:vehicle": "no", "ferry": "yes", "name": "Doln\u00ed Vltavice", "operator": "Rosenberger - Lipno - Line, spol s r.o.", "phone": "+420602403364", "public_transport": "station", "website": "https://www.lipno-line.com/"}}, {"type": "node", "id": 2062385641, "lat": 48.7596566, "lon": 14.0207375, "tags": {"amenity": "ferry_terminal", "cargo:bicycle": "yes", "cargo:motor_vehicle": "no", "cargo:passengers": "yes", "ferry": "yes", "name": "Horn\u00ed Plan\u00e1", "operator": "Rosenberger - Lipno - Line, spol s r.o.", "phone": "+420602403364", "public_transport": "station", "website": "https://www.lipno-line.com/"}}, {"type": "node", "id": 2590610679, "lat": 48.7367874, "lon": 13.8708623, "tags": {"aerialway": "station", "public_transport": "station"}}, {"type": "node", "id": 2590610684, "lat": 48.7384332, "lon": 13.8858481, "tags": {"aerialway": "station", "public_transport": "station"}}, {"type": "node", "id": 3282887061, "lat": 48.6237255, "lon": 14.3088037, "tags": {"name": "Vy\u0161\u0161\u00ed Brod kl\u00e1\u0161ter", "public_transport": "station", "railway": "station", "railway:position": "11.8", "railway:ref": "747725", "uic_ref": "5474772", "wikidata": "Q17750061"}}, {"type": "node", "id": 4202133891, "lat": 48.937152, "lon": 13.9769518, "tags": {"name": "Zbytiny", "railway": "station", "wikidata": "Q25411931"}}, {"type": "node", "id": 4294224867, "lat": 48.8223895, "lon": 14.3170566, "tags": {"ele": "542", "name": "\u010cesk\u00fd Krumlov", "name:de": "Krumau", "operator": "cz:S\u017dDC", "public_transport": "station", "railway": "station", "railway:ref": "760025", "start_date": "1891-11-19", "train": "yes", "uic_ref": "5476002", "wheelchair": "yes", "wikidata": "Q15887199", "wikipedia": "cs:\u010cesk\u00fd Krumlov (n\u00e1dra\u017e\u00ed)"}}, {"type": "node", "id": 4347773289, "lat": 48.7381011, "lon": 14.1091777, "tags": {"amenity": "bus_station", "bus": "yes", "name": "\u010cern\u00e1 v Po\u0161umav\u00ed", "operator": "\u010cSAD Autobusy \u010cesk\u00e9 Bud\u011bjovice a.s.", "public_transport": "station", "wheelchair": "limited"}}, {"type": "node", "id": 4460677238, "lat": 48.8285324, "lon": 13.7923659, "tags": {"name": "Haidm\u00fchle celnice", "name:de": "Haidm\u00fchle Zoll", "public_transport": "stop_position", "railway": "halt", "train": "yes"}}, {"type": "node", "id": 4460677239, "lat": 48.8287631, "lon": 13.7931301, "tags": {"name": "PJD Nov\u00e9 \u00dadol\u00ed", "public_transport": "stop_position", "railway": "halt", "train": "yes"}}, {"type": "node", "id": 4460677240, "lat": 48.828657, "lon": 13.7927612, "tags": {"name": "U B\u0159\u00edzy", "public_transport": "stop_position", "railway": "halt", "train": "yes"}}, {"type": "node", "id": 4614833927, "lat": 48.6206353, "lon": 14.2565624, "tags": {"name": "Lou\u010dovice", "operator": "cz:S\u017dDC", "public_transport": "station", "railway": "station", "railway:position": "19.1", "railway:ref": "747923", "uic_ref": "5474792", "wikidata": "Q18180386"}}, {"type": "node", "id": 4729642311, "lat": 48.8279268, "lon": 14.3347904, "tags": {"name": "Domoradice", "operator": "cz:S\u017dDC", "railway": "halt", "railway:ref": "770123", "wikidata": "Q18424238", "wikimedia_commons": "File:Domoradice \u017eelezni\u010dn\u00ed zast\u00e1vka 2015.JPG", "wikipedia": "pl:Domoradice (przystanek kolejowy)"}}, {"type": "node", "id": 4771968003, "lat": 48.8657557, "lon": 14.2835611}, {"type": "node", "id": 4771968004, "lat": 48.8657363, "lon": 14.2835946}, {"type": "node", "id": 4771968005, "lat": 48.8658213, "lon": 14.2836538}, {"type": "node", "id": 4771968006, "lat": 48.8658239, "lon": 14.2836573}, {"type": "node", "id": 4771968007, "lat": 48.865865, "lon": 14.2835792}, {"type": "node", "id": 4771968008, "lat": 48.8658631, "lon": 14.2835825}, {"type": "node", "id": 5002931952, "lat": 48.7363337, "lon": 13.8994281, "tags": {"aerialway": "station", "public_transport": "station"}}, {"type": "node", "id": 5002936821, "lat": 48.7366164, "lon": 13.8697639, "tags": {"aerialway": "station", "public_transport": "station"}}, {"type": "node", "id": 5179275090, "lat": 48.634445, "lon": 14.231739, "tags": {"abandoned": "yes", "alt_name": "Lippnerschwebe", "name": "Lipno", "public_transport": "station"}}, {"type": "node", "id": 5685644781, "lat": 48.7649428, "lon": 14.0263277, "tags": {"name": "Horn\u00ed Plan\u00e1", "name:cs": "Horn\u00ed Plan\u00e1", "name:de": "Oberplan", "operator": "cz:S\u017dDC", "public_transport": "station", "railway": "station", "railway:ref": "759126", "train": "yes", "uic_ref": "5401119", "wikidata": "Q15886812"}}, {"type": "node", "id": 5685644782, "lat": 48.8606661, "lon": 13.8607311, "tags": {"name": "\u010cern\u00fd K\u0159\u00ed\u017e", "name:cs": "\u010cern\u00fd K\u0159\u00ed\u017e", "name:de": "Schwarzes Kreuz", "old_name": "U \u010dern\u00e9ho k\u0159\u00ed\u017ee", "operator": "cz:S\u017dDC", "public_transport": "station", "railway": "station", "railway:ref": "739326", "wikidata": "Q66829156"}}, {"type": "node", "id": 5685644783, "lat": 48.9071353, "lon": 13.8834614, "tags": {"name": "Volary", "name:de": "Wallern", "operator": "cz:S\u017dDC", "public_transport": "station", "railway": "station", "railway:ref": "739128", "wikidata": "Q18180598", "wikipedia": "cs:Volary (n\u00e1dra\u017e\u00ed)"}}, {"type": "node", "id": 5685644784, "lat": 48.9283914, "lon": 13.7969138, "tags": {"name": "Lenora", "old_name": "Eleonorenhain", "operator": "cz:S\u017dDC", "public_transport": "station", "railway": "station", "railway:ref": "752022", "wikidata": "Q66888487"}}, {"type": "node", "id": 6189371584, "lat": 48.742068, "lon": 13.8971948}, {"type": "node", "id": 6189372585, "lat": 48.7418592, "lon": 13.8969688}, {"type": "node", "id": 6189372587, "lat": 48.7416669, "lon": 13.8970716}, {"type": "node", "id": 6189372588, "lat": 48.7416945, "lon": 13.8971798}, {"type": "node", "id": 6189372589, "lat": 48.7418596, "lon": 13.8970959}, {"type": "node", "id": 6189372590, "lat": 48.7420243, "lon": 13.8972539}, {"type": "node", "id": 6189372591, "lat": 48.7420456, "lon": 13.8972453}, {"type": "node", "id": 6189372600, "lat": 48.7381447, "lon": 13.8990562}, {"type": "node", "id": 6189372601, "lat": 48.7381275, "lon": 13.898977}, {"type": "node", "id": 6189372602, "lat": 48.7382456, "lon": 13.8989181}, {"type": "node", "id": 6189372603, "lat": 48.7382217, "lon": 13.898808}, {"type": "node", "id": 6189372604, "lat": 48.7380994, "lon": 13.898869}, {"type": "node", "id": 6189372605, "lat": 48.7380917, "lon": 13.8988339}, {"type": "node", "id": 6189372606, "lat": 48.7380287, "lon": 13.8988654}, {"type": "node", "id": 6189372607, "lat": 48.7380081, "lon": 13.8987703}, {"type": "node", "id": 6189372608, "lat": 48.7379597, "lon": 13.8987945}, {"type": "node", "id": 6189372609, "lat": 48.7380291, "lon": 13.8991139}, {"type": "node", "id": 6189372613, "lat": 48.7491867, "lon": 13.9050999}, {"type": "node", "id": 6824901325, "lat": 48.9046346, "lon": 14.3313357, "tags": {"name": "K\u0159em\u017ee", "operator": "cz:S\u017dDC", "railway": "station", "railway:ref": "760629", "wheelchair": "yes", "wikidata": "Q15886891"}}, {"type": "node", "id": 9492360623, "lat": 48.8658368, "lon": 14.2836349}, {"type": "node", "id": 9553101029, "lat": 48.7492095, "lon": 13.9050107}, {"type": "node", "id": 9553101030, "lat": 48.7492123, "lon": 13.9050448}, {"type": "node", "id": 9553101031, "lat": 48.7491632, "lon": 13.9051037}, {"type": "node", "id": 9553101032, "lat": 48.749175, "lon": 13.9051079}, {"type": "node", "id": 9553101033, "lat": 48.7492138, "lon": 13.9050251}, {"type": "node", "id": 9553101053, "lat": 48.7416606, "lon": 13.8970904}, {"type": "node", "id": 9553101054, "lat": 48.7416775, "lon": 13.8971704}, {"type": "node", "id": 9553101055, "lat": 48.7418689, "lon": 13.8970949}, {"type": "node", "id": 9553101056, "lat": 48.741878, "lon": 13.897099}, {"type": "node", "id": 9553101057, "lat": 48.7420355, "lon": 13.8972544}, {"type": "node", "id": 9553101058, "lat": 48.7420597, "lon": 13.8971512}, {"type": "node", "id": 9553101059, "lat": 48.7420693, "lon": 13.8971712}, {"type": "node", "id": 9553101060, "lat": 48.7419, "lon": 13.8969744}, {"type": "node", "id": 9553101061, "lat": 48.7418751, "lon": 13.8969657}, {"type": "node", "id": 9553101062, "lat": 48.741887, "lon": 13.8969692}, {"type": "node", "id": 9553116420, "lat": 48.7368812, "lon": 13.9204741}, {"type": "node", "id": 9553116421, "lat": 48.7368833, "lon": 13.9204882}, {"type": "node", "id": 9553116422, "lat": 48.7368881, "lon": 13.9205007}, {"type": "node", "id": 9553116423, "lat": 48.7368951, "lon": 13.9205105}, {"type": "node", "id": 9553116424, "lat": 48.7369037, "lon": 13.9205167}, {"type": "node", "id": 9553116425, "lat": 48.736933, "lon": 13.9205074}, {"type": "node", "id": 9553116426, "lat": 48.7369399, "lon": 13.9204949}, {"type": "node", "id": 9553116427, "lat": 48.7369437, "lon": 13.9204796}, {"type": "node", "id": 9553116428, "lat": 48.7369387, "lon": 13.9202528}, {"type": "node", "id": 9553116429, "lat": 48.7368767, "lon": 13.9202558}, {"type": "node", "id": 9695992880, "lat": 48.74916, "lon": 13.9049569}, {"type": "node", "id": 9695992881, "lat": 48.7490602, "lon": 13.9048483}, {"type": "node", "id": 9695992882, "lat": 48.7490443, "lon": 13.9048453}, {"type": "node", "id": 9695992883, "lat": 48.7490319, "lon": 13.9048563}, {"type": "node", "id": 9695992884, "lat": 48.749011, "lon": 13.9049061}, {"type": "node", "id": 9695992885, "lat": 48.7490094, "lon": 13.9049254}, {"type": "node", "id": 9695992886, "lat": 48.7490153, "lon": 13.904943}, {"type": "node", "id": 9695992887, "lat": 48.7491164, "lon": 13.9050528}, {"type": "node", "id": 11027288875, "lat": 48.8264569, "lon": 13.7741682, "tags": {"disused": "station", "disused:railway": "station", "name": "Haidm\u00fchle", "public_transport": "station", "railway": "disused_station", "railway:ref": "NHAI", "wikidata": "Q108416129"}}, {"type": "node", "id": 11143532643, "lat": 48.7506778, "lon": 13.7441489, "tags": {"disused": "station", "disused:railway": "station", "name": "Neureichenau", "public_transport": "station", "railway": "disused_station", "wikidata": "Q108416000"}}, {"type": "node", "id": 11143548826, "lat": 48.7446584, "lon": 13.7156101, "tags": {"disused": "halt", "disused:railway": "halt", "name": "Spitzenberg", "public_transport": "station", "railway": "disused_halt", "wikidata": "Q108415974"}}, {"type": "node", "id": 11143571001, "lat": 48.79313, "lon": 13.7585171, "tags": {"disused": "station", "disused:railway": "station", "name": "Frauenberg (Niederbay)", "public_transport": "station", "railway": "disused_station", "wikidata": "Q108416111"}}, {"type": "node", "id": 11143591551, "lat": 48.7756738, "lon": 13.7352411, "tags": {"disused": "halt", "disused:railway": "halt", "name": "Altreichenau", "public_transport": "station", "railway": "disused_halt", "wikidata": "Q108416046"}}, {"type": "node", "id": 11811973007, "lat": 48.8657352, "lon": 14.2835339}, {"type": "node", "id": 11922128816, "lat": 48.642321, "lon": 13.975268, "tags": {"bus": "yes", "name": "Aigen-Schl\u00e4gl", "public_transport": "station", "railway": "station", "railway:ref": "Ai", "train": "yes", "uic_name": "Aigen-Schl\u00e4gl", "uic_ref": "8100208", "wikidata": "Q111167722"}}, {"type": "way", "id": 83686487, "nodes": [974438898, 974438926, 4771968008, 4771968007, 974438835, 9492360623, 4771968006, 4771968005, 974438868, 974438909, 974438938, 4771968004, 4771968003, 11811973007, 974438849, 314063219, 974438855, 974438898], "tags": {"aerialway": "station", "building": "civic", "building:ruian:type": "15", "name": "Horn\u00ed stanice lanovky", "public_transport": "station", "ref:ruian:building": "48374865", "source": "cuzk:ruian"}}, {"type": "way", "id": 95697224, "nodes": [9553116425, 9553116426, 9553116427, 9553116428, 9553116429, 9553116420, 9553116421, 9553116422, 9553116423, 9553116424, 1109449456, 1109448963, 9553116425], "tags": {"aerialway": "station", "building": "yes", "name": "Bergstation Hochfichtbahn", "public_transport": "station", "source": "GeoImage.at"}}, {"type": "way", "id": 661096819, "nodes": [6189372591, 9553101057, 6189372590, 9553101056, 9553101055, 6189372589, 6189372588, 9553101054, 9553101053, 6189372587, 6189372585, 9553101061, 9553101062, 9553101060, 9553101058, 9553101059, 6189371584, 6189372591], "tags": {"aerialway": "station", "building": "yes", "name": "Mittelstation Reischlbergbahn", "public_transport": "station", "source": "basemap.at Orthofoto"}}, {"type": "way", "id": 661096820, "nodes": [6189372609, 6189372608, 6189372607, 6189372606, 6189372605, 6189372604, 6189372603, 6189372602, 6189372601, 6189372600, 6189372609], "tags": {"aerialway": "station", "building": "yes", "name": "Talstation Reischlbergbahn", "public_transport": "station", "source": "basemap.at Orthofoto"}}, {"type": "way", "id": 661096821, "nodes": [6189372613, 9553101032, 9553101031, 9695992887, 9695992886, 9695992885, 9695992884, 9695992883, 9695992882, 9695992881, 9695992880, 9553101029, 9553101033, 9553101030, 6189372613], "tags": {"aerialway": "station", "building": "yes", "name": "Bergstation Reischlbergbahn", "public_transport": "station", "source": "basemap.at Orthofoto"}}]}