{"version": 0.6, "generator": "Overpass API 0.7.62.8 e802775f", "osm3s": {"timestamp_osm_base": "2026-01-05T16:36:15Z", "copyright": "The data included in this document is from www.openstreetmap.org. The data is made available under ODbL."}, "elements": [{"type": "node", "id": 311042525, "lat": 49.3098107, "lon": 14.1448874}, {"type": "node", "id": 311042636, "lat": 49.308205, "lon": 14.1434874}, {"type": "node", "id": 311049485, "lat": 49.3098875, "lon": 14.1485924}, {"type": "node", "id": 311049489, "lat": 49.3098918, "lon": 14.1486424}, {"type": "node", "id": 311049492, "lat": 49.3098677, "lon": 14.1486758}, {"type": "node", "id": 311049494, "lat": 49.3098264, "lon": 14.1486439}, {"type": "node", "id": 311049499, "lat": 49.3098294, "lon": 14.1485945}, {"type": "node", "id": 311049504, "lat": 49.3098581, "lon": 14.1485698}, {"type": "node", "id": 313509479, "lat": 49.308763, "lon": 14.1465804}, {"type": "node", "id": 313509496, "lat": 49.3089542, "lon": 14.1464132}, {"type": "node", "id": 313509583, "lat": 49.3087561, "lon": 14.1463806}, {"type": "node", "id": 313509584, "lat": 49.3087985, "lon": 14.1465802}, {"type": "node", "id": 313509585, "lat": 49.3089359, "lon": 14.1466079}, {"type": "node", "id": 314427190, "lat": 49.308755, "lon": 14.1463946}, {"type": "node", "id": 314427192, "lat": 49.3088255, "lon": 14.1463926}, {"type": "node", "id": 314427193, "lat": 49.3088965, "lon": 14.1464036}, {"type": "node", "id": 314427194, "lat": 49.308899, "lon": 14.1463692}, {"type": "node", "id": 314427201, "lat": 49.3088847, "lon": 14.146367}, {"type": "node", "id": 314427204, "lat": 49.3088821, "lon": 14.1464012}, {"type": "node", "id": 314427205, "lat": 49.3088281, "lon": 14.1463579}, {"type": "node", "id": 314427206, "lat": 49.3088415, "lon": 14.1463601}, {"type": "node", "id": 314427208, "lat": 49.3088391, "lon": 14.1463946}, {"type": "node", "id": 314427215, "lat": 49.3087658, "lon": 14.1463961}, {"type": "node", "id": 315063026, "lat": 49.3098847, "lon": 14.1463323}, {"type": "node", "id": 441383900, "lat": 49.307849, "lon": 14.1863537, "tags": {"amenity": "shelter"}}, {"type": "node", "id": 441383901, "lat": 49.3079944, "lon": 14.192456, "tags": {"height": "60", "man_made": "tower", "name": "Rozhledna Jarn\u00edk", "tourism": "viewpoint", "tower:construction": "lattice", "tower:type": "communication,_observation", "wikidata": "Q780399", "wikipedia": "cs:Rozhledna Jarn\u00edk"}}, {"type": "node", "id": 441399187, "lat": 49.1574305, "lon": 14.1914371, "tags": {"name": "Kulova\u0165\u00e1k", "natural": "peak"}}, {"type": "node", "id": 451720118, "lat": 49.3082545, "lon": 14.1466042, "tags": {"email": "infocentrum@pisek.eu", "information": "office", "name": "Infocentrum P\u00edsek", "opening_hours": "Sep-Jun Mo-Su 09:00-17:00; Jul-Aug Mo-Su 09:00-18:00", "phone": "+420 387 999 999", "tourism": "information"}}, {"type": "node", "id": 451724399, "lat": 49.3090469, "lon": 14.1476281, "tags": {"description": "city map with sightseeing informations", "information": "map", "tourism": "information"}}, {"type": "node", "id": 451724400, "lat": 49.3098011, "lon": 14.1465113, "tags": {"description": "city map with sightseeing informations", "information": "map", "tourism": "information"}}, {"type": "node", "id": 568388491, "lat": 49.264826, "lon": 14.1196604, "tags": {"description": "Vesnick\u00e1 pam\u00e1tkov\u00e1 z\u00f3na, Kostel sv. Vav\u0159ince", "ele": "386", "hiking": "yes", "information": "guidepost", "name": "Putim", "operator": "cz:K\u010cT", "ref": "PI229", "tourism": "information"}}, {"type": "node", "id": 568399612, "lat": 49.3097396, "lon": 14.1484679, "tags": {"description": "V\u00fdchodi\u0161t\u011b tur. zna\u010d. tras", "ele": "373", "hiking": "yes", "information": "guidepost", "name": "P\u00edsek (Palack\u00e9ho sady)", "operator": "cz:K\u010cT", "ref": "PI117", "tourism": "information"}}, {"type": "node", "id": 925205703, "lat": 49.3238541, "lon": 14.1537631, "tags": {"hiking": "yes", "information": "guidepost", "name": "U Hesouna", "tourism": "information"}}, {"type": "node", "id": 1350629794, "lat": 49.3061781, "lon": 14.1481962, "tags": {"board_type": "history", "check_date": "2021-11-30", "information": "board", "tourism": "information"}}, {"type": "node", "id": 1350629795, "lat": 49.3062484, "lon": 14.1485825, "tags": {"board_type": "history", "check_date": "2022-09-06", "information": "board", "tourism": "information"}}, {"type": "node", "id": 1350629800, "lat": 49.3062659, "lon": 14.1484208, "tags": {"board_type": "history", "information": "board", "tourism": "information"}}, {"type": "node", "id": 1350629801, "lat": 49.3060551, "lon": 14.1496156, "tags": {"board_type": "history", "information": "board", "tourism": "information"}}, {"type": "node", "id": 1351439275, "lat": 49.3080031, "lon": 14.1923385, "tags": {"check_date": "2025-07-06", "information": "board", "tourism": "information"}}, {"type": "node", "id": 1632822422, "lat": 49.317708, "lon": 14.1501741, "tags": {"ele": "359", "hiking": "yes", "information": "guidepost", "name": "P\u00edsek Jir\u00e1sk\u016fv most", "operator": "cz:K\u010cT", "ref": "PI118", "tourism": "information"}}, {"type": "node", "id": 1636606500, "lat": 49.3098223, "lon": 14.1746392, "tags": {"ele": "450", "hiking": "yes", "information": "guidepost", "name": "U Vod\u00e1ka", "operator": "cz:K\u010cT", "ref": "PI169", "tourism": "information"}}, {"type": "node", "id": 1640489507, "lat": 49.309686, "lon": 14.1655081, "tags": {"ele": "435", "hiking": "yes", "information": "guidepost", "name": "Na Trub\u00e1ch", "operator": "cz:K\u010cT", "ref": "PI168", "tourism": "information"}}, {"type": "node", "id": 1640514287, "lat": 49.3150784, "lon": 14.1759666, "tags": {"ele": "572", "hiking": "yes", "information": "guidepost", "name": "U Honz\u00ed\u010dka", "operator": "cz:K\u010cT", "ref": "PI265", "tourism": "information"}}, {"type": "node", "id": 1645576681, "lat": 49.2768371, "lon": 14.0899416, "tags": {"name": "Soustava 420", "natural": "peak"}}, {"type": "node", "id": 1664398718, "lat": 49.3080911, "lon": 14.1921531, "tags": {"ele": "610", "hiking": "yes", "information": "guidepost", "name": "Jarn\u00edk (rozhledna)", "operator": "cz:K\u010cT", "ref": "PI340", "tourism": "information"}}, {"type": "node", "id": 1664398740, "lat": 49.3080904, "lon": 14.1912976, "tags": {"ele": "610", "hiking": "yes", "information": "guidepost", "name": "Jarn\u00edk", "operator": "cz:K\u010cT", "ref": "PI340", "tourism": "information"}}, {"type": "node", "id": 1675816357, "lat": 49.3500303, "lon": 14.1459962, "tags": {"ele": "350", "hiking": "yes", "information": "guidepost", "name": "Plynov\u00e1 l\u00e1vka (prav\u00fd b\u0159eh)", "operator": "cz:K\u010cT", "ref": "PI396", "tourism": "information"}}, {"type": "node", "id": 1675816362, "lat": 49.3499588, "lon": 14.1437458, "tags": {"ele": "352", "hiking": "yes", "information": "guidepost", "name": "Plynov\u00e1 l\u00e1vka", "operator": "cz:K\u010cT", "ref": "PI119", "tourism": "information"}}, {"type": "node", "id": 1675816386, "lat": 49.3367198, "lon": 14.1594426, "tags": {"ele": "410", "hiking": "yes", "information": "guidepost", "name": "Pod Bohuslavcem", "operator": "cz:K\u010cT", "ref": "PI455", "tourism": "information"}}, {"type": "node", "id": 1701696358, "lat": 49.3144626, "lon": 14.1953243, "tags": {"ele": "580", "hiking": "yes", "information": "guidepost", "name": "Nad Provazci", "operator": "cz:K\u010cT", "ref": "PI266", "tourism": "information"}}, {"type": "node", "id": 1701696366, "lat": 49.3111572, "lon": 14.1939752, "tags": {"hiking": "yes", "information": "guidepost", "name": "V \u017divci (t\u00e9\u017e U Obr\u00e1zku)", "operator": "cz:K\u010cT", "tourism": "information"}}, {"type": "node", "id": 1701737162, "lat": 49.3291083, "lon": 14.1965074, "tags": {"ele": "480", "hiking": "yes", "information": "guidepost", "name": "Doln\u00ed Novosedly", "operator": "cz:K\u010cT", "ref": "PI314", "tourism": "information"}}, {"type": "node", "id": 1701737163, "lat": 49.3221807, "lon": 14.1945554, "tags": {"hiking": "yes", "information": "guidepost", "name": "Horn\u00ed Novosedly", "tourism": "information"}}, {"type": "node", "id": 1701737164, "lat": 49.3312744, "lon": 14.1792291, "tags": {"ele": "475", "hiking": "yes", "information": "guidepost", "name": "Nad Brlo\u017enic\u00ed (rozcest\u00ed)", "operator": "cz:K\u010cT", "ref": "PI428", "tourism": "information"}}, {"type": "node", "id": 1701737165, "lat": 49.338233, "lon": 14.1696955, "tags": {"ele": "480", "hiking": "yes", "information": "guidepost", "name": "Pod S\u00fdkorkou (rozcest\u00ed)", "operator": "cz:K\u010cT", "ref": "PI429", "tourism": "information"}}, {"type": "node", "id": 1746440017, "lat": 49.2418646, "lon": 14.0622975, "tags": {"description": "Socha dle n\u00e1vrhu J. Kodeta z r. 1920", "ele": "386", "hiking": "yes", "information": "guidepost", "name": "\u017di\u017ekova mohyla", "operator": "cz:K\u010cT", "ref": "PI064", "tourism": "information"}}, {"type": "node", "id": 1747850742, "lat": 49.3160063, "lon": 14.1675689, "tags": {"ele": "450", "hiking": "yes", "information": "guidepost", "name": "Lesn\u00ed H\u0159bitov", "operator": "cz:K\u010cT", "ref": "PI154", "tourism": "information"}}, {"type": "node", "id": 1747850745, "lat": 49.3205852, "lon": 14.1723535, "tags": {"ele": "450", "hiking": "yes", "information": "guidepost", "name": "Na Pt\u00e1\u010dkovn\u011b (hotel)", "operator": "cz:K\u010cT", "ref": "PI155", "tourism": "information"}}, {"type": "node", "id": 1849859943, "lat": 49.3056924, "lon": 14.1436218, "tags": {"ele": "354", "hiking": "yes", "information": "guidepost", "name": "P\u00edsek (plaveck\u00fd stadion) V\u00fdchodi\u0161t\u011b turistick\u00fdch tras", "operator": "cz:K\u010cT", "ref": "PI357", "tourism": "information"}}, {"type": "node", "id": 1849859959, "lat": 49.3077459, "lon": 14.1254957, "tags": {"bicycle": "yes", "ele": "396", "hiking": "yes", "information": "guidepost", "name": "U Smet\u00e1ka (restaurace)", "operator": "cz:K\u010cT", "ref": "PI226", "tourism": "information"}}, {"type": "node", "id": 1849931183, "lat": 49.2902647, "lon": 14.1923849, "tags": {"ele": "450", "hiking": "yes", "information": "guidepost", "name": "Hav\u00edrky", "operator": "cz:K\u010cT", "ref": "PI269", "tourism": "information"}}, {"type": "node", "id": 1849931186, "lat": 49.2935623, "lon": 14.1904248, "tags": {"ele": "425", "hiking": "yes", "information": "guidepost", "name": "Na Fleka\u010dk\u00e1ch", "operator": "cz:K\u010cT", "ref": "PI270", "tourism": "information"}}, {"type": "node", "id": 1869813435, "lat": 49.3271859, "lon": 14.0192558, "tags": {"ele": "420", "hiking": "yes", "information": "guidepost", "name": "Brloh", "operator": "cz:K\u010cT", "ref": "PI163", "tourism": "information"}}, {"type": "node", "id": 1869813460, "lat": 49.3355088, "lon": 14.0018789, "tags": {"ele": "430", "hiking": "yes", "information": "guidepost", "name": "Ned\u00edln\u00e1", "operator": "cz:K\u010cT", "ref": "PI164", "tourism": "information"}}, {"type": "node", "id": 1920238548, "lat": 49.3121028, "lon": 14.1663261, "tags": {"ele": "450", "hiking": "yes", "information": "guidepost", "name": "Pod Lesn\u00edm h\u0159bitovem", "operator": "cz:K\u010cT", "ref": "PI424", "tourism": "information"}}, {"type": "node", "id": 1925879618, "lat": 49.3029622, "lon": 14.1181759, "tags": {"ele": "475", "hiking": "yes", "information": "guidepost", "name": "Hradi\u0161t\u011b (h\u00e1jovna)", "operator": "cz:K\u010cT", "ref": "PI072", "tourism": "information"}}, {"type": "node", "id": 1930527937, "lat": 49.2944487, "lon": 14.1124118, "tags": {"ele": "394", "hiking": "yes", "information": "guidepost", "name": "Proti V\u00e1penici", "operator": "cz:K\u010cT", "ref": "PI227", "tourism": "information"}}, {"type": "node", "id": 1930527983, "lat": 49.3017667, "lon": 14.1067422, "tags": {"information": "board", "tourism": "information"}}, {"type": "node", "id": 1930527994, "lat": 49.3096391, "lon": 14.1199265, "tags": {"amenity": "shelter"}}, {"type": "node", "id": 1941557830, "lat": 49.2989668, "lon": 14.1869653, "tags": {"ele": "415", "hiking": "yes", "information": "guidepost", "name": "Fleka\u010dky", "operator": "cz:K\u010cT", "ref": "PI234", "tourism": "information"}}, {"type": "node", "id": 1972357037, "lat": 49.3167936, "lon": 14.1832967, "tags": {"ele": "572", "name": "U Honz\u00ed\u010dka", "natural": "peak"}}, {"type": "node", "id": 1972357151, "lat": 49.3166986, "lon": 14.1888894, "tags": {"tourism": "viewpoint"}}, {"type": "node", "id": 1972357191, "lat": 49.3172047, "lon": 14.1903605, "tags": {"tourism": "viewpoint"}}, {"type": "node", "id": 1984128074, "lat": 49.3047387, "lon": 14.1213077, "tags": {"ele": "478", "name": "Hradi\u0161\u0165sk\u00fd vrch", "natural": "peak"}}, {"type": "node", "id": 1991135324, "lat": 49.3060668, "lon": 14.1994805, "tags": {"ele": "530", "hiking": "yes", "information": "guidepost", "name": "Nov\u00e9 sedlo", "operator": "cz:K\u010cT", "ref": "PI050", "tourism": "information"}}, {"type": "node", "id": 1991135325, "lat": 49.3069344, "lon": 14.1953518, "tags": {"ele": "525", "hiking": "yes", "information": "guidepost", "name": "Sedlo pod Srn\u00ed homol\u00ed", "operator": "cz:K\u010cT", "ref": "PI341", "tourism": "information"}}, {"type": "node", "id": 1991135326, "lat": 49.3061589, "lon": 14.1966793, "tags": {"ele": "613", "name": "Srn\u00ed Homole", "natural": "peak"}}, {"type": "node", "id": 2004656208, "lat": 49.3111389, "lon": 14.1940222}, {"type": "node", "id": 2004656210, "lat": 49.3111962, "lon": 14.1936964}, {"type": "node", "id": 2004656211, "lat": 49.3112479, "lon": 14.1938376}, {"type": "node", "id": 2004656212, "lat": 49.3112677, "lon": 14.1937257}, {"type": "node", "id": 2004656213, "lat": 49.3112676, "lon": 14.1940752}, {"type": "node", "id": 2004656216, "lat": 49.3113061, "lon": 14.1938569}, {"type": "node", "id": 2034989218, "lat": 49.3049739, "lon": 14.1791945, "tags": {"ele": "425", "hiking": "yes", "information": "guidepost", "name": "Na Vohybale", "operator": "cz:K\u010cT", "ref": "PI233", "tourism": "information"}}, {"type": "node", "id": 2034989235, "lat": 49.3082348, "lon": 14.1862913, "tags": {"ele": "590", "hiking": "yes", "information": "guidepost", "name": "Vyhl\u00eddka p\u00edseck\u00fdch lesn\u00edk\u016f", "operator": "cz:K\u010cT", "ref": "PI077", "tourism": "information"}}, {"type": "node", "id": 2054533392, "lat": 49.303513, "lon": 14.1677875, "tags": {"ele": "400", "hiking": "yes", "information": "guidepost", "name": "Les Amerika (rozcest\u00ed)", "operator": "cz:K\u010cT", "ref": "PI232", "tourism": "information"}}, {"type": "node", "id": 2063206378, "lat": 49.3032318, "lon": 14.1660906, "tags": {"ele": "385", "hiking": "yes", "information": "guidepost", "name": "Amerika (p\u0159\u00edm\u011bstsk\u00fd rekrea\u010dn\u00ed les)", "operator": "cz:K\u010cT", "ref": "PI411", "tourism": "information"}}, {"type": "node", "id": 2063206379, "lat": 49.303597, "lon": 14.1691358, "tags": {"hiking": "yes", "information": "guidepost", "name": "Les Amerika (rozcest\u00ed)", "tourism": "information"}}, {"type": "node", "id": 2082371285, "lat": 49.3054277, "lon": 14.1722852, "tags": {"amenity": "shelter", "building": "yes", "name": "kamenn\u00fd skl\u00edpek", "ruins": "yes"}}, {"type": "node", "id": 2250097403, "lat": 49.2807936, "lon": 14.1542211, "tags": {"ele": "385", "hiking": "yes", "information": "guidepost", "name": "Smrkovice", "note": "strom u kaple", "operator": "cz:K\u010cT", "ref": "PI184", "tourism": "information"}}, {"type": "node", "id": 2251000486, "lat": 49.2202509, "lon": 14.1639855, "tags": {"ele": "390", "hiking": "yes", "information": "guidepost", "name": "Sk\u00e1ly", "operator": "cz:K\u010cT", "ref": "PI307", "tourism": "information"}}, {"type": "node", "id": 2251041542, "lat": 49.309856, "lon": 14.1464522, "tags": {"hiking": "yes", "information": "guidepost", "name": "Kamenn\u00fd most", "operator": "cz:K\u010cT", "ref": "PI423", "tourism": "information"}}, {"type": "node", "id": 2275771103, "lat": 49.3158576, "lon": 14.0654442, "tags": {"ele": "480", "hiking": "yes", "information": "guidepost", "name": "Odbo\u010dka k rozhledn\u011b Velk\u00fd Kam\u00fdk", "operator": "cz:K\u010cT", "ref": "PI160", "tourism": "information"}}, {"type": "node", "id": 2275947056, "lat": 49.3181676, "lon": 14.0749311, "tags": {"ele": "450", "hiking": "yes", "information": "guidepost", "name": "Velk\u00e9 Nepod\u0159ice", "note": "na strom\u011b ze strany od obytn\u00fdch budov", "operator": "cz:K\u010cT", "ref": "PI159", "tourism": "information"}}, {"type": "node", "id": 2306225974, "lat": 49.3038307, "lon": 14.1580478, "tags": {"ele": "390", "hiking": "yes", "information": "guidepost", "name": "P\u00edsek (kapli\u010dka)", "operator": "cz:K\u010cT", "ref": "PI231", "tourism": "information"}}, {"type": "node", "id": 2399722417, "lat": 49.2553684, "lon": 14.0733445, "tags": {"ele": "375", "hiking": "yes", "information": "guidepost", "name": "Velk\u00fd Martovec (rybn\u00edk)", "operator": "cz:K\u010cT", "ref": "PI359", "tourism": "information"}}, {"type": "node", "id": 2399722423, "lat": 49.2571522, "lon": 14.078168, "tags": {"ele": "382", "hiking": "yes", "information": "guidepost", "name": "Lhota u Kest\u0159an", "operator": "cz:K\u010cT", "ref": "PI061", "tourism": "information"}}, {"type": "node", "id": 2399722519, "lat": 49.259209, "lon": 14.094288, "tags": {"ele": "375", "hiking": "yes", "information": "guidepost", "name": "\u0158e\u017eabinec (rybn\u00edk)", "operator": "cz:K\u010cT", "ref": "PI260", "tourism": "information"}}, {"type": "node", "id": 2399789439, "lat": 49.2693773, "lon": 14.0747184, "tags": {"ele": "373", "hiking": "yes", "information": "guidepost", "name": "Kest\u0159any (bus)", "operator": "cz:K\u010cT", "ref": "PI059", "tourism": "information"}}, {"type": "node", "id": 2399789440, "lat": 49.2810004, "lon": 14.0746208, "tags": {"ele": "370", "hiking": "yes", "information": "guidepost", "name": "Velk\u00fd Poto\u010dn\u00ed rybn\u00edk", "operator": "cz:K\u010cT", "ref": "PI058", "tourism": "information"}}, {"type": "node", "id": 2399789452, "lat": 49.2518122, "lon": 14.0154573, "tags": {"ele": "385", "hiking": "yes", "information": "guidepost", "name": "\u010cejetice \u017est", "operator": "cz:K\u010cT", "ref": "ST012", "tourism": "information"}}, {"type": "node", "id": 2399789767, "lat": 49.2972286, "lon": 14.0914905, "tags": {"ele": "398", "hiking": "yes", "information": "guidepost", "name": "\u010calovna (rybn\u00edk)", "operator": "cz:K\u010cT", "ref": "PI056", "tourism": "information"}}, {"type": "node", "id": 2399789768, "lat": 49.3019461, "lon": 14.1053839, "tags": {"ele": "390", "hiking": "yes", "information": "guidepost", "name": "\u010certova strouha (rozcest\u00ed)", "operator": "cz:K\u010cT", "ref": "PI263", "tourism": "information"}}, {"type": "node", "id": 2399789769, "lat": 49.3024404, "lon": 14.1009761, "tags": {"ele": "372", "hiking": "yes", "information": "guidepost", "name": "\u010certova strouha", "operator": "cz:K\u010cT", "ref": "PI055", "tourism": "information"}}, {"type": "node", "id": 2418777323, "lat": 49.2645452, "lon": 14.1179083, "tags": {"name": "\u0160vejkovsk\u00e1 CK stanice", "tourism": "attraction"}}, {"type": "node", "id": 2419546111, "lat": 49.2534702, "lon": 14.0977001, "tags": {"board_type": "nature", "information": "board", "name": "Pta\u010d\u00ed oblast", "tourism": "information"}}, {"type": "node", "id": 2420911903, "lat": 49.2394808, "lon": 14.0554401, "tags": {"amenity": "shelter", "shelter_type": "picnic_shelter"}}, {"type": "node", "id": 2436597825, "lat": 49.1708639, "lon": 14.1927178}, {"type": "node", "id": 2436597826, "lat": 49.1708742, "lon": 14.1926861}, {"type": "node", "id": 2436597827, "lat": 49.1708962, "lon": 14.1927424}, {"type": "node", "id": 2436597828, "lat": 49.1709065, "lon": 14.1927107}, {"type": "node", "id": 2436597830, "lat": 49.1710517, "lon": 14.1932463}, {"type": "node", "id": 2436597831, "lat": 49.1710629, "lon": 14.1932146}, {"type": "node", "id": 2436597832, "lat": 49.1710829, "lon": 14.1932721}, {"type": "node", "id": 2436597834, "lat": 49.1710941, "lon": 14.1932404}, {"type": "node", "id": 2492675276, "lat": 49.23547, "lon": 14.1854657, "tags": {"ele": "398", "hiking": "yes", "information": "guidepost", "name": "Maletice", "operator": "cz:K\u010cT", "ref": "PI067", "tourism": "information"}}, {"type": "node", "id": 2499463511, "lat": 49.3080663, "lon": 14.191293, "tags": {"ele": "609", "name": "Jarn\u00edk", "natural": "peak"}}, {"type": "node", "id": 2537766930, "lat": 49.3398138, "lon": 14.1708987, "tags": {"ele": "429", "hiking": "yes", "information": "guidepost", "name": "Vrcovice (\u017est)", "operator": "cz:K\u010cT", "ref": "PI312", "tourism": "information"}}, {"type": "node", "id": 2537766931, "lat": 49.34472, "lon": 14.1744688, "tags": {"ele": "418", "hiking": "yes", "information": "guidepost", "name": "Vrcovice", "operator": "cz:K\u010cT", "ref": "PI311", "tourism": "information"}}, {"type": "node", "id": 2850531772, "lat": 49.2535716, "lon": 14.0224411}, {"type": "node", "id": 2850531780, "lat": 49.2536057, "lon": 14.0223393}, {"type": "node", "id": 2850531784, "lat": 49.2536144, "lon": 14.0224778}, {"type": "node", "id": 2850531785, "lat": 49.2536228, "lon": 14.0224328}, {"type": "node", "id": 2850531788, "lat": 49.2536294, "lon": 14.0224387}, {"type": "node", "id": 2850531796, "lat": 49.2536409, "lon": 14.0223699}, {"type": "node", "id": 2850581480, "lat": 49.2502899, "lon": 14.0481081}, {"type": "node", "id": 2850581482, "lat": 49.2502918, "lon": 14.0481635}, {"type": "node", "id": 2850581488, "lat": 49.2503275, "lon": 14.0481047}, {"type": "node", "id": 2850581489, "lat": 49.2503293, "lon": 14.0481604}, {"type": "node", "id": 2856156252, "lat": 49.1571608, "lon": 14.1902438, "tags": {"ele": "395", "hiking": "yes", "information": "guidepost", "name": "A Round Hill", "tourism": "information"}}, {"type": "node", "id": 2917914515, "lat": 49.2377222, "lon": 14.1130419, "tags": {"ele": "461", "name": "Zlat\u00e1 hora", "natural": "peak"}}, {"type": "node", "id": 2940783454, "lat": 49.1979235, "lon": 14.1919108, "tags": {"ele": "425", "name": "Babka", "natural": "peak"}}, {"type": "node", "id": 2940807956, "lat": 49.2117117, "lon": 14.1940244, "tags": {"ele": "406", "name": "Na vr\u0161ku", "natural": "peak"}}, {"type": "node", "id": 3002713819, "lat": 49.1578734, "lon": 14.1529605, "tags": {"ele": "398", "hiking": "yes", "information": "guidepost", "name": "U Pomej\u016f", "operator": "cz:K\u010cT", "ref": "ST103", "tourism": "information"}}, {"type": "node", "id": 3002920679, "lat": 49.1577691, "lon": 14.1528349, "tags": {"board_type": "history", "information": "board", "name": "Ml\u00fdny", "tourism": "information"}}, {"type": "node", "id": 3050874265, "lat": 49.1689213, "lon": 14.0937308, "tags": {"ele": "635", "hiking": "yes", "information": "guidepost", "name": "Sko\u010dick\u00fd vrch (sedlo)", "operator": "cz:K\u010cT", "ref": "ST100", "tourism": "information"}}, {"type": "node", "id": 3050879769, "lat": 49.1686632, "lon": 14.0921687, "tags": {"ele": "663", "hiking": "yes", "information": "guidepost", "name": "Hrad", "operator": "cz:K\u010cT", "ref": "ST141", "tourism": "information"}}, {"type": "node", "id": 3051075684, "lat": 49.1680106, "lon": 14.0916938, "tags": {"ele": "655", "hiking": "yes", "information": "guidepost", "name": "Hrad (rozc.)", "operator": "cz:K\u010cT", "ref": "ST141", "tourism": "information"}}, {"type": "node", "id": 3051152617, "lat": 49.1692019, "lon": 14.0964594, "tags": {"ele": "667", "name": "Hrad", "natural": "peak", "source": "\u010c\u00daZK"}}, {"type": "node", "id": 3346162417, "lat": 49.2650044, "lon": 14.1598714, "tags": {"amenity": "shelter", "shelter_type": "picnic_shelter"}}, {"type": "node", "id": 3375474862, "lat": 49.310325, "lon": 14.146299, "tags": {"amenity": "shelter", "shelter_type": "Wetterpilz"}}, {"type": "node", "id": 3412646013, "lat": 49.3137688, "lon": 14.0645816, "tags": {"ele": "531.4", "name": "Velk\u00fd Kam\u00fdk", "natural": "peak"}}, {"type": "node", "id": 3412658383, "lat": 49.2510443, "lon": 14.1630565, "tags": {"ele": "476", "name": "Skalsk\u00fd vrch", "natural": "peak"}}, {"type": "node", "id": 3412747065, "lat": 49.3285701, "lon": 14.1793926, "tags": {"ele": "543", "name": "Na Lomech", "natural": "peak"}}, {"type": "node", "id": 3412747066, "lat": 49.3306112, "lon": 14.1671762, "tags": {"ele": "508", "name": "Kostel\u00edk", "natural": "peak"}}, {"type": "node", "id": 3412747067, "lat": 49.3354943, "lon": 14.1739057, "tags": {"ele": "525", "name": "S\u00fdkorka", "natural": "peak"}}, {"type": "node", "id": 3412747070, "lat": 49.2523583, "lon": 14.1363895, "tags": {"ele": "442", "name": "Zubovsk\u00fd vrch", "natural": "peak"}}, {"type": "node", "id": 3412747071, "lat": 49.2122065, "lon": 14.167622, "tags": {"ele": "431", "name": "Sk\u00e1ly", "natural": "peak"}}, {"type": "node", "id": 3413894179, "lat": 49.3111069, "lon": 14.1936347}, {"type": "node", "id": 3413894180, "lat": 49.3110807, "lon": 14.193746}, {"type": "node", "id": 3413894181, "lat": 49.3110186, "lon": 14.1937071}, {"type": "node", "id": 3413894182, "lat": 49.3110457, "lon": 14.1936012}, {"type": "node", "id": 3418221032, "lat": 49.2875404, "lon": 14.1996694, "tags": {"ele": "509", "name": "Pr\u016fhony", "natural": "peak"}}, {"type": "node", "id": 3418221033, "lat": 49.2804741, "lon": 14.1894297, "tags": {"ele": "469", "name": "P\u0159edn\u00ed Pecky", "natural": "peak"}}, {"type": "node", "id": 3418221034, "lat": 49.2678766, "lon": 14.2000152, "tags": {"ele": "466", "name": "Zadn\u00ed Pecky", "natural": "peak"}}, {"type": "node", "id": 3418221035, "lat": 49.299235, "lon": 14.1772555, "tags": {"ele": "494", "name": "Bej\u010d\u00e1k", "natural": "peak"}}, {"type": "node", "id": 3418221036, "lat": 49.3131519, "lon": 14.1709679, "tags": {"ele": "510", "name": "Na Logrech", "natural": "peak"}}, {"type": "node", "id": 3418221042, "lat": 49.2271427, "lon": 14.1926045, "tags": {"ele": "391", "name": "Kloko\u010d\u00ednsk\u00fd h\u00e1jek", "natural": "peak"}}, {"type": "node", "id": 3423245794, "lat": 49.2099562, "lon": 14.1099159, "tags": {"ele": "447", "name": "P\u00edse\u010dn\u00e1", "natural": "peak"}}, {"type": "node", "id": 3423245795, "lat": 49.2169742, "lon": 14.0443616, "tags": {"ele": "505", "name": "Trhanice", "natural": "peak"}}, {"type": "node", "id": 3423245796, "lat": 49.2047944, "lon": 14.0391629, "tags": {"ele": "556", "name": "Kostel\u00edk", "natural": "peak"}}, {"type": "node", "id": 3423245797, "lat": 49.1937949, "lon": 14.0421026, "tags": {"ele": "635", "name": "Radovec", "natural": "peak"}}, {"type": "node", "id": 3423245798, "lat": 49.1858013, "lon": 14.0561573, "tags": {"ele": "610", "name": "Brnou\u0161", "natural": "peak"}}, {"type": "node", "id": 3423245800, "lat": 49.1919649, "lon": 14.0590756, "tags": {"ele": "629", "name": "Kn\u00ed\u017eec\u00ed k\u00e1men", "natural": "peak"}}, {"type": "node", "id": 3423245801, "lat": 49.161527, "lon": 14.1144056, "tags": {"ele": "450", "natural": "peak", "source": "\u010c\u00daZK"}}, {"type": "node", "id": 3423245802, "lat": 49.1569847, "lon": 14.1105912, "tags": {"ele": "454", "name": "U Kov\u00e1rny", "natural": "peak", "source:ele": "\u010c\u00daZK"}}, {"type": "node", "id": 3423245803, "lat": 49.1528303, "lon": 14.1274555, "tags": {"ele": "453", "name": "Bly\u0161tice", "natural": "peak", "source": "\u010c\u00daZK"}}, {"type": "node", "id": 3423245807, "lat": 49.1668508, "lon": 14.0600412, "tags": {"ele": "555", "name": "Kr\u00e1seka", "natural": "peak", "source": "\u010c\u00daZK"}}, {"type": "node", "id": 3423245808, "lat": 49.1805768, "lon": 14.0501599, "tags": {"ele": "558", "name": "H\u016frka", "natural": "peak"}}, {"type": "node", "id": 3423245809, "lat": 49.18071, "lon": 14.0177481, "tags": {"ele": "571", "name": "Kv\u00e1skovick\u00e1 h\u016frka", "natural": "peak"}}, {"type": "node", "id": 3423245812, "lat": 49.1691369, "lon": 14.0105169, "tags": {"ele": "637", "name": "Chmelovka", "natural": "peak"}}, {"type": "node", "id": 3423245813, "lat": 49.1635949, "lon": 14.0244536, "tags": {"ele": "586", "name": "Varta", "natural": "peak"}}, {"type": "node", "id": 3423245814, "lat": 49.1654049, "lon": 14.038605, "tags": {"ele": "538", "name": "Han\u017el\u016fv vr\u0161ek", "natural": "peak"}}, {"type": "node", "id": 3423245815, "lat": 49.1540107, "lon": 14.0451925, "tags": {"ele": "602", "name": "Ned\u011bli\u0161t\u011b", "natural": "peak"}}, {"type": "node", "id": 3423245829, "lat": 49.1543265, "lon": 14.0078454, "tags": {"ele": "656", "name": "Du\u0161kovec", "natural": "peak"}}, {"type": "node", "id": 3451651983, "lat": 49.2960785, "lon": 14.1353613, "tags": {"ele": "417", "name": "Nad Cihelnou", "natural": "peak"}}, {"type": "node", "id": 3451651984, "lat": 49.2912678, "lon": 14.1363183, "tags": {"ele": "414", "name": "Na Vysok\u00e9", "natural": "peak"}}, {"type": "node", "id": 3451651985, "lat": 49.2846368, "lon": 14.1407826, "tags": {"ele": "400", "name": "Za Vrchy", "natural": "peak"}}, {"type": "node", "id": 3451651986, "lat": 49.2956651, "lon": 14.0946593, "tags": {"ele": "417", "name": "Ve Vrchu", "natural": "peak"}}, {"type": "node", "id": 3451651987, "lat": 49.2791655, "lon": 14.1227893, "tags": {"name": "Mezi Vrchy 397", "natural": "peak"}}, {"type": "node", "id": 3451651989, "lat": 49.2417052, "lon": 14.0355117, "tags": {"ele": "417", "name": "Na Vrchu", "natural": "peak"}}, {"type": "node", "id": 3451651990, "lat": 49.259534, "lon": 14.0767743, "tags": {"ele": "395", "name": "Na Vr\u0161ku", "natural": "peak"}}, {"type": "node", "id": 3451651991, "lat": 49.2608223, "lon": 14.0960433, "tags": {"name": "U \u0158e\u017eabince 397", "natural": "peak"}}, {"type": "node", "id": 3451651992, "lat": 49.2548424, "lon": 14.1127481, "tags": {"ele": "376", "name": "Na To\u010dink\u00e1ch", "natural": "peak"}}, {"type": "node", "id": 3451653193, "lat": 49.261351, "lon": 14.1462918, "tags": {"ele": "440", "name": "U Boubel\u00edkovce", "natural": "peak"}}, {"type": "node", "id": 3451653194, "lat": 49.2692133, "lon": 14.1674705, "tags": {"ele": "463", "name": "Na Z\u00e1mku", "natural": "peak"}}, {"type": "node", "id": 3451653195, "lat": 49.241448, "lon": 14.1828342, "tags": {"ele": "414", "name": "Na Pet\u0159\u00edn\u011b", "natural": "peak"}}, {"type": "node", "id": 3451653197, "lat": 49.2173955, "lon": 14.1348012, "tags": {"ele": "437", "name": "Polanka", "natural": "peak"}}, {"type": "node", "id": 3451653198, "lat": 49.2039944, "lon": 14.1505297, "tags": {"ele": "432", "name": "H\u00e1jek", "natural": "peak"}}, {"type": "node", "id": 3451653201, "lat": 49.1649691, "lon": 14.1765686, "tags": {"ele": "466", "name": "Rad\u010dick\u00fd vrch", "natural": "peak"}}, {"type": "node", "id": 3452237404, "lat": 49.329166, "lon": 14.1251023, "tags": {"ele": "418", "name": "\u0160vimberk", "natural": "peak"}}, {"type": "node", "id": 3452237405, "lat": 49.341184, "lon": 14.1666443, "tags": {"ele": "467", "name": "Bohuslavec", "natural": "peak"}}, {"type": "node", "id": 3452237406, "lat": 49.350054, "lon": 14.192415, "tags": {"ele": "517", "name": "Svatonick\u00fd vrch", "natural": "peak"}}, {"type": "node", "id": 3676145510, "lat": 49.3112655, "lon": 14.1938449}, {"type": "node", "id": 3676145511, "lat": 49.3112665, "lon": 14.1938389}, {"type": "node", "id": 3728891012, "lat": 49.3098032, "lon": 14.1452927}, {"type": "node", "id": 3919438627, "lat": 49.1561982, "lon": 14.1330889, "tags": {"ele": "403", "hiking": "yes", "information": "guidepost", "name": "U Kar\u00e1sk\u016f", "operator": "cz:K\u010cT", "ref": "ST140", "tourism": "information"}}, {"type": "node", "id": 3926098603, "lat": 49.30989, "lon": 14.1464211}, {"type": "node", "id": 3998621147, "lat": 49.309824, "lon": 14.1486187}, {"type": "node", "id": 3998621149, "lat": 49.3098257, "lon": 14.1486061}, {"type": "node", "id": 3998621150, "lat": 49.3098242, "lon": 14.1486315}, {"type": "node", "id": 3998621152, "lat": 49.3098305, "lon": 14.1486552}, {"type": "node", "id": 3998621155, "lat": 49.3098349, "lon": 14.1485844}, {"type": "node", "id": 3998621257, "lat": 49.3098362, "lon": 14.1486647}, {"type": "node", "id": 3998621261, "lat": 49.3098417, "lon": 14.1485767}, {"type": "node", "id": 3998621263, "lat": 49.3098432, "lon": 14.1486718}, {"type": "node", "id": 3998621264, "lat": 49.309851, "lon": 14.1486761}, {"type": "node", "id": 3998621266, "lat": 49.3098496, "lon": 14.1485717}, {"type": "node", "id": 3998621267, "lat": 49.3098594, "lon": 14.1486775}, {"type": "node", "id": 3998621276, "lat": 49.3098666, "lon": 14.1485711}, {"type": "node", "id": 3998621281, "lat": 49.3098755, "lon": 14.1486711}, {"type": "node", "id": 3998621283, "lat": 49.3098746, "lon": 14.1485755}, {"type": "node", "id": 3998621287, "lat": 49.3098824, "lon": 14.1486637}, {"type": "node", "id": 3998621288, "lat": 49.3098817, "lon": 14.1485827}, {"type": "node", "id": 3998621289, "lat": 49.3098879, "lon": 14.148654}, {"type": "node", "id": 3998621290, "lat": 49.3098938, "lon": 14.1486297}, {"type": "node", "id": 3998621291, "lat": 49.3098916, "lon": 14.1486039}, {"type": "node", "id": 3998621292, "lat": 49.3098937, "lon": 14.1486166}, {"type": "node", "id": 4000252171, "lat": 49.308772, "lon": 14.1465818}, {"type": "node", "id": 4000252174, "lat": 49.3087982, "lon": 14.146586}, {"type": "node", "id": 4000252188, "lat": 49.3089086, "lon": 14.1466035}, {"type": "node", "id": 4000252189, "lat": 49.3089091, "lon": 14.1465962}, {"type": "node", "id": 4045427786, "lat": 49.1528217, "lon": 14.1776353, "tags": {"amenity": "shelter", "shelter_type": "picnic_shelter"}}, {"type": "node", "id": 4151415289, "lat": 49.1876101, "lon": 14.1791756, "tags": {"ele": "410", "hiking": "yes", "information": "guidepost", "name": "Chvaletice", "operator": "cz:K\u010cT", "ref": "PI412", "source": "surwey", "tourism": "information"}}, {"type": "node", "id": 4186661300, "lat": 49.3090252, "lon": 14.1475834, "tags": {"ele": "382", "hiking": "yes", "information": "guidepost", "name": "P\u00edsek n\u00e1m\u011bst\u00ed", "operator": "cz:K\u010cT", "ref": "PI325", "tourism": "information"}}, {"type": "node", "id": 4283902629, "lat": 49.2931215, "lon": 14.0138658}, {"type": "node", "id": 4283902630, "lat": 49.2931262, "lon": 14.013923}, {"type": "node", "id": 4308857972, "lat": 49.1618856, "lon": 14.1988352, "tags": {"horse": "yes", "information": "guidepost", "name": "Louck\u00fd ml\u00fdn", "operator": "Jiho\u010desk\u00e9 hipostezky", "tourism": "information"}}, {"type": "node", "id": 4351520092, "lat": 49.1564241, "lon": 14.1450565, "tags": {"ele": "400", "hiking": "yes", "information": "guidepost", "name": "U Martinc\u016f", "operator": "cz:K\u010cT", "ref": "ST102", "tourism": "information"}}, {"type": "node", "id": 4580804287, "lat": 49.3202619, "lon": 14.1569241, "tags": {"ele": "351", "hiking": "yes", "information": "guidepost", "name": "U Sulana", "operator": "cz:K\u010cT", "ref": "PI421", "tourism": "information"}}, {"type": "node", "id": 4731729696, "lat": 49.3274447, "lon": 14.0605363, "tags": {"ele": "440", "hiking": "yes", "information": "guidepost", "name": "Mlaky", "operator": "cz:K\u010cT", "ref": "PI319", "tourism": "information"}}, {"type": "node", "id": 4731729697, "lat": 49.3371456, "lon": 14.0742531, "tags": {"ele": "470", "hiking": "yes", "information": "guidepost", "name": "Chlaponice", "operator": "cz:K\u010cT", "ref": "PI318", "tourism": "information"}}, {"type": "node", "id": 4731730466, "lat": 49.3494866, "lon": 14.0783032, "tags": {"ele": "450", "hiking": "yes", "information": "guidepost", "name": "Bo\u0161ovice", "operator": "cz:K\u010cT", "ref": "PI317", "tourism": "information"}}, {"type": "node", "id": 4774166459, "lat": 49.2555499, "lon": 14.1221672, "tags": {"board_type": "nature", "information": "board", "name": "Blanice - Star\u00e1 \u0159eka (ryby)", "tourism": "information"}}, {"type": "node", "id": 4793110701, "lat": 49.1543846, "lon": 14.1804323, "tags": {"ele": "391", "hiking": "yes", "information": "guidepost", "name": "U Blanice", "operator": "cz:K\u010cT", "ref": "ST161", "tourism": "information"}}, {"type": "node", "id": 4793110702, "lat": 49.1606449, "lon": 14.1994416, "tags": {"ele": "391", "hiking": "yes", "information": "guidepost", "name": "Louck\u00fd ml\u00fdn", "operator": "cz:K\u010cT", "ref": "ST162", "tourism": "information"}}, {"type": "node", "id": 4793690074, "lat": 49.185271, "lon": 14.1052571, "tags": {"ele": "465", "hiking": "yes", "information": "guidepost", "name": "Sko\u010dice bus", "operator": "cz:K\u010cT", "ref": "PI192", "tourism": "information"}}, {"type": "node", "id": 4793691051, "lat": 49.2127032, "lon": 14.1381571, "tags": {"ele": "400", "hiking": "yes", "information": "guidepost", "name": "Bo\u017eovice", "operator": "cz:K\u010cT", "ref": "PI191", "tourism": "information"}}, {"type": "node", "id": 4793691052, "lat": 49.2077652, "lon": 14.1429915, "tags": {"ele": "400", "hiking": "yes", "information": "guidepost", "name": "U H\u00e1jku", "operator": "cz:K\u010cT", "ref": "PI443", "tourism": "information"}}, {"type": "node", "id": 4793764536, "lat": 49.159441, "lon": 14.1133366, "tags": {"ele": "410", "hiking": "yes", "information": "guidepost", "name": "Vitice", "operator": "cz:K\u010cT", "ref": "ST143", "tourism": "information"}}, {"type": "node", "id": 4793764541, "lat": 49.1921007, "lon": 14.0921112, "tags": {"ele": "457", "hiking": "yes", "information": "guidepost", "name": "Albrechtice bus", "operator": "cz:K\u010cT", "ref": "ST142", "tourism": "information"}}, {"type": "node", "id": 4794609573, "lat": 49.165892, "lon": 14.1304182, "tags": {"ele": "400", "hiking": "yes", "information": "guidepost", "name": "Kra\u0161lovice", "operator": "cz:K\u010cT", "ref": "ST101", "tourism": "information"}}, {"type": "node", "id": 4811464035, "lat": 49.3062206, "lon": 14.1966534, "tags": {"hiking": "yes", "information": "guidepost", "name": "Srn\u00ed homole", "operator": "cz:K\u010cT", "ref": "PI391", "tourism": "information"}}, {"type": "node", "id": 4811464036, "lat": 49.3110927, "lon": 14.1938424, "tags": {"ele": "525", "hiking": "yes", "information": "guidepost", "name": "V \u017divci", "operator": "cz:K\u010cT", "ref": "PI171", "tourism": "information"}}, {"type": "node", "id": 4811571740, "lat": 49.2563407, "lon": 14.1715188, "tags": {"ele": "434", "hiking": "yes", "information": "guidepost", "name": "H\u016frky (les)", "operator": "cz:K\u010cT", "ref": "PI066", "tourism": "information"}}, {"type": "node", "id": 4811571741, "lat": 49.2686897, "lon": 14.15991, "tags": {"ele": "450", "hiking": "yes", "information": "guidepost", "name": "U \u0160r\u00e1mka", "operator": "cz:K\u010cT", "ref": "PI065", "tourism": "information"}}, {"type": "node", "id": 4811572166, "lat": 49.2596779, "lon": 14.1497029, "tags": {"ele": "415", "hiking": "yes", "information": "guidepost", "name": "H\u016frky (U kamene)", "operator": "cz:K\u010cT", "ref": "PI186", "tourism": "information"}}, {"type": "node", "id": 4811572167, "lat": 49.2637019, "lon": 14.1497952, "tags": {"ele": "425", "hiking": "yes", "information": "guidepost", "name": "H\u016frky h\u00e1jenka", "operator": "cz:K\u010cT", "ref": "PI185", "tourism": "information"}}, {"type": "node", "id": 4812908043, "lat": 49.2640345, "lon": 14.1310626, "tags": {"hiking": "yes", "information": "guidepost", "name": "Putim \u017est - k v\u00fdchodisku", "operator": "cz:K\u010cT", "tourism": "information"}}, {"type": "node", "id": 4812908044, "lat": 49.2633588, "lon": 14.1303545, "tags": {"ele": "380", "hiking": "yes", "information": "guidepost", "name": "Putim \u017est", "operator": "cz:K\u010cT", "ref": "PI230", "tourism": "information"}}, {"type": "node", "id": 4812908045, "lat": 49.2904936, "lon": 14.1198456, "tags": {"ele": "392", "hiking": "yes", "information": "guidepost", "name": "Z\u00e1tavsk\u00fd most", "operator": "cz:K\u010cT", "ref": "PI228", "tourism": "information"}}, {"type": "node", "id": 4812997835, "lat": 49.3107898, "lon": 14.1208028, "tags": {"ele": "408", "hiking": "yes", "information": "guidepost", "name": "V\u00e1clavsk\u00e9 sk\u00e1ly", "operator": "cz:K\u010cT", "ref": "PI158", "tourism": "information"}}, {"type": "node", "id": 4812997864, "lat": 49.3172126, "lon": 14.1077381, "tags": {"ele": "395", "hiking": "yes", "information": "guidepost", "name": "Old\u0159ichov", "operator": "cz:K\u010cT", "ref": "PI432", "tourism": "information"}}, {"type": "node", "id": 4812997865, "lat": 49.3090257, "lon": 14.1272485, "tags": {"ele": "386", "hiking": "yes", "information": "guidepost", "name": "P\u00edsek koupali\u0161t\u011b", "operator": "cz:K\u010cT", "ref": "PI157", "tourism": "information"}}, {"type": "node", "id": 4813081075, "lat": 49.2956228, "lon": 14.0496985, "tags": {"ele": "395", "hiking": "yes", "information": "guidepost", "name": "Dobev", "operator": "cz:K\u010cT", "ref": "PI320", "tourism": "information"}}, {"type": "node", "id": 4813081094, "lat": 49.3098511, "lon": 14.0434295, "tags": {"ele": "410", "hiking": "yes", "information": "guidepost", "name": "Sta\u0161ov rybn\u00edk", "operator": "cz:K\u010cT", "ref": "PI162", "tourism": "information"}}, {"type": "node", "id": 4813081095, "lat": 49.3091061, "lon": 14.0467125, "tags": {"ele": "420", "hiking": "yes", "information": "guidepost", "name": "Sta\u0161ov rozcest\u00ed", "operator": "cz:K\u010cT", "ref": "PI161", "tourism": "information"}}, {"type": "node", "id": 4813081096, "lat": 49.3139927, "lon": 14.0662462, "tags": {"ele": "515", "hiking": "yes", "information": "guidepost", "name": "Velk\u00fd Kam\u00fdk (rozhledna)", "operator": "cz:K\u010cT", "ref": "PI452", "tourism": "information"}}, {"type": "node", "id": 4813081358, "lat": 49.2884142, "lon": 14.0690231, "tags": {"ele": "385", "hiking": "yes", "information": "guidepost", "name": "Dobevsk\u00fd rybn\u00edk", "operator": "cz:K\u010cT", "ref": "PI321", "tourism": "information"}}, {"type": "node", "id": 4813520438, "lat": 49.2323396, "lon": 14.1338146, "tags": {"ele": "360", "hiking": "yes", "information": "guidepost", "name": "He\u0159ma\u0148", "operator": "cz:K\u010cT", "ref": "PI189", "tourism": "information"}}, {"type": "node", "id": 4813520439, "lat": 49.2441116, "lon": 14.1391361, "tags": {"ele": "360", "hiking": "yes", "information": "guidepost", "name": "He\u0159ma\u0148 \u017est", "operator": "cz:K\u010cT", "ref": "PI188", "tourism": "information"}}, {"type": "node", "id": 4813520440, "lat": 49.2491403, "lon": 14.1422635, "tags": {"ele": "375", "hiking": "yes", "information": "guidepost", "name": "Pod Zubovsk\u00fdm vrchem", "operator": "cz:K\u010cT", "ref": "PI430", "tourism": "information"}}, {"type": "node", "id": 4813560229, "lat": 49.2607332, "lon": 14.0773809, "tags": {"ele": "380", "hiking": "yes", "information": "guidepost", "name": "Lhota u Kest\u0159an", "operator": "cz:K\u010cT", "ref": "PI060", "tourism": "information"}}, {"type": "node", "id": 4813560230, "lat": 49.2490248, "lon": 14.0570712, "tags": {"ele": "383", "hiking": "yes", "information": "guidepost", "name": "Sudom\u011b\u0159 \u017est", "operator": "cz:K\u010cT", "ref": "PI063", "tourism": "information"}}, {"type": "node", "id": 4859199226, "lat": 49.2390878, "lon": 14.028101, "tags": {"ele": "410", "hiking": "yes", "information": "guidepost", "name": "V \u010c\u00ed\u0161ti", "operator": "cz:K\u010cT", "ref": "ST011", "tourism": "information"}}, {"type": "node", "id": 4859235811, "lat": 49.2308018, "lon": 14.0486705, "tags": {"ele": "405", "hiking": "yes", "information": "guidepost", "name": "Mlad\u011bjovice", "operator": "cz:K\u010cT", "ref": "ST009", "tourism": "information"}}, {"type": "node", "id": 4862134439, "lat": 49.2249339, "lon": 14.1085321, "tags": {"ele": "423", "hiking": "yes", "information": "guidepost", "name": "Hum\u0148any", "operator": "cz:K\u010cT", "ref": "PI190", "tourism": "information"}}, {"type": "node", "id": 4862206515, "lat": 49.2189706, "lon": 14.1910154, "tags": {"ele": "384", "hiking": "yes", "information": "guidepost", "name": "U Skalsk\u00e9ho rybn\u00edka", "operator": "cz:K\u010cT", "ref": "PI069", "tourism": "information"}}, {"type": "node", "id": 4862211806, "lat": 49.2308676, "lon": 14.1869851, "tags": {"ele": "380", "hiking": "yes", "information": "guidepost", "name": "Kloko\u010d\u00edn", "operator": "cz:K\u010cT", "ref": "PI068", "tourism": "information"}}, {"type": "node", "id": 4869735113, "lat": 49.2523334, "lon": 14.1933529, "tags": {"ele": "395", "hiking": "yes", "information": "guidepost", "name": "Selibov", "operator": "cz:K\u010cT", "ref": "PI285", "tourism": "information"}}, {"type": "node", "id": 4869768945, "lat": 49.2458976, "lon": 14.1712958, "tags": {"ele": "390", "hiking": "yes", "information": "guidepost", "name": "Ho\u0159ej\u0161\u00ed rybn\u00edk", "operator": "cz:K\u010cT", "ref": "PI431", "tourism": "information"}}, {"type": "node", "id": 4938192882, "lat": 49.2227278, "lon": 14.0491734, "tags": {"amenity": "shelter", "shelter_type": "picnic_shelter"}}, {"type": "node", "id": 4938192883, "lat": 49.2195748, "lon": 14.0097796, "tags": {"amenity": "shelter", "shelter_type": "picnic_shelter"}}, {"type": "node", "id": 5038548943, "lat": 49.2968395, "lon": 14.1433244, "tags": {"hiking": "yes", "information": "guidepost", "name": "P\u00edsek \u017est", "operator": "cz:K\u010cT", "ref": "PI358", "tourism": "information"}}, {"type": "node", "id": 5272561671, "lat": 49.1876657, "lon": 14.1791782, "tags": {"board_type": "history", "information": "board", "name": "Chvaletice", "ref": "15", "tourism": "information"}}, {"type": "node", "id": 5272561673, "lat": 49.1974028, "lon": 14.1840184, "tags": {"board_type": "history", "information": "board", "name": "Chvaletick\u00fd rybn\u00edk", "ref": "14", "tourism": "information"}}, {"type": "node", "id": 5272561674, "lat": 49.2078045, "lon": 14.143056, "tags": {"board_type": "history", "information": "board", "name": "Tvrz Modl\u00ed\u0161kovice", "ref": "10", "tourism": "information"}}, {"type": "node", "id": 5272561675, "lat": 49.2120649, "lon": 14.1379568, "tags": {"board_type": "history", "information": "board", "name": "Tvrz Bo\u017eovice", "tourism": "information"}}, {"type": "node", "id": 5272561676, "lat": 49.2126462, "lon": 14.1381435, "tags": {"board_type": "history", "information": "board", "name": "Nau\u010dn\u00e1 stezka Na b\u0159ehu Blanice", "tourism": "information"}}, {"type": "node", "id": 5272561677, "lat": 49.2156723, "lon": 14.1561059, "tags": {"board_type": "history", "information": "board", "name": "Budi\u010dovice - venkovsk\u00e1 architektura", "tourism": "information"}}, {"type": "node", "id": 5272561678, "lat": 49.2156469, "lon": 14.1561395, "tags": {"amenity": "shelter", "shelter_type": "picnic_shelter"}}, {"type": "node", "id": 5272561679, "lat": 49.2308225, "lon": 14.1869737, "tags": {"board_type": "history", "information": "board", "name": "Tvrz Kloko\u010d\u00edn", "tourism": "information"}}, {"type": "node", "id": 5272561680, "lat": 49.2311186, "lon": 14.1883276, "tags": {"board_type": "history", "check_date": "2023-10-07", "information": "board", "name": "Na b\u0159ehu Blanice", "tourism": "information"}}, {"type": "node", "id": 5331152627, "lat": 49.3088507, "lon": 14.1465877}, {"type": "node", "id": 5351880628, "lat": 49.303768, "lon": 14.1571321}, {"type": "node", "id": 5351880629, "lat": 49.3037454, "lon": 14.1572471}, {"type": "node", "id": 5351880630, "lat": 49.3038218, "lon": 14.1572825}, {"type": "node", "id": 5351880631, "lat": 49.3038444, "lon": 14.1571675}, {"type": "node", "id": 5384711049, "lat": 49.309802, "lon": 14.1451353}, {"type": "node", "id": 5384711050, "lat": 49.309855, "lon": 14.1459651}, {"type": "node", "id": 5384711051, "lat": 49.3098294, "lon": 14.1456375}, {"type": "node", "id": 5491564005, "lat": 49.2320804, "lon": 14.1357552, "tags": {"bicycle": "yes", "information": "guidepost", "tourism": "information"}}, {"type": "node", "id": 5491564008, "lat": 49.2327453, "lon": 14.135147, "tags": {"bicycle": "yes", "information": "guidepost", "tourism": "information"}}, {"type": "node", "id": 5491580342, "lat": 49.2768304, "lon": 14.1050358, "tags": {"bicycle": "yes", "information": "guidepost", "tourism": "information"}}, {"type": "node", "id": 5508412765, "lat": 49.3364253, "lon": 14.0999155, "tags": {"bicycle": "yes", "information": "guidepost", "tourism": "information"}}, {"type": "node", "id": 5508757140, "lat": 49.3354723, "lon": 14.0479255, "tags": {"bicycle": "yes", "information": "guidepost", "tourism": "information"}}, {"type": "node", "id": 5510960533, "lat": 49.3272652, "lon": 14.0198743, "tags": {"bicycle": "yes", "foot": "yes", "information": "route_marker", "ref": "none", "tourism": "information"}}, {"type": "node", "id": 5511247594, "lat": 49.3351546, "lon": 14.0424465, "tags": {"bicycle": "yes", "information": "guidepost", "tourism": "information"}}, {"type": "node", "id": 5511352458, "lat": 49.3272066, "lon": 14.0590078, "tags": {"bicycle": "yes", "information": "guidepost", "tourism": "information"}}, {"type": "node", "id": 5537571792, "lat": 49.3132001, "lon": 14.1456403, "tags": {"board_type": "notice", "information": "board", "tourism": "information"}}, {"type": "node", "id": 5537571802, "lat": 49.3136739, "lon": 14.1456711}, {"type": "node", "id": 5537571803, "lat": 49.3136654, "lon": 14.1456718}, {"type": "node", "id": 5537571804, "lat": 49.3136698, "lon": 14.1457699}, {"type": "node", "id": 5537571805, "lat": 49.3136781, "lon": 14.1457691}, {"type": "node", "id": 5537571809, "lat": 49.3136708, "lon": 14.1456804, "tags": {"board_type": "public_transport", "information": "board", "tourism": "information"}}, {"type": "node", "id": 5537618777, "lat": 49.3136093, "lon": 14.1470603}, {"type": "node", "id": 5537618778, "lat": 49.3136303, "lon": 14.1470573}, {"type": "node", "id": 5537618779, "lat": 49.3136063, "lon": 14.1470161}, {"type": "node", "id": 5537618780, "lat": 49.3136278, "lon": 14.1470131}, {"type": "node", "id": 5538178967, "lat": 49.3062597, "lon": 14.1486632}, {"type": "node", "id": 5538178968, "lat": 49.3061609, "lon": 14.1486606}, {"type": "node", "id": 5538178969, "lat": 49.3061587, "lon": 14.1488063}, {"type": "node", "id": 5538178970, "lat": 49.3062587, "lon": 14.1488089}, {"type": "node", "id": 5538178971, "lat": 49.3062034, "lon": 14.1488074}, {"type": "node", "id": 5538180321, "lat": 49.3062596, "lon": 14.1486861}, {"type": "node", "id": 5624719646, "lat": 49.1677911, "lon": 14.0912935, "tags": {"direction": "180-270", "name": "\u0160umavsk\u00e1 vyhl\u00eddka", "tourism": "viewpoint"}}, {"type": "node", "id": 5764486325, "lat": 49.2277477, "lon": 14.1755586, "tags": {"board_type": "nature", "information": "board", "name": "Na Sedli\u0161t\u00edch - \u017di\u017ek\u016fv brod", "tourism": "information"}}, {"type": "node", "id": 5764486326, "lat": 49.2200573, "lon": 14.1639837, "tags": {"information": "board", "name": "NS Na b\u0159ehu Blanice", "tourism": "information"}}, {"type": "node", "id": 5764486333, "lat": 49.2553033, "lon": 14.0059811, "tags": {"amenity": "shelter", "shelter_type": "picnic_shelter"}}, {"type": "node", "id": 5764486339, "lat": 49.287609, "lon": 14.0781789, "tags": {"amenity": "shelter", "shelter_type": "picnic_shelter"}}, {"type": "node", "id": 5764486341, "lat": 49.2624774, "lon": 14.1293219, "tags": {"amenity": "shelter", "shelter_type": "picnic_shelter"}}, {"type": "node", "id": 5796667983, "lat": 49.2927487, "lon": 14.1981793, "tags": {"board_type": "nature", "check_date": "2025-08-26", "information": "board", "name": "Jasanov\u00e9 porosty", "ref": "2", "tourism": "information"}}, {"type": "node", "id": 5796667984, "lat": 49.2952149, "lon": 14.1909047, "tags": {"board_type": "nature", "information": "board", "name": "Lesn\u00ed \u0161kolka", "ref": "2", "tourism": "information"}}, {"type": "node", "id": 5796667985, "lat": 49.304276, "lon": 14.1799032, "tags": {"amenity": "shelter", "shelter_type": "weather_shelter"}}, {"type": "node", "id": 5796667986, "lat": 49.3040705, "lon": 14.1801461, "tags": {"information": "board", "name": "Cesta drahokam\u016f", "tourism": "information"}}, {"type": "node", "id": 5796667987, "lat": 49.3052647, "lon": 14.179078, "tags": {"information": "board", "name": "Lesn\u00ed d\u0159eviny", "tourism": "information"}}, {"type": "node", "id": 5796667988, "lat": 49.3073213, "lon": 14.1758476, "tags": {"board_type": "nature", "information": "board", "name": "Oboj\u017eiveln\u00edci", "tourism": "information"}}, {"type": "node", "id": 5796667989, "lat": 49.308745, "lon": 14.1730206, "tags": {"board_type": "nature", "information": "board", "name": "Oboj\u017eiveln\u00edci", "tourism": "information"}}, {"type": "node", "id": 5796667993, "lat": 49.3279909, "lon": 14.0611869, "tags": {"amenity": "shelter", "shelter_type": "picnic_shelter"}}, {"type": "node", "id": 5796679743, "lat": 49.2174188, "lon": 14.1552765, "tags": {"amenity": "shelter", "shelter_type": "picnic_shelter"}}, {"type": "node", "id": 5810794289, "lat": 49.1696979, "lon": 14.1881931, "tags": {"amenity": "shelter", "shelter_type": "picnic_shelter"}}, {"type": "node", "id": 5810794290, "lat": 49.1700107, "lon": 14.1695579, "tags": {"board_type": "nature", "information": "board", "name": "P\u0159\u00edrodn\u00ed rezervace Sko\u010dick\u00fd Hrad", "tourism": "information"}}, {"type": "node", "id": 5810794291, "lat": 49.1750421, "lon": 14.1481537, "tags": {"amenity": "shelter"}}, {"type": "node", "id": 5810824046, "lat": 49.2591957, "lon": 14.0941817, "tags": {"board_type": "nature", "information": "board", "name": "Houby", "tourism": "information"}}, {"type": "node", "id": 5810824047, "lat": 49.2584735, "lon": 14.0918207, "tags": {"board_type": "nature", "information": "board", "name": "Rybn\u00edk\u00e1\u0159stv\u00ed", "tourism": "information"}}, {"type": "node", "id": 5810824048, "lat": 49.2595567, "lon": 14.0945694, "tags": {"board_type": "nature", "information": "board", "name": "Rostliny", "tourism": "information"}}, {"type": "node", "id": 5810824049, "lat": 49.2576105, "lon": 14.0982205, "tags": {"board_type": "nature", "information": "board", "name": "Tajupln\u00fd a skryt\u00fd sv\u011bt bezobratl\u00fdch", "tourism": "information"}}, {"type": "node", "id": 5810824050, "lat": 49.2553133, "lon": 14.0985006, "tags": {"board_type": "nature", "information": "board", "name": "Krou\u017ekov\u00e1n\u00ed pt\u00e1k\u016f", "tourism": "information"}}, {"type": "node", "id": 5810824051, "lat": 49.2528914, "lon": 14.0976068, "tags": {"board_type": "nature", "information": "board", "name": "\u00dazem\u00ed t\u016fn\u00ed", "tourism": "information"}}, {"type": "node", "id": 5810824052, "lat": 49.2523169, "lon": 14.097382, "tags": {"board_type": "nature", "information": "board", "name": "Geologie, Archeologie, Historie", "tourism": "information"}}, {"type": "node", "id": 5810824153, "lat": 49.2499227, "lon": 14.0962099, "tags": {"board_type": "nature", "information": "board", "name": "Savci", "tourism": "information"}}, {"type": "node", "id": 5810824154, "lat": 49.2497658, "lon": 14.0961264, "tags": {"information": "board", "tourism": "information"}}, {"type": "node", "id": 5810824156, "lat": 49.2331181, "lon": 14.134777, "tags": {"amenity": "shelter", "shelter_type": "picnic_shelter"}}, {"type": "node", "id": 5810824158, "lat": 49.2059286, "lon": 14.1511889, "tags": {"board_type": "history", "information": "board", "name": "Na Schwarzenbergsk\u00e9 cest\u011b", "ref": "12", "tourism": "information"}}, {"type": "node", "id": 5903589569, "lat": 49.1976467, "lon": 14.0994287, "tags": {"information": "map", "tourism": "information"}}, {"type": "node", "id": 5921389838, "lat": 49.34471, "lon": 14.1505128, "tags": {"board_type": "history", "information": "board", "name": "L\u00e1vka p\u0159es Vrcovick\u00fd potok", "ref": "8", "tourism": "information"}}, {"type": "node", "id": 5922958918, "lat": 49.3338873, "lon": 14.1648121, "tags": {"board_type": "history", "information": "board", "name": "St\u0159edov\u011bk\u00e9 zlatodoly", "ref": "6", "tourism": "information"}}, {"type": "node", "id": 5959661696, "lat": 49.3097764, "lon": 14.1964799, "tags": {"board_type": "nature", "information": "board", "name": "\u017divcov\u00fd lom U obr\u00e1zku", "tourism": "information"}}, {"type": "node", "id": 5959661697, "lat": 49.3098828, "lon": 14.1962026, "tags": {"amenity": "shelter", "shelter_type": "picnic_shelter"}}, {"type": "node", "id": 5959661698, "lat": 49.3161434, "lon": 14.1871085, "tags": {"board_type": "nature", "information": "board", "name": "Lom - Kamenn\u00e9 doly", "ref": "4", "tourism": "information"}}, {"type": "node", "id": 5959661699, "lat": 49.3168813, "lon": 14.1833382, "tags": {"board_type": "nature", "information": "board", "name": "J\u00e1my po t\u011b\u017eb\u011b v\u00e1pence", "ref": "3", "tourism": "information"}}, {"type": "node", "id": 5959661700, "lat": 49.3237862, "lon": 14.1779383, "tags": {"board_type": "nature", "information": "board", "name": "Brlo\u017enice", "ref": "2", "tourism": "information"}}, {"type": "node", "id": 5959661701, "lat": 49.3359185, "lon": 14.1692336, "tags": {"board_type": "nature", "information": "board", "name": "S\u00fdkorka - vyhl\u00eddka", "ref": "4", "tourism": "information"}}, {"type": "node", "id": 5959661702, "lat": 49.3036528, "lon": 14.168869, "tags": {"board_type": "nature", "information": "board", "name": "Turmal\u00ednov\u00e9 skvrny", "ref": "3", "tourism": "information"}}, {"type": "node", "id": 6035090236, "lat": 49.2519855, "lon": 14.1934881, "tags": {"name": "Poh\u00e1dkov\u00e1 kov\u00e1rna", "tourism": "attraction"}}, {"type": "node", "id": 6283115980, "lat": 49.1844995, "lon": 14.1032838, "tags": {"amenity": "shelter", "shelter_type": "picnic_shelter"}}, {"type": "node", "id": 6283115981, "lat": 49.184485, "lon": 14.1033574, "tags": {"information": "map", "tourism": "information"}}, {"type": "node", "id": 6284794857, "lat": 49.1606634, "lon": 14.1992014, "tags": {"amenity": "shelter", "shelter_type": "picnic_shelter"}}, {"type": "node", "id": 6284794858, "lat": 49.1606405, "lon": 14.199178, "tags": {"board_type": "information", "information": "board", "tourism": "information"}}, {"type": "node", "id": 6284794873, "lat": 49.1748889, "lon": 14.1484811, "tags": {"amenity": "shelter", "shelter_type": "picnic_shelter"}}, {"type": "node", "id": 6284794875, "lat": 49.1700488, "lon": 14.1532229, "tags": {"board_type": "information", "information": "board", "name": "K\u0159t\u011btice", "tourism": "information"}}, {"type": "node", "id": 6284794878, "lat": 49.1620668, "lon": 14.1587227, "tags": {"board_type": "nature", "information": "board", "name": "Ryby", "tourism": "information"}}, {"type": "node", "id": 6284794879, "lat": 49.158765, "lon": 14.16084, "tags": {"amenity": "shelter", "shelter_type": "picnic_shelter"}}, {"type": "node", "id": 6284794880, "lat": 49.1587334, "lon": 14.1608871, "tags": {"board_type": "history", "information": "board", "name": "Historie vodn\u00edch ml\u00fdn\u016f na Vod\u0148ansku", "tourism": "information"}}, {"type": "node", "id": 6284794881, "lat": 49.1588055, "lon": 14.1607909, "tags": {"board_type": "nature", "information": "board", "name": "Vegetace, \u017eivo\u010distvo", "tourism": "information"}}, {"type": "node", "id": 6284794883, "lat": 49.1572001, "lon": 14.1621672, "tags": {"board_type": "nature", "information": "board", "name": "Hydrologick\u00e9 podm\u00ednky", "tourism": "information"}}, {"type": "node", "id": 6284794884, "lat": 49.1549164, "lon": 14.1652914, "tags": {"board_type": "nature", "information": "board", "name": "Geologick\u00e1 charakteristika Vod\u0148anska", "tourism": "information"}}, {"type": "node", "id": 6284795985, "lat": 49.153402, "lon": 14.1701369, "tags": {"board_type": "information", "information": "board", "name": "Ryb\u00e1\u0159sk\u00e1 \u0161kola", "tourism": "information"}}, {"type": "node", "id": 6284795986, "lat": 49.1533484, "lon": 14.1701888, "tags": {"board_type": "information", "information": "board", "name": "Jiho\u010desk\u00e1 univerzita v \u010cB", "tourism": "information"}}, {"type": "node", "id": 6685423909, "lat": 49.2064299, "lon": 14.1503004, "tags": {"board_type": "history", "information": "board", "name": "Kapli\u010dka Svat\u00e9ho V\u00edta", "ref": "11", "tourism": "information"}}, {"type": "node", "id": 6685424508, "lat": 49.3272022, "lon": 14.0202216, "tags": {"amenity": "shelter", "shelter_type": "picnic_shelter"}}, {"type": "node", "id": 6685424510, "lat": 49.3175833, "lon": 14.0183121, "tags": {"amenity": "shelter"}}, {"type": "node", "id": 6685424511, "lat": 49.307652, "lon": 14.0388571, "tags": {"amenity": "shelter", "shelter_type": "picnic_shelter"}}, {"type": "node", "id": 6685424513, "lat": 49.2688452, "lon": 14.1196785, "tags": {"amenity": "shelter", "bin": "yes", "lit": "no", "lockable": "no", "shelter_type": "picnic_shelter"}}, {"type": "node", "id": 7499161487, "lat": 49.1583321, "lon": 14.1587153, "tags": {"board_type": "nature", "information": "board", "name": "Rybn\u00edky", "tourism": "information"}}, {"type": "node", "id": 7499161488, "lat": 49.1584711, "lon": 14.1678702, "tags": {"board_type": "nature", "information": "board", "name": "V Kor\u00fdtk\u00e1ch", "tourism": "information"}}, {"type": "node", "id": 7499161490, "lat": 49.1599808, "lon": 14.1676368, "tags": {"board_type": "nature", "information": "board", "name": "Rybn\u00edky", "tourism": "information"}}, {"type": "node", "id": 7499203924, "lat": 49.1608407, "lon": 14.1739512, "tags": {"board_type": "nature", "information": "board", "name": "V lese", "ref": "11", "tourism": "information"}}, {"type": "node", "id": 7499203925, "lat": 49.1607185, "lon": 14.1749135, "tags": {"board_type": "nature", "information": "board", "name": "U Kudli\u010dky", "ref": "9", "tourism": "information"}}, {"type": "node", "id": 7499203926, "lat": 49.1606632, "lon": 14.1753576, "tags": {"board_type": "nature", "information": "board", "name": "U \u0161utr\u016f", "ref": "8", "tourism": "information"}}, {"type": "node", "id": 7499203927, "lat": 49.1605891, "lon": 14.1755936, "tags": {"board_type": "nature", "information": "board", "name": "U rybn\u00edka", "ref": "7", "tourism": "information"}}, {"type": "node", "id": 7499203928, "lat": 49.160736, "lon": 14.176038, "tags": {"board_type": "nature", "information": "board", "name": "Na n\u00e1m\u011bst\u00ed", "ref": "6", "tourism": "information"}}, {"type": "node", "id": 7499203929, "lat": 49.1599815, "lon": 14.1770154, "tags": {"board_type": "nature", "information": "board", "name": "U P\u0159\u00edhody", "ref": "2", "tourism": "information"}}, {"type": "node", "id": 7499203930, "lat": 49.1596904, "lon": 14.176928, "tags": {"board_type": "information", "information": "board", "name": "St\u0159edn\u00ed ryb\u00e1\u0159sk\u00e1 \u0161kola", "tourism": "information"}}, {"type": "node", "id": 7499227406, "lat": 49.1561482, "lon": 14.1805046, "tags": {"board_type": "information", "information": "board", "name": "Jiho\u010desk\u00e1 univerzita v \u010cB", "tourism": "information"}}, {"type": "node", "id": 7499227410, "lat": 49.1576777, "lon": 14.1808711, "tags": {"board_type": "nature", "information": "board", "name": "Vyza velk\u00e1", "ref": "2", "tourism": "information"}}, {"type": "node", "id": 7501760700, "lat": 49.1602577, "lon": 14.1768679, "tags": {"board_type": "nature", "information": "board", "name": "U ba\u0161ty", "ref": "3", "tourism": "information"}}, {"type": "node", "id": 7501760701, "lat": 49.1605049, "lon": 14.1765307, "tags": {"board_type": "nature", "information": "board", "name": "U sil\u00e1k\u016f", "ref": "4", "tourism": "information"}}, {"type": "node", "id": 7501760702, "lat": 49.1599533, "lon": 14.1771122, "tags": {"board_type": "nature", "information": "board", "name": "Na vyhl\u00eddce", "ref": "1", "tourism": "information"}}, {"type": "node", "id": 7501760703, "lat": 49.1606274, "lon": 14.1758988, "tags": {"board_type": "nature", "information": "board", "name": "Na stop\u011b", "ref": "5", "tourism": "information"}}, {"type": "node", "id": 7501760704, "lat": 49.1607595, "lon": 14.1743856, "tags": {"board_type": "nature", "information": "board", "name": "Na kopci", "ref": "10", "tourism": "information"}}, {"type": "node", "id": 7501760705, "lat": 49.1608791, "lon": 14.1735283, "tags": {"board_type": "nature", "information": "board", "name": "V dutin\u011b", "ref": "12", "tourism": "information"}}, {"type": "node", "id": 7501760706, "lat": 49.160915, "lon": 14.1732274, "tags": {"board_type": "nature", "information": "board", "name": "Na louce", "ref": "13", "tourism": "information"}}, {"type": "node", "id": 7501760707, "lat": 49.1608897, "lon": 14.1730751, "tags": {"board_type": "nature", "information": "board", "name": "U Zrzav\u00e9ho", "ref": "14", "tourism": "information"}}, {"type": "node", "id": 7525359533, "lat": 49.2257439, "lon": 14.1275092, "tags": {"name": "vyhl\u00eddkov\u00e1 terasa", "tourism": "viewpoint"}}, {"type": "node", "id": 7529976198, "lat": 49.1541049, "lon": 14.180781, "tags": {"board_type": "history", "information": "board", "name": "Ml\u00fdny", "tourism": "information"}}, {"type": "node", "id": 7566008475, "lat": 49.3027143, "lon": 14.1553729, "tags": {"information": "map", "tourism": "information"}}, {"type": "node", "id": 7626040431, "lat": 49.242076, "lon": 14.0640606, "tags": {"ele": "390", "natural": "peak"}}, {"type": "node", "id": 7632849337, "lat": 49.30814, "lon": 14.1862876, "tags": {"board_type": "nature", "information": "board", "name": "Vyhl\u00eddka p\u00edseck\u00fdch lesn\u00edk\u016f", "ref": "7", "tourism": "information"}}, {"type": "node", "id": 7632849338, "lat": 49.308074, "lon": 14.1862741, "tags": {"board_type": "information", "information": "board", "name": "Cesta bolestn\u00fdch kamen\u016f", "tourism": "information"}}, {"type": "node", "id": 7632849346, "lat": 49.3079168, "lon": 14.1827446, "tags": {"information": "guidepost", "tourism": "information"}}, {"type": "node", "id": 7632849351, "lat": 49.3105739, "lon": 14.1848833, "tags": {"information": "guidepost", "tourism": "information"}}, {"type": "node", "id": 7632849354, "lat": 49.3121056, "lon": 14.1854254, "tags": {"information": "guidepost", "tourism": "information"}}, {"type": "node", "id": 7632849358, "lat": 49.3119435, "lon": 14.1801487, "tags": {"information": "guidepost", "tourism": "information"}}, {"type": "node", "id": 7632849364, "lat": 49.3097989, "lon": 14.1746069, "tags": {"board_type": "history", "information": "board", "name": "U Vod\u00e1ka", "tourism": "information"}}, {"type": "node", "id": 7632849365, "lat": 49.3097831, "lon": 14.1745785, "tags": {"board_type": "information", "information": "board", "name": "Cesta bolestn\u00fdch kamen\u016f", "tourism": "information"}}, {"type": "node", "id": 7632849366, "lat": 49.3099703, "lon": 14.1749455, "tags": {"information": "guidepost", "tourism": "information"}}, {"type": "node", "id": 7632963312, "lat": 49.308633, "lon": 14.1690031, "tags": {"information": "map", "name": "Sportovn\u00ed stezka na Americe", "tourism": "information"}}, {"type": "node", "id": 7632963328, "lat": 49.3056461, "lon": 14.1684932, "tags": {"board_type": "nature", "information": "board", "name": "Jilm habrolist\u00fd", "ref": "7", "tourism": "information"}}, {"type": "node", "id": 7632963332, "lat": 49.3061525, "lon": 14.1700251, "tags": {"board_type": "nature", "information": "board", "name": "Buk krvav\u00fd", "ref": "8", "tourism": "information"}}, {"type": "node", "id": 7632963333, "lat": 49.3064659, "lon": 14.170848, "tags": {"board_type": "nature", "information": "board", "ref": "9", "tourism": "information"}}, {"type": "node", "id": 7632963338, "lat": 49.3064071, "lon": 14.1740345, "tags": {"board_type": "history", "information": "board", "name": "Pomn\u00edk z 1. sv\u011btov\u00e9 v\u00e1lky", "ref": "10", "tourism": "information"}}, {"type": "node", "id": 7632973709, "lat": 49.3072094, "lon": 14.1759284, "tags": {"information": "map", "name": "Sportovn\u00ed stezka na Americe", "tourism": "information"}}, {"type": "node", "id": 7633008081, "lat": 49.296199, "lon": 14.1920262, "tags": {"board_type": "information", "information": "board", "name": "Obnova lesa + tripexeso", "ref": "3", "tourism": "information"}}, {"type": "node", "id": 7633008082, "lat": 49.2974352, "lon": 14.1919023, "tags": {"board_type": "information", "information": "board", "name": "Lesn\u00edk", "ref": "10", "tourism": "information"}}, {"type": "node", "id": 7633008083, "lat": 49.2978333, "lon": 14.1921512, "tags": {"board_type": "information", "information": "board", "name": "Zpracov\u00e1n\u00ed a vyu\u017eit\u00ed d\u0159eva", "ref": "9", "tourism": "information"}}, {"type": "node", "id": 7633008084, "lat": 49.2977791, "lon": 14.1927697, "tags": {"board_type": "information", "information": "board", "name": "T\u011b\u017eba", "ref": "8", "tourism": "information"}}, {"type": "node", "id": 7633033085, "lat": 49.2977327, "lon": 14.1935938, "tags": {"board_type": "information", "information": "board", "name": "K \u010demu les slou\u017e\u00ed", "ref": "7", "tourism": "information"}}, {"type": "node", "id": 7633033086, "lat": 49.2969994, "lon": 14.1940782, "tags": {"board_type": "information", "information": "board", "name": "V\u00fdchova porost\u016f - prob\u00edrka + pt\u00e1ci", "ref": "6", "tourism": "information"}}, {"type": "node", "id": 7633033087, "lat": 49.2964438, "lon": 14.1939183, "tags": {"board_type": "information", "information": "board", "name": "V\u00fdchova porost\u016f - pro\u0159ez\u00e1vka + stopy zv\u00ed\u0159at", "ref": "5", "tourism": "information"}}, {"type": "node", "id": 7633033088, "lat": 49.2964496, "lon": 14.1929825, "tags": {"board_type": "information", "information": "board", "name": "Ochrana lesa + dosko\u010di\u0161t\u011b", "ref": "4", "tourism": "information"}}, {"type": "node", "id": 7633033089, "lat": 49.2939467, "lon": 14.1906277, "tags": {"information": "map", "name": "Od sem\u00ednka k bydlen\u00ed", "tourism": "information"}}, {"type": "node", "id": 7633033090, "lat": 49.2937988, "lon": 14.1906596, "tags": {"board_type": "information", "information": "board", "name": "Lesn\u00ed semen\u00e1\u0159stv\u00ed", "ref": "1", "tourism": "information"}}, {"type": "node", "id": 7633101635, "lat": 49.2936721, "lon": 14.1905218, "tags": {"information": "map", "name": "P\u00edseck\u00e9 hory", "tourism": "information"}}, {"type": "node", "id": 7633142486, "lat": 49.24302, "lon": 14.1527998, "tags": {"board_type": "nature", "information": "board", "name": "P\u0159irozen\u00e1 obnova lesa", "tourism": "information"}}, {"type": "node", "id": 7633142487, "lat": 49.2437766, "lon": 14.1688274, "tags": {"board_type": "nature", "information": "board", "name": "Jiho\u010desk\u00e9 p\u00e1nve - krajina rybn\u00edk\u016f", "tourism": "information"}}, {"type": "node", "id": 7633142488, "lat": 49.2439102, "lon": 14.1691044, "tags": {"hiking": "yes", "information": "guidepost", "name": "Ho\u0159ej\u0161\u00ed rybn\u00edk", "operator": "cz:K\u010cT", "ref": "PI431", "tourism": "information"}}, {"type": "node", "id": 7633142489, "lat": 49.2469592, "lon": 14.1717604, "tags": {"board_type": "nature", "information": "board", "name": "H\u016frky a geologie", "tourism": "information"}}, {"type": "node", "id": 7633142490, "lat": 49.2503643, "lon": 14.1743595, "tags": {"board_type": "nature", "information": "board", "name": "Mravenci", "tourism": "information"}}, {"type": "node", "id": 7633142491, "lat": 49.2541033, "lon": 14.1699359, "tags": {"board_type": "nature", "information": "board", "name": "Tajemn\u00e1 m\u00edsta", "tourism": "information"}}, {"type": "node", "id": 7633142492, "lat": 49.2562547, "lon": 14.1714454, "tags": {"board_type": "nature", "information": "board", "name": "Maletick\u00e1 k\u0159i\u017eatka", "tourism": "information"}}, {"type": "node", "id": 7633142493, "lat": 49.2593632, "lon": 14.1687401, "tags": {"board_type": "nature", "information": "board", "name": "Ochrana lesa proti k\u016frovci", "tourism": "information"}}, {"type": "node", "id": 7633142494, "lat": 49.2635475, "lon": 14.1660073, "tags": {"board_type": "nature", "information": "board", "name": "Doupn\u00e9 stromy", "tourism": "information"}}, {"type": "node", "id": 7633142495, "lat": 49.2661474, "lon": 14.1623999, "tags": {"board_type": "nature", "information": "board", "name": "H\u016frky a historie", "tourism": "information"}}, {"type": "node", "id": 7633142496, "lat": 49.2686369, "lon": 14.1598647, "tags": {"board_type": "nature", "information": "board", "name": "U dubu", "tourism": "information"}}, {"type": "node", "id": 7633142497, "lat": 49.2666183, "lon": 14.1510766, "tags": {"board_type": "nature", "information": "board", "name": "Jiho\u010desk\u00e1 krajina poetick\u00e1", "tourism": "information"}}, {"type": "node", "id": 7633142498, "lat": 49.2646775, "lon": 14.1506807, "tags": {"board_type": "nature", "information": "board", "name": "Oborn\u00ed chov zv\u011b\u0159e", "tourism": "information"}}, {"type": "node", "id": 7633142499, "lat": 49.2595662, "lon": 14.149959, "tags": {"board_type": "nature", "information": "board", "name": "U kamene", "tourism": "information"}}, {"type": "node", "id": 7633142500, "lat": 49.2565995, "lon": 14.1477044, "tags": {"board_type": "nature", "information": "board", "name": "Voda d\u00e1rkyn\u011b \u017eivota", "tourism": "information"}}, {"type": "node", "id": 7633142501, "lat": 49.2539366, "lon": 14.1450886, "tags": {"board_type": "nature", "information": "board", "name": "Um\u011bl\u00e1 obnova lesa", "tourism": "information"}}, {"type": "node", "id": 7633142502, "lat": 49.2477098, "lon": 14.1443325, "tags": {"board_type": "nature", "information": "board", "name": "Lesn\u00ed \u0161kolky", "tourism": "information"}}, {"type": "node", "id": 7633142505, "lat": 49.2390305, "lon": 14.1485613, "tags": {"board_type": "nature", "information": "board", "name": "Vodn\u00ed toky a \u010dlov\u011bk", "tourism": "information"}}, {"type": "node", "id": 7633142506, "lat": 49.2388344, "lon": 14.1494802, "tags": {"board_type": "nature", "information": "board", "name": "Mok\u0159ad", "tourism": "information"}}, {"type": "node", "id": 7633142508, "lat": 49.2376236, "lon": 14.1509174, "tags": {"board_type": "nature", "information": "board", "name": "Les kolem n\u00e1s", "tourism": "information"}}, {"type": "node", "id": 7707753144, "lat": 49.2483363, "lon": 14.0709362, "tags": {"information": "guidepost", "name": "Markovec (ryb.)", "operator": "cz:K\u010cT", "tourism": "information"}}, {"type": "node", "id": 7707778271, "lat": 49.3063587, "lon": 14.108038, "tags": {"tourism": "viewpoint"}}, {"type": "node", "id": 7791169806, "lat": 49.3098852, "lon": 14.1463409}, {"type": "node", "id": 8311120903, "lat": 49.2942876, "lon": 14.1942579, "tags": {"information": "map", "name": "P\u00edseck\u00e9 hory", "tourism": "information"}}, {"type": "node", "id": 8474825451, "lat": 49.3433674, "lon": 14.1510327, "tags": {"information": "board", "name": "Z historie otavsk\u00e9 voroplavby I.", "tourism": "information"}}, {"type": "node", "id": 8474841415, "lat": 49.3510058, "lon": 14.1439777, "tags": {"information": "board", "name": "U Topinkova ml\u00fdna", "tourism": "information"}}, {"type": "node", "id": 8499926642, "lat": 49.3081759, "lon": 14.1434152}, {"type": "node", "id": 8499926643, "lat": 49.3081823, "lon": 14.1434921}, {"type": "node", "id": 8499926644, "lat": 49.3081984, "lon": 14.1434107}, {"type": "node", "id": 8756326723, "lat": 49.3062406, "lon": 14.1488084}, {"type": "node", "id": 8756326725, "lat": 49.3062597, "lon": 14.148672}, {"type": "node", "id": 8827773264, "lat": 49.3098884, "lon": 14.1463941}, {"type": "node", "id": 8828253472, "lat": 49.307068, "lon": 14.1463985, "tags": {"direction": "280", "tourism": "viewpoint"}}, {"type": "node", "id": 8831905255, "lat": 49.1885188, "lon": 14.1407988, "tags": {"amenity": "shelter", "shelter_type": "picnic_shelter"}}, {"type": "node", "id": 8831907689, "lat": 49.1921397, "lon": 14.0519527, "tags": {"amenity": "shelter", "shelter_type": "picnic_shelter"}}, {"type": "node", "id": 8831907700, "lat": 49.2025511, "lon": 14.0389339, "tags": {"amenity": "shelter", "shelter_type": "picnic_shelter"}}, {"type": "node", "id": 9045751646, "lat": 49.1613722, "lon": 14.1750152, "tags": {"board_type": "nature", "information": "board", "name": "Ryzec syrovinka", "ref": "7", "tourism": "information"}}, {"type": "node", "id": 9045751647, "lat": 49.16136, "lon": 14.1752398, "tags": {"amenity": "shelter", "shelter_type": "picnic_shelter"}}, {"type": "node", "id": 9045751648, "lat": 49.1614347, "lon": 14.1758056, "tags": {"board_type": "nature", "information": "board", "name": "Holubinka tr\u00e1vozelen\u00e1", "ref": "6", "tourism": "information"}}, {"type": "node", "id": 9045751650, "lat": 49.1612232, "lon": 14.1772136, "tags": {"board_type": "nature", "information": "board", "name": "K\u0159emen\u00e1\u010d krvav\u00fd", "ref": "5", "tourism": "information"}}, {"type": "node", "id": 9045751652, "lat": 49.1610797, "lon": 14.1778128, "tags": {"board_type": "nature", "information": "board", "name": "Muchom\u016frka \u010derven\u00e1", "ref": "4", "tourism": "information"}}, {"type": "node", "id": 9045751654, "lat": 49.1607149, "lon": 14.1779446, "tags": {"board_type": "nature", "information": "board", "name": "Bedla vysok\u00e1", "ref": "3", "tourism": "information"}}, {"type": "node", "id": 9045751655, "lat": 49.160449, "lon": 14.1775929, "tags": {"board_type": "nature", "information": "board", "name": "Klouzek sli\u010dn\u00fd", "ref": "2", "tourism": "information"}}, {"type": "node", "id": 9045751656, "lat": 49.160114, "lon": 14.1776766, "tags": {"name": "Vyhl\u00eddka u ryb\u00e1\u0159sk\u00e9 \u0161koly", "tourism": "viewpoint"}}, {"type": "node", "id": 9045751657, "lat": 49.1601194, "lon": 14.1777081, "tags": {"board_type": "nature", "information": "board", "name": "H\u0159ib borov\u00fd", "ref": "1", "tourism": "information"}}, {"type": "node", "id": 9045751658, "lat": 49.15994, "lon": 14.1775296, "tags": {"information": "map", "name": "Stezka V Z\u00e1ti\u0161\u00ed", "tourism": "information"}}, {"type": "node", "id": 9045751659, "lat": 49.1598876, "lon": 14.1771891, "tags": {"information": "map", "name": "Stezka \u010d\u00e1pa Vod\u0148ana", "tourism": "information"}}, {"type": "node", "id": 9045751660, "lat": 49.1603662, "lon": 14.176954, "tags": {"amenity": "shelter", "shelter_type": "picnic_shelter"}}, {"type": "node", "id": 9045751661, "lat": 49.160992, "lon": 14.1733415, "tags": {"board_type": "nature", "information": "board", "name": "Li\u0161ka obecn\u00e1", "ref": "8", "tourism": "information"}}, {"type": "node", "id": 9066836541, "lat": 49.2378382, "lon": 14.1076819, "tags": {"board_type": "history", "information": "board", "name": "Len\u00ed rozcest\u00ed", "ref": "4", "tourism": "information"}}, {"type": "node", "id": 9066836544, "lat": 49.2377298, "lon": 14.1132454, "tags": {"amenity": "shelter", "shelter_type": "picnic_shelter"}}, {"type": "node", "id": 9066836545, "lat": 49.2377202, "lon": 14.113308, "tags": {"board_type": "history", "information": "board", "name": "Zlat\u00fd vrch", "ref": "5", "tourism": "information"}}, {"type": "node", "id": 9066836546, "lat": 49.24232, "lon": 14.1015504, "tags": {"board_type": "history", "information": "board", "name": "N\u00e1ves vesnice", "ref": "2", "tourism": "information"}}, {"type": "node", "id": 9066836547, "lat": 49.2450161, "lon": 14.1080003, "tags": {"board_type": "history", "information": "board", "name": "N\u00e1dra\u017e\u00ed \u010cD", "ref": "1", "tourism": "information"}}, {"type": "node", "id": 9066857365, "lat": 49.2378758, "lon": 14.107727, "tags": {"board_type": "history", "information": "board", "name": "Ly\u017ea\u0159sk\u00fd skokansk\u00fd m\u016fstek na Zlat\u00e9m vrchu u Ra\u017eic", "tourism": "information"}}, {"type": "node", "id": 9066911561, "lat": 49.2808163, "lon": 14.0810613, "tags": {"amenity": "shelter", "shelter_type": "picnic_shelter"}}, {"type": "node", "id": 9098092535, "lat": 49.3079682, "lon": 14.1476379, "tags": {"hiking": "yes", "information": "guidepost", "tourism": "information"}}, {"type": "node", "id": 9098092731, "lat": 49.3097863, "lon": 14.1467262, "tags": {"bicycle": "yes", "information": "guidepost", "tourism": "information"}}, {"type": "node", "id": 9098750333, "lat": 49.3097554, "lon": 14.1450002, "tags": {"board_type": "history", "information": "board", "tourism": "information"}}, {"type": "node", "id": 9160203667, "lat": 49.2596428, "lon": 14.149973, "tags": {"amenity": "shelter", "bench": "yes", "bin": "no", "lit": "no", "lockable": "no", "shelter_type": "Wetterpilz", "wheelchair": "no"}}, {"type": "node", "id": 9160957342, "lat": 49.264856, "lon": 14.1190777, "tags": {"board_type": "history", "information": "board", "name": "Kostel sv. Vav\u0159ince", "tourism": "information"}}, {"type": "node", "id": 9162293994, "lat": 49.2642783, "lon": 14.1188544, "tags": {"board_type": "notice", "information": "board", "tourism": "information"}}, {"type": "node", "id": 9162293996, "lat": 49.2637421, "lon": 14.1192139, "tags": {"board_type": "information", "information": "board", "name": "\u00da\u0159edn\u00ed deska O\u00da Putim", "tourism": "information"}}, {"type": "node", "id": 9162293999, "lat": 49.2642253, "lon": 14.1190216, "tags": {"board_type": "notice", "information": "board", "tourism": "information"}}, {"type": "node", "id": 9162294000, "lat": 49.2638976, "lon": 14.1187635, "tags": {"information": "map", "map_size": "region", "map_type": "hiking", "tourism": "information"}}, {"type": "node", "id": 9162294002, "lat": 49.2647686, "lon": 14.1191451, "tags": {"information": "map", "map_size": "local", "map_type": "scheme", "tourism": "information"}}, {"type": "node", "id": 9162294004, "lat": 49.2639289, "lon": 14.1187137, "tags": {"board_type": "notice", "information": "board", "tourism": "information"}}, {"type": "node", "id": 9180229067, "lat": 49.2398028, "lon": 14.1041179, "tags": {"amenity": "shelter", "shelter_type": "picnic_shelter"}}, {"type": "node", "id": 9180229071, "lat": 49.2512449, "lon": 14.0961301, "tags": {"tourism": "viewpoint"}}, {"type": "node", "id": 9180229112, "lat": 49.3042604, "lon": 14.1170722, "tags": {"information": "map", "name": "Bosou nohou kolem Hradi\u0161tsk\u00e9ho kopce", "tourism": "information"}}, {"type": "node", "id": 9180280539, "lat": 49.3062324, "lon": 14.1499755, "tags": {"board_type": "history", "information": "board", "name": "Melegnansk\u00fd pomn\u00edk", "name:en": "The Melegnano memorial", "tourism": "information"}}, {"type": "node", "id": 9180285322, "lat": 49.3069095, "lon": 14.120305, "tags": {"board_type": "nature", "information": "board", "name": "Poznej stopy zv\u011b\u0159e", "tourism": "information"}}, {"type": "node", "id": 9180285324, "lat": 49.3068473, "lon": 14.122646, "tags": {"board_type": "nature", "information": "board", "name": "Srnec obecn\u00fd", "tourism": "information"}}, {"type": "node", "id": 9180285327, "lat": 49.3042545, "lon": 14.1249413, "tags": {"information": "map", "name": "Bosou nohou kolem Hradi\u0161tsk\u00e9ho kopce", "tourism": "information"}}, {"type": "node", "id": 9180285328, "lat": 49.3067042, "lon": 14.1172335, "tags": {"board_type": "nature", "information": "board", "name": "Strom jako d\u016fm", "tourism": "information"}}, {"type": "node", "id": 9264181701, "lat": 49.3483063, "lon": 14.144401, "tags": {"board_type": "history", "information": "board", "name": "V\u00edtejte na odpo\u010d\u00edvadle Sejpy", "tourism": "information"}}, {"type": "node", "id": 9405982274, "lat": 49.3097676, "lon": 14.1448018, "tags": {"board_type": "history", "information": "board", "tourism": "information"}}, {"type": "node", "id": 9580132652, "lat": 49.3079718, "lon": 14.1254953, "tags": {"bicycle": "yes", "information": "guidepost", "operator": "cz:K\u010cT", "ref": "none", "tourism": "information"}}, {"type": "node", "id": 9848753470, "lat": 49.2249616, "lon": 14.1085174, "tags": {"horse": "yes", "information": "guidepost", "operator": "cz:K\u010cT", "ref": "PI014", "tourism": "information"}}, {"type": "node", "id": 9848753472, "lat": 49.2270911, "lon": 14.0921103, "tags": {"horse": "yes", "information": "guidepost", "name": "\u0160t\u011btice", "operator": "cz:K\u010cT", "ref": "PI013", "tourism": "information"}}, {"type": "node", "id": 9848770087, "lat": 49.2967513, "lon": 14.0452405, "tags": {"amenity": "shelter", "shelter_type": "picnic_shelter"}}, {"type": "node", "id": 9961054169, "lat": 49.1545978, "lon": 14.180185, "tags": {"description": "\u010cesk\u00fd ryb\u00e1\u0159sk\u00fd svaz", "information": "board", "name": "Blanice Vod\u0148ask\u00e1 3", "tourism": "information"}}, {"type": "node", "id": 10106343770, "lat": 49.2623286, "lon": 14.129432, "tags": {"board_type": "information", "information": "board", "tourism": "information"}}, {"type": "node", "id": 10106343771, "lat": 49.262476, "lon": 14.1294026, "tags": {"information": "map", "map_size": "region", "map_type": "hiking", "name": "P\u00edsecko", "tourism": "information"}}, {"type": "node", "id": 10106343772, "lat": 49.2634418, "lon": 14.1233507, "tags": {"information": "guidepost", "material": "metal", "tourism": "information"}}, {"type": "node", "id": 10795512755, "lat": 49.155034, "lon": 14.1803258, "tags": {"ele": "391", "horse": "yes", "information": "guidepost", "name": "Vod\u0148any", "operator": "cz:K\u010cT", "ref": "ST021", "tourism": "information"}}, {"type": "node", "id": 10848381760, "lat": 49.2635461, "lon": 14.1192542, "tags": {"description": "Osm zastaven\u00ed na cest\u011b Putim\u00ed", "information": "board", "name": "N\u00e1ves - h\u0159i\u0161t\u011b", "ref": "3", "tourism": "information"}}, {"type": "node", "id": 10848391869, "lat": 49.2654928, "lon": 14.1188519, "tags": {"description": "Osm zastaven\u00ed na cest\u011b Putim\u00ed", "information": "board", "name": "Fara a kostel", "ref": "7", "tourism": "information"}}, {"type": "node", "id": 10848400269, "lat": 49.2644428, "lon": 14.1177736, "tags": {"description": "Osm zastaven\u00ed na cest\u011b Putim\u00ed", "information": "board", "name": "\u010cetnick\u00e1 stanice", "ref": "2", "tourism": "information"}}, {"type": "node", "id": 10848415894, "lat": 49.2647647, "lon": 14.1141311, "tags": {"description": "Osm zastaven\u00ed na cest\u011b Putim\u00ed", "information": "board", "name": "Ml\u00fdn, historick\u00e9 mosty", "ref": "1", "tourism": "information"}}, {"type": "node", "id": 10848422074, "lat": 49.2657778, "lon": 14.1178433, "tags": {"description": "Osm zastaven\u00ed na cest\u011b Putim\u00ed", "information": "board", "name": "Ad\u00e1mk\u016fv statek", "ref": "8", "tourism": "information"}}, {"type": "node", "id": 10848429402, "lat": 49.2642992, "lon": 14.1208044, "tags": {"description": "Osm zastaven\u00ed na cest\u011b Putim\u00ed", "information": "board", "name": "Rybn\u00edk - soustava rybn\u00edk\u016f", "ref": "6", "tourism": "information"}}, {"type": "node", "id": 10848433371, "lat": 49.2627658, "lon": 14.1199033, "tags": {"description": "Osm zastaven\u00ed na cest\u011b Putim\u00ed", "information": "board", "name": "N\u00e1ves - Cimbur\u016fv statek", "ref": "4", "tourism": "information"}}, {"type": "node", "id": 10848435572, "lat": 49.2654853, "lon": 14.1131376, "tags": {"description": "Osm zastaven\u00ed na cest\u011b Putim\u00ed", "information": "board", "name": "Parkovi\u0161t\u011b", "ref": "0", "tourism": "information"}}, {"type": "node", "id": 10848440201, "lat": 49.2633156, "lon": 14.1231917, "tags": {"description": "Osm zastaven\u00ed na cest\u011b Putim\u00ed", "information": "board", "name": "Rybn\u00edk - u k\u0159\u00ed\u017eku", "ref": "5", "tourism": "information"}}, {"type": "node", "id": 10926950794, "lat": 49.2360997, "lon": 14.1350542, "tags": {"amenity": "shelter", "shelter_type": "picnic_shelter"}}, {"type": "node", "id": 10926950796, "lat": 49.2305384, "lon": 14.1264341, "tags": {"amenity": "shelter", "shelter_type": "picnic_shelter"}}, {"type": "node", "id": 10926950798, "lat": 49.2077004, "lon": 14.1680808, "tags": {"board_type": "history", "information": "board", "name": "Historick\u00e9 stezky v regionu", "ref": "13", "tourism": "information"}}, {"type": "node", "id": 11009810513, "lat": 49.1610789, "lon": 14.1832736, "tags": {"information": "map", "tourism": "information"}}, {"type": "node", "id": 12100684202, "lat": 49.2309076, "lon": 14.1870023, "tags": {"horse": "yes", "information": "guidepost", "name": "Tvrz Kloko\u010d\u00edn", "operator": "cz:JCCR", "ref": "none", "tourism": "information"}}, {"type": "node", "id": 12100684203, "lat": 49.2303126, "lon": 14.1853186, "tags": {"horse": "yes", "information": "guidepost", "name": "Kloko\u010d\u00edn", "operator": "cz:JCCR", "ref": "none", "tourism": "information"}}, {"type": "node", "id": 12292187486, "lat": 49.2597602, "lon": 14.1496241, "tags": {"bicycle": "yes", "information": "guidepost", "operator": "cz:K\u010cT", "tourism": "information"}}, {"type": "node", "id": 12437542301, "lat": 49.1609159, "lon": 14.1729595, "tags": {"board_type": "nature", "information": "board", "name": "Stezka v z\u00e1ti\u0161\u00ed II.", "tourism": "information"}}, {"type": "node", "id": 12558873363, "lat": 49.301566, "lon": 14.1204474, "tags": {"information": "board", "name": "Brann\u011b sportovn\u00ed are\u00e1l \u2014 are\u00e1l zdrav\u00ed", "tourism": "information"}}, {"type": "node", "id": 12580174937, "lat": 49.156051, "lon": 14.0835797, "tags": {"ele": "547", "natural": "peak", "source": "\u010c\u00daZK"}}, {"type": "node", "id": 12646460803, "lat": 49.2925329, "lon": 14.1270373, "tags": {"direction": "0-360", "tourism": "viewpoint"}}, {"type": "node", "id": 12957127724, "lat": 49.1724151, "lon": 14.0903211, "tags": {"amenity": "shelter", "shelter_type": "picnic_shelter"}}, {"type": "node", "id": 12957127725, "lat": 49.1678758, "lon": 14.1055444, "tags": {"amenity": "shelter", "shelter_type": "picnic_shelter"}}, {"type": "node", "id": 13036433335, "lat": 49.327261, "lon": 14.1103755}, {"type": "node", "id": 13036433336, "lat": 49.3272713, "lon": 14.110407}, {"type": "node", "id": 13036433337, "lat": 49.3272331, "lon": 14.1104363}, {"type": "node", "id": 13036433338, "lat": 49.3272228, "lon": 14.1104048}, {"type": "node", "id": 13178379753, "lat": 49.3073634, "lon": 14.1150032, "tags": {"description": "Sportovn\u00ed stezka Hradi\u0161t\u011b", "information": "board", "name": "Prota\u017een\u00ed nohou 1", "ref": "28", "tourism": "information"}}, {"type": "node", "id": 13178379754, "lat": 49.3070942, "lon": 14.113652, "tags": {"description": "Sportovn\u00ed stezka Hradi\u0161t\u011b", "information": "board", "name": "Balan\u010dn\u00ed lanov\u00e1 prol\u00e9za\u010dka", "ref": "27", "tourism": "information"}}, {"type": "node", "id": 13178379755, "lat": 49.309054, "lon": 14.1179537, "tags": {"description": "Sportovn\u00ed stezka Hradi\u0161t\u011b", "information": "board", "name": "Balan\u010dn\u00ed jachta", "ref": "29", "tourism": "information"}}, {"type": "node", "id": 13178379756, "lat": 49.3095366, "lon": 14.119437, "tags": {"description": "Sportovn\u00ed stezka Hradi\u0161t\u011b", "information": "board", "name": "Balan\u010dn\u00ed konstrukce", "ref": "30", "tourism": "information"}}, {"type": "node", "id": 13178379757, "lat": 49.3095062, "lon": 14.1199922, "tags": {"description": "Sportovn\u00ed stezka Hradi\u0161t\u011b", "information": "board", "name": "B\u011bh mezi brankami", "ref": "1", "tourism": "information"}}, {"type": "node", "id": 13178379758, "lat": 49.3095175, "lon": 14.1201779, "tags": {"information": "board", "name": "Sportovn\u00ed stezka Hradi\u0161t\u011b", "tourism": "information"}}, {"type": "way", "id": 28323390, "nodes": [3998621289, 3998621287, 3998621281, 311049492, 3998621267, 3998621264, 3998621263, 3998621257, 3998621152, 311049494, 3998621150, 3998621147, 3998621149, 311049499, 3998621155, 3998621261, 3998621266, 311049504, 3998621276, 3998621283, 3998621288, 311049485, 3998621291, 3998621292, 3998621290, 311049489, 3998621289], "tags": {"building": "yes", "building:ruian:type": "19", "height": "8", "name": "Schrenk\u016fv pavilon", "ref:ruian:building": "46210636", "roof:shape": "dome", "source": "cuzk:ruian", "tourism": "attraction"}}, {"type": "way", "id": 28373782, "nodes": [311042525, 5384711049, 3728891012, 5384711051, 5384711050, 315063026, 7791169806], "tags": {"alt_name": "Jelenn\u00ed most", "bicycle": "yes", "bridge": "yes", "goods": "no", "hgv": "no", "highway": "pedestrian", "historic": "bridge", "layer": "1", "lit": "no", "loc_name": "Star\u00fd Most", "material": "stone", "motor_vehicle": "permit", "name": "Kamenn\u00fd most", "source": "uhul:ortofoto", "start_date": "1348", "surface": "sett", "tourism": "attraction", "wheelchair": "yes", "wikidata": "Q3133093", "wikipedia": "cs:Kamenn\u00fd most v P\u00edsku"}}, {"type": "way", "id": 28540151, "nodes": [4000252189, 5331152627, 313509584, 4000252174, 4000252171, 313509479, 314427215, 314427190, 313509583, 314427192, 314427205, 314427206, 314427208, 314427204, 314427201, 314427194, 314427193, 313509496, 313509585, 4000252188, 4000252189], "tags": {"building": "civic", "building:ruian:type": "5", "castle_type": "defensive", "castle_type:cs": "hrad", "historic": "castle", "ref:ruian:building": "48703192", "roof:shape": "gabled", "source": "cuzk:ruian", "tourism": "attraction", "wikidata": "Q12047776", "wikipedia": "cs:P\u00edsek (hrad)"}}, {"type": "way", "id": 189853237, "nodes": [3676145511, 2004656216, 2004656213, 2004656208, 2004656210, 2004656212, 2004656211, 3676145510, 3676145511], "tags": {"building": "residential", "building:ruian:type": "3", "name": "Chata \u017divec", "ref:ruian:building": "5492891", "source": "cuzk:ruian", "tourism": "alpine_hut"}}, {"type": "way", "id": 235595168, "nodes": [2436597834, 2436597831, 2436597830, 2436597832, 2436597834], "tags": {"amenity": "shelter", "building": "yes", "shelter_type": "public_transport", "source": "bing"}}, {"type": "way", "id": 235595170, "nodes": [2436597828, 2436597826, 2436597825, 2436597827, 2436597828], "tags": {"amenity": "shelter", "building": "yes", "shelter_type": "public_transport", "source": "bing"}}, {"type": "way", "id": 281034098, "nodes": [2850531796, 2850531785, 2850531788, 2850531784, 2850531772, 2850531780, 2850531796], "tags": {"amenity": "shelter", "building:ruian:type": "17", "ref:ruian:building": "40716775", "shelter_type": "public_transport", "source": "cuzk:ruian"}}, {"type": "way", "id": 281040277, "nodes": [2850581489, 2850581482, 2850581480, 2850581488, 2850581489], "tags": {"amenity": "shelter", "building:ruian:type": "19", "ref:ruian:building": "42906920", "shelter_type": "public_transport", "source": "cuzk:ruian"}}, {"type": "way", "id": 334276067, "nodes": [3413894179, 3413894180, 3413894181, 3413894182, 3413894179], "tags": {"amenity": "shelter", "shelter_type": "picnic_shelter"}}, {"type": "way", "id": 429269155, "nodes": [4283902630, 4283902629], "tags": {"height": "2", "loc_name": "skaln\u00ed p\u0159evis", "natural": "cliff", "tourism": "attraction"}}, {"type": "way", "id": 554578717, "nodes": [5351880628, 5351880629, 5351880630, 5351880631, 5351880628], "tags": {"amenity": "shelter"}}, {"type": "way", "id": 577706633, "nodes": [5537571802, 5537571803, 5537571804, 5537571805, 5537571802], "tags": {"amenity": "shelter", "shelter_type": "public_transport"}}, {"type": "way", "id": 577715029, "nodes": [5537618777, 5537618779, 5537618780, 5537618778, 5537618777], "tags": {"amenity": "shelter"}}, {"type": "way", "id": 577796207, "nodes": [5538178967, 5538178968, 5538178969, 5538178971, 8756326723, 5538178970, 5538180321, 8756326725, 5538178967], "tags": {"alt_name": "Velk\u00e1 v\u011b\u017e d\u011bkansk\u00e9ho kostela", "building:part": "yes", "height": "72", "man_made": "tower", "name": "P\u00edseck\u00e1 v\u011b\u017e", "roof:height": "12", "roof:shape": "onion", "start_date": "1489", "tourism": "attraction", "tower:construction": "stone", "tower:type": "bell_tower", "wikidata": "Q12047773"}}, {"type": "way", "id": 834627976, "nodes": [7791169806, 8827773264, 3926098603], "tags": {"bicycle": "yes", "goods": "no", "hgv": "no", "highway": "pedestrian", "historic": "bridge", "lit": "yes", "material": "stone", "motorcar": "no", "motorcycle": "no", "name": "Kamenn\u00fd most", "psv": "no", "source": "uhul:ortofoto", "start_date": "1348", "surface": "sett", "tourism": "attraction", "wheelchair": "yes", "wikidata": "Q3133093", "wikipedia": "cs:Kamenn\u00fd most v P\u00edsku"}}, {"type": "way", "id": 915035412, "nodes": [8499926644, 311042636, 8499926643, 8499926642, 8499926644], "tags": {"amenity": "shelter", "building": "roof", "shelter_type": "public_transport"}}, {"type": "way", "id": 1418546460, "nodes": [13036433335, 13036433336, 13036433337, 13036433338, 13036433335], "tags": {"amenity": "shelter", "building": "yes", "shelter_type": "public_transport"}}]}