{"version": 0.6, "generator": "Overpass API 0.7.62.8 e802775f", "osm3s": {"timestamp_osm_base": "2026-01-05T15:41:15Z", "copyright": "The data included in this document is from www.openstreetmap.org. The data is made available under ODbL."}, "elements": [{"type": "node", "id": 284979146, "lat": 49.8767539, "lon": 12.9326049}, {"type": "node", "id": 284979152, "lat": 49.8765733, "lon": 12.9319641}, {"type": "node", "id": 443894712, "lat": 49.8811685, "lon": 12.9812404, "tags": {"information": "office", "name": "Infocentrum Konstantinovy L\u00e1zn\u011b", "tourism": "information"}}, {"type": "node", "id": 444574650, "lat": 49.8627713, "lon": 12.9724869, "tags": {"ele": "446", "hiking": "yes", "information": "guidepost", "name": "Stud\u00e1nka l\u00e1sky, (odb.)", "operator": "cz:K\u010cT", "ref": "TC031", "source": "survey", "tourism": "information"}}, {"type": "node", "id": 444574653, "lat": 49.8731984, "lon": 12.9672729, "tags": {"ele": "485", "hiking": "yes", "information": "guidepost", "name": "B\u0159etislav", "operator": "cz:K\u010cT", "ref": "TC032", "source": "survey", "tourism": "information"}}, {"type": "node", "id": 444574656, "lat": 49.8821414, "lon": 12.9641291, "tags": {"ele": "517", "hiking": "yes", "information": "guidepost", "name": "Koka\u0161ice (\u017dST)", "operator": "cz:K\u010cT", "ref": "TC107", "tourism": "information"}}, {"type": "node", "id": 444574787, "lat": 49.8797606, "lon": 12.9776524, "tags": {"ele": "520", "hiking": "yes", "information": "guidepost", "name": "U N\u00e1dr\u017ee", "operator": "cz:K\u010cT", "ref": "TC551", "source": "survey", "tourism": "information"}}, {"type": "node", "id": 445493359, "lat": 49.8910182, "lon": 12.9726622, "tags": {"ele": "552", "hiking": "yes", "information": "guidepost", "name": "Star\u00e9 L\u00e1zn\u011b", "operator": "cz:K\u010cT", "ref": "TC027", "source": "survey", "tourism": "information"}}, {"type": "node", "id": 445493361, "lat": 49.8913195, "lon": 12.9722142, "tags": {"name": "Rudolf\u016fv pramen", "name:cs": "Rudolf\u016fv pramen", "natural": "spring", "place": "locality", "tourism": "information"}}, {"type": "node", "id": 445512687, "lat": 49.9033203, "lon": 12.9680298, "tags": {"ele": "578", "hiking": "yes", "information": "guidepost", "name": "Bezdru\u017eice (\u017dST)", "operator": "cz:K\u010cT", "ref": "TC603", "source": "survey", "tourism": "information"}}, {"type": "node", "id": 445512732, "lat": 49.9080107, "lon": 12.969331, "tags": {"description": "zm\u00ednka z r. 1227, pov\u00fd\u0161en\u00ed na podhradn\u00ed m\u011bsto r. 1459. pozdn\u011b barokn\u00ed z\u00e1mek", "ele": "590", "hiking": "yes", "information": "guidepost", "name": "Bezdru\u017eice (n\u00e1m\u011bst\u00ed)", "official_name": "Bezdru\u017eice (n\u00e1m.)", "operator": "cz:K\u010cT", "ref": "TC195", "source": "survey", "tourism": "information"}}, {"type": "node", "id": 446189252, "lat": 49.8746599, "lon": 12.9925618, "tags": {"source": "survey", "tourism": "viewpoint"}}, {"type": "node", "id": 446189300, "lat": 49.8762707, "lon": 12.9869939, "tags": {"ele": "576", "hiking": "yes", "information": "guidepost", "name": "Odbo\u010dka k Panence", "operator": "cz:K\u010cT", "ref": "TC552", "source": "survey", "tourism": "information"}}, {"type": "node", "id": 446189382, "lat": 49.8715013, "lon": 12.986128, "tags": {"source": "survey", "tourism": "viewpoint"}}, {"type": "node", "id": 446189392, "lat": 49.8713873, "lon": 12.9864948, "tags": {"ele": "626", "hiking": "yes", "information": "guidepost", "name": "Vyhl\u00eddka u borovice", "operator": "cz:K\u010cT", "ref": "TC554", "source": "survey", "tourism": "information"}}, {"type": "node", "id": 446192298, "lat": 49.8795115, "lon": 12.977747, "tags": {"ele": "520", "hiking": "yes", "information": "guidepost", "name": "U n\u00e1dr\u017ee", "operator": "cz:K\u010cT", "ref": "TC551", "source": "survey", "tourism": "information"}}, {"type": "node", "id": 448095853, "lat": 49.8511589, "lon": 12.9797218, "tags": {"ele": "426", "hiking": "yes", "information": "guidepost", "name": "Strahov (\u017dST)", "operator": "cz:K\u010cT", "ref": "TC034;0208/6", "source": "survey", "tourism": "information"}}, {"type": "node", "id": 448183439, "lat": 49.8999294, "lon": 12.9317117, "tags": {"ele": "610", "hiking": "yes", "information": "guidepost", "name": "Horn\u00ed Pol\u017eice", "operator": "cz:K\u010cT", "ref": "TC026", "source": "survey", "tourism": "information"}}, {"type": "node", "id": 448212043, "lat": 49.8932464, "lon": 12.9353897, "tags": {"source": "survey", "tourism": "viewpoint"}}, {"type": "node", "id": 450162837, "lat": 49.8947487, "lon": 12.9581777, "tags": {"ele": "580", "hiking": "yes", "information": "guidepost", "name": "Doln\u00ed Pol\u017eice (tvrz)", "operator": "cz:K\u010cT", "ref": "TC700", "source": "survey", "tourism": "information"}}, {"type": "node", "id": 450162838, "lat": 49.8817644, "lon": 12.9339207, "tags": {"ele": "566", "hiking": "yes", "information": "guidepost", "name": "Kras\u00edkov dv\u016fr", "operator": "cz:K\u010cT", "ref": "TC186", "source": "survey", "tourism": "information"}}, {"type": "node", "id": 450162850, "lat": 49.8779946, "lon": 12.9333656, "tags": {"ele": "594", "hiking": "yes", "information": "guidepost", "name": "Pod Kras\u00edkovem", "operator": "cz:K\u010cT", "ref": "TC635", "source": "survey", "tourism": "information"}}, {"type": "node", "id": 450162867, "lat": 49.8771362, "lon": 12.9318034}, {"type": "node", "id": 450162868, "lat": 49.8768813, "lon": 12.9317331}, {"type": "node", "id": 450162869, "lat": 49.8770353, "lon": 12.9326972}, {"type": "node", "id": 450162893, "lat": 49.8772918, "lon": 12.9320352}, {"type": "node", "id": 450162898, "lat": 49.8778099, "lon": 12.9309871, "tags": {"source": "survey", "tourism": "viewpoint"}}, {"type": "node", "id": 450162906, "lat": 49.8774197, "lon": 12.9314038, "tags": {"ele": "635", "hiking": "yes", "information": "guidepost", "name": "Kras\u00edkov (z\u0159\u00edcenina hradu)", "official_name": "Kras\u00edkov (z\u0159\u00edc. hradu)", "operator": "cz:K\u010cT", "ref": "TC638", "source": "survey", "tourism": "information"}}, {"type": "node", "id": 456102478, "lat": 49.8905192, "lon": 12.9527878, "tags": {"ele": "558", "hiking": "yes", "information": "guidepost", "name": "\u010celiv", "operator": "cz:K\u010cT", "ref": "TC187", "source": "survey", "tourism": "information"}}, {"type": "node", "id": 476261114, "lat": 49.8141681, "lon": 12.8172169, "tags": {"hiking": "yes", "information": "guidepost", "name": "V\u00ed\u017eka", "operator": "cz:K\u010cT", "ref": "TC013", "source": "survey", "tourism": "information"}}, {"type": "node", "id": 476263402, "lat": 49.7989617, "lon": 12.8317986, "tags": {"ele": "407", "hiking": "yes", "information": "guidepost", "name": "Osada Kos\u00ed potok", "name:cs": "Osada Kos\u00ed potok", "operator": "cz:K\u010cT", "place": "locality", "ref": "TC012", "source": "survey", "tourism": "information"}}, {"type": "node", "id": 477410960, "lat": 49.7892031, "lon": 12.8424696, "tags": {"ele": "404", "information": "guidepost", "name": "U M\u017ee (rozcest\u00ed)", "official_name": "U M\u017ee (rozc.)", "tourism": "information"}}, {"type": "node", "id": 477410994, "lat": 49.7667572, "lon": 12.9106906, "tags": {"ele": "402", "hiking": "yes", "information": "guidepost", "name": "Svoj\u0161\u00edn (z\u00e1mek)", "operator": "cz:K\u010cT", "ref": "TC009", "source": "survey", "tourism": "information"}}, {"type": "node", "id": 477410997, "lat": 49.7633553, "lon": 12.9113353, "tags": {"ele": "420", "hiking": "yes", "information": "guidepost", "name": "Svoj\u0161\u00edn (vlak)", "official_name": "Svoj\u0161\u00edn (\u017dST)", "operator": "cz:K\u010cT", "ref": "TC088", "source": "survey", "tourism": "information"}}, {"type": "node", "id": 771840806, "lat": 49.9156921, "lon": 12.9745329, "tags": {"ele": "595.3", "name": "\u0160pi\u010d\u00e1k", "natural": "peak"}}, {"type": "node", "id": 771935635, "lat": 49.9198483, "lon": 12.980366, "tags": {"ele": "460", "hiking": "yes", "information": "guidepost", "name": "Nezdick\u00fd potok (koupali\u0161t\u011b)", "operator": "cz:K\u010cT", "ref": "TC196", "source": "survey", "tourism": "information"}}, {"type": "node", "id": 791682473, "lat": 49.8988607, "lon": 12.9849813, "tags": {"ele": "538", "information": "guidepost", "name": "Rum\u011blka", "source": "survey", "tourism": "information"}}, {"type": "node", "id": 792215648, "lat": 49.8857717, "lon": 12.9737768, "tags": {"ele": "533", "hiking": "yes", "information": "guidepost", "name": "Konstantinovy L\u00e1zn\u011b (chatov\u00fd t\u00e1bor)", "official_name": "Konstantinovy L. (ch.t.)", "operator": "cz:K\u010cT", "ref": "TC188", "source": "survey", "tourism": "information"}}, {"type": "node", "id": 820726311, "lat": 49.8626061, "lon": 12.9709984, "tags": {"ele": "448", "hiking": "yes", "information": "guidepost", "name": "U Stud\u00e1nky l\u00e1sky", "operator": "cz:K\u010cT", "ref": "TC080", "source": "survey", "tourism": "information"}}, {"type": "node", "id": 820726431, "lat": 49.864455, "lon": 12.9648005, "tags": {"ele": "456", "hiking": "yes", "information": "guidepost", "name": "Na Hadovce", "operator": "cz:K\u010cT", "ref": "TC035", "source": "survey", "tourism": "information"}}, {"type": "node", "id": 820840004, "lat": 49.8697483, "lon": 12.9301928, "tags": {"ele": "476", "hiking": "yes", "information": "guidepost", "name": "Balcar\u016fv ml\u00fdn", "operator": "cz:K\u010cT", "ref": "TC036", "source": "survey", "tourism": "information"}}, {"type": "node", "id": 837933597, "lat": 49.8956988, "lon": 12.9574713, "tags": {"name": "Lanov\u00e9 centrum Doln\u00ed Pol\u017eice", "opening_hours": "10:00-18:00", "tourism": "attraction"}}, {"type": "node", "id": 885267470, "lat": 49.8751137, "lon": 12.8074839}, {"type": "node", "id": 885267745, "lat": 49.8750136, "lon": 12.8074859}, {"type": "node", "id": 885268140, "lat": 49.8752204, "lon": 12.8074185}, {"type": "node", "id": 885374542, "lat": 49.8793204, "lon": 12.920712, "tags": {"ele": "486", "hiking": "yes", "information": "guidepost", "name": "Kras\u00edkov (h\u00e1jovna)", "operator": "cz:K\u010cT", "ref": "TC037", "tourism": "information"}}, {"type": "node", "id": 885374551, "lat": 49.8766963, "lon": 12.9099224, "tags": {"ele": "554", "hiking": "yes", "information": "guidepost", "name": "Domaslav", "operator": "cz:K\u010cT", "ref": "TC087", "tourism": "information"}}, {"type": "node", "id": 1008135148, "lat": 49.8524984, "lon": 12.8429364, "tags": {"ele": "538", "hiking": "yes", "information": "guidepost", "name": "Ko\u0159en", "operator": "cz:K\u010cT", "ref": "TC084", "tourism": "information"}}, {"type": "node", "id": 1008135209, "lat": 49.8562365, "lon": 12.8668384, "tags": {"ele": "575", "hiking": "yes", "information": "guidepost", "name": "Doln\u00ed V\u00edska", "operator": "cz:K\u010cT", "ref": "TC085", "tourism": "information"}}, {"type": "node", "id": 1008135266, "lat": 49.8575552, "lon": 12.8818232, "tags": {"ele": "573", "hiking": "yes", "information": "guidepost", "name": "U \u0161kolky", "operator": "cz:K\u010cT", "ref": "TC086", "tourism": "information"}}, {"type": "node", "id": 1008135353, "lat": 49.8572037, "lon": 12.8222224, "tags": {"ele": "465", "hiking": "yes", "information": "guidepost", "name": "Pod K\u0159inovem", "operator": "cz:K\u010cT", "ref": "TC083", "tourism": "information"}}, {"type": "node", "id": 1100436628, "lat": 49.889662, "lon": 12.9859443}, {"type": "node", "id": 1100439416, "lat": 49.8896528, "lon": 12.9860254}, {"type": "node", "id": 1100439527, "lat": 49.8896839, "lon": 12.9859818}, {"type": "node", "id": 1100442611, "lat": 49.8896309, "lon": 12.9859874}, {"type": "node", "id": 1360431703, "lat": 49.8897616, "lon": 12.9860792, "tags": {"ele": "538", "hiking": "yes", "information": "guidepost", "name": "Nov\u00e1 Ves", "operator": "cz:K\u010cT", "ref": "TC079", "source": "survey", "tourism": "information"}}, {"type": "node", "id": 1362945833, "lat": 49.9096387, "lon": 12.9508633, "tags": {"ele": "560", "hiking": "yes", "information": "guidepost", "name": "\u0158e\u0161\u00edn", "operator": "cz:K\u010cT", "ref": "TC602", "source": "survey", "tourism": "information"}}, {"type": "node", "id": 1761550441, "lat": 49.9406831, "lon": 12.9149329, "tags": {"information": "terminal", "name": "Zahr\u00e1deck\u00e1 kyselka", "tourism": "information"}}, {"type": "node", "id": 1761550472, "lat": 49.9407116, "lon": 12.9150113, "tags": {"amenity": "shelter"}}, {"type": "node", "id": 1761550499, "lat": 49.9436139, "lon": 12.9062745, "tags": {"information": "terminal", "tourism": "information"}}, {"type": "node", "id": 1997658901, "lat": 49.8717458, "lon": 12.8074506, "tags": {"ele": "485", "hiking": "yes", "information": "guidepost", "name": "B\u00fdval\u00fd Caltov", "operator": "cz:K\u010cT", "ref": "TC434", "tourism": "information"}}, {"type": "node", "id": 1997658906, "lat": 49.8859186, "lon": 12.8068848, "tags": {"ele": "496", "hiking": "yes", "information": "guidepost", "name": "Hosti\u010dkovsk\u00fd potok", "operator": "cz:K\u010cT", "ref": "TC182", "tourism": "information"}}, {"type": "node", "id": 2266179925, "lat": 49.8711308, "lon": 12.9726735, "tags": {"information": "board", "name": "Na ramp\u011b lanovky", "source": "survey", "tourism": "information"}}, {"type": "node", "id": 2266179927, "lat": 49.8619969, "lon": 12.972139, "tags": {"description": "NS Ke Stud\u00e1nce l\u00e1sky", "information": "board", "name": "\u017delezni\u010dn\u00ed tra\u0165 P\u0148ovany - Bezdru\u017eice", "ref": "4", "source": "survey", "tourism": "information"}}, {"type": "node", "id": 2266179928, "lat": 49.8625828, "lon": 12.9714795, "tags": {"description": "NS Ke Stud\u00e1nce l\u00e1sky", "information": "board", "name": "Stud\u00e1nka l\u00e1sky", "ref": "3", "source": "survey", "tourism": "information"}}, {"type": "node", "id": 2266179930, "lat": 49.8795368, "lon": 12.9777643, "tags": {"board_type": "nature", "information": "board", "name": "\u00datersk\u00fd potok - p\u0159\u00edrodn\u00ed park", "source": "survey", "tourism": "information"}}, {"type": "node", "id": 2266179931, "lat": 49.879867, "lon": 12.9775515, "tags": {"description": "NS Ke Stud\u00e1nce l\u00e1sky", "information": "board", "name": "Konstantinovy L\u00e1zn\u011b, l\u00e1zn\u011b va\u0161eho srdce", "ref": "6", "source": "survey", "tourism": "information"}}, {"type": "node", "id": 2266179933, "lat": 49.879939, "lon": 12.9782563, "tags": {"information": "board", "source": "survey", "tourism": "information"}}, {"type": "node", "id": 2266179940, "lat": 49.8845534, "lon": 12.9758554, "tags": {"check_date": "2025-04-06", "information": "map", "source": "survey", "tourism": "information"}}, {"type": "node", "id": 2266179941, "lat": 49.8848063, "lon": 12.9757728, "tags": {"check_date": "2025-04-05", "information": "board", "source": "survey", "tourism": "information"}}, {"type": "node", "id": 2266179943, "lat": 49.888462, "lon": 12.9735642, "tags": {"board_type": "history", "information": "board", "name": "Konstantinovy L\u00e1zn\u011b", "source": "survey", "tourism": "information"}}, {"type": "node", "id": 2266179949, "lat": 49.9079852, "lon": 12.9693895, "tags": {"information": "board", "source": "survey", "tourism": "information"}}, {"type": "node", "id": 2496752315, "lat": 49.764795, "lon": 12.9117179}, {"type": "node", "id": 2496752316, "lat": 49.7647952, "lon": 12.9118814}, {"type": "node", "id": 2496752347, "lat": 49.7649305, "lon": 12.9117167}, {"type": "node", "id": 2496752349, "lat": 49.7649314, "lon": 12.9118785}, {"type": "node", "id": 2527191290, "lat": 49.8013152, "lon": 12.9020382, "tags": {"disused:watermill": "yes", "name": "zanikl\u00fd \u0160ont\u00e1lsk\u00fd ml\u00fdn", "tourism": "attraction", "watermill": "yes", "watermill:disused": "yes"}}, {"type": "node", "id": 2538837734, "lat": 49.7629752, "lon": 12.9228557}, {"type": "node", "id": 2538837735, "lat": 49.7629787, "lon": 12.9229735}, {"type": "node", "id": 2538837737, "lat": 49.7630019, "lon": 12.9230292}, {"type": "node", "id": 2538837739, "lat": 49.763011, "lon": 12.9229414}, {"type": "node", "id": 2538837741, "lat": 49.7630341, "lon": 12.922997}, {"type": "node", "id": 2538837742, "lat": 49.7630438, "lon": 12.9227868}, {"type": "node", "id": 2538837744, "lat": 49.7630489, "lon": 12.9230322}, {"type": "node", "id": 2538837746, "lat": 49.7631142, "lon": 12.9229658}, {"type": "node", "id": 2719465495, "lat": 49.9475829, "lon": 12.9749171, "tags": {"amenity": "shelter", "fireplace": "no", "shelter_type": "gazebo"}}, {"type": "node", "id": 3052441494, "lat": 49.8482932, "lon": 12.9388465, "tags": {"information": "map", "tourism": "information"}}, {"type": "node", "id": 3510762769, "lat": 49.8751073, "lon": 12.8046664}, {"type": "node", "id": 3510763094, "lat": 49.8753876, "lon": 12.8047836}, {"type": "node", "id": 3510763107, "lat": 49.8754337, "lon": 12.8047807}, {"type": "node", "id": 3510763137, "lat": 49.875513, "lon": 12.8046691}, {"type": "node", "id": 3510763144, "lat": 49.8755228, "lon": 12.8072209}, {"type": "node", "id": 3510763168, "lat": 49.8755839, "lon": 12.8045585}, {"type": "node", "id": 3510763180, "lat": 49.8756108, "lon": 12.8071842}, {"type": "node", "id": 3510763313, "lat": 49.8757022, "lon": 12.8045241}, {"type": "node", "id": 3510763344, "lat": 49.8757889, "lon": 12.8044463}, {"type": "node", "id": 3510763352, "lat": 49.8757979, "lon": 12.8073479}, {"type": "node", "id": 3510763369, "lat": 49.8758399, "lon": 12.807322}, {"type": "node", "id": 3510763370, "lat": 49.8758413, "lon": 12.8071122}, {"type": "node", "id": 3510763374, "lat": 49.8758436, "lon": 12.8072916}, {"type": "node", "id": 3510763390, "lat": 49.8758842, "lon": 12.8043284}, {"type": "node", "id": 3510763493, "lat": 49.8758871, "lon": 12.8068358}, {"type": "node", "id": 3510763526, "lat": 49.8759482, "lon": 12.8042872}, {"type": "node", "id": 3510763529, "lat": 49.8759526, "lon": 12.8064023}, {"type": "node", "id": 3510763553, "lat": 49.8760008, "lon": 12.8042672}, {"type": "node", "id": 3510763569, "lat": 49.8760213, "lon": 12.8054744}, {"type": "node", "id": 3510763572, "lat": 49.8760251, "lon": 12.8059673}, {"type": "node", "id": 3510763575, "lat": 49.8760273, "lon": 12.805909}, {"type": "node", "id": 3510763579, "lat": 49.8760299, "lon": 12.804267}, {"type": "node", "id": 3510763580, "lat": 49.8760307, "lon": 12.8060477}, {"type": "node", "id": 3510763698, "lat": 49.8760572, "lon": 12.8043025}, {"type": "node", "id": 3510763705, "lat": 49.8760705, "lon": 12.8044669}, {"type": "node", "id": 3510763708, "lat": 49.8760716, "lon": 12.8043624}, {"type": "node", "id": 3627309614, "lat": 49.9068796, "lon": 12.8945926, "tags": {"ele": "566", "hiking": "yes", "information": "guidepost", "name": "Pod Zho\u0159cem", "operator": "cz:K\u010cT", "ref": "TC116", "source": "survey", "tourism": "information"}}, {"type": "node", "id": 3627420309, "lat": 49.8843572, "lon": 12.9146789, "tags": {"ele": "500", "hiking": "yes", "information": "guidepost", "name": "Pod \u010cihadlem", "operator": "cz:K\u010cT", "ref": "TC038", "tourism": "information"}}, {"type": "node", "id": 3711131751, "lat": 49.9354836, "lon": 12.8850148, "tags": {"ele": "690", "hiking": "yes", "information": "guidepost", "name": "Pomn\u00edk leteck\u00e9 hav\u00e1rie", "operator": "cz:K\u010cT", "ref": "TC117", "tourism": "information"}}, {"type": "node", "id": 3711155939, "lat": 49.9267769, "lon": 12.9038335, "tags": {"hiking": "yes", "information": "guidepost", "name": "Lou\u010dky", "operator": "cz:K\u010cT", "tourism": "information"}}, {"type": "node", "id": 3852315147, "lat": 49.8750943, "lon": 12.9926724, "tags": {"ele": "579", "hiking": "yes", "information": "guidepost", "name": "Panenka Marie", "operator": "cz:K\u010cT", "ref": "TC556", "source": "survey", "tourism": "information"}}, {"type": "node", "id": 3852315148, "lat": 49.8749617, "lon": 13.0000968, "tags": {"ele": "545", "hiking": "yes", "information": "guidepost", "name": "Polou\u010dany", "operator": "cz:K\u010cT", "ref": "TC082", "source": "survey", "tourism": "information"}}, {"type": "node", "id": 3853916873, "lat": 49.8106592, "lon": 12.8556394, "tags": {"ele": "704", "name": "Vl\u010d\u00ed hora", "natural": "peak", "website": "https://lokality.geology.cz/378", "wikidata": "Q18029251"}}, {"type": "node", "id": 3853916874, "lat": 49.8106615, "lon": 12.85543, "tags": {"amenity": "shelter"}}, {"type": "node", "id": 3853916875, "lat": 49.8124806, "lon": 12.8523562, "tags": {"amenity": "shelter"}}, {"type": "node", "id": 3940864046, "lat": 49.8037243, "lon": 12.8491067, "tags": {"fixme": "position somewhere near this crossing, its existence guessed from info on other guideposts", "hiking": "yes", "information": "guidepost", "name": "Nad Z\u00e1ho\u0159\u00edm", "operator": "cz:K\u010cT", "ref": "TC561", "tourism": "information"}}, {"type": "node", "id": 4294880391, "lat": 49.8308794, "lon": 12.9803275}, {"type": "node", "id": 4294880396, "lat": 49.8308915, "lon": 12.980267}, {"type": "node", "id": 4294880399, "lat": 49.8309043, "lon": 12.9803391}, {"type": "node", "id": 4294880403, "lat": 49.8309156, "lon": 12.9802789}, {"type": "node", "id": 4307542595, "lat": 49.8535978, "lon": 12.9562398}, {"type": "node", "id": 4307542599, "lat": 49.8536128, "lon": 12.956222}, {"type": "node", "id": 4307542600, "lat": 49.853616, "lon": 12.9562728}, {"type": "node", "id": 4307542602, "lat": 49.8536305, "lon": 12.9562548}, {"type": "node", "id": 4592803754, "lat": 49.8752912, "lon": 12.807307}, {"type": "node", "id": 4592803755, "lat": 49.8749252, "lon": 12.8074346}, {"type": "node", "id": 4592803756, "lat": 49.8747813, "lon": 12.8072812}, {"type": "node", "id": 4592803758, "lat": 49.8745941, "lon": 12.8069573}, {"type": "node", "id": 4799878650, "lat": 49.8626757, "lon": 12.9712771, "tags": {"hiking": "yes", "information": "guidepost", "operator": "cz:K\u010cT", "ref": "TC080;TC031", "tourism": "information"}}, {"type": "node", "id": 4839948403, "lat": 49.8823016, "lon": 12.9639267, "tags": {"information": "map", "source": "survey", "tourism": "information"}}, {"type": "node", "id": 4840030702, "lat": 49.8791693, "lon": 12.950058, "tags": {"information": "map", "source": "survey", "tourism": "information"}}, {"type": "node", "id": 4840058301, "lat": 49.8767817, "lon": 12.9097231, "tags": {"information": "map", "source": "survey", "tourism": "information"}}, {"type": "node", "id": 4840715030, "lat": 49.9157668, "lon": 12.9682928, "tags": {"ele": "500", "hiking": "yes", "information": "guidepost", "name": "U \u010cesk\u00e9ho ml\u00fdna", "operator": "cz:K\u010cT", "ref": "TC045", "tourism": "information"}}, {"type": "node", "id": 4840715055, "lat": 49.9411166, "lon": 12.9992831, "tags": {"description": "Nau\u010dn\u00e1 stezka \u00dater\u00fd", "information": "board", "name": "Kaple sv. V\u00e1clava", "ref": "09", "tourism": "information"}}, {"type": "node", "id": 5023532831, "lat": 49.877902, "lon": 12.9311052}, {"type": "node", "id": 5023532832, "lat": 49.8776014, "lon": 12.931068}, {"type": "node", "id": 5023532833, "lat": 49.8778379, "lon": 12.9308465}, {"type": "node", "id": 5023532834, "lat": 49.8779028, "lon": 12.9309103}, {"type": "node", "id": 5023532835, "lat": 49.8766327, "lon": 12.9324818}, {"type": "node", "id": 5058537253, "lat": 49.8708642, "lon": 12.9881822, "tags": {"ele": "633", "name": "Hradi\u0161\u0165sk\u00fd vrch", "natural": "peak", "old_name": "Hradi\u0161\u0165sk\u00fd kopec", "source": "\u010c\u00daZK", "wikidata": "Q27517816"}}, {"type": "node", "id": 5058555353, "lat": 49.837722, "lon": 12.9778004, "tags": {"ele": "499", "name": "Z\u00e1\u0159e\u010d\u00ed", "natural": "peak"}}, {"type": "node", "id": 5058563421, "lat": 49.8491977, "lon": 12.9414848, "tags": {"ele": "561", "name": "O\u010d\u00ednsk\u00e1 v\u00fd\u0161ina", "natural": "peak"}}, {"type": "node", "id": 5058576302, "lat": 49.8650194, "lon": 12.929902, "tags": {"ele": "558", "name": "Nad vodojemem", "natural": "peak"}}, {"type": "node", "id": 5058577402, "lat": 49.8772814, "lon": 12.9318526, "tags": {"ele": "632", "name": "Kras\u00edkov", "natural": "peak"}}, {"type": "node", "id": 5058583841, "lat": 49.8923198, "lon": 12.933797, "tags": {"ele": "697", "name": "Ov\u010d\u00ed vrch", "natural": "peak"}}, {"type": "node", "id": 5058585055, "lat": 49.8889867, "lon": 12.9214668, "tags": {"ele": "675", "name": "Milkovsk\u00e9 \u010dihadlo", "natural": "peak"}}, {"type": "node", "id": 5058589543, "lat": 49.9364349, "lon": 12.9477521, "tags": {"ele": "654", "name": "K\u00e1zek", "natural": "peak"}}, {"type": "node", "id": 5058624214, "lat": 49.8920257, "lon": 12.8982028, "tags": {"ele": "602", "name": "Selsk\u00fd les", "natural": "peak"}}, {"type": "node", "id": 5058629057, "lat": 49.8635824, "lon": 12.8886281, "tags": {"ele": "596", "name": "Herma", "natural": "peak"}}, {"type": "node", "id": 5058629058, "lat": 49.8632407, "lon": 12.8868422, "tags": {"ele": "602", "natural": "peak"}}, {"type": "node", "id": 5058630797, "lat": 49.8622666, "lon": 12.8611253, "tags": {"ele": "608", "name": "Kamenn\u00fd vrch", "natural": "peak"}}, {"type": "node", "id": 5058643525, "lat": 49.8553738, "lon": 12.856528, "tags": {"ele": "579", "name": "Dlouh\u00fd vrch", "natural": "peak"}}, {"type": "node", "id": 5058646627, "lat": 49.8496921, "lon": 12.8719566, "tags": {"ele": "583", "name": "Obecn\u00ed les", "natural": "peak"}}, {"type": "node", "id": 5060115335, "lat": 49.7772747, "lon": 12.8856347, "tags": {"ele": "503", "name": "Ostrovsk\u00fd vrch", "natural": "peak"}}, {"type": "node", "id": 5060116782, "lat": 49.7693325, "lon": 12.8759388, "tags": {"ele": "448", "name": "\u0160\u00e1rka", "natural": "peak"}}, {"type": "node", "id": 5060128612, "lat": 49.8098327, "lon": 12.8014745, "tags": {"ele": "586", "name": "Sp\u00e1len\u00fd vrch", "natural": "peak"}}, {"type": "node", "id": 5060136901, "lat": 49.8431207, "lon": 12.8244178, "tags": {"ele": "535", "name": "Na Palouku", "natural": "peak"}}, {"type": "node", "id": 5060136902, "lat": 49.8511176, "lon": 12.8354001, "tags": {"ele": "560", "name": "Vala\u0161\u00ed vrch", "natural": "peak"}}, {"type": "node", "id": 5060139762, "lat": 49.8627149, "lon": 12.833178, "tags": {"ele": "581", "name": "Na M\u00fdtince", "natural": "peak"}}, {"type": "node", "id": 5074053051, "lat": 49.8116611, "lon": 12.995872, "tags": {"ele": "523", "name": "K\u0161ick\u00fd vrch", "natural": "peak"}}, {"type": "node", "id": 5074060359, "lat": 49.8018712, "lon": 12.9821692, "tags": {"ele": "545", "name": "Stelka", "natural": "peak"}}, {"type": "node", "id": 5238126326, "lat": 49.8544725, "lon": 12.8278845, "tags": {"ele": "460", "hiking": "yes", "information": "guidepost", "name": "B\u00fdval\u00fd K\u0159inovsk\u00fd ml\u00fdn", "operator": "cz:K\u010cT", "ref": "TC433", "tourism": "information"}}, {"type": "node", "id": 5238159768, "lat": 49.8933143, "lon": 12.9351193, "tags": {"ele": "690", "hiking": "yes", "information": "guidepost", "name": "Ov\u010d\u00ed vrch (vyhl\u00eddka)", "official_name": "Ov\u010d\u00ed vrch (vyhl.)", "operator": "cz:K\u010cT", "ref": "TC091", "tourism": "information"}}, {"type": "node", "id": 5238159769, "lat": 49.8878365, "lon": 12.9311295, "tags": {"ele": "654", "hiking": "yes", "information": "guidepost", "name": "Ov\u010d\u00ed vrch (kaple)", "operator": "cz:K\u010cT", "ref": "TC636", "tourism": "information"}}, {"type": "node", "id": 5238159770, "lat": 49.8889528, "lon": 12.9317719, "tags": {"ele": "650", "hiking": "yes", "information": "guidepost", "name": "Ov\u010d\u00ed vrch (kaple, odbo\u010dka)", "official_name": "Ov\u010d\u00ed vrch (kap., odb.)", "operator": "cz:K\u010cT", "ref": "TC636", "tourism": "information"}}, {"type": "node", "id": 5239165705, "lat": 49.8780282, "lon": 12.9333314, "tags": {"board_type": "nature", "information": "board", "name": "Hadovka", "tourism": "information"}}, {"type": "node", "id": 5270193777, "lat": 49.9095212, "lon": 12.9587801, "tags": {"ele": "520", "hiking": "yes", "information": "guidepost", "name": "\u017didovsk\u00fd h\u0159bitov", "operator": "cz:K\u010cT", "ref": "TC115", "tourism": "information"}}, {"type": "node", "id": 5271506948, "lat": 49.9433425, "lon": 12.8807563, "tags": {"ele": "702", "hiking": "yes", "information": "guidepost", "name": "K\u0159epkovice", "operator": "cz:K\u010cT", "ref": "TC118", "tourism": "information"}}, {"type": "node", "id": 5275276047, "lat": 49.8408748, "lon": 12.8940225, "tags": {"ele": "560", "hiking": "yes", "information": "guidepost", "name": "Drahovice h\u00e1jenka", "operator": "cz:K\u010cT", "ref": "TC632", "tourism": "information"}}, {"type": "node", "id": 5275328493, "lat": 49.8477761, "lon": 12.933349, "tags": {"ele": "554", "hiking": "yes", "information": "guidepost", "name": "Vl\u010dkov", "operator": "cz:K\u010cT", "ref": "TC633", "tourism": "information"}}, {"type": "node", "id": 5275328494, "lat": 49.860905, "lon": 12.936793, "tags": {"ele": "500", "hiking": "yes", "information": "guidepost", "name": "Lomy", "operator": "cz:K\u010cT", "ref": "TC634", "tourism": "information"}}, {"type": "node", "id": 5275385808, "lat": 49.885265, "lon": 12.9615927, "tags": {"hiking": "yes", "information": "guidepost", "name": "miner\u00e1ln\u00ed pramen", "operator": "cz:K\u010cT", "ref": "TC702", "tourism": "information"}}, {"type": "node", "id": 5275385809, "lat": 49.890083, "lon": 12.961598, "tags": {"description": "odbo\u010dka k prameni", "ele": "550", "hiking": "yes", "information": "guidepost", "operator": "cz:K\u010cT", "ref": "TC192", "tourism": "information"}}, {"type": "node", "id": 5335871140, "lat": 49.8168283, "lon": 12.8019827}, {"type": "node", "id": 5350751708, "lat": 49.8164093, "lon": 12.8628552, "tags": {"hiking": "yes", "information": "guidepost", "name": "Pam\u00e1tn\u00edk ob\u011btem v\u00e1lky", "tourism": "information"}}, {"type": "node", "id": 5350751832, "lat": 49.8083888, "lon": 12.8487092, "tags": {"ele": "546", "hiking": "yes", "information": "guidepost", "name": "T\u0159ebelsk\u00e1 cesta", "operator": "cz:K\u010cT", "ref": "TC134", "tourism": "information"}}, {"type": "node", "id": 5350751833, "lat": 49.8144779, "lon": 12.8505492, "tags": {"hiking": "yes", "information": "guidepost", "name": "B\u00fdval\u00e1 rasovna", "tourism": "information"}}, {"type": "node", "id": 5350751834, "lat": 49.8124321, "lon": 12.8524268, "tags": {"hiking": "yes", "information": "guidepost", "name": "Goethova vyhl\u00eddka", "tourism": "information"}}, {"type": "node", "id": 5350751840, "lat": 49.8124182, "lon": 12.8522766, "tags": {"direction": "W", "name": "Goethova vyhl\u00eddka", "tourism": "viewpoint", "wheelchair": "no"}}, {"type": "node", "id": 5350751841, "lat": 49.8106147, "lon": 12.8554308, "tags": {"ele": "704", "hiking": "yes", "information": "guidepost", "name": "Vl\u010d\u00ed hora", "tourism": "information"}}, {"type": "node", "id": 5350752668, "lat": 49.8076721, "lon": 12.8633487, "tags": {"ele": "618", "hiking": "yes", "information": "guidepost", "name": "Pod Vl\u010d\u00ed horou", "operator": "cz:K\u010cT", "ref": "TC639", "tourism": "information"}}, {"type": "node", "id": 5350752669, "lat": 49.8066439, "lon": 12.8675866, "tags": {"ele": "609", "hiking": "yes", "information": "guidepost", "name": "Volf\u0161tejn z\u0159\u00edcenina", "operator": "cz:K\u010cT", "ref": "TC640", "tourism": "information"}}, {"type": "node", "id": 5350752682, "lat": 49.8165214, "lon": 12.8833667, "tags": {"ele": "500", "hiking": "yes", "information": "guidepost", "name": "\u010cerno\u0161\u00edn", "operator": "cz:K\u010cT", "ref": "TC631", "tourism": "information"}}, {"type": "node", "id": 5360511902, "lat": 49.7523323, "lon": 12.8754402, "tags": {"ele": "514", "hiking": "yes", "information": "guidepost", "name": "Nov\u00fd Dv\u016fr", "operator": "cz:K\u010cT", "ref": "TC503", "tourism": "information"}}, {"type": "node", "id": 5360593473, "lat": 49.7683353, "lon": 12.9267347, "tags": {"amenity": "shelter", "bench": "yes"}}, {"type": "node", "id": 5360594066, "lat": 49.7599671, "lon": 12.8953636, "tags": {"ele": "484", "hiking": "yes", "information": "guidepost", "name": "Nynkov", "operator": "cz:K\u010cT", "ref": "TC502", "tourism": "information"}}, {"type": "node", "id": 5383989374, "lat": 49.9115156, "lon": 12.8029417}, {"type": "node", "id": 5383989375, "lat": 49.9114762, "lon": 12.8029294}, {"type": "node", "id": 5383989376, "lat": 49.9114704, "lon": 12.8029749}, {"type": "node", "id": 5383989377, "lat": 49.9115097, "lon": 12.8029871}, {"type": "node", "id": 5406793257, "lat": 49.8171708, "lon": 12.8385436, "tags": {"ele": "430", "hiking": "yes", "information": "guidepost", "name": "Pod T\u0159ebel\u00ed", "operator": "cz:K\u010cT", "ref": "TC431", "tourism": "information"}}, {"type": "node", "id": 5406793258, "lat": 49.8205524, "lon": 12.8432536, "tags": {"ele": "490", "hiking": "yes", "information": "guidepost", "name": "T\u0159ebel", "operator": "cz:K\u010cT", "ref": "TC637", "tourism": "information"}}, {"type": "node", "id": 5406845698, "lat": 49.7864007, "lon": 12.8462684, "tags": {"ele": "428", "hiking": "yes", "information": "guidepost", "name": "O\u0161el\u00edn", "operator": "cz:K\u010cT", "ref": "TC560", "tourism": "information"}}, {"type": "node", "id": 5871755591, "lat": 49.879122, "lon": 12.9501278}, {"type": "node", "id": 5871755592, "lat": 49.879118, "lon": 12.9501857}, {"type": "node", "id": 5871755593, "lat": 49.8791489, "lon": 12.9501908}, {"type": "node", "id": 5871755594, "lat": 49.8791528, "lon": 12.9501329}, {"type": "node", "id": 5871839859, "lat": 49.8773483, "lon": 12.9480743, "tags": {"bicycle": "yes", "information": "guidepost", "tourism": "information"}}, {"type": "node", "id": 5871839868, "lat": 49.8792332, "lon": 12.9492887, "tags": {"bicycle": "yes", "information": "guidepost", "tourism": "information"}}, {"type": "node", "id": 5871839870, "lat": 49.8786066, "lon": 12.9471906, "tags": {"amenity": "shelter", "shelter_type": "weather_shelter"}}, {"type": "node", "id": 5871839871, "lat": 49.8785276, "lon": 12.946919, "tags": {"bicycle": "yes", "information": "guidepost", "tourism": "information"}}, {"type": "node", "id": 5871839872, "lat": 49.8784035, "lon": 12.9470806, "tags": {"bicycle": "yes", "information": "guidepost", "tourism": "information"}}, {"type": "node", "id": 5871872106, "lat": 49.8799254, "lon": 12.9749722, "tags": {"information": "map", "map_size": "region", "map_type": "topo", "tourism": "information"}}, {"type": "node", "id": 5932061085, "lat": 49.8656546, "lon": 12.9913974, "tags": {"information": "map", "tourism": "information"}}, {"type": "node", "id": 6022129708, "lat": 49.813747, "lon": 12.8547701, "tags": {"direction": "N", "tourism": "viewpoint"}}, {"type": "node", "id": 6128449566, "lat": 49.7526293, "lon": 12.9880406, "tags": {"amenity": "shelter", "shelter_type": "public_transport"}}, {"type": "node", "id": 6128449568, "lat": 49.878512, "lon": 12.9473126, "tags": {"amenity": "shelter", "shelter_type": "public_transport"}}, {"type": "node", "id": 6128449575, "lat": 49.8444475, "lon": 12.9892154, "tags": {"amenity": "shelter", "shelter_type": "public_transport"}}, {"type": "node", "id": 6128449578, "lat": 49.8659686, "lon": 12.9931087, "tags": {"amenity": "shelter", "shelter_type": "public_transport"}}, {"type": "node", "id": 6128449579, "lat": 49.8660799, "lon": 12.9933675, "tags": {"amenity": "shelter", "shelter_type": "public_transport"}}, {"type": "node", "id": 6189904321, "lat": 49.7719558, "lon": 12.8554914}, {"type": "node", "id": 6189904322, "lat": 49.7719229, "lon": 12.855505}, {"type": "node", "id": 6189904323, "lat": 49.7719346, "lon": 12.8555724}, {"type": "node", "id": 6189904324, "lat": 49.771968, "lon": 12.8555587}, {"type": "node", "id": 6260950904, "lat": 49.763075, "lon": 12.8809481}, {"type": "node", "id": 6260950905, "lat": 49.763093, "lon": 12.8809544}, {"type": "node", "id": 6260950906, "lat": 49.7630978, "lon": 12.8809211}, {"type": "node", "id": 6260950907, "lat": 49.7630798, "lon": 12.8809148}, {"type": "node", "id": 6703102692, "lat": 49.8514638, "lon": 12.9786551, "tags": {"hiking": "yes", "information": "guidepost", "name": "Strahov - vlak", "operator": "cz:K\u010cT", "ref": "0208/6", "tourism": "information"}}, {"type": "node", "id": 6703102750, "lat": 49.8843331, "lon": 12.97594, "tags": {"ele": "529", "hiking": "yes", "information": "guidepost", "name": "Konstantinovy l\u00e1zn\u011b - bus, vlak", "operator": "cz:K\u010cT", "ref": "TC189", "tourism": "information"}}, {"type": "node", "id": 6703747652, "lat": 49.908047, "lon": 12.9693446, "tags": {"information": "map", "map_type": "hiking", "tourism": "information"}}, {"type": "node", "id": 7390622839, "lat": 49.9078846, "lon": 12.9697121, "tags": {"bicycle": "yes", "information": "guidepost", "operator": "cz:K\u010cT", "ref": "none", "tourism": "information"}}, {"type": "node", "id": 7397944397, "lat": 49.8835498, "lon": 12.9740827, "tags": {"hiking": "yes", "information": "guidepost", "operator": "cz:K\u010cT", "ref": "TC551", "tourism": "information"}}, {"type": "node", "id": 7637260730, "lat": 49.9316069, "lon": 12.8885883, "tags": {"ele": "685", "hiking": "yes", "information": "guidepost", "name": "Lou\u010dsk\u00fd les", "operator": "cz:K\u010cT", "ref": "TC141", "tourism": "information"}}, {"type": "node", "id": 7637260740, "lat": 49.9192364, "lon": 12.9138708, "tags": {"hiking": "yes", "information": "guidepost", "name": "Kam\u00fdk", "operator": "cz:K\u010cT", "tourism": "information"}}, {"type": "node", "id": 7667531240, "lat": 49.880965, "lon": 12.8437793, "tags": {"board_type": "history", "information": "board", "tourism": "information"}}, {"type": "node", "id": 7667658279, "lat": 49.9435842, "lon": 12.880712, "tags": {"information": "board", "tourism": "information"}}, {"type": "node", "id": 7681260482, "lat": 49.7984174, "lon": 12.9656978, "tags": {"information": "board", "name": "Z\u00e1chlum\u00ed", "tourism": "information"}}, {"type": "node", "id": 8256691330, "lat": 49.8996035, "lon": 12.9906517, "tags": {"ele": "530", "hiking": "yes", "information": "guidepost", "name": "U \u010cty\u0159ky", "operator": "cz:K\u010cT", "ref": "TC151", "tourism": "information"}}, {"type": "node", "id": 8465392675, "lat": 49.8927052, "lon": 12.9615659, "tags": {"bicycle": "yes", "hiking": "yes", "information": "map", "map_size": "region", "map_type": "topo", "name": "Konstantinol\u00e1ze\u0148sko na kole\u010dk\u00e1ch", "tourism": "information"}}, {"type": "node", "id": 8465392676, "lat": 49.894605, "lon": 12.9583257, "tags": {"board_type": "history", "information": "board", "name": "Doln\u00ed Pol\u017eice", "tourism": "information"}}, {"type": "node", "id": 8465392677, "lat": 49.8947277, "lon": 12.9579301, "tags": {"board_type": "history", "information": "board", "name": "Doln\u00ed Pol\u017eice", "ref": "7", "tourism": "information"}}, {"type": "node", "id": 8465392678, "lat": 49.8878374, "lon": 12.9311134, "tags": {"board_type": "history", "information": "board", "name": "Ov\u010d\u00ed vrch", "tourism": "information"}}, {"type": "node", "id": 8465392679, "lat": 49.8821636, "lon": 12.9339096, "tags": {"board_type": "history", "information": "board", "name": "Ov\u010d\u00ed vrch", "tourism": "information"}}, {"type": "node", "id": 8465392680, "lat": 49.8816451, "lon": 12.9338278, "tags": {"board_type": "sport", "information": "board", "name": "Nordic walking centrum Konstantinovy L\u00e1zn\u011b", "tourism": "information"}}, {"type": "node", "id": 8465392682, "lat": 49.8768995, "lon": 12.9325887, "tags": {"board_type": "history", "information": "board", "name": "Hrad Kras\u00edkov", "ref": "5", "tourism": "information"}}, {"type": "node", "id": 8465392683, "lat": 49.8770173, "lon": 12.9319221, "tags": {"board_type": "history", "information": "board", "name": "\u0160vamberk", "tourism": "information"}}, {"type": "node", "id": 8465392684, "lat": 49.8762939, "lon": 12.9320092, "tags": {"board_type": "nature", "information": "board", "name": "P\u0159\u00edrodn\u00ed pam\u00e1tka Kras\u00edkov", "tourism": "information"}}, {"type": "node", "id": 8465392685, "lat": 49.880208, "lon": 12.9352427, "tags": {"board_type": "history", "information": "board", "name": "Kras\u00edkov dv\u016fr", "ref": "4", "tourism": "information"}}, {"type": "node", "id": 8465392686, "lat": 49.8905184, "lon": 12.9527779, "tags": {"board_type": "history", "information": "board", "name": "\u010celiv", "ref": "3", "tourism": "information"}}, {"type": "node", "id": 8465392687, "lat": 49.8859096, "lon": 12.9737042, "tags": {"board_type": "history", "information": "board", "name": "Konstantinovy L\u00e1zn\u011b", "ref": "1", "tourism": "information"}}, {"type": "node", "id": 8605291916, "lat": 49.8835086, "lon": 12.9761738, "tags": {"information": "board", "name": "Konstantinovy l\u00e1zn\u011b - b\u011b\u017eeck\u00e9 trat\u011b", "tourism": "information"}}, {"type": "node", "id": 8605306417, "lat": 49.8730509, "lon": 12.985167, "tags": {"board_type": "history", "description": "NS Hradi\u0161tsk\u00fd vrch", "information": "board", "name": "Nau\u010dn\u00e1 stezka Hradi\u0161\u0165sk\u00fd vrch", "ref": "6", "tourism": "information"}}, {"type": "node", "id": 8605306419, "lat": 49.9030848, "lon": 12.9693461, "tags": {"board_type": "history", "information": "board", "name": "Bezdru\u017eick\u00e1 lok\u00e1lka", "tourism": "information"}}, {"type": "node", "id": 8605306420, "lat": 49.9035637, "lon": 12.9679665, "tags": {"board_type": "history", "description": "Cyklotrasy mikroregionu Konstantinol\u00e1ze\u0148sko", "information": "board", "name": "Bezdru\u017eice", "tourism": "information"}}, {"type": "node", "id": 8723337427, "lat": 49.8712753, "lon": 12.808086, "tags": {"information": "board", "name": "P\u0159\u00edrodn\u00ed park Kos\u00ed potok", "tourism": "information"}}, {"type": "node", "id": 8725165230, "lat": 49.8713314, "lon": 12.8114514, "tags": {"board_type": "education", "information": "board", "name": "\u00davod do stezky", "tourism": "information"}}, {"type": "node", "id": 8725165231, "lat": 49.8655856, "lon": 12.8160308, "tags": {"board_type": "education", "information": "board", "name": "Je\u0159\u00e1b u Kos\u00edho potoka a lesn\u00ed mravenci", "tourism": "information"}}, {"type": "node", "id": 8725165237, "lat": 49.8593674, "lon": 12.8183724, "tags": {"board_type": "education", "information": "board", "name": "\u010certovka a geologick\u00e9 pom\u011bry", "tourism": "information"}}, {"type": "node", "id": 8725165238, "lat": 49.8572434, "lon": 12.8221891, "tags": {"board_type": "education", "information": "board", "name": "Tom\u0161\u016fv ml\u00fdn", "tourism": "information"}}, {"type": "node", "id": 8725240137, "lat": 49.8538653, "lon": 12.8287486, "tags": {"board_type": "education", "information": "board", "name": "K\u0159\u00ednovsk\u00fd ml\u00fdn", "tourism": "information"}}, {"type": "node", "id": 8725240145, "lat": 49.8472968, "lon": 12.8265436, "tags": {"board_type": "education", "information": "board", "name": "Pap\u00edrna a jej\u00ed historie", "tourism": "information"}}, {"type": "node", "id": 8725240154, "lat": 49.8449544, "lon": 12.8319657, "tags": {"board_type": "education", "information": "board", "name": "Mot\u00fdli v okol\u00ed Kos\u00edho potoka", "tourism": "information"}}, {"type": "node", "id": 8725240164, "lat": 49.8409998, "lon": 12.8365511, "tags": {"board_type": "education", "information": "board", "name": "Pta\u010d\u00ed spole\u010denstva", "tourism": "information"}}, {"type": "node", "id": 8725240172, "lat": 49.8342444, "lon": 12.8355576, "tags": {"board_type": "education", "information": "board", "name": "Meandry a biotop pod\u00e9l potoka", "tourism": "information"}}, {"type": "node", "id": 8725240173, "lat": 49.8312257, "lon": 12.8397117, "tags": {"board_type": "education", "information": "board", "name": "Lesn\u00ed spole\u010denstva", "tourism": "information"}}, {"type": "node", "id": 8725240176, "lat": 49.827396, "lon": 12.8408406, "tags": {"board_type": "education", "information": "board", "name": "P\u0159\u00edrodn\u00ed park Kos\u00ed potok", "tourism": "information"}}, {"type": "node", "id": 8791548076, "lat": 49.8899586, "lon": 12.9678834, "tags": {"information": "board", "name": "Lesopark Star\u00e9 L\u00e1zn\u011b", "name:de": "Waldpark Altes Bad", "tourism": "information"}}, {"type": "node", "id": 9715983286, "lat": 49.926069, "lon": 12.965061, "tags": {"ele": "589.8", "natural": "peak"}}, {"type": "node", "id": 9725000892, "lat": 49.8998951, "lon": 12.9618649, "tags": {"ele": "610.8", "natural": "peak"}}, {"type": "node", "id": 9847917661, "lat": 49.8498987, "lon": 12.8384603, "tags": {"tourism": "viewpoint"}}, {"type": "node", "id": 9847935313, "lat": 49.8393367, "lon": 12.8386668, "tags": {"amenity": "shelter", "name": "U Stud\u00e1nky"}}, {"type": "node", "id": 9888964208, "lat": 49.8811253, "lon": 12.9807667, "tags": {"description": "Mikroregion Konstantinol\u00e1ze\u0148sko", "information": "board", "name": "Od Tepl\u00e9 do St\u0159\u00edbra", "tourism": "information"}}, {"type": "node", "id": 9888979950, "lat": 49.8715075, "lon": 12.9861386, "tags": {"board_type": "plants", "information": "board", "name": "Nau\u010dn\u00e1 stezka Hradi\u0161\u0165sk\u00fd vrch", "ref": "5", "tourism": "information"}}, {"type": "node", "id": 9888982048, "lat": 49.8810436, "lon": 12.9807656, "tags": {"information": "board", "name": "Muzea a expozice", "tourism": "information"}}, {"type": "node", "id": 9888982781, "lat": 49.8801778, "lon": 12.9785697, "tags": {"description": "Nau\u010dn\u00e1 bylinkov\u00e1 stezka", "information": "board", "name": "Z\u00e1hony hajn\u00edch bylin", "tourism": "information"}}, {"type": "node", "id": 9888986533, "lat": 49.8812144, "lon": 12.9807637, "tags": {"description": "Mikroregion Konstantinol\u00e1ze\u0148sko", "information": "board", "name": "Konstantinovy L\u00e1zn\u011b", "tourism": "information"}}, {"type": "node", "id": 9888987880, "lat": 49.8811837, "lon": 12.9807631, "tags": {"description": "Mikroregion Konstantinol\u00e1ze\u0148sko", "information": "board", "name": "Konstantinovy L\u00e1zn\u011b a okol\u00ed", "tourism": "information"}}, {"type": "node", "id": 9888989361, "lat": 49.8795272, "lon": 12.9777903, "tags": {"board_type": "geology", "information": "board", "name": "Nau\u010dn\u00e1 stezka Hradi\u0161\u0165sk\u00fd vrch", "ref": "1", "tourism": "information"}}, {"type": "node", "id": 9888995131, "lat": 49.87476, "lon": 12.9923322, "tags": {"board_type": "nature", "information": "board", "name": "Nau\u010dn\u00e1 stezka Hradi\u0161\u0165sk\u00fd vrch", "ref": "3", "tourism": "information"}}, {"type": "node", "id": 9888997475, "lat": 49.8814244, "lon": 12.9856033, "tags": {"information": "board", "name": "Konstantinovy L\u00e1zn\u011b v kv\u011btnu 1945", "tourism": "information"}}, {"type": "node", "id": 9888999561, "lat": 49.8750233, "lon": 12.9927658, "tags": {"information": "board", "name": "Z m\u00edstn\u00edch kronik", "tourism": "information"}}, {"type": "node", "id": 9889037497, "lat": 49.8789364, "lon": 12.9819989, "tags": {"board_type": "wildlife", "description": "Nau\u010dn\u00e1 bylinkov\u00e1 stezka", "information": "board", "name": "P\u011bvci nejen zahradn\u00ed", "tourism": "information"}}, {"type": "node", "id": 9889043502, "lat": 49.8790328, "lon": 12.9837228, "tags": {"board_type": "wildlife", "description": "Nau\u010dn\u00e1 bylinkov\u00e1 stezka", "information": "board", "name": "Mot\u00fdl\u00ed louka", "tourism": "information"}}, {"type": "node", "id": 9889045318, "lat": 49.8790225, "lon": 12.9836497, "tags": {"information": "map", "name": "Park u pot\u016f\u010dku", "tourism": "information"}}, {"type": "node", "id": 9889048057, "lat": 49.8793469, "lon": 12.9797139, "tags": {"description": "Nau\u010dn\u00e1 bylinkov\u00e1 stezka", "information": "board", "name": "Bez vody nen\u00ed \u017eivota", "tourism": "information"}}, {"type": "node", "id": 9889048156, "lat": 49.8791607, "lon": 12.980866, "tags": {"board_type": "plants", "description": "Nau\u010dn\u00e1 bylinkov\u00e1 stezka", "information": "board", "name": "Bylinky v kuchyni", "tourism": "information"}}, {"type": "node", "id": 9889056738, "lat": 49.8796939, "lon": 12.9789586, "tags": {"description": "Nau\u010dn\u00e1 bylinkov\u00e1 stezka", "information": "board", "name": "Rostliny a byliny lu\u017en\u00edho lesa", "tourism": "information"}}, {"type": "node", "id": 9889056739, "lat": 49.8799789, "lon": 12.9787708, "tags": {"description": "Nau\u010dn\u00e1 bylinkov\u00e1 stezka", "information": "board", "name": "D\u0159eviny v parku", "tourism": "information"}}, {"type": "node", "id": 9889061455, "lat": 49.8835411, "lon": 12.973965, "tags": {"description": "NS Ke Stud\u00e1nce l\u00e1sky", "information": "board", "name": "Na vyhl\u00eddce", "ref": "1", "tourism": "information"}}, {"type": "node", "id": 9889079314, "lat": 49.8852103, "lon": 12.9614925, "tags": {"description": "NS Kras\u00edkov - Ov\u010d\u00ed vrch", "information": "board", "name": "P\u0159\u00edrodn\u00ed zaj\u00edmavosti", "ref": "2", "tourism": "information"}}, {"type": "node", "id": 9889090533, "lat": 49.8731547, "lon": 12.9676014, "tags": {"information": "board", "name": "Bezdru\u017eick\u00e1 lok\u00e1lka", "tourism": "information"}}, {"type": "node", "id": 9889096603, "lat": 49.8796522, "lon": 12.9627253, "tags": {"description": "NS Ke Stud\u00e1nce l\u00e1sky", "information": "board", "name": "Geologick\u00e9 souvislosti", "tourism": "information"}}, {"type": "node", "id": 9889099660, "lat": 49.8932325, "lon": 12.9353603, "tags": {"information": "board", "tourism": "information"}}, {"type": "node", "id": 9894483491, "lat": 49.8735581, "lon": 12.9673403, "tags": {"description": "Cyklotrasy mikroregionu Konstantinol\u00e1ze\u0148ska", "information": "map", "name": "B\u0159etislav", "tourism": "information"}}, {"type": "node", "id": 9954162636, "lat": 49.7683018, "lon": 12.9266582, "tags": {"tourism": "viewpoint"}}, {"type": "node", "id": 9954210910, "lat": 49.7720119, "lon": 12.8557883, "tags": {"information": "map", "name": "St\u0159\u00edbrsk\u00fd region - cyklotrasy", "tourism": "information"}}, {"type": "node", "id": 9954232691, "lat": 49.7720164, "lon": 12.8558139, "tags": {"description": "P\u0159\u00edrodn\u00ed park", "information": "board", "name": "Kos\u00ed potok", "tourism": "information"}}, {"type": "node", "id": 9958950224, "lat": 49.8755436, "lon": 12.9882892, "tags": {"board_type": "nature", "information": "board", "name": "Nau\u010dn\u00e1 stezka Hradi\u0161\u0165sk\u00fd vrch", "ref": "2", "tourism": "information"}}, {"type": "node", "id": 10212795198, "lat": 49.7528015, "lon": 12.8608138}, {"type": "node", "id": 10212795199, "lat": 49.7528141, "lon": 12.8608554}, {"type": "node", "id": 10212795200, "lat": 49.7527295, "lon": 12.8609165}, {"type": "node", "id": 10212795201, "lat": 49.7527169, "lon": 12.8608749}, {"type": "node", "id": 10212795202, "lat": 49.7528078, "lon": 12.8608344}, {"type": "node", "id": 10212795203, "lat": 49.7527245, "lon": 12.8609001}, {"type": "node", "id": 10302090033, "lat": 49.8746918, "lon": 12.8071263}, {"type": "node", "id": 10541909171, "lat": 49.7649236, "lon": 12.9114154, "tags": {"information": "map", "tourism": "information"}}, {"type": "node", "id": 10541909197, "lat": 49.7891296, "lon": 12.8632759}, {"type": "node", "id": 10541909198, "lat": 49.7890798, "lon": 12.8631265}, {"type": "node", "id": 10541909199, "lat": 49.788992, "lon": 12.8631967}, {"type": "node", "id": 10541909200, "lat": 49.7890417, "lon": 12.8633461}, {"type": "node", "id": 10550674983, "lat": 49.766941, "lon": 12.9105238}, {"type": "node", "id": 10550674984, "lat": 49.7669422, "lon": 12.9105136}, {"type": "node", "id": 10550674985, "lat": 49.7669012, "lon": 12.9105042}, {"type": "node", "id": 10550674986, "lat": 49.7669004, "lon": 12.9105151}, {"type": "node", "id": 10550674987, "lat": 49.7669413, "lon": 12.9105034}, {"type": "node", "id": 10550674988, "lat": 49.7669383, "lon": 12.9104941}, {"type": "node", "id": 10550674989, "lat": 49.7669336, "lon": 12.9104868}, {"type": "node", "id": 10550674990, "lat": 49.7669277, "lon": 12.9104821}, {"type": "node", "id": 10550674991, "lat": 49.766921, "lon": 12.9104805}, {"type": "node", "id": 10550674992, "lat": 49.7669145, "lon": 12.9104823}, {"type": "node", "id": 10550674993, "lat": 49.7669086, "lon": 12.9104872}, {"type": "node", "id": 10550674994, "lat": 49.766904, "lon": 12.9104948}, {"type": "node", "id": 10550674995, "lat": 49.7669021, "lon": 12.9105258}, {"type": "node", "id": 10550674996, "lat": 49.766906, "lon": 12.910535}, {"type": "node", "id": 10550674997, "lat": 49.7669116, "lon": 12.9105417}, {"type": "node", "id": 10550674998, "lat": 49.7669184, "lon": 12.910545}, {"type": "node", "id": 10550674999, "lat": 49.7669255, "lon": 12.9105447}, {"type": "node", "id": 10550675000, "lat": 49.7669322, "lon": 12.9105407}, {"type": "node", "id": 10550675001, "lat": 49.7669375, "lon": 12.9105334}, {"type": "node", "id": 10779388185, "lat": 49.7541321, "lon": 12.8233808, "tags": {"amenity": "shelter", "name": "Bor, Kurojedy", "public_transport": "platform", "shelter_type": "public_transport"}}, {"type": "node", "id": 10779388186, "lat": 49.7540081, "lon": 12.8235549, "tags": {"amenity": "shelter", "name": "Bor, Kurojedy", "public_transport": "platform", "shelter_type": "public_transport"}}, {"type": "node", "id": 10824307537, "lat": 49.9021662, "lon": 12.821604, "tags": {"information": "guidepost", "tourism": "information"}}, {"type": "node", "id": 10837562642, "lat": 49.7631324, "lon": 12.9103321, "tags": {"amenity": "shelter", "shelter_type": "public_transport"}}, {"type": "node", "id": 10839163564, "lat": 49.8154847, "lon": 12.8902281, "tags": {"information": "map", "name": "\u010cerno\u0161\u00edn", "tourism": "information"}}, {"type": "node", "id": 10841314133, "lat": 49.8158106, "lon": 12.8892894, "tags": {"information": "board", "name": "Jilm habrolist\u00fd", "tourism": "information"}}, {"type": "node", "id": 10945625897, "lat": 49.8528514, "lon": 12.8398664, "tags": {"description": "Cyklotrasy Mikroregionu Konstantinol\u00e1ze\u0148sko", "information": "map", "name": "Ko\u0159en", "tourism": "information"}}, {"type": "node", "id": 11068677650, "lat": 49.8416211, "lon": 12.9977764, "tags": {"information": "board", "name": "BEZEM\u00cdN", "tourism": "information"}}, {"type": "node", "id": 11068695272, "lat": 49.8422688, "lon": 12.9967979, "tags": {"information": "board", "name": "BEZEM\u00cdN", "tourism": "information"}}, {"type": "node", "id": 11096483766, "lat": 49.9262547, "lon": 12.8395497, "tags": {"description": "Cyklotrasy mikroregionu Konstantinol\u00e1ze\u0148sko", "information": "map", "name": "Domaslavi\u010dky", "tourism": "information"}}, {"type": "node", "id": 11110350104, "lat": 49.7992091, "lon": 12.8223857, "tags": {"amenity": "shelter"}}, {"type": "node", "id": 11210350478, "lat": 49.8769432, "lon": 12.9325968, "tags": {"amenity": "shelter", "shelter_type": "picnic_shelter"}}, {"type": "node", "id": 11263041682, "lat": 49.8748591, "lon": 12.8053012}, {"type": "node", "id": 11263041683, "lat": 49.8746241, "lon": 12.8061911}, {"type": "node", "id": 11263041684, "lat": 49.8744672, "lon": 12.8067149}, {"type": "node", "id": 11308256720, "lat": 49.8167945, "lon": 12.8020139}, {"type": "node", "id": 11308256721, "lat": 49.8167591, "lon": 12.8019144}, {"type": "node", "id": 11308256722, "lat": 49.8165376, "lon": 12.8020827}, {"type": "node", "id": 11308256723, "lat": 49.8165085, "lon": 12.801991}, {"type": "node", "id": 11308256724, "lat": 49.8167627, "lon": 12.8018009}, {"type": "node", "id": 11362915681, "lat": 49.8261518, "lon": 12.8135752, "tags": {"information": "board", "tourism": "information"}}, {"type": "node", "id": 11403030753, "lat": 49.8149084, "lon": 12.8831428, "tags": {"name": "Geoexpozice", "opening_hours": "24/7", "reservation": "no", "tourism": "attraction"}}, {"type": "node", "id": 11403030755, "lat": 49.7641004, "lon": 12.9114872, "tags": {"bridge": "covered", "covered": "yes", "description": "Na m\u00edst\u011b st\u00e1val p\u016fvodn\u011b na t\u0159ech kamenn\u00fdch pil\u00ed\u0159\u00edch kryt\u00fd d\u0159ev\u011bn\u00fd most z prvn\u00ed poloviny 18. stolet\u00ed. Roku 1931 byl i p\u0159es snahy o jeho zachov\u00e1n\u00ed zbour\u00e1n a nahrazen dne\u0161n\u00edm \u017eelezobetonov\u00fdm mostem.", "end_date": "1930", "material": "wood", "name": "Zanikl\u00fd zast\u0159e\u0161en\u00fd most p\u0159es M\u017ei", "start_date": "1723", "tourism": "attraction", "was:man_made": "bridge"}}, {"type": "node", "id": 11415577769, "lat": 49.7699345, "lon": 12.9158143, "tags": {"amenity": "shelter", "backcountry": "yes", "camp_site": "basic", "camp_type": "non_designated", "group_only": "no", "informal": "yes", "power_supply": "no", "scout": "no", "shelter_type": "lean_to", "tourism": "camp_site"}}, {"type": "node", "id": 11492121326, "lat": 49.7952305, "lon": 12.8585944, "tags": {"amenity": "shelter", "shelter_type": "picnic_shelter"}}, {"type": "node", "id": 11492121328, "lat": 49.7965485, "lon": 12.8425922, "tags": {"amenity": "shelter", "shelter_type": "picnic_shelter"}}, {"type": "node", "id": 11542450647, "lat": 49.8523067, "lon": 12.8431078, "tags": {"description": "Nau\u010dn\u00e1 stezka Ko\u0159ensk\u00e9 poh\u00e1dky", "information": "board", "name": "O hodn\u00e9m duchovi", "tourism": "information"}}, {"type": "node", "id": 11542463544, "lat": 49.854887, "lon": 12.8361195, "tags": {"description": "Nau\u010dn\u00e1 stezka Ko\u0159ensk\u00e9 poh\u00e1dky", "information": "board", "name": "O Ji\u0159\u00edkovi a l\u00edp\u00e1ch", "tourism": "information"}}, {"type": "node", "id": 11542465452, "lat": 49.8537947, "lon": 12.8287888, "tags": {"description": "Nau\u010dn\u00e1 stezka Ko\u0159ensk\u00e9 poh\u00e1dky", "information": "board", "name": "O dvou b\u0159\u00edzk\u00e1ch", "tourism": "information"}}, {"type": "node", "id": 11542470852, "lat": 49.8517255, "lon": 12.8418833, "tags": {"description": "Nau\u010dn\u00e1 stezka Ko\u0159ensk\u00e9 poh\u00e1dky", "information": "board", "name": "O Ko\u0159ence", "tourism": "information"}}, {"type": "node", "id": 11542474903, "lat": 49.8498483, "lon": 12.8382113, "tags": {"description": "Nau\u010dn\u00e1 stezka Ko\u0159ensk\u00e9 poh\u00e1dky", "information": "board", "name": "O jabl\u00ed\u010dku", "tourism": "information"}}, {"type": "node", "id": 11542475447, "lat": 49.8511625, "lon": 12.8406722, "tags": {"description": "Nau\u010dn\u00e1 stezka Ko\u0159ensk\u00e9 poh\u00e1dky", "information": "board", "name": "O koroptvi\u010dk\u00e1ch", "tourism": "information"}}, {"type": "node", "id": 11542479784, "lat": 49.8496797, "lon": 12.8308567, "tags": {"description": "Nau\u010dn\u00e1 stezka Ko\u0159ensk\u00e9 poh\u00e1dky", "information": "board", "name": "O Filipovi", "tourism": "information"}}, {"type": "node", "id": 11542486591, "lat": 49.8528815, "lon": 12.8398153, "tags": {"description": "Nau\u010dn\u00e1 stezka Ko\u0159ensk\u00e9 poh\u00e1dky", "information": "board", "name": "O babce pod ko\u0159enem", "tourism": "information"}}, {"type": "node", "id": 11542488873, "lat": 49.8472463, "lon": 12.8265263, "tags": {"description": "Nau\u010dn\u00e1 stezka Ko\u0159ensk\u00e9 poh\u00e1dky", "information": "board", "name": "Duch pap\u00edrny", "tourism": "information"}}, {"type": "node", "id": 11563950570, "lat": 49.9516913, "lon": 12.8410362, "tags": {"information": "board", "name": "Svat\u00fd Vojt\u011bch", "tourism": "information"}}, {"type": "node", "id": 11739905500, "lat": 49.9477146, "lon": 12.9747422, "tags": {"board_type": "history", "information": "board", "name": "Reitenberger\u016fv pramen", "operator": "N\u00e1\u0161 region o.s.", "tourism": "information"}}, {"type": "node", "id": 11772456332, "lat": 49.7631629, "lon": 12.8816534}, {"type": "node", "id": 11772456333, "lat": 49.7631269, "lon": 12.8816432}, {"type": "node", "id": 11772456334, "lat": 49.7631215, "lon": 12.881689}, {"type": "node", "id": 11772456335, "lat": 49.7631575, "lon": 12.8816992}, {"type": "node", "id": 11772471256, "lat": 49.799099, "lon": 12.902538, "tags": {"tourism": "viewpoint"}}, {"type": "node", "id": 11772471299, "lat": 49.799864, "lon": 12.90417, "tags": {"description": "Historie hradu \u0160ont\u00e1l", "information": "board", "tourism": "information"}}, {"type": "node", "id": 11772471300, "lat": 49.8024971, "lon": 12.9057381, "tags": {"information": "board", "tourism": "information"}}, {"type": "node", "id": 11772471377, "lat": 49.7958746, "lon": 12.8767797, "tags": {"description": "Vojensk\u00fd v\u00fdcvikov\u00fd prostor \u010cSLA automatick\u00e9 st\u0159elnice PS La\u017eany opu\u0161t\u011bn\u00fd po r. 2000. Jihov\u00fdchodn\u00ed \u010d\u00e1st je dnes extenzivn\u011b zem\u011bd\u011blsky obhospoda\u0159ov\u00e1na pastvou a se\u010d\u00ed, a jedn\u00e1 se o biologicky cennou lokalitu s v\u00fdskytem ohro\u017een\u00fdch druh\u016f organism\u016f.", "name": "B\u00fdval\u00e1 tankov\u00e1 st\u0159elnice", "tourism": "attraction"}}, {"type": "node", "id": 11818266127, "lat": 49.8906081, "lon": 12.9713759, "tags": {"information": "board", "name": "Lesopark Star\u00e9 L\u00e1zn\u011b", "tourism": "information"}}, {"type": "node", "id": 11868511989, "lat": 49.8539911, "lon": 12.8258627}, {"type": "node", "id": 11868511990, "lat": 49.8539033, "lon": 12.8256876}, {"type": "node", "id": 11868511991, "lat": 49.8538557, "lon": 12.8257449}, {"type": "node", "id": 11868511992, "lat": 49.8539436, "lon": 12.8259201}, {"type": "node", "id": 11868512084, "lat": 49.863952, "lon": 12.8160348, "tags": {"amenity": "shelter", "shelter_type": "gazebo"}}, {"type": "node", "id": 11909801341, "lat": 49.8294739, "lon": 12.8186503}, {"type": "node", "id": 11909801342, "lat": 49.8294781, "lon": 12.8186905}, {"type": "node", "id": 11909801343, "lat": 49.8294612, "lon": 12.8186947}, {"type": "node", "id": 11909801344, "lat": 49.8294569, "lon": 12.8186546}, {"type": "node", "id": 11973472281, "lat": 49.8167183, "lon": 12.8038101, "tags": {"natural": "rock", "tourism": "viewpoint"}}, {"type": "node", "id": 11973472292, "lat": 49.805005, "lon": 12.8037413, "tags": {"amenity": "shelter", "bench": "yes", "bin": "no", "lit": "no", "shelter_type": "picnic_shelter"}}, {"type": "node", "id": 11973472372, "lat": 49.7528729, "lon": 12.8606712, "tags": {"amenity": "shelter"}}, {"type": "node", "id": 11973472373, "lat": 49.7528553, "lon": 12.86061, "tags": {"information": "board", "tourism": "information"}}, {"type": "node", "id": 12592751112, "lat": 49.8103896, "lon": 12.8551375, "tags": {"direction": "S", "tourism": "viewpoint"}}, {"type": "node", "id": 12592751113, "lat": 49.8110486, "lon": 12.8572886, "tags": {"tourism": "viewpoint"}}, {"type": "node", "id": 12777016455, "lat": 49.8232844, "lon": 12.8387825, "tags": {"information": "guidepost", "tourism": "information"}}, {"type": "node", "id": 12777016466, "lat": 49.8204426, "lon": 12.8406798, "tags": {"information": "board", "name": "T\u0159ebel", "tourism": "information"}}, {"type": "node", "id": 12914009363, "lat": 49.8139851, "lon": 12.8787724, "tags": {"board_type": "history", "information": "board", "name": "Volf\u0161tejn", "tourism": "information"}}, {"type": "node", "id": 12914022849, "lat": 49.8112657, "lon": 12.8738475, "tags": {"board_type": "nature", "information": "board", "name": "P\u0159\u00edrodn\u00ed pam\u00e1tka \u010cerno\u0161\u00ednsk\u00fd bor", "tourism": "information"}}, {"type": "node", "id": 12914042157, "lat": 49.8067307, "lon": 12.8676105, "tags": {"board_type": "history", "information": "board", "name": "Volf\u0161tejn", "tourism": "information"}}, {"type": "node", "id": 12914047224, "lat": 49.8067914, "lon": 12.8676281, "tags": {"board_type": "history", "information": "board", "name": "Volf\u0161tejn", "tourism": "information"}}, {"type": "node", "id": 12914071304, "lat": 49.807656, "lon": 12.8634816, "tags": {"board_type": "plants", "information": "board", "name": "P\u0159\u00edrodn\u00ed rezervace Pod Volf\u0161tejnem", "tourism": "information"}}, {"type": "node", "id": 12914246544, "lat": 49.8161769, "lon": 12.8630194, "tags": {"board_type": "history", "information": "board", "name": "Pam\u00e1tn\u00edk padl\u00fdm v I. sv\u011btov\u00e9 v\u00e1lce", "tourism": "information"}}, {"type": "node", "id": 12914319787, "lat": 49.8162206, "lon": 12.8630033, "tags": {"amenity": "shelter", "shelter_type": "picnic_shelter"}}, {"type": "node", "id": 12914361806, "lat": 49.8171123, "lon": 12.8729117, "tags": {"board_type": "nature", "information": "board", "name": "M\u011bsto \u010cerno\u0161\u00edn", "tourism": "information"}}, {"type": "node", "id": 13069392011, "lat": 49.8170815, "lon": 12.8386256, "tags": {"amenity": "shelter", "shelter_type": "weather_shelter"}}, {"type": "node", "id": 13069392012, "lat": 49.8171463, "lon": 12.8385983, "tags": {"board_type": "nature", "description": "Nau\u010dn\u00e1 stezka T\u0159ebel", "information": "board", "name": "Plazi a oboj\u017eiveln\u00edci Kos\u00edho potoka", "ref": "1", "tourism": "information"}}, {"type": "node", "id": 13069392013, "lat": 49.8184276, "lon": 12.84039, "tags": {"board_type": "nature", "description": "Nau\u010dn\u00e1 stezka T\u0159ebel", "information": "board", "name": "Zv\u011b\u0159 na  Kos\u00edm potoce", "ref": "3", "tourism": "information"}}, {"type": "node", "id": 13069392015, "lat": 49.7686647, "lon": 12.9181984, "tags": {"board_type": "nature", "description": "Nau\u010dn\u00e1 stezka Skaln\u00ed defil\u00e9 u Svoj\u0161\u00edna", "information": "board", "name": "U \u010cerno\u0161\u00ednsk\u00e9ho potoka", "ref": "5", "tourism": "information"}}, {"type": "node", "id": 13069392016, "lat": 49.7691075, "lon": 12.9181852, "tags": {"board_type": "nature", "description": "Nau\u010dn\u00e1 stezka Skaln\u00ed defil\u00e9 u Svoj\u0161\u00edna", "information": "board", "name": "Svoj\u0161\u00ednsk\u00e9 spility", "ref": "6", "tourism": "information"}}, {"type": "node", "id": 13069392017, "lat": 49.7700861, "lon": 12.9175597, "tags": {"board_type": "nature", "information": "board", "name": "Pyritov\u00fd d\u016fl Otto ve Svoj\u0161\u00edn\u011b", "ref": "35", "tourism": "information"}}, {"type": "node", "id": 13118817901, "lat": 49.7542244, "lon": 12.9994226, "tags": {"information": "board", "name": "St\u0159\u00edbrn\u00fd poledn\u00edk", "tourism": "information"}}, {"type": "way", "id": 38210944, "nodes": [450162893, 450162869, 284979146, 5023532835, 284979152, 450162868, 450162867, 5023532832, 5023532833, 5023532834, 5023532831, 450162893], "tags": {"historic": "castle", "landuse": "grass", "name": "Kras\u00edkov", "ruins": "yes", "source": "survey;uhul:ortofoto;cuzk:km", "tourism": "attraction", "wikidata": "Q10502205", "wikimedia_commons": "Category:Castle Kras\u00edkov", "wikipedia": "cs:\u0160vamberk"}}, {"type": "way", "id": 94789546, "nodes": [1100439527, 1100439416, 1100442611, 1100436628, 1100439527], "tags": {"amenity": "shelter", "building": "transportation", "building:ruian:type": "15", "ref:ruian:building": "41766288", "shelter_type": "public_transport", "source": "cuzk:ruian"}}, {"type": "way", "id": 242155067, "nodes": [2496752347, 2496752349, 2496752316, 2496752315, 2496752347], "tags": {"access": "private", "area": "yes", "building": "watermill", "building:flats": "1", "building:levels": "1", "building:material": "masonry", "building:ruian:type": "3", "building:use": "residential", "disused:watermill": "yes", "historic": "watermill", "man_made": "watermill", "name": "Svoj\u0161\u00ednsk\u00fd ml\u00fdn", "ref:ruian:building": "15561933", "roof:shape": "gabled", "source": "cuzk:ruian", "tourism": "attraction", "type": "multipolygon"}}, {"type": "way", "id": 246920648, "nodes": [2538837746, 2538837744, 2538837741, 2538837737, 2538837735, 2538837739, 2538837734, 2538837742, 2538837746], "tags": {"access": "private", "area": "yes", "building": "watermill", "building:flats": "1", "building:levels": "1", "building:material": "masonry", "building:ruian:type": "7", "building:use": "residential", "disused:watermill": "yes", "historic": "watermill", "man_made": "watermill", "name": "Hamersk\u00fd ml\u00fdn", "ref:ruian:building": "15566706", "roof:shape": "gabled", "source": "cuzk:ruian", "tourism": "attraction", "type": "multipolygon"}}, {"type": "way", "id": 430216399, "nodes": [4294880403, 4294880399, 4294880391, 4294880396, 4294880403], "tags": {"amenity": "shelter", "building": "transportation", "building:ruian:type": "5", "ref:ruian:building": "44052022", "shelter_type": "public_transport", "source": "cuzk:ruian"}}, {"type": "way", "id": 431543671, "nodes": [4307542602, 4307542600, 4307542595, 4307542599, 4307542602], "tags": {"amenity": "shelter", "building": "yes", "building:ruian:type": "19", "ref:ruian:building": "44043236", "shelter_type": "public_transport", "source": "cuzk:ruian"}}, {"type": "way", "id": 558329557, "nodes": [5383989374, 5383989375, 5383989376, 5383989377, 5383989374], "tags": {"amenity": "shelter"}}, {"type": "way", "id": 621567200, "nodes": [5871755594, 5871755593, 5871755592, 5871755591, 5871755594], "tags": {"amenity": "shelter", "building": "transportation", "shelter_type": "public_transport"}}, {"type": "way", "id": 661160620, "nodes": [6189904324, 6189904323, 6189904322, 6189904321, 6189904324], "tags": {"amenity": "shelter", "building": "civic", "building:ruian:type": "5", "name": "O\u0161el\u00edn", "public_transport": "platform", "ref:ruian:building": "44015968", "shelter_type": "public_transport", "source": "cuzk:ruian"}}, {"type": "way", "id": 668577977, "nodes": [6260950907, 6260950906, 6260950905, 6260950904, 6260950907], "tags": {"amenity": "shelter", "shelter_type": "public_transport"}}, {"type": "way", "id": 1116626641, "nodes": [10212795198, 10212795202, 10212795199, 10212795200, 10212795203, 10212795201, 10212795198], "tags": {"abandoned": "bridge", "area": "yes", "bridge": "yes", "historic": "bridge", "layer": "1", "man_made": "bridge", "name": "oblouky star\u00e9ho mostu", "ruins": "yes", "tourism": "attraction"}}, {"type": "way", "id": 1131040306, "nodes": [10541909197, 10541909198, 10541909199, 10541909200, 10541909197], "tags": {"access": "customers", "addr:city": "\u010cerno\u0161\u00edn", "addr:housenumber": "1", "addr:postcode": "349 58", "addr:street": "Ran\u010d v \u00fadol\u00ed", "area": "yes", "building": "watermill", "building:material": "masonry", "building:use": "residential", "disused:watermill": "yes", "historic": "watermill", "man_made": "watermill", "name": "N\u011bmeck\u00fd ml\u00fdn", "roof:shape": "gabled", "tourism": "attraction", "type": "multipolygon"}}, {"type": "way", "id": 1131698264, "nodes": [10550674995, 10550674996, 10550674997, 10550674998, 10550674999, 10550675000, 10550675001, 10550674983, 10550674984, 10550674987, 10550674988, 10550674989, 10550674990, 10550674991, 10550674992, 10550674993, 10550674994, 10550674985, 10550674986, 10550674995], "tags": {"amenity": "shelter", "area": "yes", "building": "roof", "layer": "1", "shelter_type": "gazebo"}}, {"type": "way", "id": 1215611712, "nodes": [3510762769, 11263041682, 11263041683, 11263041684]}, {"type": "way", "id": 1215611713, "nodes": [3510763144, 4592803754]}, {"type": "way", "id": 1215611714, "nodes": [4592803754, 885268140, 885267470, 885267745, 4592803755], "tags": {"highway": "track", "tracktype": "grade3"}}, {"type": "way", "id": 1215611715, "nodes": [4592803755, 4592803756, 10302090033, 4592803758, 11263041684], "tags": {"highway": "track", "tracktype": "grade3"}}, {"type": "way", "id": 1215611717, "nodes": [3510763580, 3510763529]}, {"type": "way", "id": 1215611718, "nodes": [3510762769, 3510763094, 3510763107, 3510763137, 3510763168, 3510763313, 3510763344, 3510763390, 3510763526, 3510763553, 3510763579, 3510763698, 3510763708, 3510763705, 3510763569, 3510763575, 3510763572, 3510763580]}, {"type": "way", "id": 1215611720, "nodes": [3510763529, 3510763493, 3510763370, 3510763374, 3510763369, 3510763352, 3510763180, 3510763144]}, {"type": "way", "id": 1220357175, "nodes": [11308256720, 11308256721, 11308256722, 11308256723, 11308256724, 5335871140]}, {"type": "way", "id": 1220357177, "nodes": [11308256720, 5335871140]}, {"type": "way", "id": 1267559874, "nodes": [11772456332, 11772456333, 11772456334, 11772456335, 11772456332], "tags": {"amenity": "shelter", "building": "roof", "shelter_type": "lean_to"}}, {"type": "way", "id": 1278431604, "nodes": [11868511989, 11868511990, 11868511991, 11868511992, 11868511989], "tags": {"abandoned:building": "watermill", "access": "yes", "area": "yes", "building": "ruins", "building:material": "masonry", "disused:watermill": "yes", "man_made": "watermill", "name": "z\u0159\u00edc. K\u0159\u00ednovsk\u00fd ml\u00fdn", "ruins": "yes", "ruins:building": "watermill", "tourism": "attraction", "type": "multipolygon", "watermill": "yes", "watermill:disused": "yes"}}, {"type": "way", "id": 1283613306, "nodes": [11909801341, 11909801342, 11909801343, 11909801344, 11909801341], "tags": {"amenity": "shelter", "area": "yes", "building": "transportation", "shelter": "yes", "shelter_type": "public_transport"}}, {"type": "relation", "id": 16490763, "members": [{"type": "way", "ref": 1215611714, "role": "outer"}, {"type": "way", "ref": 1215611715, "role": "outer"}, {"type": "way", "ref": 1215611712, "role": "outer"}, {"type": "way", "ref": 1215611718, "role": "outer"}, {"type": "way", "ref": 1215611717, "role": "outer"}, {"type": "way", "ref": 1215611720, "role": "outer"}, {"type": "way", "ref": 1215611713, "role": "outer"}], "tags": {"access": "yes", "area": "yes", "description": "Zanikl\u00e1 osada Caltov, postupn\u011b vys\u00eddleno po 1945.", "historic": "ruins", "landcover": "scrub", "name": "B\u00fdv. Caltov", "name:de": "Zaltau", "place": "locality", "ruins": "village", "surface": "scrub", "tourism": "attraction", "type": "multipolygon", "wikidata": "Q27659739", "wikipedia": "cs:Caltov"}}, {"type": "relation", "id": 16638577, "members": [{"type": "way", "ref": 1220357177, "role": "outer"}, {"type": "way", "ref": 1220357175, "role": "outer"}], "tags": {"access": "private", "area": "yes", "building": "watermill", "building:material": "masonry", "building:use": "residential", "disused:watermill": "yes", "historic": "watermill", "man_made": "watermill", "name": "\u010cern\u00fd ml\u00fdn", "name:de": "Schwarzm\u00fchle", "roof:shape": "gabled", "tourism": "attraction", "type": "multipolygon"}}]}