{"version": 0.6, "generator": "Overpass API 0.7.62.8 e802775f", "osm3s": {"timestamp_osm_base": "2026-01-05T16:26:06Z", "copyright": "The data included in this document is from www.openstreetmap.org. The data is made available under ODbL."}, "elements": [{"type": "node", "id": 268778549, "lat": 48.5549449, "lon": 13.8337876, "tags": {"ele": "941", "name": "Ameisberg", "natural": "peak", "wikidata": "Q460775", "wikipedia": "de:Ameisberg (S\u00fcdliche B\u00f6hmerwaldausl\u00e4ufer)"}}, {"type": "node", "id": 268778669, "lat": 48.5669875, "lon": 13.9726616, "tags": {"ele": "626", "natural": "peak"}}, {"type": "node", "id": 268778670, "lat": 48.5566493, "lon": 13.9179017, "tags": {"ele": "625", "natural": "peak"}}, {"type": "node", "id": 268778673, "lat": 48.5630115, "lon": 13.9125802, "tags": {"ele": "613", "natural": "peak"}}, {"type": "node", "id": 268778769, "lat": 48.5697138, "lon": 13.875673, "tags": {"ele": "665", "natural": "peak"}}, {"type": "node", "id": 268778772, "lat": 48.5958327, "lon": 13.8516404, "tags": {"ele": "825", "name": "Teufelstein", "natural": "peak"}}, {"type": "node", "id": 268778776, "lat": 48.6003737, "lon": 13.874643, "tags": {"ele": "904", "natural": "peak"}}, {"type": "node", "id": 268778780, "lat": 48.6025306, "lon": 13.8828827, "tags": {"ele": "873", "natural": "peak"}}, {"type": "node", "id": 268778786, "lat": 48.5987844, "lon": 13.8267495, "tags": {"ele": "782", "natural": "peak"}}, {"type": "node", "id": 268778816, "lat": 48.606844, "lon": 13.8615967, "tags": {"ele": "852", "natural": "peak"}}, {"type": "node", "id": 268778846, "lat": 48.6514322, "lon": 13.8906076, "tags": {"ele": "843", "name": "Schl\u00e4ger Berg", "natural": "peak"}}, {"type": "node", "id": 268778912, "lat": 48.6432664, "lon": 13.8622834, "tags": {"ele": "772", "name": "Stoariedl", "name:pdc": "Stoariedl", "natural": "peak"}}, {"type": "node", "id": 268778982, "lat": 48.6448543, "lon": 13.8502671, "tags": {"ele": "756", "name": "Schiffler Berg", "natural": "peak"}}, {"type": "node", "id": 268779019, "lat": 48.6226189, "lon": 13.9125802, "tags": {"ele": "682", "natural": "peak"}}, {"type": "node", "id": 268779066, "lat": 48.6199736, "lon": 13.9325287, "tags": {"ele": "731", "natural": "peak"}}, {"type": "node", "id": 268779075, "lat": 48.611838, "lon": 13.9578988, "tags": {"ele": "692", "natural": "peak"}}, {"type": "node", "id": 268779127, "lat": 48.6659462, "lon": 13.8755013, "tags": {"ele": "741", "natural": "peak"}}, {"type": "node", "id": 268779160, "lat": 48.6328302, "lon": 13.9106919, "tags": {"ele": "741", "natural": "peak"}}, {"type": "node", "id": 268779247, "lat": 48.6312419, "lon": 13.8495804, "tags": {"ele": "755", "natural": "peak"}}, {"type": "node", "id": 268779311, "lat": 48.5992385, "lon": 13.9699151, "tags": {"ele": "725", "natural": "peak"}}, {"type": "node", "id": 268779334, "lat": 48.6085465, "lon": 13.9755799, "tags": {"ele": "742", "natural": "peak"}}, {"type": "node", "id": 268779353, "lat": 48.6003737, "lon": 13.9809014, "tags": {"ele": "749", "natural": "peak"}}, {"type": "node", "id": 268779375, "lat": 48.6602772, "lon": 13.9970376, "tags": {"ele": "935", "natural": "peak"}}, {"type": "node", "id": 268779384, "lat": 48.670821, "lon": 13.9743783, "tags": {"ele": "965", "natural": "peak"}}, {"type": "node", "id": 268779486, "lat": 48.6144483, "lon": 13.9383294, "tags": {"ele": "737", "natural": "peak"}}, {"type": "node", "id": 268779555, "lat": 48.7011931, "lon": 13.8962722, "tags": {"ele": "716", "name": "K\u00fchberg", "natural": "peak"}}, {"type": "node", "id": 268779570, "lat": 48.683292, "lon": 13.9845729, "tags": {"ele": "1077", "name": "B\u00e4renstein", "natural": "peak", "summit:cross": "yes", "summit:register": "no", "wikidata": "Q1019177", "wikipedia": "de:B\u00e4renstein (Ober\u00f6sterreich)"}}, {"type": "node", "id": 268779572, "lat": 48.6963211, "lon": 13.9570405, "tags": {"ele": "1040", "natural": "peak"}}, {"type": "node", "id": 268779578, "lat": 48.7146731, "lon": 13.9776398, "tags": {"ele": "914", "natural": "peak"}}, {"type": "node", "id": 268779581, "lat": 48.6986792, "lon": 13.9637485, "tags": {"ele": "1041", "name": "Sulzberg", "natural": "peak"}}, {"type": "node", "id": 268779583, "lat": 48.6948481, "lon": 13.9455391, "tags": {"ele": "1041", "natural": "peak"}}, {"type": "node", "id": 268779589, "lat": 48.7043705, "lon": 13.9372741, "tags": {"ele": "982", "name": "Sperrb\u00fchel", "natural": "peak"}}, {"type": "node", "id": 268779619, "lat": 48.7363988, "lon": 13.8699056, "tags": {"ele": "1163", "name": "Zwieselberg", "natural": "peak", "wikidata": "Q21864214"}}, {"type": "node", "id": 268779621, "lat": 48.7161456, "lon": 13.8888909, "tags": {"ele": "851", "natural": "peak"}}, {"type": "node", "id": 268779624, "lat": 48.7262247, "lon": 13.8516403, "tags": {"ele": "902", "name": "Dachsberg", "natural": "peak", "wikidata": "Q21873736"}}, {"type": "node", "id": 268779676, "lat": 48.7375472, "lon": 13.9469124, "tags": {"ele": "1119", "name": "Kopka", "name:de": "Gupfel", "natural": "peak", "source": "tisicovky.cz"}}, {"type": "node", "id": 268779791, "lat": 48.7067577, "lon": 13.8886551, "tags": {"ele": "746", "name": "Haselberg", "natural": "peak"}}, {"type": "node", "id": 268779812, "lat": 48.6885024, "lon": 13.8470055, "tags": {"ele": "681", "natural": "peak"}}, {"type": "node", "id": 268779843, "lat": 48.6956412, "lon": 13.8415124, "tags": {"ele": "656", "natural": "peak"}}, {"type": "node", "id": 268780004, "lat": 48.5745979, "lon": 13.9508607, "tags": {"ele": "685", "name": "Buchetgupf", "natural": "peak"}}, {"type": "node", "id": 268780076, "lat": 48.5874676, "lon": 13.9425643, "tags": {"ele": "682", "natural": "peak"}}, {"type": "node", "id": 268780086, "lat": 48.5808443, "lon": 13.9560105, "tags": {"ele": "665", "natural": "peak"}}, {"type": "node", "id": 268780091, "lat": 48.6050278, "lon": 13.9472558, "tags": {"ele": "685", "natural": "peak"}}, {"type": "node", "id": 270091705, "lat": 48.5849536, "lon": 13.9741618, "tags": {"ele": "646", "natural": "peak"}}, {"type": "node", "id": 270091710, "lat": 48.5940373, "lon": 13.9751918, "tags": {"ele": "705", "natural": "peak"}}, {"type": "node", "id": 270091726, "lat": 48.5956267, "lon": 13.9811999, "tags": {"ele": "735", "natural": "peak"}}, {"type": "node", "id": 270091730, "lat": 48.5559887, "lon": 13.8761432, "tags": {"ele": "611", "natural": "peak"}}, {"type": "node", "id": 270091874, "lat": 48.5848401, "lon": 13.8218982, "tags": {"ele": "737", "natural": "peak"}}, {"type": "node", "id": 270091877, "lat": 48.6257036, "lon": 13.8150317, "tags": {"natural": "peak"}}, {"type": "node", "id": 270091878, "lat": 48.6239431, "lon": 13.8293812, "tags": {"ele": "734", "name": "Spielberg", "natural": "peak"}}, {"type": "node", "id": 270091879, "lat": 48.6156043, "lon": 13.8361461, "tags": {"ele": "711", "natural": "peak"}}, {"type": "node", "id": 270091881, "lat": 48.6262709, "lon": 13.8582904, "tags": {"ele": "758", "natural": "peak"}}, {"type": "node", "id": 270091882, "lat": 48.6262709, "lon": 13.8699634, "tags": {"ele": "736", "natural": "peak"}}, {"type": "node", "id": 270091883, "lat": 48.6316034, "lon": 13.8651569, "tags": {"ele": "746", "natural": "peak"}}, {"type": "node", "id": 270091885, "lat": 48.6517936, "lon": 13.8464458, "tags": {"ele": "752", "name": "Schinderb\u00fchel", "natural": "peak"}}, {"type": "node", "id": 270091902, "lat": 48.6639265, "lon": 13.8260181, "tags": {"ele": "802", "name": "Hirzenberg", "natural": "peak"}}, {"type": "node", "id": 270091904, "lat": 48.6495254, "lon": 13.8208682, "tags": {"ele": "761", "natural": "peak"}}, {"type": "node", "id": 270091912, "lat": 48.7066519, "lon": 13.828593, "tags": {"ele": "656", "natural": "peak"}}, {"type": "node", "id": 270091913, "lat": 48.6893168, "lon": 13.8196666, "tags": {"ele": "712", "natural": "peak"}}, {"type": "node", "id": 270091915, "lat": 48.6743562, "lon": 13.8500507, "tags": {"ele": "668", "natural": "peak"}}, {"type": "node", "id": 270092168, "lat": 48.7236666, "lon": 13.997586, "tags": {"ele": "845", "name": "Zvonkovsk\u00fd vrch", "name:de": "Wuselberg", "natural": "peak"}}, {"type": "node", "id": 270092238, "lat": 48.5642823, "lon": 13.990813, "tags": {"ele": "596", "natural": "peak"}}, {"type": "node", "id": 270092239, "lat": 48.5823418, "lon": 13.989783, "tags": {"natural": "peak"}}, {"type": "node", "id": 270092243, "lat": 48.6092487, "lon": 13.9889247, "tags": {"natural": "peak"}}, {"type": "node", "id": 270092247, "lat": 48.605049, "lon": 13.9911563, "tags": {"natural": "peak"}}, {"type": "node", "id": 270092248, "lat": 48.5984649, "lon": 14.0000827, "tags": {"ele": "705", "natural": "peak"}}, {"type": "node", "id": 270092260, "lat": 48.6309227, "lon": 13.9940745, "tags": {"ele": "606", "natural": "peak"}}, {"type": "node", "id": 270092262, "lat": 48.6318303, "lon": 13.936568, "tags": {"natural": "peak"}}, {"type": "node", "id": 270092264, "lat": 48.6329648, "lon": 13.9003474, "tags": {"ele": "674", "natural": "peak"}}, {"type": "node", "id": 270092271, "lat": 48.6309581, "lon": 13.8815184, "tags": {"ele": "672", "natural": "peak"}}, {"type": "node", "id": 302321471, "lat": 48.6832967, "lon": 13.984387, "tags": {"tourism": "viewpoint"}}, {"type": "node", "id": 307741842, "lat": 48.572626, "lon": 13.9903413, "tags": {"heritage": "2", "heritage:operator": "bda", "historic": "monument", "name": "Dreifaltigkeitss\u00e4ule", "ref:at:bda": "14751", "tourism": "attraction", "wikidata": "Q37844885"}}, {"type": "node", "id": 331597104, "lat": 48.5724304, "lon": 13.9907652, "tags": {"information": "office", "name": "Tourismusb\u00fcro Rohrbach", "tourism": "information"}}, {"type": "node", "id": 331597111, "lat": 48.5722445, "lon": 13.9910841, "tags": {"addr:housenumber": "3", "addr:postcode": "4150", "addr:street": "Stadtplatz", "information": "office", "name": "SAB Tours Touristik", "tourism": "information"}}, {"type": "node", "id": 410825533, "lat": 48.5732166, "lon": 13.9911488, "tags": {"historic": "building", "name": "Poeschl Haus", "tourism": "attraction"}}, {"type": "node", "id": 412201560, "lat": 48.5547204, "lon": 13.8347048, "tags": {"construction": "yes", "man_made": "tower", "name": "Ameisbergwarte", "tourism": "viewpoint", "tower:type": "observation"}}, {"type": "node", "id": 414127188, "lat": 48.5912523, "lon": 13.8964061, "tags": {"name": "K\u00fchstein", "tourism": "viewpoint"}}, {"type": "node", "id": 656536645, "lat": 48.73658, "lon": 13.92098, "tags": {"ele": "1338", "name": "Hochficht / Smr\u010dina", "name:cs": "Smr\u010dina", "name:de": "Hochficht", "natural": "peak", "prominence": "320", "source:ele": "1338 m laut BEV Austrian map. 1336 m laut Laserscan des Landes O\u00d6 auf www.doris.at. Laut Laserscan g\u00e4be es auch 50 m s\u00fcd\u00f6stlich noch eine Stelle mit \u00e4hnlicher H\u00f6he", "wikidata": "Q874441"}}, {"type": "node", "id": 730020845, "lat": 48.6949873, "lon": 13.8797888, "tags": {"information": "office", "name": "Tourismusb\u00fcro", "tourism": "information"}}, {"type": "node", "id": 794450599, "lat": 48.6400909, "lon": 13.926041, "tags": {"ele": "877", "name": "Hochb\u00fchel", "natural": "peak", "source": "basemap.at"}}, {"type": "node", "id": 898014229, "lat": 48.7029112, "lon": 13.9713411, "tags": {"direction": "0-360", "tourism": "viewpoint", "wheelchair": "no"}}, {"type": "node", "id": 971868567, "lat": 48.6690303, "lon": 13.9715367, "tags": {"name": "Hochbuchetfelsen", "tourism": "viewpoint"}}, {"type": "node", "id": 971868604, "lat": 48.6708958, "lon": 13.9647805, "tags": {"name": "Liebesfelsen", "tourism": "viewpoint"}}, {"type": "node", "id": 1000735193, "lat": 48.6922222, "lon": 13.8835443}, {"type": "node", "id": 1407818060, "lat": 48.720548, "lon": 13.9821398, "tags": {"ele": "824", "hiking": "yes", "information": "guidepost", "name": "Zadn\u00ed Zvonkov\u00e1 (rozcest\u00ed)", "operator": "cz:K\u010cT", "ref": "CK867", "tourism": "information"}}, {"type": "node", "id": 1449076660, "lat": 48.5768318, "lon": 13.9244495, "tags": {"bicycle": "yes", "hiking": "yes", "information": "map", "map_size": "region", "map_type": "scheme", "mtb": "yes", "ski": "yes", "tourism": "information"}}, {"type": "node", "id": 1449095657, "lat": 48.6368528, "lon": 13.9680627, "tags": {"hiking": "yes", "information": "map", "map_type": "topo", "name": "Am Jakobsweg durch das obere M\u00fchlviertel", "tourism": "information"}}, {"type": "node", "id": 1449095660, "lat": 48.6369171, "lon": 13.966496, "tags": {"bicycle": "yes", "check_date": "2021-08-24", "hiking": "yes", "information": "map", "map_size": "region", "map_type": "scheme", "mtb": "yes", "name": "Aigen / Schl\u00e4gl", "ski": "yes", "tourism": "information"}}, {"type": "node", "id": 1449975197, "lat": 48.6460492, "lon": 13.9702992, "tags": {"information": "office", "name": "Tourismusb\u00fcro", "tourism": "information"}}, {"type": "node", "id": 1450123022, "lat": 48.6948043, "lon": 13.990259, "tags": {"bicycle": "yes", "hiking": "yes", "horse": "yes", "information": "guidepost", "mtb": "yes", "name": "Kesselbach-Schleuse", "ski": "yes", "tourism": "information"}}, {"type": "node", "id": 1450123025, "lat": 48.7088188, "lon": 13.979904, "tags": {"information": "board", "name": "Der Schwarzenbergsche Schwemmkanal", "tourism": "information"}}, {"type": "node", "id": 1450123029, "lat": 48.707951, "lon": 13.9819971, "tags": {"information": "board", "name": "Die Glash\u00fctte von Sonnenwald", "tourism": "information"}}, {"type": "node", "id": 1450129418, "lat": 48.7119276, "lon": 13.9589648, "tags": {"bicycle": "yes", "hiking": "yes", "horse": "yes", "information": "map", "map_size": "region", "map_type": "street", "mtb": "yes", "name": "Schwarzenbergischer Schwemmkanal", "ski": "yes", "tourism": "information"}}, {"type": "node", "id": 1450132793, "lat": 48.7051813, "lon": 13.9467896, "tags": {"information": "map", "map_size": "region", "map_type": "topo", "name": "B\u00f6hmerwald Arena", "ski": "yes", "tourism": "information"}}, {"type": "node", "id": 1450132798, "lat": 48.7050122, "lon": 13.947343, "tags": {"information": "office", "name": "B\u00f6hmerwald Arena", "tourism": "information"}}, {"type": "node", "id": 1450146002, "lat": 48.7028105, "lon": 13.9719264, "tags": {"information": "map", "map_size": "region", "map_type": "topo", "name": "B\u00f6hmerwald Arena", "ski": "yes", "tourism": "information"}}, {"type": "node", "id": 1450157501, "lat": 48.6921366, "lon": 13.8835596, "tags": {"information": "board", "name": "Die W\u00f6lfe im B\u00f6hmerwald", "tourism": "information"}}, {"type": "node", "id": 1451059779, "lat": 48.7304807, "lon": 13.8344447, "tags": {"bicycle": "yes", "hiking": "yes", "horse": "yes", "information": "map", "map_size": "region", "map_type": "topo", "mtb": "yes", "name": "Schwarzenberg", "ski": "yes", "tourism": "information"}}, {"type": "node", "id": 1451059802, "lat": 48.730244, "lon": 13.834507, "tags": {"information": "office", "name": "Information Schwarzenberg", "tourism": "information"}}, {"type": "node", "id": 1774648151, "lat": 48.7420378, "lon": 13.9163653, "tags": {"ele": "1306", "ele:wgs84": "1352", "name": "Sch\u00f6nbergfelsen", "natural": "peak", "summit:cross": "yes", "summit:cross:material": "wood"}}, {"type": "node", "id": 1774648155, "lat": 48.7345219, "lon": 13.9132037, "tags": {"ele": "1260", "name": "Stinglfelsen", "natural": "peak"}}, {"type": "node", "id": 1811401073, "lat": 48.5782007, "lon": 13.9900786, "tags": {"information": "guidepost", "name": "Wanderwege", "source": "knowledge", "tourism": "information"}}, {"type": "node", "id": 1950974339, "lat": 48.7412122, "lon": 13.9695219, "tags": {"ele": "830", "hiking": "yes", "information": "guidepost", "name": "Hu\u0165sk\u00fd Dv\u016fr", "operator": "cz:K\u010cT", "ref": "VO872", "tourism": "information"}}, {"type": "node", "id": 1950974341, "lat": 48.7325192, "lon": 13.9739107, "tags": {"ele": "829", "hiking": "yes", "information": "guidepost", "name": "Josef\u016fv D\u016fl", "ref": "871", "source": "survey", "tourism": "information"}}, {"type": "node", "id": 1950974359, "lat": 48.7392716, "lon": 13.9338919, "tags": {"ele": "1161", "hiking": "yes", "information": "guidepost", "name": "Pod Smr\u010dinou", "operator": "cz:K\u010cT", "ref": "VO879", "source": "survey", "tourism": "information"}}, {"type": "node", "id": 1950974362, "lat": 48.7388462, "lon": 13.9208135, "tags": {"ele": "1326", "hiking": "yes", "information": "guidepost", "name": "Smr\u010dina (rozcest\u00ed)", "official_name": "Smr\u010dina (rozc.)", "operator": "cz:K\u010cT", "ref": "VO870", "source": "survey", "tourism": "information"}}, {"type": "node", "id": 1950974368, "lat": 48.7371946, "lon": 13.9209683, "tags": {"ele": "1332", "hiking": "yes", "information": "guidepost", "name": "Smr\u010dina", "name:cs": "Smr\u010dina", "name:de": "Hochficht", "operator": "cz:K\u010cT", "ref": "VO869", "source": "survey", "tourism": "information"}}, {"type": "node", "id": 1950974399, "lat": 48.7269174, "lon": 13.9545173, "tags": {"ele": "1040", "hiking": "yes", "information": "guidepost", "name": "U Tokani\u0161t\u011b", "operator": "cz:K\u010cT", "ref": "CK876", "source": "survey", "tourism": "information"}}, {"type": "node", "id": 2083542741, "lat": 48.6407454, "lon": 13.854906, "tags": {"amenity": "shelter", "bus": "yes", "highway": "bus_stop", "public_transport": "platform", "source": "geoimage.at"}}, {"type": "node", "id": 2516575219, "lat": 48.6926617, "lon": 13.8827587}, {"type": "node", "id": 2516575220, "lat": 48.6927335, "lon": 13.8842904}, {"type": "node", "id": 2516575221, "lat": 48.693562, "lon": 13.8839273}, {"type": "node", "id": 2553319888, "lat": 48.7498685, "lon": 13.9045085, "tags": {"ele": "1283", "hiking": "yes", "information": "guidepost", "name": "Hrani\u010dn\u00edk", "operator": "cz:K\u010cT", "ref": "VO852", "source": "survey", "tourism": "information"}}, {"type": "node", "id": 2553319897, "lat": 48.749861, "lon": 13.9045103, "tags": {"ele": "1282", "ele:wgs84": "1329", "name": "Reischlberg / Hrani\u010dn\u00edk", "name:cs": "Hrani\u010dn\u00edk", "name:de": "Reischlberg", "natural": "peak", "wikidata": "Q12020668"}}, {"type": "node", "id": 2631049114, "lat": 48.5524328, "lon": 13.9752757, "tags": {"ele": "682", "natural": "peak"}}, {"type": "node", "id": 2684106300, "lat": 48.7297506, "lon": 13.9095277, "tags": {"ele": "1146", "name": "Kaltebenfelsen", "natural": "peak", "source": "basemap.at"}}, {"type": "node", "id": 2684106305, "lat": 48.68049, "lon": 13.986646, "tags": {"ele": "1022", "name": "Kleiner B\u00e4renstein", "natural": "peak", "source": "basemap.at"}}, {"type": "node", "id": 2684106314, "lat": 48.691056, "lon": 13.9686141, "tags": {"ele": "999", "name": "Rosstauscherberg", "natural": "peak", "source": "basemap.at"}}, {"type": "node", "id": 2684106319, "lat": 48.6817059, "lon": 13.9612453, "tags": {"ele": "955", "name": "Schindlauer Berg", "natural": "peak", "source": "basemap.at"}}, {"type": "node", "id": 2691186943, "lat": 48.7369088, "lon": 13.9206726, "tags": {"information": "map", "map_size": "site", "map_type": "scheme", "ski": "yes", "tourism": "information"}}, {"type": "node", "id": 3034476402, "lat": 48.7143518, "lon": 13.965523, "tags": {"ele": "855", "hiking": "yes", "information": "guidepost", "name": "Zadn\u00ed Zvonkov\u00e1 (celnice)", "operator": "cz:K\u010cT", "ref": "CK966", "tourism": "information"}}, {"type": "node", "id": 3044116240, "lat": 48.6391735, "lon": 13.8383186}, {"type": "node", "id": 3044116241, "lat": 48.6391765, "lon": 13.8383525}, {"type": "node", "id": 3044116242, "lat": 48.6391463, "lon": 13.8383586}, {"type": "node", "id": 3044116243, "lat": 48.6391433, "lon": 13.8383248}, {"type": "node", "id": 3046176230, "lat": 48.7212566, "lon": 13.9536231, "tags": {"ele": "1010", "hiking": "yes", "information": "guidepost", "name": "Tet\u0159ev\u00ed", "operator": "cz:K\u010cT", "ref": "CK455", "tourism": "information"}}, {"type": "node", "id": 3217208832, "lat": 48.6342515, "lon": 13.9662281}, {"type": "node", "id": 3217208834, "lat": 48.6342577, "lon": 13.9662743}, {"type": "node", "id": 3217208835, "lat": 48.6343207, "lon": 13.9662067}, {"type": "node", "id": 3217208836, "lat": 48.634327, "lon": 13.9662529}, {"type": "node", "id": 3217214394, "lat": 48.6365485, "lon": 13.9752336}, {"type": "node", "id": 3217214395, "lat": 48.6365643, "lon": 13.9753072}, {"type": "node", "id": 3217214398, "lat": 48.6365757, "lon": 13.9752203}, {"type": "node", "id": 3217214400, "lat": 48.6365915, "lon": 13.9752939}, {"type": "node", "id": 3273302538, "lat": 48.6225293, "lon": 13.8694204, "tags": {"amenity": "shelter"}}, {"type": "node", "id": 3340475426, "lat": 48.6376968, "lon": 13.8925592}, {"type": "node", "id": 3340475427, "lat": 48.6377052, "lon": 13.8925176}, {"type": "node", "id": 3340475428, "lat": 48.6377315, "lon": 13.8925752}, {"type": "node", "id": 3340475429, "lat": 48.63774, "lon": 13.8925336}, {"type": "node", "id": 3374801480, "lat": 48.5818092, "lon": 13.8605109, "tags": {"ele": "772", "name": "Hoher Stein", "natural": "peak", "source": "basemap.at"}}, {"type": "node", "id": 3376819731, "lat": 48.5723371, "lon": 13.894199, "tags": {"ele": "716", "name": "Schaubschl\u00e4glberg", "natural": "peak", "source": "basemap.at"}}, {"type": "node", "id": 3397146345, "lat": 48.6129915, "lon": 13.9044673}, {"type": "node", "id": 3397146346, "lat": 48.6130013, "lon": 13.9044056}, {"type": "node", "id": 3397146347, "lat": 48.6130092, "lon": 13.9044737}, {"type": "node", "id": 3397146348, "lat": 48.613019, "lon": 13.9044121}, {"type": "node", "id": 3415534029, "lat": 48.5718666, "lon": 13.9784026}, {"type": "node", "id": 3415534030, "lat": 48.5718992, "lon": 13.9783707}, {"type": "node", "id": 3415534031, "lat": 48.5719007, "lon": 13.9784822}, {"type": "node", "id": 3415534032, "lat": 48.5719333, "lon": 13.9784502}, {"type": "node", "id": 3452208049, "lat": 48.7427445, "lon": 13.9427617, "tags": {"ele": "1124", "name": "Bul\u00edk", "name:de": "Osenberg", "natural": "peak"}}, {"type": "node", "id": 3452208050, "lat": 48.7149398, "lon": 13.9367429, "tags": {"ele": "1040", "name": "Gr\u00fcneisfelsen", "natural": "peak"}}, {"type": "node", "id": 3452208051, "lat": 48.7204249, "lon": 13.9610061, "tags": {"ele": "1014", "name": "Tokani\u0161t\u011b", "name:de": "Partlberg", "natural": "peak"}}, {"type": "node", "id": 3452208052, "lat": 48.7515946, "lon": 13.9811816, "tags": {"ele": "877", "name": "Lazebn\u00edk", "natural": "peak", "source": "\u010c\u00daZK"}}, {"type": "node", "id": 3459056276, "lat": 48.7268426, "lon": 13.93535, "tags": {"board_type": "warning", "direction": "30", "information": "board", "inscription": "Pozor St\u00e1tn\u00ed hranice", "name": "Pozor St\u00e1tn\u00ed hranice", "tourism": "information"}}, {"type": "node", "id": 3459948026, "lat": 48.660828, "lon": 13.8185254, "tags": {"bicycle": "yes", "hiking": "yes", "information": "guidepost", "mtb": "yes", "tourism": "information"}}, {"type": "node", "id": 3579717793, "lat": 48.5979438, "lon": 13.8783237, "tags": {"information": "board", "name": "Drucker-Franzl-Stein", "tourism": "information"}}, {"type": "node", "id": 3579717794, "lat": 48.6113434, "lon": 13.8859844, "tags": {"attraction": "natural", "name": "Feuchtbiotop", "tourism": "attraction"}}, {"type": "node", "id": 3579717795, "lat": 48.5980694, "lon": 13.8671976, "tags": {"ele": "840", "name": "Hochstein", "natural": "peak"}}, {"type": "node", "id": 3579789653, "lat": 48.5990896, "lon": 13.8679064, "tags": {"attraction": "historic", "name": "Wolfsgrube", "tourism": "attraction"}}, {"type": "node", "id": 3650136651, "lat": 48.7187602, "lon": 13.9503576, "tags": {"ele": "1040", "natural": "peak", "source": "basemap.at"}}, {"type": "node", "id": 4003177598, "lat": 48.5996104, "lon": 13.9598327}, {"type": "node", "id": 4003177601, "lat": 48.5996358, "lon": 13.9597244}, {"type": "node", "id": 4003177607, "lat": 48.5997347, "lon": 13.9600392}, {"type": "node", "id": 4003177608, "lat": 48.5997551, "lon": 13.9599535}, {"type": "node", "id": 4003177609, "lat": 48.599765, "lon": 13.9600557}, {"type": "node", "id": 4003177610, "lat": 48.5997854, "lon": 13.9599701}, {"type": "node", "id": 4139462466, "lat": 48.6210638, "lon": 13.8086911}, {"type": "node", "id": 4139462470, "lat": 48.621079, "lon": 13.8087182}, {"type": "node", "id": 4139462472, "lat": 48.6210906, "lon": 13.8086565}, {"type": "node", "id": 4139462475, "lat": 48.6211059, "lon": 13.8086835}, {"type": "node", "id": 4513170076, "lat": 48.5890112, "lon": 13.8956567, "tags": {"name": "Br\u00fcndelstein", "tourism": "viewpoint"}}, {"type": "node", "id": 4581643348, "lat": 48.584561, "lon": 13.8772221, "tags": {"information": "guidepost", "tourism": "information"}}, {"type": "node", "id": 4581643349, "lat": 48.5846381, "lon": 13.8775292, "tags": {"attraction": "natural", "name": "Lochstein", "tourism": "attraction"}}, {"type": "node", "id": 4608450988, "lat": 48.5997925, "lon": 13.9604384}, {"type": "node", "id": 4608451289, "lat": 48.5997749, "lon": 13.9604102}, {"type": "node", "id": 4608451290, "lat": 48.5997469, "lon": 13.9604501}, {"type": "node", "id": 4608451291, "lat": 48.5997644, "lon": 13.9604782}, {"type": "node", "id": 4839385563, "lat": 48.7111551, "lon": 13.9767444, "tags": {"ele": "815", "hiking": "yes", "information": "guidepost", "name": "Pest\u0159ice CZ/A", "operator": "cz:K\u010cT", "ref": "CK419", "tourism": "information"}}, {"type": "node", "id": 4839393829, "lat": 48.7330967, "lon": 13.9499921, "tags": {"ele": "990", "hiking": "yes", "information": "guidepost", "name": "Medv\u011bd\u00ed potok", "operator": "cz:K\u010cT", "ref": "CK875", "tourism": "information"}}, {"type": "node", "id": 4839405967, "lat": 48.7497747, "lon": 13.9458481, "tags": {"ele": "921", "hiking": "yes", "information": "guidepost", "name": "Seitzova cesta", "operator": "cz:K\u010cT", "ref": "CK435", "tourism": "information"}}, {"type": "node", "id": 5058877632, "lat": 48.5535412, "lon": 13.9067009, "tags": {"information": "board", "name": "LBW - Glaube", "tourism": "information"}}, {"type": "node", "id": 5058900444, "lat": 48.5542833, "lon": 13.8900167, "tags": {"information": "board", "name": "LBW - Medidation", "tourism": "information"}}, {"type": "node", "id": 5058900445, "lat": 48.5584667, "lon": 13.89425, "tags": {"information": "board", "name": "LBW - Landwirtschaft", "tourism": "information"}}, {"type": "node", "id": 5058900446, "lat": 48.5542, "lon": 13.8998333, "tags": {"information": "board", "name": "LBW - Wald", "tourism": "information"}}, {"type": "node", "id": 5863044846, "lat": 48.637039, "lon": 13.9671828, "tags": {"addr:city": "Aigen-Schl\u00e4gl", "addr:country": "AT", "addr:housenumber": "4", "addr:postcode": "4160", "addr:street": "Schl\u00e4gler Hauptstra\u00dfe", "email": "gartenschau@biogarteneden.at", "information": "office", "name": "O\u00d6 Landesgartenschau 2019 Bio.Garten.Eden", "operator": "Landesgartenschau Aigen-Schl\u00e4gl GmbH", "phone": "+43 7281 20808", "tourism": "information", "website": "https://biogarteneden.at"}}, {"type": "node", "id": 5907575198, "lat": 48.6510745, "lon": 13.9751115, "tags": {"information": "guidepost", "tourism": "information"}}, {"type": "node", "id": 5907617108, "lat": 48.6950535, "lon": 13.9411765, "tags": {"direction": "0-360", "tourism": "viewpoint"}}, {"type": "node", "id": 6163768364, "lat": 48.6621196, "lon": 13.8699486, "tags": {"ele": "705", "name": "Kalvarienberg", "natural": "peak"}}, {"type": "node", "id": 6519039997, "lat": 48.7205199, "lon": 13.9821565, "tags": {"information": "board", "tourism": "information"}}, {"type": "node", "id": 6519040007, "lat": 48.7345023, "lon": 13.9131424, "tags": {"name": "Stinglfelsen", "tourism": "viewpoint"}}, {"type": "node", "id": 6519040020, "lat": 48.7420182, "lon": 13.9163578, "tags": {"tourism": "viewpoint"}}, {"type": "node", "id": 6539207162, "lat": 48.7466542, "lon": 13.8362428, "tags": {"board_type": "history", "information": "board", "name": "Die Glash\u00fctte in Oberschwarzenberg", "tourism": "information"}}, {"type": "node", "id": 6539243473, "lat": 48.7142934, "lon": 13.9654289, "tags": {"information": "board", "name": "Zadn\u00ed Zvonkov\u00e1", "tourism": "information"}}, {"type": "node", "id": 7003898748, "lat": 48.6040153, "lon": 13.8811712, "tags": {"tourism": "viewpoint"}}, {"type": "node", "id": 7488861431, "lat": 48.7292404, "lon": 13.92943, "tags": {"ele": "1222", "importance": "local", "name": "Fleischhackerberg", "natural": "peak"}}, {"type": "node", "id": 7840768981, "lat": 48.6993217, "lon": 13.8025613, "tags": {"ele": "692", "name": "Nanzelberg", "natural": "peak"}}, {"type": "node", "id": 8740039234, "lat": 48.6425906, "lon": 13.975125, "tags": {"information": "map", "map_size": "region", "tourism": "information"}}, {"type": "node", "id": 9048168689, "lat": 48.6351598, "lon": 13.9705631, "tags": {"information": "board", "name": "armselig - voller W\u00fcrde", "tourism": "information"}}, {"type": "node", "id": 9048169674, "lat": 48.6351416, "lon": 13.9689808, "tags": {"information": "board", "name": "geschaffen - vollendet", "tourism": "information"}}, {"type": "node", "id": 9048169695, "lat": 48.6351429, "lon": 13.9692973, "tags": {"information": "board", "name": "unterwerfen oder achten", "tourism": "information"}}, {"type": "node", "id": 9048169712, "lat": 48.6354261, "lon": 13.9698035, "tags": {"information": "board", "name": "verh\u00e4rten oder umkehren", "tourism": "information"}}, {"type": "node", "id": 9048169713, "lat": 48.6353081, "lon": 13.9701678, "tags": {"information": "board", "name": "zerst\u00f6ren oder verwandeln", "tourism": "information"}}, {"type": "node", "id": 9108215677, "lat": 48.5999191, "lon": 13.867258, "tags": {"tourism": "viewpoint"}}, {"type": "node", "id": 9108215699, "lat": 48.5943375, "lon": 13.8760192, "tags": {"information": "board", "name": "Pfaffenhaus", "tourism": "information"}}, {"type": "node", "id": 9134631820, "lat": 48.7512524, "lon": 13.8207402}, {"type": "node", "id": 9134631821, "lat": 48.7512954, "lon": 13.8208265}, {"type": "node", "id": 9134631822, "lat": 48.7513522, "lon": 13.8207614}, {"type": "node", "id": 9134631823, "lat": 48.7513092, "lon": 13.8206751}, {"type": "node", "id": 9401830305, "lat": 48.571867, "lon": 13.9778624, "tags": {"tourism": "attraction"}}, {"type": "node", "id": 9553101049, "lat": 48.7489522, "lon": 13.905328, "tags": {"information": "map", "map_type": "yes", "tourism": "information"}}, {"type": "node", "id": 9570445257, "lat": 48.7134079, "lon": 13.9629173, "tags": {"direction": "190", "information": "board", "inscription": "\u010cesk\u00e1 republika", "name": "\u010cesk\u00e1 republika", "tourism": "information"}}, {"type": "node", "id": 9582919576, "lat": 48.5710405, "lon": 13.8729791}, {"type": "node", "id": 9582919577, "lat": 48.5710396, "lon": 13.8730247}, {"type": "node", "id": 9582919578, "lat": 48.5710628, "lon": 13.8730257}, {"type": "node", "id": 9582919579, "lat": 48.5710636, "lon": 13.8729801}, {"type": "node", "id": 9624221978, "lat": 48.6169111, "lon": 13.9157249}, {"type": "node", "id": 9624221979, "lat": 48.6168793, "lon": 13.9157115}, {"type": "node", "id": 9624221980, "lat": 48.6168543, "lon": 13.9158472}, {"type": "node", "id": 9624221981, "lat": 48.616886, "lon": 13.9158606}, {"type": "node", "id": 9633007872, "lat": 48.5913089, "lon": 13.8962045, "tags": {"information": "board", "tourism": "information"}}, {"type": "node", "id": 9675065096, "lat": 48.6206929, "lon": 13.8652736}, {"type": "node", "id": 9675065097, "lat": 48.620672, "lon": 13.8652589}, {"type": "node", "id": 9675065098, "lat": 48.6206598, "lon": 13.8652986}, {"type": "node", "id": 9675065099, "lat": 48.6206807, "lon": 13.8653133}, {"type": "node", "id": 9683622806, "lat": 48.6703914, "lon": 13.832045}, {"type": "node", "id": 9683622807, "lat": 48.670368, "lon": 13.8320544}, {"type": "node", "id": 9683622808, "lat": 48.670373, "lon": 13.8320827}, {"type": "node", "id": 9683622809, "lat": 48.6703964, "lon": 13.8320733}, {"type": "node", "id": 9686273887, "lat": 48.6834846, "lon": 13.8173473}, {"type": "node", "id": 9686273888, "lat": 48.6834631, "lon": 13.8173574}, {"type": "node", "id": 9686273889, "lat": 48.6834714, "lon": 13.8173975}, {"type": "node", "id": 9686273890, "lat": 48.6834929, "lon": 13.8173873}, {"type": "node", "id": 9687638994, "lat": 48.6966004, "lon": 13.8195811, "tags": {"ele": "654", "name": "Dreihiasl", "natural": "peak"}}, {"type": "node", "id": 9689660845, "lat": 48.7433631, "lon": 13.8658702, "tags": {"ele": "1116", "natural": "peak"}}, {"type": "node", "id": 9732111042, "lat": 48.7432547, "lon": 13.8139062, "tags": {"amenity": "shelter", "bench": "yes", "kerb": "raised", "shelter_type": "public_transport", "wheelchair": "limited"}}, {"type": "node", "id": 9733330976, "lat": 48.6752764, "lon": 13.8362043, "tags": {"ele": "715", "name": "Sch\u00f6nauberg", "natural": "peak"}}, {"type": "node", "id": 9741052946, "lat": 48.6561039, "lon": 13.8378027, "tags": {"ele": "793", "natural": "peak"}}, {"type": "node", "id": 9758211996, "lat": 48.6635184, "lon": 13.877523}, {"type": "node", "id": 9758211997, "lat": 48.6634898, "lon": 13.8775246}, {"type": "node", "id": 9758211998, "lat": 48.6634907, "lon": 13.8775621}, {"type": "node", "id": 9758211999, "lat": 48.6635193, "lon": 13.8775605}, {"type": "node", "id": 9758958317, "lat": 48.6684173, "lon": 13.8664664, "tags": {"ele": "713", "natural": "peak"}}, {"type": "node", "id": 9767105818, "lat": 48.5672641, "lon": 13.9500253}, {"type": "node", "id": 9767105819, "lat": 48.5672324, "lon": 13.9500207}, {"type": "node", "id": 9767105820, "lat": 48.5672282, "lon": 13.9500859}, {"type": "node", "id": 9767105821, "lat": 48.5672599, "lon": 13.9500905}, {"type": "node", "id": 9773179258, "lat": 48.6988497, "lon": 13.8564541, "tags": {"ele": "647", "name": "Schusterberg", "natural": "peak", "wikidata": "Q112134937"}}, {"type": "node", "id": 9795523917, "lat": 48.6811259, "lon": 13.8605134, "tags": {"ele": "675", "name": "Scheibenb\u00fchel", "natural": "peak"}}, {"type": "node", "id": 9796805128, "lat": 48.7276038, "lon": 13.8128584, "tags": {"ele": "692", "name": "Einsiedelberg", "natural": "peak", "wikidata": "Q21875845"}}, {"type": "node", "id": 9833822873, "lat": 48.692206, "lon": 13.8836265}, {"type": "node", "id": 9833822874, "lat": 48.692254, "lon": 13.8837071}, {"type": "node", "id": 9833822875, "lat": 48.6931742, "lon": 13.8840593}, {"type": "node", "id": 9833822876, "lat": 48.6930133, "lon": 13.8841279}, {"type": "node", "id": 9833822877, "lat": 48.6934579, "lon": 13.8839602}, {"type": "node", "id": 9839325574, "lat": 48.5865126, "lon": 13.846056, "tags": {"name": "Sarleinsbachblick", "tourism": "viewpoint"}}, {"type": "node", "id": 9839325575, "lat": 48.5908046, "lon": 13.8526249, "tags": {"name": "Wegscheidblick", "tourism": "viewpoint"}}, {"type": "node", "id": 9839325588, "lat": 48.5938813, "lon": 13.8483477, "tags": {"name": "Ameisbergblick", "tourism": "viewpoint"}}, {"type": "node", "id": 9839325589, "lat": 48.5996194, "lon": 13.8452094, "tags": {"name": "Olymp - Kollerschlagblick", "tourism": "viewpoint"}}, {"type": "node", "id": 9839325590, "lat": 48.6093664, "lon": 13.831642, "tags": {"name": "Grenzlandblick", "tourism": "viewpoint"}}, {"type": "node", "id": 9850632316, "lat": 48.678424, "lon": 13.823625}, {"type": "node", "id": 9850632317, "lat": 48.6784347, "lon": 13.8236626}, {"type": "node", "id": 9850632318, "lat": 48.6783945, "lon": 13.8236887}, {"type": "node", "id": 9850632319, "lat": 48.6783839, "lon": 13.823651}, {"type": "node", "id": 9877496747, "lat": 48.6369348, "lon": 13.966232}, {"type": "node", "id": 9877496748, "lat": 48.6369039, "lon": 13.9662041}, {"type": "node", "id": 9877496749, "lat": 48.63691, "lon": 13.9663138}, {"type": "node", "id": 9877496750, "lat": 48.6369362, "lon": 13.9662981}, {"type": "node", "id": 9954907678, "lat": 48.6563881, "lon": 13.8481105, "tags": {"direction": "40", "tourism": "viewpoint"}}, {"type": "node", "id": 9964336833, "lat": 48.6114327, "lon": 13.8859374, "tags": {"information": "board", "tourism": "information"}}, {"type": "node", "id": 9964336856, "lat": 48.6041625, "lon": 13.881101, "tags": {"information": "board", "tourism": "information"}}, {"type": "node", "id": 10077875132, "lat": 48.7321485, "lon": 13.8824822, "tags": {"bicycle": "no", "hiking": "yes", "information": "guidepost", "mtb": "yes", "tourism": "information"}}, {"type": "node", "id": 10126266291, "lat": 48.5863827, "lon": 13.8537881, "tags": {"amenity": "bench", "tourism": "viewpoint"}}, {"type": "node", "id": 10126368663, "lat": 48.5561632, "lon": 13.846172, "tags": {"information": "board", "tourism": "information"}}, {"type": "node", "id": 10132980797, "lat": 48.553676, "lon": 13.9096154, "tags": {"information": "board", "tourism": "information"}}, {"type": "node", "id": 10132981921, "lat": 48.553706, "lon": 13.9071386, "tags": {"information": "board", "tourism": "information"}}, {"type": "node", "id": 10180205361, "lat": 48.7260648, "lon": 13.9761606, "tags": {"ele": "920", "name": "Kronberg", "name:de": "Kronberg", "natural": "peak"}}, {"type": "node", "id": 10554591498, "lat": 48.5699481, "lon": 13.9859498}, {"type": "node", "id": 10554591499, "lat": 48.5699367, "lon": 13.9859691}, {"type": "node", "id": 10554591500, "lat": 48.5699819, "lon": 13.9860303}, {"type": "node", "id": 10554591501, "lat": 48.5699934, "lon": 13.986011}, {"type": "node", "id": 10766786364, "lat": 48.5720051, "lon": 13.9778201, "tags": {"information": "board", "tourism": "information"}}, {"type": "node", "id": 10766786365, "lat": 48.57122, "lon": 13.9718591, "tags": {"information": "guidepost", "tourism": "information"}}, {"type": "node", "id": 10766786374, "lat": 48.5720726, "lon": 13.9688942, "tags": {"information": "guidepost", "tourism": "information"}}, {"type": "node", "id": 10766786383, "lat": 48.580941, "lon": 13.9636286, "tags": {"information": "board", "tourism": "information"}}, {"type": "node", "id": 10766786384, "lat": 48.5771214, "lon": 13.9735172, "tags": {"information": "board", "tourism": "information"}}, {"type": "node", "id": 10802557015, "lat": 48.5979669, "lon": 13.8781303, "tags": {"information": "guidepost", "tourism": "information"}}, {"type": "node", "id": 10802557021, "lat": 48.6030303, "lon": 13.8561101, "tags": {"name": "Gott sei Dank-Platzl", "tourism": "viewpoint"}}, {"type": "node", "id": 10802585299, "lat": 48.5898179, "lon": 13.8970794, "tags": {"information": "guidepost", "tourism": "information"}}, {"type": "node", "id": 10802585302, "lat": 48.5889623, "lon": 13.8961146, "tags": {"information": "guidepost", "tourism": "information"}}, {"type": "node", "id": 10802586616, "lat": 48.5905861, "lon": 13.877871, "tags": {"information": "guidepost", "name": "H\u00fcllstein", "tourism": "information"}}, {"type": "node", "id": 10802586621, "lat": 48.5954789, "lon": 13.8532178, "tags": {"information": "guidepost", "name": "Teufelssitz", "tourism": "information"}}, {"type": "node", "id": 10914468510, "lat": 48.5728582, "lon": 13.9687461, "tags": {"amenity": "shelter"}}, {"type": "node", "id": 10914490919, "lat": 48.5718429, "lon": 13.9771746, "tags": {"information": "board", "tourism": "information"}}, {"type": "node", "id": 10914490920, "lat": 48.5715264, "lon": 13.9725135, "tags": {"information": "board", "tourism": "information"}}, {"type": "node", "id": 10914490921, "lat": 48.5739113, "lon": 13.9631834, "tags": {"information": "board", "tourism": "information"}}, {"type": "node", "id": 11059546089, "lat": 48.7082301, "lon": 13.9493217, "tags": {"information": "guidepost", "tourism": "information"}}, {"type": "node", "id": 11059546090, "lat": 48.708615, "lon": 13.9496718, "tags": {"information": "guidepost", "tourism": "information"}}, {"type": "node", "id": 11059596828, "lat": 48.7145243, "lon": 13.9441818, "tags": {"information": "guidepost", "tourism": "information"}}, {"type": "node", "id": 11154747826, "lat": 48.7516539, "lon": 13.902843, "tags": {"board_type": "warning", "direction": "65", "information": "board", "inscription": "Pozor St\u00e1tn\u00ed hranice", "name": "Pozor St\u00e1tn\u00ed hranice", "tourism": "information"}}, {"type": "node", "id": 11154747827, "lat": 48.7496562, "lon": 13.9049472, "tags": {"board_type": "warning", "direction": "40", "information": "board", "inscription": "Pozor St\u00e1tn\u00ed hranice", "name": "Pozor St\u00e1tn\u00ed hranice", "tourism": "information"}}, {"type": "node", "id": 11154747828, "lat": 48.7494396, "lon": 13.9053616, "tags": {"board_type": "warning", "direction": "50", "information": "board", "inscription": "Pozor St\u00e1tn\u00ed hranice", "name": "Pozor St\u00e1tn\u00ed hranice", "tourism": "information"}}, {"type": "node", "id": 11154747829, "lat": 48.7418258, "lon": 13.9179032, "tags": {"board_type": "warning", "direction": "40", "information": "board", "inscription": "Pozor St\u00e1tn\u00ed hranice", "name": "Pozor St\u00e1tn\u00ed hranice", "tourism": "information"}}, {"type": "node", "id": 11154747830, "lat": 48.7404977, "lon": 13.9199769, "tags": {"board_type": "warning", "direction": "60", "information": "board", "inscription": "Pozor St\u00e1tn\u00ed hranice", "name": "Pozor St\u00e1tn\u00ed hranice", "tourism": "information"}}, {"type": "node", "id": 11154747831, "lat": 48.7365371, "lon": 13.9237602, "tags": {"board_type": "warning", "direction": "35", "information": "board", "inscription": "Pozor St\u00e1tn\u00ed hranice", "name": "Pozor St\u00e1tn\u00ed hranice", "tourism": "information"}}, {"type": "node", "id": 11154747832, "lat": 48.7349096, "lon": 13.9263887, "tags": {"board_type": "warning", "direction": "90", "information": "board", "inscription": "Pozor St\u00e1tn\u00ed hranice", "name": "Pozor St\u00e1tn\u00ed hranice", "tourism": "information"}}, {"type": "node", "id": 11154747833, "lat": 48.7318243, "lon": 13.9272256, "tags": {"board_type": "warning", "direction": "75", "information": "board", "inscription": "Pozor St\u00e1tn\u00ed hranice", "name": "Pozor St\u00e1tn\u00ed hranice", "tourism": "information"}}, {"type": "node", "id": 11154766763, "lat": 48.729912, "lon": 13.9310584, "tags": {"board_type": "warning", "direction": "50", "information": "board", "inscription": "Pozor St\u00e1tn\u00ed hranice", "name": "Pozor St\u00e1tn\u00ed hranice", "tourism": "information"}}, {"type": "node", "id": 11154766764, "lat": 48.7285196, "lon": 13.9335314, "tags": {"board_type": "warning", "direction": "85", "information": "board", "inscription": "Pozor St\u00e1tn\u00ed hranice", "name": "Pozor St\u00e1tn\u00ed hranice", "tourism": "information"}}, {"type": "node", "id": 11154766765, "lat": 48.724552, "lon": 13.9378108, "tags": {"board_type": "warning", "direction": "90", "information": "board", "inscription": "Pozor St\u00e1tn\u00ed hranice", "name": "Pozor St\u00e1tn\u00ed hranice", "tourism": "information"}}, {"type": "node", "id": 11154783038, "lat": 48.7226906, "lon": 13.9403294, "tags": {"board_type": "warning", "direction": "0", "information": "board", "inscription": "Pozor St\u00e1tn\u00ed hranice", "name": "Pozor St\u00e1tn\u00ed hranice", "tourism": "information"}}, {"type": "node", "id": 11154783039, "lat": 48.7225384, "lon": 13.9441435, "tags": {"board_type": "warning", "direction": "0", "information": "board", "inscription": "Pozor St\u00e1tn\u00ed hranice", "name": "Pozor St\u00e1tn\u00ed hranice", "tourism": "information"}}, {"type": "node", "id": 11154783040, "lat": 48.7219509, "lon": 13.9475928, "tags": {"board_type": "warning", "information": "board", "inscription": "Pozor St\u00e1tn\u00ed hranice", "name": "Pozor St\u00e1tn\u00ed hranice", "tourism": "information"}}, {"type": "node", "id": 11154783041, "lat": 48.7210312, "lon": 13.9528969, "tags": {"board_type": "warning", "direction": "40", "information": "board", "inscription": "Pozor St\u00e1tn\u00ed hranice", "name": "Pozor St\u00e1tn\u00ed hranice", "tourism": "information"}}, {"type": "node", "id": 11170040639, "lat": 48.7496555, "lon": 13.9051254, "tags": {"information": "board", "inscription": "Naturschutzgebiet", "name": "P\u0159\u00edrodn\u00ed rezervace / Naturschutzgebiet", "name:cs": "P\u0159\u00edrodn\u00ed rezervace", "name:de": "Naturschutzgebiet", "tourism": "information"}}, {"type": "node", "id": 11170040640, "lat": 48.7493055, "lon": 13.9056608, "tags": {"information": "guidepost", "tourism": "information"}}, {"type": "node", "id": 11170040643, "lat": 48.7476228, "lon": 13.9099963, "tags": {"information": "board", "inscription": "Naturschutzgebiet", "name": "P\u0159\u00edrodn\u00ed rezervace / Naturschutzgebiet", "name:cs": "P\u0159\u00edrodn\u00ed rezervace", "name:de": "Naturschutzgebiet", "tourism": "information"}}, {"type": "node", "id": 11170040644, "lat": 48.7439971, "lon": 13.9149989, "tags": {"board_type": "warning", "direction": "40", "information": "board", "inscription": "Pozor St\u00e1tn\u00ed hranice", "name": "Pozor St\u00e1tn\u00ed hranice", "tourism": "information"}}, {"type": "node", "id": 11170040650, "lat": 48.7424591, "lon": 13.9166829, "tags": {"information": "guidepost", "tourism": "information"}}, {"type": "node", "id": 11225284230, "lat": 48.5784658, "lon": 13.8683658, "tags": {"information": "guidepost", "tourism": "information"}}, {"type": "node", "id": 11225292622, "lat": 48.5872777, "lon": 13.8678741, "tags": {"information": "guidepost", "name": "Stoanaweg", "tourism": "information"}}, {"type": "node", "id": 11225314057, "lat": 48.5809639, "lon": 13.8598464, "tags": {"information": "guidepost", "tourism": "information"}}, {"type": "node", "id": 11225314058, "lat": 48.5812479, "lon": 13.8611005, "tags": {"information": "guidepost", "tourism": "information"}}, {"type": "node", "id": 11225314059, "lat": 48.5818419, "lon": 13.8633603, "tags": {"information": "guidepost", "tourism": "information"}}, {"type": "node", "id": 11225314064, "lat": 48.5829926, "lon": 13.8622575, "tags": {"information": "guidepost", "tourism": "information"}}, {"type": "node", "id": 11243969086, "lat": 48.5551335, "lon": 13.8619404, "tags": {"information": "guidepost", "tourism": "information"}}, {"type": "node", "id": 11243969087, "lat": 48.554202, "lon": 13.8642812, "tags": {"information": "guidepost", "tourism": "information"}}, {"type": "node", "id": 11243969088, "lat": 48.5564593, "lon": 13.8616214, "tags": {"information": "guidepost", "tourism": "information"}}, {"type": "node", "id": 11262818740, "lat": 48.7133306, "lon": 13.9625388, "tags": {"board_type": "warning", "direction": "5", "information": "board", "inscription": "Pozor St\u00e1tn\u00ed hranice", "name": "Pozor St\u00e1tn\u00ed hranice", "tourism": "information"}}, {"type": "node", "id": 11262849547, "lat": 48.7237215, "lon": 13.9848148, "tags": {"information": "guidepost", "tourism": "information"}}, {"type": "node", "id": 11701073700, "lat": 48.6422797, "lon": 13.8119}, {"type": "node", "id": 11701073701, "lat": 48.6422513, "lon": 13.8118987}, {"type": "node", "id": 11701073702, "lat": 48.6422521, "lon": 13.8118623}, {"type": "node", "id": 11701073703, "lat": 48.6422804, "lon": 13.8118637}, {"type": "node", "id": 11728396720, "lat": 48.7498841, "lon": 13.8371634, "tags": {"information": "guidepost", "tourism": "information"}}, {"type": "node", "id": 11728396721, "lat": 48.7488325, "lon": 13.8368329, "tags": {"information": "guidepost", "tourism": "information"}}, {"type": "node", "id": 12018233839, "lat": 48.7503829, "lon": 13.8211856}, {"type": "node", "id": 12018233840, "lat": 48.7504073, "lon": 13.8211187}, {"type": "node", "id": 12018233841, "lat": 48.7503766, "lon": 13.8210929}, {"type": "node", "id": 12018233842, "lat": 48.7503522, "lon": 13.8211598}, {"type": "node", "id": 12018233843, "lat": 48.7503649, "lon": 13.821125, "tags": {"board_type": "nature", "information": "board", "tourism": "information"}}, {"type": "node", "id": 12018236288, "lat": 48.7512758, "lon": 13.820787}, {"type": "node", "id": 12028775130, "lat": 48.7503501, "lon": 13.8149654, "tags": {"board_type": "history", "check_date": "2024-06-26", "direction": "120", "information": "board", "name": "Das Rosenberggut", "tourism": "information"}}, {"type": "node", "id": 12132219850, "lat": 48.6683581, "lon": 13.8136745, "tags": {"amenity": "shelter"}}, {"type": "node", "id": 12132266406, "lat": 48.6600481, "lon": 13.8045372, "tags": {"amenity": "shelter"}}, {"type": "node", "id": 12137559544, "lat": 48.6650168, "lon": 13.8057079, "tags": {"name": "Haubenederberg", "natural": "peak"}}, {"type": "node", "id": 12167725723, "lat": 48.6627463, "lon": 13.971203, "tags": {"name": "R\u00e4uberh\u00f6hle", "note": "ist keine wirkliche H\u00f6hle, sondern markante Felsformation", "tourism": "attraction"}}, {"type": "node", "id": 12168021709, "lat": 48.6829355, "lon": 13.983517, "tags": {"information": "board", "name": "Entstehung von Felsformationen", "tourism": "information"}}, {"type": "node", "id": 12591350972, "lat": 48.6957626, "lon": 13.8670495, "tags": {"information": "guidepost", "tourism": "information"}}, {"type": "node", "id": 12591350977, "lat": 48.6902172, "lon": 13.8685693, "tags": {"information": "guidepost", "tourism": "information"}}, {"type": "node", "id": 12591350979, "lat": 48.6935532, "lon": 13.8692793, "tags": {"information": "guidepost", "tourism": "information"}}, {"type": "node", "id": 12670531899, "lat": 48.5545658, "lon": 13.835183, "tags": {"information": "guidepost", "tourism": "information"}}, {"type": "node", "id": 12670531900, "lat": 48.5548353, "lon": 13.8348921, "tags": {"information": "guidepost", "tourism": "information"}}, {"type": "node", "id": 12670531901, "lat": 48.5547574, "lon": 13.8341257, "tags": {"information": "guidepost", "tourism": "information"}}, {"type": "node", "id": 12755169959, "lat": 48.5997709, "lon": 13.960031}, {"type": "node", "id": 12755169977, "lat": 48.5995981, "lon": 13.9597043}, {"type": "node", "id": 12755169978, "lat": 48.5995728, "lon": 13.9598125}, {"type": "node", "id": 12755169980, "lat": 48.5996162, "lon": 13.9598082}, {"type": "node", "id": 13116955173, "lat": 48.6717028, "lon": 13.8079816, "tags": {"ele": "764", "name": "M\u00fchldemmelberg", "natural": "peak"}}, {"type": "node", "id": 13125070499, "lat": 48.6727828, "lon": 13.9783842, "tags": {"information": "guidepost", "tourism": "information"}}, {"type": "node", "id": 13125075208, "lat": 48.6750961, "lon": 13.9762702, "tags": {"information": "guidepost", "tourism": "information"}}, {"type": "node", "id": 13125192212, "lat": 48.6707591, "lon": 13.9648031, "tags": {"information": "guidepost", "tourism": "information"}}, {"type": "node", "id": 13127330119, "lat": 48.6346772, "lon": 13.948982, "tags": {"information": "guidepost", "tourism": "information"}}, {"type": "node", "id": 13127330136, "lat": 48.6309131, "lon": 13.9417409, "tags": {"information": "guidepost", "tourism": "information"}}, {"type": "node", "id": 13127335630, "lat": 48.6360266, "lon": 13.9520508, "tags": {"information": "guidepost", "tourism": "information"}}, {"type": "node", "id": 13127370612, "lat": 48.6328871, "lon": 13.9469991, "tags": {"information": "guidepost", "tourism": "information"}}, {"type": "node", "id": 13127371139, "lat": 48.6314447, "lon": 13.9471322, "tags": {"information": "guidepost", "tourism": "information"}}, {"type": "node", "id": 13127376242, "lat": 48.6262466, "lon": 13.9325713, "tags": {"information": "guidepost", "tourism": "information"}}, {"type": "node", "id": 13127376798, "lat": 48.6223564, "lon": 13.9250775, "tags": {"information": "guidepost", "tourism": "information"}}, {"type": "node", "id": 13127377329, "lat": 48.6252083, "lon": 13.9304862, "tags": {"information": "guidepost", "tourism": "information"}}, {"type": "node", "id": 13127386726, "lat": 48.6297105, "lon": 13.9404141, "tags": {"information": "guidepost", "tourism": "information"}}, {"type": "node", "id": 13127399926, "lat": 48.6251973, "lon": 13.93135, "tags": {"information": "guidepost", "tourism": "information"}}, {"type": "node", "id": 13127516221, "lat": 48.6178833, "lon": 13.8947689, "tags": {"information": "guidepost", "tourism": "information"}}, {"type": "node", "id": 13127674408, "lat": 48.5974279, "lon": 13.8569628, "tags": {"information": "guidepost", "tourism": "information"}}, {"type": "node", "id": 13127884980, "lat": 48.5597675, "lon": 13.8352482, "tags": {"information": "guidepost", "tourism": "information"}}, {"type": "node", "id": 13127987949, "lat": 48.5602104, "lon": 13.8196268, "tags": {"information": "guidepost", "tourism": "information"}}, {"type": "node", "id": 13128024670, "lat": 48.5587381, "lon": 13.8075168, "tags": {"information": "guidepost", "tourism": "information"}}, {"type": "node", "id": 13128314347, "lat": 48.6166084, "lon": 13.9686073, "tags": {"information": "guidepost", "tourism": "information"}}, {"type": "node", "id": 13173735378, "lat": 48.6728103, "lon": 13.9783888, "tags": {"information": "guidepost", "tourism": "information"}}, {"type": "node", "id": 13412918017, "lat": 48.7507578, "lon": 13.8202851, "tags": {"name": "Natur-Beobachtungspunkt", "tourism": "viewpoint"}}, {"type": "way", "id": 244327287, "nodes": [2516575221, 2516575219, 1000735193, 9833822873, 9833822874, 2516575220, 9833822876, 9833822875, 9833822877, 2516575221], "tags": {"leisure": "park", "name": "Heilkr\u00e4utergarten", "tourism": "attraction"}}, {"type": "way", "id": 300325999, "nodes": [3044116240, 3044116241, 3044116242, 3044116243, 3044116240], "tags": {"amenity": "shelter", "building": "yes"}}, {"type": "way", "id": 315596236, "nodes": [3217214398, 3217214400, 3217214395, 3217214394, 3217214398], "tags": {"amenity": "shelter", "building": "yes", "shelter_type": "public_transport", "source": "geoimage.at"}}, {"type": "way", "id": 315596240, "nodes": [3217208835, 3217208836, 3217208834, 3217208832, 3217208835], "tags": {"amenity": "shelter", "shelter_type": "public_transport", "source": "geoimage.at"}}, {"type": "way", "id": 327309742, "nodes": [3340475429, 3340475428, 3340475426, 3340475427, 3340475429], "tags": {"amenity": "shelter", "building": "yes", "source": "geoimage.at"}}, {"type": "way", "id": 332569637, "nodes": [3397146346, 3397146348, 3397146347, 3397146345, 3397146346], "tags": {"amenity": "shelter", "building": "yes", "shelter_type": "public_transport"}}, {"type": "way", "id": 334459072, "nodes": [3415534029, 3415534030, 3415534032, 3415534031, 3415534029], "tags": {"amenity": "shelter", "building": "yes", "source": "geoimage.at"}}, {"type": "way", "id": 397527873, "nodes": [12755169977, 4003177601, 12755169980, 4003177598, 12755169978, 12755169977], "tags": {"amenity": "shelter", "building": "yes", "shelter_type": "public_transport"}}, {"type": "way", "id": 397527874, "nodes": [4003177610, 12755169959, 4003177609, 4003177607, 4003177608, 4003177610], "tags": {"amenity": "shelter", "building": "yes", "shelter_type": "public_transport"}}, {"type": "way", "id": 412539298, "nodes": [4139462472, 4139462475, 4139462470, 4139462466, 4139462472], "tags": {"amenity": "shelter", "bench": "yes", "building": "yes", "shelter_type": "public_transport", "wheelchair": "no"}}, {"type": "way", "id": 465946976, "nodes": [4608450988, 4608451289, 4608451290, 4608451291, 4608450988], "tags": {"amenity": "shelter", "building": "yes", "shelter_type": "public_transport"}}, {"type": "way", "id": 988245534, "nodes": [9134631823, 9134631822, 9134631821, 12018236288, 9134631820, 9134631823], "tags": {"amenity": "shelter", "building": "yes", "shelter_type": "lean_to"}}, {"type": "way", "id": 1040812380, "nodes": [9582919579, 9582919578, 9582919577, 9582919576, 9582919579], "tags": {"amenity": "shelter", "building": "yes"}}, {"type": "way", "id": 1046556355, "nodes": [9624221978, 9624221979, 9624221980, 9624221981, 9624221978], "tags": {"amenity": "shelter", "building": "yes"}}, {"type": "way", "id": 1052765890, "nodes": [9675065096, 9675065097, 9675065098, 9675065099, 9675065096], "tags": {"amenity": "shelter", "building": "yes"}}, {"type": "way", "id": 1053710258, "nodes": [9683622806, 9683622807, 9683622808, 9683622809, 9683622806], "tags": {"amenity": "shelter", "building": "yes"}}, {"type": "way", "id": 1054025190, "nodes": [9686273887, 9686273888, 9686273889, 9686273890, 9686273887], "tags": {"amenity": "shelter", "building": "yes"}}, {"type": "way", "id": 1062188274, "nodes": [9758211996, 9758211997, 9758211998, 9758211999, 9758211996], "tags": {"amenity": "shelter", "building": "yes"}}, {"type": "way", "id": 1063263215, "nodes": [9767105818, 9767105819, 9767105820, 9767105821, 9767105818], "tags": {"amenity": "shelter", "building": "yes"}}, {"type": "way", "id": 1073886677, "nodes": [9850632316, 9850632317, 9850632318, 9850632319, 9850632316], "tags": {"amenity": "shelter", "building": "yes", "shelter_type": "public_transport"}}, {"type": "way", "id": 1077245540, "nodes": [9877496747, 9877496748, 9877496749, 9877496750, 9877496747], "tags": {"amenity": "shelter", "building": "yes", "shelter_type": "public_transport"}}, {"type": "way", "id": 1131967550, "nodes": [10554591501, 10554591500, 10554591499, 10554591498, 10554591501], "tags": {"amenity": "shelter", "building": "yes", "name": "Rohrbach-Berg Krankenhausstra\u00dfe", "shelter_type": "public_transport"}}, {"type": "way", "id": 1258701496, "nodes": [11701073703, 11701073700, 11701073701, 11701073702, 11701073703], "tags": {"amenity": "shelter", "building": "yes", "shelter_type": "public_transport"}}, {"type": "way", "id": 1297138531, "nodes": [12018233839, 12018233840, 12018233841, 12018233843, 12018233842, 12018233839], "tags": {"amenity": "shelter", "building": "roof", "layer": "1", "shelter_type": "lean_to"}}]}