{"version": 0.6, "generator": "Overpass API 0.7.62.8 e802775f", "osm3s": {"timestamp_osm_base": "2026-01-05T16:19:59Z", "copyright": "The data included in this document is from www.openstreetmap.org. The data is made available under ODbL."}, "elements": [{"type": "node", "id": 648227524, "lat": 49.3623203, "lon": 13.6176681, "tags": {"ele": "627", "name": "Slavn\u00edk", "natural": "peak", "source": "survey"}}, {"type": "node", "id": 1364562808, "lat": 49.497897, "lon": 13.607751, "tags": {"ele": "438", "hiking": "yes", "information": "guidepost", "name": "Nepomuk \u017est", "operator": "cz:K\u010cT", "ref": "PJ576", "tourism": "information"}}, {"type": "node", "id": 1364562809, "lat": 49.3912666, "lon": 13.6212169, "tags": {"ele": "527", "hiking": "yes", "information": "guidepost", "name": "Pa\u010dejov (\u017est)", "operator": "cz:K\u010cT", "ref": "PJ627", "tourism": "information"}}, {"type": "node", "id": 1406872559, "lat": 49.4977533, "lon": 13.6080256, "tags": {"hiking": "yes", "information": "map", "map_size": "region", "map_type": "topo", "name": "Nepomucko", "tourism": "information"}}, {"type": "node", "id": 2140730811, "lat": 49.5467826, "lon": 13.6425308, "tags": {"ele": "575", "hiking": "yes", "information": "guidepost", "name": "My\u0165", "operator": "cz:K\u010cT", "ref": "PJ787", "source": "mavit GPS", "tourism": "information"}}, {"type": "node", "id": 2140730817, "lat": 49.51907, "lon": 13.6036378, "tags": {"ele": "416", "hiking": "yes", "information": "guidepost", "name": "Srby", "operator": "cz:K\u010cT", "ref": "PJ785", "source": "mavit GPS", "tourism": "information"}}, {"type": "node", "id": 2140731147, "lat": 49.5413087, "lon": 13.679338, "tags": {"ele": "554", "hiking": "yes", "information": "guidepost", "name": "\u010c\u00ed\u017ekov", "operator": "cz:K\u010cT", "ref": "PJ788", "source": "mavit GPS", "tourism": "information"}}, {"type": "node", "id": 2357947278, "lat": 49.5440831, "lon": 13.7678881, "tags": {"information": "guidepost", "name": "U Nuslovny", "tourism": "information"}}, {"type": "node", "id": 2511244212, "lat": 49.4979012, "lon": 13.6077108}, {"type": "node", "id": 2511361792, "lat": 49.463435, "lon": 13.6913111}, {"type": "node", "id": 2511361795, "lat": 49.4634684, "lon": 13.6913702}, {"type": "node", "id": 2598748216, "lat": 49.4623894, "lon": 13.608556, "tags": {"information": "guidepost", "name": "Mile\u010d (\u017est.)", "tourism": "information"}}, {"type": "node", "id": 2598838003, "lat": 49.4435377, "lon": 13.6687994, "tags": {"information": "guidepost", "name": "Alt\u00e1n", "source": "mavit GPS", "tourism": "information"}}, {"type": "node", "id": 2598838004, "lat": 49.4457336, "lon": 13.6669836, "tags": {"ele": "625", "man_made": "survey_point", "name": "Bukov\u00fd vrch", "natural": "peak"}}, {"type": "node", "id": 2598838005, "lat": 49.4452653, "lon": 13.6426122, "tags": {"ele": "560", "hiking": "yes", "information": "guidepost", "name": "Clumsk\u00fd les", "operator": "cz:K\u010cT", "ref": "PJ686", "source": "mavit GPS", "tourism": "information"}}, {"type": "node", "id": 2598838009, "lat": 49.4630623, "lon": 13.6668912, "tags": {"ele": "500", "hiking": "yes", "information": "guidepost", "name": "Kotou\u0148 (\u017est.)", "operator": "cz:K\u010cT", "ref": "PJ690", "tourism": "information"}}, {"type": "node", "id": 2598838013, "lat": 49.4494694, "lon": 13.6755152, "tags": {"ele": "510", "hiking": "yes", "information": "guidepost", "name": "Kotou\u0148", "operator": "cz:K\u010cT", "ref": "PJ689", "tourism": "information"}}, {"type": "node", "id": 2598838019, "lat": 49.4567887, "lon": 13.60939, "tags": {"ele": "438", "hiking": "yes", "information": "guidepost", "name": "Ma\u0148ovsk\u00e1", "operator": "cz:K\u010cT", "ref": "PJ685", "tourism": "information"}}, {"type": "node", "id": 2598838020, "lat": 49.4623894, "lon": 13.608556, "tags": {"ele": "450", "hiking": "yes", "information": "guidepost", "name": "Mile\u010d (\u017est.)", "operator": "cz:K\u010cT", "ref": "PJ684", "tourism": "information"}}, {"type": "node", "id": 2598838030, "lat": 49.4363467, "lon": 13.6654292, "tags": {"information": "map", "name": "Plze\u0148sko jih", "tourism": "information"}}, {"type": "node", "id": 2598838034, "lat": 49.4362507, "lon": 13.6582263, "tags": {"ele": "660", "hiking": "yes", "information": "guidepost", "name": "Svat\u00e1 Mark\u00e9ta (Kap.)", "operator": "cz:K\u010cT", "ref": "PJ687", "tourism": "information"}}, {"type": "node", "id": 2598838039, "lat": 49.4537036, "lon": 13.6201613, "tags": {"ele": "549", "man_made": "survey_point", "name": "Ve Vrchu", "natural": "peak"}}, {"type": "node", "id": 2598838043, "lat": 49.4352685, "lon": 13.6594143, "tags": {"name": "Vyhl\u00eddka na \u0160umavu", "tourism": "viewpoint"}}, {"type": "node", "id": 2598838046, "lat": 49.4353112, "lon": 13.6595456, "tags": {"amenity": "shelter", "name": "Vyhl\u00eddka na \u0160umavu"}}, {"type": "node", "id": 2598838049, "lat": 49.4525813, "lon": 13.6235525, "tags": {"amenity": "shelter", "name": "sen\u00edk"}}, {"type": "node", "id": 2598838050, "lat": 49.4358961, "lon": 13.6725975, "tags": {"description": "barokn\u00ed z\u00e1mek z r. 1705 s parkem na m\u00edst\u011b p\u016fvodn\u00ed tvrze", "ele": "588", "hiking": "yes", "information": "guidepost", "name": "Oselce", "operator": "cz:K\u010cT", "ref": "PJ688", "tourism": "information"}}, {"type": "node", "id": 2598838635, "lat": 49.444491, "lon": 13.6292541, "tags": {"ele": "600", "man_made": "survey_point", "name": "\u010cihadlo", "natural": "peak", "source": "mavit GPS"}}, {"type": "node", "id": 2598860420, "lat": 49.4755762, "lon": 13.6714402, "tags": {"ele": "530", "hiking": "yes", "information": "guidepost", "name": "Podh\u016f\u0159\u00ed (rozc.)", "operator": "cz:K\u010cT", "ref": "PJ580", "tourism": "information"}}, {"type": "node", "id": 2598860425, "lat": 49.4729383, "lon": 13.6661197, "tags": {"ele": "530", "hiking": "yes", "information": "guidepost", "name": "Podh\u016f\u0159\u00ed", "operator": "cz:K\u010cT", "ref": "PJ579", "tourism": "information"}}, {"type": "node", "id": 2598860430, "lat": 49.4724948, "lon": 13.6629297, "tags": {"ele": "577", "name": "Skalka", "natural": "peak"}}, {"type": "node", "id": 2598875129, "lat": 49.4737992, "lon": 13.6918009, "tags": {"ele": "570", "name": "Na Kopanin\u00e1ch", "natural": "peak"}}, {"type": "node", "id": 2598912562, "lat": 49.4846378, "lon": 13.6816697, "tags": {"ele": "492", "hiking": "yes", "information": "guidepost", "name": "Kladrubce", "operator": "cz:K\u010cT", "ref": "PJ691", "tourism": "information"}}, {"type": "node", "id": 2598912563, "lat": 49.5030661, "lon": 13.6702511, "tags": {"ele": "510", "hiking": "yes", "information": "guidepost", "name": "Li\u0161kov", "operator": "cz:K\u010cT", "ref": "PJ692", "tourism": "information"}}, {"type": "node", "id": 2598912564, "lat": 49.5140766, "lon": 13.6386325, "tags": {"ele": "460", "hiking": "yes", "information": "guidepost", "name": "Svat\u00fd Vojt\u011bch (kap., odb.)", "operator": "cz:K\u010cT", "ref": "PJ693", "tourism": "information"}}, {"type": "node", "id": 2598912565, "lat": 49.5149142, "lon": 13.6362384, "tags": {"ele": "475", "hiking": "yes", "information": "guidepost", "name": "Svat\u00fd Vojt\u011bch kaple", "operator": "cz:K\u010cT", "ref": "PJ754", "source": "mavit GPS", "tourism": "information"}}, {"type": "node", "id": 2598912566, "lat": 49.5081394, "lon": 13.6194, "tags": {"ele": "410", "hiking": "yes", "information": "guidepost", "name": "Vr\u010de\u0148", "operator": "cz:K\u010cT", "ref": "PJ694", "tourism": "information"}}, {"type": "node", "id": 2818793474, "lat": 49.3716648, "lon": 13.7388945, "tags": {"ele": "450", "hiking": "yes", "information": "guidepost", "name": "Sv\u00e9radice", "operator": "cz:K\u010cT", "ref": "PJ809", "source": "GPS", "tourism": "information"}}, {"type": "node", "id": 2865049442, "lat": 49.406748, "lon": 13.7107738, "tags": {"entrance": "main"}}, {"type": "node", "id": 3338894690, "lat": 49.4805048, "lon": 13.6413031, "tags": {"description": "Kaple p. Marie z r. 1865 \u0160estibok\u00e1 s n\u00e1ro\u017en\u00edmi pilastry", "destination": "Trojice;Nepomuk (\u010cSD);Nepomuk (n\u00e1m.);Podh\u016f\u0159\u00ed;\u017divotice;Ln\u00e1\u0159e", "ele": "434", "hiking": "yes", "information": "guidepost", "name": "Mohelnice", "operator": "cz:K\u010cT", "ref": "PJ578", "source": "mavit Garmin Edge 705", "tourism": "information"}}, {"type": "node", "id": 3338894691, "lat": 49.4729392, "lon": 13.6661026, "tags": {"board_type": "nature", "information": "board", "name": "Pod \u0160\u0165edr\u00fdm", "tourism": "information"}}, {"type": "node", "id": 3340582420, "lat": 49.4641284, "lon": 13.7396078, "tags": {"ele": "550", "hiking": "yes", "information": "guidepost", "name": "Kasejovice (n\u00e1m.)", "operator": "cz:K\u010cT", "ref": "PJ584", "source": "gps", "tourism": "information"}}, {"type": "node", "id": 3340582421, "lat": 49.4615114, "lon": 13.7437319, "tags": {"ele": "540", "hiking": "yes", "information": "guidepost", "name": "Kasejovice (odb. k \u017est)", "operator": "cz:K\u010cT", "ref": "PJ585", "source": "mavit Garmin Edge 705", "tourism": "information"}}, {"type": "node", "id": 3340582422, "lat": 49.4662532, "lon": 13.7381685, "tags": {"ele": "560", "hiking": "yes", "information": "guidepost", "name": "Kasejovice (rozc.)", "operator": "cz:K\u010cT", "ref": "PJ583", "source": "mavit Garmin Edge 705", "tourism": "information"}}, {"type": "node", "id": 3340582424, "lat": 49.4724416, "lon": 13.721655, "tags": {"ele": "596", "hiking": "yes", "information": "guidepost", "name": "Na Kladrubin\u011b 596", "operator": "cz:K\u010cT", "ref": "PJ582", "tourism": "information"}}, {"type": "node", "id": 3340582425, "lat": 49.4678321, "lon": 13.7346594, "tags": {"board_type": "history", "information": "board", "name": "Putov\u00e1n\u00ed za Kasejovick\u00fdm zlatem", "source": "mavit Garmin Edge 705", "tourism": "information"}}, {"type": "node", "id": 3340582433, "lat": 49.4715335, "lon": 13.6838545, "tags": {"ele": "478", "hiking": "yes", "information": "guidepost", "name": "\u017divotice", "operator": "cz:K\u010cT", "ref": "PJ581", "source": "mavit Garmin Edge 705", "tourism": "information"}}, {"type": "node", "id": 3340603368, "lat": 49.4568933, "lon": 13.7836854, "tags": {"ele": "468", "hiking": "yes", "information": "guidepost", "name": "Ln\u00e1\u0159e", "operator": "cz:K\u010cT", "ref": "PJ587", "source": "mavit Garmin Edge 705", "tourism": "information"}}, {"type": "node", "id": 3340603369, "lat": 49.4662638, "lon": 13.7683411, "tags": {"ele": "550", "hiking": "yes", "information": "guidepost", "name": "Na malych ostrovech", "operator": "cz:K\u010cT", "ref": "PJ586", "source": "mavit Garmin Edge 705", "tourism": "information"}}, {"type": "node", "id": 3450501033, "lat": 49.4629445, "lon": 13.6662126}, {"type": "node", "id": 3450501034, "lat": 49.4629308, "lon": 13.6661863}, {"type": "node", "id": 3450501038, "lat": 49.4630385, "lon": 13.6661028}, {"type": "node", "id": 3450501039, "lat": 49.4630245, "lon": 13.6660756}, {"type": "node", "id": 3667374928, "lat": 49.4214086, "lon": 13.6959374, "tags": {"ele": "589", "hiking": "yes", "information": "guidepost", "name": "Nov\u00e1 Ves", "operator": "cz:K\u010cT", "ref": "PJ794", "tourism": "information"}}, {"type": "node", "id": 3667683721, "lat": 49.4036563, "lon": 13.7111977, "tags": {"amenity": "shelter", "shelter_type": "picnic_shelter"}}, {"type": "node", "id": 3667683722, "lat": 49.4002931, "lon": 13.7025069, "tags": {"hiking": "yes", "information": "guidepost", "name": "\u00dajezd u Chanovic", "operator": "cz:K\u010cT", "ref": "PJ811", "tourism": "information"}}, {"type": "node", "id": 3667766849, "lat": 49.4057134, "lon": 13.7165003, "tags": {"hiking": "yes", "information": "guidepost", "name": "Chanovice (z\u00e1m.)", "operator": "cz:K\u010cT", "ref": "PJ800", "tourism": "information"}}, {"type": "node", "id": 3667766892, "lat": 49.4049689, "lon": 13.7149561}, {"type": "node", "id": 3667766894, "lat": 49.4050314, "lon": 13.7152471}, {"type": "node", "id": 3667766895, "lat": 49.4050698, "lon": 13.7150084}, {"type": "node", "id": 3667766897, "lat": 49.4051072, "lon": 13.7151754}, {"type": "node", "id": 3667766899, "lat": 49.4051306, "lon": 13.7148013}, {"type": "node", "id": 3667766903, "lat": 49.4051697, "lon": 13.7153913}, {"type": "node", "id": 3667766904, "lat": 49.4051743, "lon": 13.7149794}, {"type": "node", "id": 3667766908, "lat": 49.4051995, "lon": 13.7147662}, {"type": "node", "id": 3667766909, "lat": 49.4052038, "lon": 13.7151377}, {"type": "node", "id": 3667766913, "lat": 49.405286, "lon": 13.7147934}, {"type": "node", "id": 3667766915, "lat": 49.405307, "lon": 13.7153403}, {"type": "node", "id": 3667766917, "lat": 49.4053162, "lon": 13.7147552}, {"type": "node", "id": 3667766918, "lat": 49.405322, "lon": 13.7148936}, {"type": "node", "id": 3667766919, "lat": 49.4053338, "lon": 13.7149751}, {"type": "node", "id": 3667766920, "lat": 49.4053362, "lon": 13.7151}, {"type": "node", "id": 3667766921, "lat": 49.4053574, "lon": 13.7148001}, {"type": "node", "id": 3667766923, "lat": 49.4053628, "lon": 13.7148765}, {"type": "node", "id": 3667829633, "lat": 49.4058466, "lon": 13.7156021, "tags": {"contact:phone": "+420376514164", "contact:website": "http://www.chanovice.cz", "information": "office", "opening_hours": "Jun-Aug Mo-Su 10:00-16:00; May,Sep Sa-Su 10:00-16:00; May,Sep PH 10:00-16:00", "tourism": "information"}}, {"type": "node", "id": 3667829634, "lat": 49.4067202, "lon": 13.7107778}, {"type": "node", "id": 3667829635, "lat": 49.4067161, "lon": 13.7107093}, {"type": "node", "id": 3667829636, "lat": 49.406759, "lon": 13.7136186}, {"type": "node", "id": 3667829637, "lat": 49.4067886, "lon": 13.7141657}, {"type": "node", "id": 3667829639, "lat": 49.4067647, "lon": 13.7107714}, {"type": "node", "id": 3667829640, "lat": 49.4067605, "lon": 13.7107029}, {"type": "node", "id": 3667829641, "lat": 49.406863, "lon": 13.7145714}, {"type": "node", "id": 3667829644, "lat": 49.406943, "lon": 13.7147936}, {"type": "node", "id": 3667829645, "lat": 49.406955, "lon": 13.7131069}, {"type": "node", "id": 3667829646, "lat": 49.4069624, "lon": 13.7145603}, {"type": "node", "id": 3667829648, "lat": 49.4073143, "lon": 13.7125632}, {"type": "node", "id": 3667829650, "lat": 49.4074162, "lon": 13.7142305}, {"type": "node", "id": 3667829651, "lat": 49.4075125, "lon": 13.7123722}, {"type": "node", "id": 3667874121, "lat": 49.4152907, "lon": 13.7404576, "tags": {"ele": "518", "hiking": "yes", "information": "guidepost", "name": "Bezd\u011bkov", "operator": "cz:K\u010cT", "ref": "PJ796", "tourism": "information"}}, {"type": "node", "id": 3667874123, "lat": 49.4267777, "lon": 13.7287709, "tags": {"ele": "528", "hiking": "yes", "information": "guidepost", "name": "Nezd\u0159ev", "operator": "cz:K\u010cT", "ref": "PJ795", "tourism": "information"}}, {"type": "node", "id": 3667874124, "lat": 49.4158267, "lon": 13.7796505, "tags": {"ele": "490", "hiking": "yes", "information": "guidepost", "name": "Pole", "operator": "cz:K\u010cT", "ref": "PJ797", "tourism": "information"}}, {"type": "node", "id": 3667876328, "lat": 49.4138718, "lon": 13.7536874, "tags": {"amenity": "shelter", "shelter_type": "picnic_shelter"}}, {"type": "node", "id": 3667876498, "lat": 49.4267736, "lon": 13.7287582, "tags": {"information": "board", "tourism": "information"}}, {"type": "node", "id": 3789210525, "lat": 49.4506234, "lon": 13.6795312}, {"type": "node", "id": 4116673554, "lat": 49.5104916, "lon": 13.6539281, "tags": {"ele": "668", "name": "\u0160t\u011bdr\u00fd", "natural": "peak"}}, {"type": "node", "id": 4151803329, "lat": 49.4922863, "lon": 13.6266541, "tags": {"ele": "440", "hiking": "yes", "information": "guidepost", "name": "Tojice", "operator": "cz:K\u010cT", "ref": "PJ577", "tourism": "information"}}, {"type": "node", "id": 4275375974, "lat": 49.3998423, "lon": 13.7584288, "tags": {"name": "Ob\u011btn\u00ed k\u00e1men", "tourism": "attraction"}}, {"type": "node", "id": 4275421499, "lat": 49.3989356, "lon": 13.7638588, "tags": {"name": "Mal\u00fd \u010dert\u016fv n\u00e1ramek", "tourism": "attraction"}}, {"type": "node", "id": 4378253007, "lat": 49.4042137, "lon": 13.715883, "tags": {"tourism": "viewpoint"}}, {"type": "node", "id": 4404553823, "lat": 49.5263849, "lon": 13.7507601, "tags": {"ele": "542", "hiking": "yes", "information": "guidepost", "name": "Star\u00fd Smolivec", "operator": "cz:K\u010cT", "ref": "PJ638", "source": "HELP SERVICE - REMOTE SENSING spol. s r.o. http://www.bnhelp.cz", "tourism": "information"}}, {"type": "node", "id": 4422632535, "lat": 49.5434088, "lon": 13.6536454, "tags": {"amenity": "shelter", "name": "Vagon", "source": "mavit Garmin Edge 705"}}, {"type": "node", "id": 4424117626, "lat": 49.5471303, "lon": 13.6242938, "tags": {"ele": "585", "hiking": "yes", "information": "guidepost", "name": "Na Planin\u011b", "operator": "cz:K\u010cT", "ref": "PJ786", "source": "mavit Garmin Edge 705", "tourism": "information"}}, {"type": "node", "id": 4439739850, "lat": 49.5086898, "lon": 13.6212392, "tags": {"board_type": "history", "information": "board", "name": "Na hr\u00e1zi", "ref": "1", "source": "mavit Garmin Edge 705", "tourism": "information", "website": "http://spolekvrcen.cz/zastavka-c-1/"}}, {"type": "node", "id": 4439739854, "lat": 49.5091058, "lon": 13.6220699, "tags": {"board_type": "information", "information": "board", "name": "Pod Vy\u0161ohradem", "ref": "2", "source": "mavit Garmin Edge 705", "tourism": "information", "website": "http://spolekvrcen.cz/zastavka-c-2/"}}, {"type": "node", "id": 4439739868, "lat": 49.5104885, "lon": 13.6539689, "tags": {"board_type": "nature", "information": "board", "name": "Vrchol \u0160t\u011bdr\u00fd", "ref": "5", "source": "mavit Garmin Edge 705", "tourism": "information"}}, {"type": "node", "id": 4439801942, "lat": 49.5135326, "lon": 13.6893512, "tags": {"amenity": "shelter", "name": "Sen\u00edk Tady je Krakono\u0161ovo", "source": "mavit Garmin Edge 705"}}, {"type": "node", "id": 4460951437, "lat": 49.5079563, "lon": 13.631494, "tags": {"information": "board", "name": "sv. Vojt\u011bch", "source": "mavit Garmin Edge 705", "tourism": "information"}}, {"type": "node", "id": 4460951600, "lat": 49.5078275, "lon": 13.6230623, "tags": {"board_type": "nature", "information": "board", "name": "U pergoly", "ref": "3", "source": "mavit Garmin Edge 705", "tourism": "information", "website": "http://spolekvrcen.cz/zastavka-c-3/"}}, {"type": "node", "id": 4460951601, "lat": 49.5072942, "lon": 13.6345104, "tags": {"board_type": "information", "information": "board", "name": "Na vyhl\u00eddce", "ref": "4", "source": "mavit Garmin Edge 705", "tourism": "information", "website": "http://spolekvrcen.cz/zastavka-c-4/"}}, {"type": "node", "id": 4460951602, "lat": 49.5135357, "lon": 13.6451789, "tags": {"board_type": "history", "information": "board", "name": "Dobr\u00e1 voda", "ref": "6", "source": "mavit Garmin Edge 705", "tourism": "information", "website": "http://spolekvrcen.cz/zastavka-c-6/"}}, {"type": "node", "id": 4460951603, "lat": 49.5104918, "lon": 13.6416481, "tags": {"board_type": "nature", "information": "board", "name": "Vr\u010densk\u00fd prales", "ref": "7", "source": "mavit Garmin Edge 705", "tourism": "information", "website": "http://spolekvrcen.cz/zastavka-c-7/"}}, {"type": "node", "id": 4476331970, "lat": 49.4032424, "lon": 13.7751582, "tags": {"ele": "505", "hiking": "yes", "information": "guidepost", "name": "Kadov", "operator": "cz:K\u010cT", "ref": "ST217", "tourism": "information"}}, {"type": "node", "id": 4476331971, "lat": 49.3883648, "lon": 13.7446636, "tags": {"ele": "490", "hiking": "yes", "information": "guidepost", "name": "Slatina", "operator": "cz:K\u010cT", "ref": "ST218", "tourism": "information"}}, {"type": "node", "id": 4476339486, "lat": 49.3752243, "lon": 13.794277, "tags": {"ele": "565", "hiking": "yes", "information": "guidepost", "name": "\u010ce\u010delovice", "operator": "cz:K\u010cT", "ref": "ST149", "tourism": "information"}}, {"type": "node", "id": 4477196062, "lat": 49.414903, "lon": 13.7450386, "tags": {"ele": "530", "hiking": "yes", "information": "guidepost", "name": "Bezd\u011bkov odbo\u010dka k B\u00e1b\u011b", "operator": "cz:K\u010cT", "ref": "PJ799", "tourism": "information"}}, {"type": "node", "id": 4477196063, "lat": 49.4138455, "lon": 13.7535305, "tags": {"ele": "530", "hiking": "yes", "information": "guidepost", "name": "B\u00e1ba", "operator": "cz:K\u010cT", "ref": "PJ016", "tourism": "information"}}, {"type": "node", "id": 4477331182, "lat": 49.39162, "lon": 13.7129705, "tags": {"ele": "520", "hiking": "yes", "information": "guidepost", "name": "Dobrotice", "operator": "cz:K\u010cT", "ref": "PJ810", "tourism": "information"}}, {"type": "node", "id": 4478501453, "lat": 49.370163, "lon": 13.6656995, "tags": {"ele": "495", "hiking": "yes", "information": "guidepost", "name": "Jetenovice \u017est", "operator": "cz:K\u010cT", "ref": "PJ005", "tourism": "information"}}, {"type": "node", "id": 4478501454, "lat": 49.3849158, "lon": 13.6873932, "tags": {"ele": "473", "hiking": "yes", "information": "guidepost", "name": "Pl\u00e1cek", "operator": "cz:K\u010cT", "place": "hamlet", "ref": "PJ009", "tourism": "information"}}, {"type": "node", "id": 4478949295, "lat": 49.4082425, "lon": 13.6747547, "tags": {"ele": "550", "hiking": "yes", "information": "guidepost", "name": "Defurovy La\u017eany", "operator": "cz:K\u010cT", "ref": "PJ793", "tourism": "information"}}, {"type": "node", "id": 4478949296, "lat": 49.412204, "lon": 13.6444779, "tags": {"ele": "535", "hiking": "yes", "information": "guidepost", "name": "Kv\u00e1\u0161novice", "operator": "cz:K\u010cT", "ref": "PJ792", "tourism": "information"}}, {"type": "node", "id": 4478949297, "lat": 49.4008143, "lon": 13.6270113, "tags": {"ele": "520", "hiking": "yes", "information": "guidepost", "name": "Ol\u0161any", "operator": "cz:K\u010cT", "ref": "PJ791", "tourism": "information"}}, {"type": "node", "id": 4479464729, "lat": 49.4075636, "lon": 13.6046316, "tags": {"ele": "535", "hiking": "yes", "information": "guidepost", "name": "Mil\u010dice", "operator": "cz:K\u010cT", "ref": "PJ664", "tourism": "information"}}, {"type": "node", "id": 4482190546, "lat": 49.4766514, "lon": 13.7464593, "tags": {"ele": "514", "hiking": "yes", "information": "guidepost", "name": "\u00dajezd u Kasejovic", "operator": "cz:K\u010cT", "ref": "PJ635", "tourism": "information"}}, {"type": "node", "id": 4483338966, "lat": 49.5022097, "lon": 13.7646831, "tags": {"ele": "496", "hiking": "yes", "information": "guidepost", "name": "Metly", "operator": "cz:K\u010cT", "ref": "PJ637", "tourism": "information"}}, {"type": "node", "id": 4483338967, "lat": 49.489015, "lon": 13.7613411, "tags": {"ele": "490", "hiking": "yes", "information": "guidepost", "name": "Z\u00e1mlyn\u00ed", "operator": "cz:K\u010cT", "ref": "PJ636", "tourism": "information"}}, {"type": "node", "id": 4492462718, "lat": 49.5461101, "lon": 13.7886567, "tags": {"hiking": "yes", "information": "guidepost", "name": "M\u00fdta", "operator": "cz:K\u010cT", "ref": "PB337", "tourism": "information"}}, {"type": "node", "id": 4492462719, "lat": 49.5501544, "lon": 13.7620438, "tags": {"hiking": "yes", "information": "guidepost", "name": "Vrchy", "operator": "cz:K\u010cT", "ref": "PB312", "tourism": "information"}}, {"type": "node", "id": 4593398071, "lat": 49.4634932, "lon": 13.691337}, {"type": "node", "id": 4593398072, "lat": 49.4634598, "lon": 13.6912779}, {"type": "node", "id": 4618656914, "lat": 49.4497261, "lon": 13.7731414}, {"type": "node", "id": 4618656915, "lat": 49.4496856, "lon": 13.7731406}, {"type": "node", "id": 4618656916, "lat": 49.4496848, "lon": 13.7732276}, {"type": "node", "id": 4618656917, "lat": 49.4497253, "lon": 13.7732285}, {"type": "node", "id": 4952368297, "lat": 49.3616556, "lon": 13.612804, "tags": {"tourism": "viewpoint"}}, {"type": "node", "id": 5228952105, "lat": 49.5275508, "lon": 13.7511785}, {"type": "node", "id": 5927466143, "lat": 49.4525192, "lon": 13.7955088, "tags": {"board_type": "history", "information": "board", "name": "U kl\u00e1\u0161tera", "ref": "7", "tourism": "information"}}, {"type": "node", "id": 5927466144, "lat": 49.4525516, "lon": 13.7954721, "tags": {"amenity": "shelter", "shelter_type": "picnic_shelter"}}, {"type": "node", "id": 5927466225, "lat": 49.4571226, "lon": 13.7860145, "tags": {"information": "map", "tourism": "information"}}, {"type": "node", "id": 5927466226, "lat": 49.4570747, "lon": 13.7859884, "tags": {"information": "map", "tourism": "information"}}, {"type": "node", "id": 6665242786, "lat": 49.5015595, "lon": 13.7642819, "tags": {"information": "map", "map_size": "region", "map_type": "topo", "name": "Blatensko", "tourism": "information"}}, {"type": "node", "id": 7194068508, "lat": 49.5169833, "lon": 13.6313666, "tags": {"ele": "517", "natural": "peak"}}, {"type": "node", "id": 7194068509, "lat": 49.51645, "lon": 13.6354999, "tags": {"ele": "534.2", "name": "Chlumec", "natural": "peak"}}, {"type": "node", "id": 7310257892, "lat": 49.5252499, "lon": 13.7327007, "tags": {"board_type": "history", "information": "board", "name": "Formansk\u00e1 stezka: Koc\u016fv ml\u00fdn", "tourism": "information", "website": "http://www.formanskastezka.cz/zastaveni-3-kocuv-mlyn"}}, {"type": "node", "id": 7630484720, "lat": 49.4846898, "lon": 13.6816075, "tags": {"information": "map", "map_size": "region", "map_type": "topo", "tourism": "information"}}, {"type": "node", "id": 7630484729, "lat": 49.5068611, "lon": 13.7355615, "tags": {"information": "map", "map_size": "region", "map_type": "topo", "tourism": "information"}}, {"type": "node", "id": 7630602760, "lat": 49.4225316, "lon": 13.6948872, "tags": {"amenity": "shelter", "shelter_type": "picnic_shelter"}}, {"type": "node", "id": 7630602765, "lat": 49.4377971, "lon": 13.6382121, "tags": {"board_type": "history", "information": "board", "tourism": "information"}}, {"type": "node", "id": 7898280566, "lat": 49.521644, "lon": 13.6040562, "tags": {"board_type": "history", "information": "board", "name": "Jak pra\u010dlov\u011bk r\u00e1j na zemi na\u0161el", "ref": "2", "tourism": "information"}}, {"type": "node", "id": 7898280582, "lat": 49.5188828, "lon": 13.6031465, "tags": {"board_type": "history", "information": "board", "name": "Posledn\u00ed rozlou\u010den\u00ed aneb cesty ze Srb", "ref": "7", "tourism": "information"}}, {"type": "node", "id": 7898280583, "lat": 49.5192242, "lon": 13.60369, "tags": {"board_type": "history", "information": "board", "name": "Od prvn\u00ed p\u00edsemn\u00e9 zpr\u00e1vy do dne\u0161n\u00edch dn\u016f", "ref": "1", "tourism": "information"}}, {"type": "node", "id": 7969985392, "lat": 49.41639, "lon": 13.7503273, "tags": {"amenity": "shelter", "shelter_type": "picnic_shelter"}}, {"type": "node", "id": 7969985406, "lat": 49.4151737, "lon": 13.7404372, "tags": {"board_type": "information", "information": "board", "name": "Nau\u010dn\u00e1 stezka \u00fazem\u00edm Hradi\u0161\u0165sk\u00e9ho potoka", "operator": "local", "tourism": "information"}}, {"type": "node", "id": 7970192860, "lat": 49.393658, "lon": 13.7509746, "tags": {"board_type": "nature", "information": "board", "name": "Velk\u00fd \u010dert\u016fv n\u00e1ramek", "ref": "13", "tourism": "information"}}, {"type": "node", "id": 7970192861, "lat": 49.3937732, "lon": 13.7516434, "tags": {"amenity": "shelter", "shelter_type": "picnic_shelter"}}, {"type": "node", "id": 7970192864, "lat": 49.3981707, "lon": 13.7603651, "tags": {"board_type": "nature", "information": "board", "name": "Ob\u011btn\u00ed k\u00e1men", "ref": "12", "tourism": "information"}}, {"type": "node", "id": 7970192865, "lat": 49.400615, "lon": 13.7695796, "tags": {"board_type": "nature", "information": "board", "name": "V\u00fdhled do kraje", "ref": "10", "tourism": "information"}}, {"type": "node", "id": 7970192866, "lat": 49.4029537, "lon": 13.7745495, "tags": {"amenity": "shelter", "shelter_type": "picnic_shelter"}}, {"type": "node", "id": 7970192868, "lat": 49.4029799, "lon": 13.7748158, "tags": {"board_type": "history", "information": "board", "name": "Kadov", "ref": "8", "tourism": "information"}}, {"type": "node", "id": 7970192875, "lat": 49.4026212, "lon": 13.7775143, "tags": {"amenity": "shelter", "shelter_type": "picnic_shelter"}}, {"type": "node", "id": 7970192876, "lat": 49.4020412, "lon": 13.7837678, "tags": {"board_type": "nature", "information": "board", "name": "Skaln\u00ed m\u00edsy v \u017eulov\u00fdch kamenech", "ref": "6", "tourism": "information"}}, {"type": "node", "id": 7970192877, "lat": 49.4029651, "lon": 13.795885, "tags": {"board_type": "nature", "information": "board", "name": "Rybn\u00edk\u00e1\u0159stv\u00ed", "ref": "5", "tourism": "information"}}, {"type": "node", "id": 8154990214, "lat": 49.406829, "lon": 13.7145851, "tags": {"information": "board", "name": "Expozice lidov\u00e9 architektury", "tourism": "information"}}, {"type": "node", "id": 8219600495, "lat": 49.5275169, "lon": 13.7511009}, {"type": "node", "id": 8219600496, "lat": 49.5275046, "lon": 13.7511505}, {"type": "node", "id": 8219600497, "lat": 49.5275628, "lon": 13.7511287}, {"type": "node", "id": 8248254440, "lat": 49.4729536, "lon": 13.6658474, "tags": {"information": "board", "name": "Z historie na\u0161\u00ed obce Podh\u016f\u0159\u00ed", "tourism": "information"}}, {"type": "node", "id": 8383276961, "lat": 49.5515964, "lon": 13.7865651, "tags": {"information": "board", "name": "P\u0159\u00edrodn\u00ed park T\u0159em\u0161\u00edn", "tourism": "information"}}, {"type": "node", "id": 8922056489, "lat": 49.5227599, "lon": 13.7113941, "tags": {"information": "board", "name": "Formansk\u00e1 stezka: Kapli\u010dka sv. Izidora", "tourism": "information"}}, {"type": "node", "id": 8922056490, "lat": 49.5237101, "lon": 13.7284778, "tags": {"information": "board", "name": "Formansk\u00e1 stezka: Kapli\u010dka sv. Anny", "tourism": "information"}}, {"type": "node", "id": 8922056492, "lat": 49.5250913, "lon": 13.7380198, "tags": {"information": "board", "name": "Formansk\u00e1 stezka: Sm\u00edr\u010d\u00ed k\u0159\u00ed\u017ee", "tourism": "information"}}, {"type": "node", "id": 8922067692, "lat": 49.5257315, "lon": 13.7428303, "tags": {"information": "board", "name": "Formansk\u00e1 stezka: Brdsk\u00fd and\u011bl", "tourism": "information"}}, {"type": "node", "id": 8962241806, "lat": 49.5248149, "lon": 13.7035272, "tags": {"information": "board", "name": "V\u00fdznamn\u00fd rod\u00e1k pan Ji\u0159\u00ed Karmaz\u00edn", "tourism": "information"}}, {"type": "node", "id": 8962241814, "lat": 49.5238216, "lon": 13.7306772, "tags": {"information": "board", "name": "Formansk\u00e1 stezka: Region\u00e1ln\u00ed protifa\u0161istick\u00fd odboj", "tourism": "information"}}, {"type": "node", "id": 8962241815, "lat": 49.5242612, "lon": 13.7312552, "tags": {"information": "board", "name": "Koc\u016fv ml\u00fdn - mlyn\u00e1\u0159\u016fv hrob", "tourism": "information"}}, {"type": "node", "id": 8962241816, "lat": 49.5244845, "lon": 13.7336303, "tags": {"information": "board", "name": "Formansk\u00e1 stezka: Bitva na Vra\u017ed\u011b", "tourism": "information"}}, {"type": "node", "id": 8962286917, "lat": 49.5460774, "lon": 13.7885727, "tags": {"information": "board", "name": "Mikroregion T\u0159em\u0161\u00edn", "tourism": "information"}}, {"type": "node", "id": 9066311038, "lat": 49.4067476, "lon": 13.7111031, "tags": {"board_type": "nature", "information": "board", "name": "Rozhledna", "ref": "7", "tourism": "information"}}, {"type": "node", "id": 9066313496, "lat": 49.4186255, "lon": 13.7379276, "tags": {"information": "board", "tourism": "information"}}, {"type": "node", "id": 9105249403, "lat": 49.4067404, "lon": 13.7111734, "tags": {"amenity": "shelter"}}, {"type": "node", "id": 9802098891, "lat": 49.4506665, "lon": 13.6795144}, {"type": "node", "id": 9802098897, "lat": 49.4506281, "lon": 13.6792756}, {"type": "node", "id": 9802098898, "lat": 49.4505819, "lon": 13.6792948}, {"type": "node", "id": 9839752180, "lat": 49.3668022, "lon": 13.6285282, "tags": {"amenity": "shelter", "shelter_type": "picnic_shelter"}}, {"type": "node", "id": 9839752181, "lat": 49.3667893, "lon": 13.6285341, "tags": {"board_type": "history", "information": "board", "name": "Vele\u0161ice", "tourism": "information"}}, {"type": "node", "id": 9839752183, "lat": 49.3720756, "lon": 13.6330067, "tags": {"amenity": "shelter", "shelter_type": "picnic_shelter"}}, {"type": "node", "id": 9839752186, "lat": 49.3715414, "lon": 13.6303125, "tags": {"amenity": "shelter", "shelter_type": "picnic_shelter"}}, {"type": "node", "id": 9839752210, "lat": 49.372074, "lon": 13.633055, "tags": {"board_type": "history", "information": "board", "name": "Pa\u010dejov", "tourism": "information"}}, {"type": "node", "id": 9842615676, "lat": 49.3858075, "lon": 13.6319248, "tags": {"board_type": "nature", "information": "board", "name": "Mot\u00fdli", "tourism": "information"}}, {"type": "node", "id": 9842615677, "lat": 49.385833, "lon": 13.6314815, "tags": {"amenity": "shelter", "shelter_type": "picnic_shelter"}}, {"type": "node", "id": 9842615678, "lat": 49.3858368, "lon": 13.6313905, "tags": {"board_type": "nature", "information": "board", "name": "Pt\u00e1ci", "tourism": "information"}}, {"type": "node", "id": 9842615679, "lat": 49.386162, "lon": 13.6301414, "tags": {"board_type": "nature", "information": "board", "name": "Zv\u011b\u0159", "tourism": "information"}}, {"type": "node", "id": 9842615686, "lat": 49.3864629, "lon": 13.6300677, "tags": {"board_type": "nature", "information": "board", "name": "Rostliny", "tourism": "information"}}, {"type": "node", "id": 9842615687, "lat": 49.3870953, "lon": 13.6299172, "tags": {"board_type": "nature", "information": "board", "name": "Stromy", "tourism": "information"}}, {"type": "node", "id": 9842615691, "lat": 49.391425, "lon": 13.6526515, "tags": {"board_type": "nature", "information": "board", "name": "Drak", "ref": "2", "tourism": "information"}}, {"type": "node", "id": 9842615692, "lat": 49.3911736, "lon": 13.6503607, "tags": {"board_type": "nature", "information": "board", "name": "Rybn\u00edk", "ref": "3", "tourism": "information"}}, {"type": "node", "id": 9842615693, "lat": 49.3918305, "lon": 13.6460586, "tags": {"board_type": "nature", "information": "board", "name": "Vstup do lesa", "ref": "4", "tourism": "information"}}, {"type": "node", "id": 9842634421, "lat": 49.3927185, "lon": 13.6543322, "tags": {"board_type": "nature", "information": "board", "name": "Kapli\u010dka", "ref": "12", "tourism": "information"}}, {"type": "node", "id": 9842634422, "lat": 49.393316, "lon": 13.6537951, "tags": {"board_type": "nature", "information": "board", "name": "Obecn\u00ed d\u016fm", "ref": "11", "tourism": "information"}}, {"type": "node", "id": 9842634424, "lat": 49.3943503, "lon": 13.654069, "tags": {"board_type": "nature", "information": "board", "name": "Bo\u017e\u00ed muka 1916", "ref": "10", "tourism": "information"}}, {"type": "node", "id": 9842634426, "lat": 49.3954272, "lon": 13.6547586, "tags": {"board_type": "nature", "information": "board", "name": "Bo\u017e\u00ed muka 1874", "ref": "9", "tourism": "information"}}, {"type": "node", "id": 9842634428, "lat": 49.3967478, "lon": 13.6511819, "tags": {"board_type": "nature", "information": "board", "name": "Soudn\u00e1", "ref": "8", "tourism": "information"}}, {"type": "node", "id": 9842634429, "lat": 49.3979743, "lon": 13.6491574, "tags": {"board_type": "nature", "information": "board", "name": "Trojmezn\u00edk", "ref": "7", "tourism": "information"}}, {"type": "node", "id": 9842634430, "lat": 49.3974769, "lon": 13.6461212, "tags": {"board_type": "nature", "information": "board", "name": "Pam\u00e1tn\u00edk", "ref": "6", "tourism": "information"}}, {"type": "node", "id": 9842634433, "lat": 49.3950953, "lon": 13.6443391, "tags": {"board_type": "nature", "information": "board", "name": "Vyhl\u00eddka", "ref": "5", "tourism": "information"}}, {"type": "node", "id": 9842634454, "lat": 49.4038183, "lon": 13.7111089, "tags": {"board_type": "nature", "information": "board", "name": "\u017di\u017ek\u016fv k\u00e1men", "ref": "4", "tourism": "information"}}, {"type": "node", "id": 9842634455, "lat": 49.4047521, "lon": 13.7130107, "tags": {"board_type": "nature", "information": "board", "name": "Obnova lesa", "ref": "3", "tourism": "information"}}, {"type": "node", "id": 9842634456, "lat": 49.4055236, "lon": 13.7138583, "tags": {"board_type": "nature", "information": "board", "name": "Z\u00e1meck\u00fd park", "ref": "2", "tourism": "information"}}, {"type": "node", "id": 9842634463, "lat": 49.4057958, "lon": 13.7156601, "tags": {"amenity": "shelter", "shelter_type": "picnic_shelter"}}, {"type": "node", "id": 9842634464, "lat": 49.4056242, "lon": 13.71629, "tags": {"board_type": "nature", "information": "board", "name": "Nau\u010dn\u00e1 stezka vrchem Chlum", "ref": "1", "tourism": "information"}}, {"type": "node", "id": 9842634469, "lat": 49.4032691, "lon": 13.7219248, "tags": {"amenity": "shelter", "shelter_type": "picnic_shelter"}}, {"type": "node", "id": 9842634509, "lat": 49.4031653, "lon": 13.7729247, "tags": {"board_type": "nature", "information": "board", "name": "Kaple a hrobka", "ref": "12", "tourism": "information"}}, {"type": "node", "id": 9844737429, "lat": 49.38845, "lon": 13.7448062, "tags": {"board_type": "history", "information": "board", "name": "T\u011b\u017eba a kamenick\u00e1 v\u00fdroba ve Slatin\u011b", "tourism": "information"}}, {"type": "node", "id": 9844737430, "lat": 49.4026517, "lon": 13.7775649, "tags": {"board_type": "information", "information": "board", "name": "Informace o nau\u010dn\u00e9 stezce Okol\u00edm viklanu", "tourism": "information"}}, {"type": "node", "id": 9844737431, "lat": 49.4026014, "lon": 13.7774725, "tags": {"board_type": "nature", "information": "board", "name": "Viklan", "ref": "7", "tourism": "information"}}, {"type": "node", "id": 9844737438, "lat": 49.4026365, "lon": 13.7775761, "tags": {"information": "map", "name": "Informace o nau\u010dn\u00e9 stezce Okol\u00edm viklanu", "tourism": "information"}}, {"type": "node", "id": 9845033441, "lat": 49.4058712, "lon": 13.7164012, "tags": {"board_type": "history", "information": "board", "name": "Chanovice Tesa\u0159stv\u00ed a sekernictv\u00ed", "tourism": "information"}}, {"type": "node", "id": 9845033485, "lat": 49.404495, "lon": 13.7065859, "tags": {"amenity": "shelter", "shelter_type": "picnic_shelter"}}, {"type": "node", "id": 9845033486, "lat": 49.4044976, "lon": 13.7065656, "tags": {"board_type": "nature", "information": "board", "name": "U lesovny", "ref": "5", "tourism": "information"}}, {"type": "node", "id": 9845033487, "lat": 49.4055378, "lon": 13.7087544, "tags": {"board_type": "nature", "information": "board", "name": "Mysliveck\u00fd spolek Chanovice", "ref": "6", "tourism": "information"}}, {"type": "node", "id": 9845033488, "lat": 49.406752, "lon": 13.7109337, "tags": {"board_type": "information", "information": "board", "name": "Rozhledna na vrchu Chlumu v Chanovic\u00edch", "tourism": "information"}}, {"type": "node", "id": 9845033489, "lat": 49.4067545, "lon": 13.7133128, "tags": {"board_type": "nature", "information": "board", "name": "Expozice lidov\u00e9 architektury", "ref": "8", "tourism": "information"}}, {"type": "node", "id": 9845033492, "lat": 49.4063329, "lon": 13.7155449, "tags": {"board_type": "nature", "information": "board", "name": "Nau\u010dn\u00e1 stezka vrchem Chlum", "ref": "9", "tourism": "information"}}, {"type": "node", "id": 9845033494, "lat": 49.4069394, "lon": 13.7148525, "tags": {"board_type": "history", "information": "board", "name": "Expozice lidov\u00e9 architektury v Chanovic\u00edch", "tourism": "information"}}, {"type": "node", "id": 9845033499, "lat": 49.4073729, "lon": 13.7143217, "tags": {"amenity": "shelter", "shelter_type": "picnic_shelter"}}, {"type": "node", "id": 9845033505, "lat": 49.4053993, "lon": 13.7167885, "tags": {"ele": "550", "hiking": "yes", "information": "guidepost", "name": "Chanovice (z\u00e1mek)", "operator": "cz:K\u010cT", "ref": "PJ800", "tourism": "information"}}, {"type": "node", "id": 9845143644, "lat": 49.4058197, "lon": 13.7164508, "tags": {"information": "map", "name": "Nau\u010dn\u00e1 stezka \u00fazem\u00edm Hradi\u0161\u0165sk\u00e9ho potoka", "tourism": "information"}}, {"type": "node", "id": 9856384366, "lat": 49.3757316, "lon": 13.7389559, "tags": {"amenity": "shelter", "shelter_type": "picnic_shelter"}}, {"type": "node", "id": 9856384380, "lat": 49.4202944, "lon": 13.6939299, "tags": {"amenity": "shelter", "shelter_type": "picnic_shelter"}}, {"type": "node", "id": 9856384381, "lat": 49.4216706, "lon": 13.6948333, "tags": {"board_type": "history", "information": "board", "name": "Nov\u00e1 Ves - Cihl\u00e1\u0159stv\u00ed a ta\u0161k\u00e1\u0159stv\u00ed", "tourism": "information"}}, {"type": "node", "id": 9856384382, "lat": 49.4202794, "lon": 13.6939367, "tags": {"information": "map", "name": "Nau\u010dn\u00e1 stezka \u00fazem\u00edm Hradi\u0161\u0165sk\u00e9ho potoka", "tourism": "information"}}, {"type": "node", "id": 9856384399, "lat": 49.4124591, "lon": 13.6486841, "tags": {"amenity": "shelter", "shelter_type": "picnic_shelter"}}, {"type": "node", "id": 9856384408, "lat": 49.408548, "lon": 13.6423568, "tags": {"amenity": "shelter", "shelter_type": "picnic_shelter"}}, {"type": "node", "id": 9856384410, "lat": 49.4011376, "lon": 13.6310167, "tags": {"amenity": "shelter", "shelter_type": "picnic_shelter"}}, {"type": "node", "id": 9856384415, "lat": 49.4008857, "lon": 13.6258507, "tags": {"ele": "520", "hiking": "yes", "information": "guidepost", "name": "Ol\u0161any", "operator": "cz:K\u010cT", "ref": "PJ791", "tourism": "information"}}, {"type": "node", "id": 9916653975, "lat": 49.4068156, "lon": 13.7107667, "tags": {"ele": "609", "name": "Chlum", "natural": "peak", "wikidata": "Q91103805"}}, {"type": "node", "id": 10217150017, "lat": 49.4888192, "lon": 13.6748865, "tags": {"ele": "568", "name": "V\u011b\u017e\u00ed vrch", "natural": "peak"}}, {"type": "node", "id": 10217167572, "lat": 49.5066779, "lon": 13.6808391, "tags": {"ele": "597", "name": "Ve Vrchu", "natural": "peak"}}, {"type": "node", "id": 10299279453, "lat": 49.4427257, "lon": 13.6678077, "tags": {"amenity": "shelter", "bench": "yes", "lit": "no", "owner": "Lesy \u010cR s. p.", "shelter_type": "picnic_shelter", "table": "no"}}, {"type": "node", "id": 10299480209, "lat": 49.4630643, "lon": 13.6669269}, {"type": "node", "id": 10299480210, "lat": 49.4630608, "lon": 13.666894}, {"type": "node", "id": 10299480212, "lat": 49.4630368, "lon": 13.6669338}, {"type": "node", "id": 10299480243, "lat": 49.450523, "lon": 13.6775937}, {"type": "node", "id": 10299480244, "lat": 49.4504963, "lon": 13.6775549}, {"type": "node", "id": 10299480245, "lat": 49.4504769, "lon": 13.6775866}, {"type": "node", "id": 10299480246, "lat": 49.4505036, "lon": 13.6776254}, {"type": "node", "id": 10299480250, "lat": 49.4364722, "lon": 13.6723263}, {"type": "node", "id": 10299480251, "lat": 49.4364697, "lon": 13.6723845}, {"type": "node", "id": 10299480252, "lat": 49.4364291, "lon": 13.6723803}, {"type": "node", "id": 10299480253, "lat": 49.4364316, "lon": 13.6723221}, {"type": "node", "id": 10299480255, "lat": 49.4356981, "lon": 13.6720375, "tags": {"amenity": "shelter"}}, {"type": "node", "id": 10299480257, "lat": 49.4357818, "lon": 13.6725686, "tags": {"information": "map", "map_size": "region", "map_type": "topo", "tourism": "information"}}, {"type": "node", "id": 10300855578, "lat": 49.4979314, "lon": 13.6077169}, {"type": "node", "id": 10300855579, "lat": 49.4979391, "lon": 13.6076255}, {"type": "node", "id": 10300855581, "lat": 49.4979089, "lon": 13.6076194}, {"type": "node", "id": 11012337132, "lat": 49.4644214, "lon": 13.7396022, "tags": {"information": "map", "map_size": "city", "map_type": "scheme", "name": "Putov\u00e1n\u00ed za kasejovick\u00fdm zlatem", "tourism": "information"}}, {"type": "node", "id": 11012339063, "lat": 49.4572658, "lon": 13.7441106, "tags": {"description": "Putov\u00e1n\u00ed za kasejovick\u00fdm zlatem", "information": "board", "name": "\u017delezni\u010dn\u00ed stanice", "ref": "1", "tourism": "information"}}, {"type": "node", "id": 11012347317, "lat": 49.4642064, "lon": 13.7397286, "tags": {"board_type": "history", "description": "Putov\u00e1n\u00ed za kasejovick\u00fdm zlatem", "information": "board", "name": "Kostel c\u00edrkve \u010deskoslovens\u00e9 husitsk\u00e9 - Hus\u016fv sbor", "ref": "2", "tourism": "information"}}, {"type": "node", "id": 11012356919, "lat": 49.4686772, "lon": 13.7380383, "tags": {"board_type": "history", "description": "Putov\u00e1n\u00ed za kasejovick\u00fdm zlatem", "information": "board", "name": "\u017didovsk\u00fd h\u0159bitov", "ref": "12", "tourism": "information"}}, {"type": "node", "id": 11012362406, "lat": 49.4628372, "lon": 13.7384994, "tags": {"board_type": "history", "description": "Putov\u00e1n\u00ed za kasejovick\u00fdm zlatem", "information": "board", "name": "B\u00fdval\u00e1 \u017eidovsk\u00e1 synagoga", "ref": "4", "tourism": "information"}}, {"type": "node", "id": 11012375526, "lat": 49.4648989, "lon": 13.7400567, "tags": {"board_type": "history", "checkpoint": "hiking", "checkpoint:type": "stamp", "course": "Svatojakubsk\u00e1 cesta", "description": "Putov\u00e1n\u00ed za kasejovick\u00fdm zlatem", "information": "board", "name": "D\u011bkansk\u00fd kostel sv. Jakuba star\u0161\u00edho", "ref": "10", "tourism": "information"}}, {"type": "node", "id": 11012385685, "lat": 49.4647739, "lon": 13.7404747, "tags": {"board_type": "history", "description": "Putov\u00e1n\u00ed za kasejovick\u00fdm zlatem", "information": "board", "name": "Fara", "ref": "11", "tourism": "information"}}, {"type": "node", "id": 11191390118, "lat": 49.4051229, "lon": 13.7153325}, {"type": "node", "id": 11191390119, "lat": 49.4053293, "lon": 13.7151948}, {"type": "node", "id": 11229148491, "lat": 49.4626102, "lon": 13.7404548, "tags": {"checkpoint": "hiking", "checkpoint:type": "stamp", "course": "Svatojakubsk\u00e1 cesta", "information": "office", "tourism": "information"}}, {"type": "node", "id": 11535644790, "lat": 49.4504575, "lon": 13.6770321, "tags": {"board_type": "\u00fa\u0159edn\u00ed_deska", "information": "board", "tourism": "information"}}, {"type": "node", "id": 11535877725, "lat": 49.4464337, "lon": 13.6716136, "tags": {"amenity": "shelter"}}, {"type": "node", "id": 11535877816, "lat": 49.4630333, "lon": 13.666901}, {"type": "node", "id": 11535877817, "lat": 49.4676016, "lon": 13.6655613}, {"type": "node", "id": 11535877818, "lat": 49.4676015, "lon": 13.6656036}, {"type": "node", "id": 11535877819, "lat": 49.4675817, "lon": 13.6656034}, {"type": "node", "id": 11535877820, "lat": 49.4675818, "lon": 13.6655612}, {"type": "node", "id": 11535877821, "lat": 49.468475, "lon": 13.6643941}, {"type": "node", "id": 11535877822, "lat": 49.468468, "lon": 13.6644344}, {"type": "node", "id": 11535877823, "lat": 49.4684473, "lon": 13.6644259}, {"type": "node", "id": 11535877824, "lat": 49.4684542, "lon": 13.6643855}, {"type": "node", "id": 11570058826, "lat": 49.4067843, "lon": 13.7140865}, {"type": "node", "id": 11570058831, "lat": 49.4075057, "lon": 13.7125041}, {"type": "node", "id": 11873770571, "lat": 49.4649012, "lon": 13.7400415, "tags": {"information": "map", "map_type": "topo", "name": "Svatojakubsk\u00e1 cesta", "tourism": "information"}}, {"type": "node", "id": 12118739194, "lat": 49.5367298, "lon": 13.7130785, "tags": {"ele": "663", "name": "Na sk\u00e1le", "natural": "peak", "source": "\u010c\u00daZK"}}, {"type": "node", "id": 12451051656, "lat": 49.4720812, "lon": 13.78702, "tags": {"board_type": "history", "information": "board", "name": "Z\u00e1hor\u010dice", "ref": "1", "tourism": "information"}}, {"type": "node", "id": 12451051692, "lat": 49.4607442, "lon": 13.7863374, "tags": {"board_type": "history", "information": "board", "name": "U p\u0159\u00edstavu", "ref": "2", "tourism": "information"}}, {"type": "node", "id": 12451051693, "lat": 49.456866, "lon": 13.783686, "tags": {"board_type": "history", "information": "board", "name": "U pomn\u00edku", "ref": "3", "tourism": "information"}}, {"type": "node", "id": 12451051694, "lat": 49.4573283, "lon": 13.7862317, "tags": {"information": "office", "tourism": "information"}}, {"type": "node", "id": 12451051695, "lat": 49.4570964, "lon": 13.7859985, "tags": {"board_type": "history", "information": "board", "name": "U tvrze", "ref": "4", "tourism": "information"}}, {"type": "node", "id": 12451051696, "lat": 49.4580274, "lon": 13.789951, "tags": {"board_type": "history", "information": "board", "name": "Z\u00e1meck\u00fd park Ln\u00e1\u0159e", "ref": "5", "tourism": "information"}}, {"type": "node", "id": 12451051697, "lat": 49.453518, "lon": 13.7938689, "tags": {"board_type": "history", "information": "board", "name": "U Jord\u00e1nku", "ref": "6", "tourism": "information"}}, {"type": "node", "id": 12451074168, "lat": 49.447223, "lon": 13.7948985, "tags": {"board_type": "history", "information": "board", "name": "V Podh\u00e1j\u010d\u00ed", "ref": "8", "tourism": "information"}}, {"type": "node", "id": 12488282667, "lat": 49.3997279, "lon": 13.7632587, "tags": {"board_type": "nature", "information": "board", "name": "Mal\u00fd \u010dert\u016fv n\u00e1ramek", "tourism": "information"}}, {"type": "node", "id": 12633183950, "lat": 49.4572447, "lon": 13.7441403, "tags": {"ele": "525", "hiking": "yes", "information": "guidepost", "name": "Kasejovice (\u017est)", "operator": "cz:K\u010cT", "ref": "PJ634", "tourism": "information"}}, {"type": "node", "id": 12633207783, "lat": 49.4645921, "lon": 13.7391308, "tags": {"board_type": "history", "description": "Putov\u00e1n\u00ed za kasejovick\u00fdm zlatem", "information": "board", "name": "D\u016fm \u010d.p. 134 - Star\u00e1 po\u0161ta", "ref": "6", "tourism": "information"}}, {"type": "node", "id": 12633207784, "lat": 49.462733, "lon": 13.740376, "tags": {"board_type": "history", "description": "Putov\u00e1n\u00ed za kasejovick\u00fdm zlatem", "information": "board", "name": "Radnice", "ref": "3", "tourism": "information"}}, {"type": "node", "id": 13031374629, "lat": 49.4994238, "lon": 13.6954709}, {"type": "node", "id": 13031374630, "lat": 49.4994422, "lon": 13.695503}, {"type": "node", "id": 13031374631, "lat": 49.4994298, "lon": 13.6955436}, {"type": "node", "id": 13031374632, "lat": 49.4994026, "lon": 13.6955486}, {"type": "node", "id": 13031374633, "lat": 49.4993859, "lon": 13.6955173}, {"type": "node", "id": 13031374634, "lat": 49.4993957, "lon": 13.6954762}, {"type": "node", "id": 13031374653, "lat": 49.5028996, "lon": 13.6953999}, {"type": "node", "id": 13031374654, "lat": 49.5029408, "lon": 13.6954635}, {"type": "node", "id": 13031374655, "lat": 49.502876, "lon": 13.6955633}, {"type": "node", "id": 13031374656, "lat": 49.5028347, "lon": 13.6954997}, {"type": "node", "id": 13107928546, "lat": 49.5473236, "lon": 13.7606454, "tags": {"ele": "712", "name": "Vrchy", "natural": "peak"}}, {"type": "node", "id": 13110976317, "lat": 49.5461029, "lon": 13.7192716, "tags": {"amenity": "shelter", "shelter_type": "picnic_shelter"}}, {"type": "node", "id": 13110976318, "lat": 49.5462635, "lon": 13.7189948, "tags": {"bicycle": "yes", "information": "guidepost", "tourism": "information"}}, {"type": "node", "id": 13110976327, "lat": 49.5239182, "lon": 13.7287517, "tags": {"bicycle": "yes", "information": "guidepost", "name": "Kaple Sv. Anny", "tourism": "information"}}, {"type": "node", "id": 13110976332, "lat": 49.5288373, "lon": 13.7519379, "tags": {"amenity": "shelter", "shelter_type": "public_transport"}}, {"type": "way", "id": 243770678, "nodes": [4593398072, 4593398071, 2511361795, 2511361792, 4593398072], "tags": {"amenity": "shelter", "building": "transportation", "building:levels": "1", "building:ruian:type": "17", "height": "2", "ref:ruian": "47723106", "shelter_type": "public_transport", "source": "cuzk:ruian"}}, {"type": "way", "id": 362475230, "nodes": [3667766920, 11191390119, 3667766915, 3667766903, 11191390118, 3667766894, 3667766892, 3667766899, 3667766908, 3667766913, 3667766917, 3667766921, 3667766923, 3667766918, 3667766919, 3667766920]}, {"type": "way", "id": 362475234, "nodes": [3667766904, 3667766895, 3667766897, 3667766909, 3667766904]}, {"type": "way", "id": 362482694, "nodes": [3667829651, 11570058831, 3667829650, 3667829644, 3667829641, 3667829637, 11570058826, 3667829636, 3667829645, 3667829648, 3667829651], "tags": {"landuse": "residential"}}, {"type": "way", "id": 362482700, "nodes": [3667829640, 3667829639, 2865049442, 3667829634, 3667829635, 3667829640], "tags": {"building": "yes", "height": "31", "man_made": "tower", "name": "rozhledna Chanovice", "opening_hours": "Jun-Aug Mo-Su 10:00-16:00; May,Sep,Oct Sa-Su 10:00-16:00; May,Sep PH 10:00-16:00", "step_count": "136", "tourism": "viewpoint", "tower:type": "observation", "wikidata": "Q91103715"}}, {"type": "way", "id": 467219091, "nodes": [4618656914, 4618656915, 4618656916, 4618656917, 4618656914], "tags": {"amenity": "shelter", "shelter_type": "public_transport"}}, {"type": "way", "id": 883789886, "nodes": [8219600497, 5228952105, 8219600496, 8219600495, 8219600497], "tags": {"amenity": "shelter", "bench": "yes", "bin": "yes", "building": "civic", "building:levels": "1", "building:ruian:type": "15", "bus": "yes", "covered": "yes", "departures_board": "timetable", "highway": "bus_stop", "local_ref": "1", "name": "Mlad\u00fd Smolivec, Star\u00fd Smolivec, I", "public_transport": "platform", "ref:PID": "U31995Z1", "ref:ruian:building": "62226151", "shelter": "yes", "shelter_type": "public_transport", "source": "cuzk:ruian", "start_date": "2013-08-06"}}, {"type": "way", "id": 1067656187, "nodes": [3789210525, 9802098891, 9802098897, 9802098898, 3789210525], "tags": {"amenity": "shelter", "building": "yes"}}, {"type": "way", "id": 1126374694, "nodes": [3450501038, 3450501033, 3450501034, 3450501039, 3450501038], "tags": {"amenity": "shelter", "building": "yes"}}, {"type": "way", "id": 1126374695, "nodes": [10299480209, 10299480210, 11535877816, 10299480212, 10299480209], "tags": {"amenity": "shelter", "building": "yes", "shelter_type": "public_transport"}}, {"type": "way", "id": 1126374701, "nodes": [10299480243, 10299480244, 10299480245, 10299480246, 10299480243], "tags": {"amenity": "shelter", "building": "yes", "shelter_type": "public_transport"}}, {"type": "way", "id": 1126374702, "nodes": [10299480250, 10299480251, 10299480252, 10299480253, 10299480250], "tags": {"amenity": "shelter", "building": "yes", "shelter_type": "public_transport"}}, {"type": "way", "id": 1126515706, "nodes": [2511244212, 10300855578, 10300855579, 10300855581, 2511244212], "tags": {"amenity": "shelter", "building": "yes", "shelter_type": "public_transport"}}, {"type": "way", "id": 1241541522, "nodes": [11535877817, 11535877818, 11535877819, 11535877820, 11535877817], "tags": {"amenity": "shelter", "building": "yes"}}, {"type": "way", "id": 1241541523, "nodes": [11535877821, 11535877822, 11535877823, 11535877824, 11535877821], "tags": {"amenity": "shelter", "building": "yes"}}, {"type": "way", "id": 1418053311, "nodes": [13031374629, 13031374630, 13031374631, 13031374632, 13031374633, 13031374634, 13031374629], "tags": {"amenity": "shelter", "building": "yes", "shelter_type": "gazebo"}}, {"type": "way", "id": 1418053313, "nodes": [13031374653, 13031374654, 13031374655, 13031374656, 13031374653], "tags": {"amenity": "shelter", "building": "yes", "shelter_type": "gazebo"}}, {"type": "relation", "id": 5393644, "members": [{"type": "way", "ref": 362475230, "role": "outer"}, {"type": "way", "ref": 362475234, "role": "inner"}], "tags": {"building": "yes", "historic": "castle", "name": "z\u00e1mek Chanovice", "tourism": "attraction", "type": "multipolygon", "wikidata": "Q31463897", "wikipedia": "cs:Chanovice (z\u00e1mek)"}}, {"type": "relation", "id": 5393756, "members": [{"type": "way", "ref": 362482694, "role": "perimeter"}, {"type": "node", "ref": 3667829646, "role": "entrance"}], "tags": {"name": "expozice Lidov\u00e9 architektury v Chanovic\u00edch", "opening_hours": "Jun,Sep: Sa-Su 10:00-12:00,13:00-17:00; Jul-Aug: Tu-Su 10:00-12:00,13:00-17:00", "tourism": "attraction", "type": "site"}}]}