{"version": 0.6, "generator": "Overpass API 0.7.62.8 e802775f", "osm3s": {"timestamp_osm_base": "2026-01-04T12:16:29Z", "copyright": "The data included in this document is from www.openstreetmap.org. The data is made available under ODbL."}, "elements": [{"type": "node", "id": 49910507, "lat": 49.2976531, "lon": 13.1533757, "tags": {"name": "N\u00fdrsko", "name:cs": "N\u00fdrsko", "name:de": "Neuern", "public_transport": "station", "railway": "station", "wikidata": "Q17749990", "wikipedia": "cs:N\u00fdrsko (n\u00e1dra\u017e\u00ed)"}}, {"type": "node", "id": 49911634, "lat": 49.2492704, "lon": 13.1789291, "tags": {"name": "Zelen\u00e1 Lhota", "name:cs": "Zelen\u00e1 Lhota", "name:de": "Gr\u00fcn", "railway": "halt", "wikidata": "Q19401719"}}, {"type": "node", "id": 226383111, "lat": 49.2466519, "lon": 13.5418203, "tags": {"name": "Su\u0161ice", "public_transport": "station", "railway": "station"}}, {"type": "node", "id": 226383251, "lat": 49.2621619, "lon": 13.4906279, "tags": {"name": "Hr\u00e1dek u Su\u0161ice", "railway": "station", "wikidata": "Q56324878"}}, {"type": "node", "id": 226383564, "lat": 49.2951753, "lon": 13.4358261, "tags": {"name": "Kolinec", "operator": "cz:S\u017dDC", "railway": "station", "railway:ref": "736652", "wikidata": "Q18170852"}}, {"type": "node", "id": 226383768, "lat": 49.2992464, "lon": 13.3671107, "tags": {"name": "Malonice", "railway": "halt", "wikidata": "Q19400942"}}, {"type": "node", "id": 226384109, "lat": 49.304755, "lon": 13.3032631, "tags": {"name": "B\u011b\u0161iny", "railway": "station", "wikidata": "Q18170881"}}, {"type": "node", "id": 282005697, "lat": 48.9876361, "lon": 13.3000109, "tags": {"name": "Frauenau", "public_transport": "station", "railway": "station", "railway:ref": "NFU", "train": "yes", "wheelchair": "yes", "wikidata": "Q116016823"}}, {"type": "node", "id": 287164326, "lat": 49.066332, "lon": 13.6315827, "tags": {"aerialway": "station", "ele": "952.3", "name": "LA Zadov", "public_transport": "station"}}, {"type": "node", "id": 292158478, "lat": 49.0157443, "lon": 13.1817956, "tags": {"addr:city": "Langdorf", "addr:housenumber": "2", "addr:postcode": "94264", "addr:street": "Waldbahnstra\u00dfe", "name": "Au\u00dfenried", "operator": "DB InfraGO AG", "public_transport": "station", "railway": "halt", "railway:ref": "NAUR", "ref:station": "231", "train": "yes", "wikidata": "Q116016909"}}, {"type": "node", "id": 300522817, "lat": 49.2847089, "lon": 13.3441086, "tags": {"name": "Nemilkov", "operator": "cz:S\u017dDC", "railway": "station", "railway:ref": "736850", "wikidata": "Q18590822"}}, {"type": "node", "id": 303492706, "lat": 49.0209487, "lon": 13.2262778, "tags": {"name": "Zwiesel (Bay)", "operator": "DB InfraGO AG", "public_transport": "station", "railway": "station", "railway:ref": "NZWL", "railway:station_category": "6", "ref:station": "7072", "train": "yes", "uic_name": "Zwiesel (Bay)", "uic_ref": "8006684", "wheelchair": "yes", "wikidata": "Q315810", "wikipedia": "de:Bahnhof Zwiesel (Bay)"}}, {"type": "node", "id": 304677891, "lat": 49.1615926, "lon": 13.2226198, "tags": {"ele": "835", "name": "\u0160pi\u010d\u00e1k", "name:de": "Spitzberg", "public_transport": "station", "railway": "station", "wikidata": "Q19401445"}}, {"type": "node", "id": 304677923, "lat": 49.1433293, "lon": 13.2293878, "tags": {"name": "\u017delezn\u00e1 Ruda m\u011bsto", "name:de": "Markt Eisenstein Stadt", "railway": "halt", "wikidata": "Q25402333"}}, {"type": "node", "id": 304677946, "lat": 49.1363566, "lon": 13.2369178, "tags": {"name": "\u017delezn\u00e1 Ruda centrum", "name:de": "Markt Eisenstein Zentrum", "railway": "halt", "wikidata": "Q25402428"}}, {"type": "node", "id": 314375221, "lat": 49.1130185, "lon": 13.1384221, "tags": {"aerialway": "station", "aerialway:access": "both", "aerialway:summer:access": "both", "name": "Bergstation", "public_transport": "station"}}, {"type": "node", "id": 319441277, "lat": 49.1210311, "lon": 13.1409291, "tags": {"aerialway": "station", "aerialway:access": "entry", "name": "Talstation", "public_transport": "station"}}, {"type": "node", "id": 319441283, "lat": 49.112505, "lon": 13.1399963, "tags": {"aerialway": "station", "aerialway:access": "entry", "public_transport": "station", "wheelchair": "no"}}, {"type": "node", "id": 319441284, "lat": 49.1121655, "lon": 13.1369793, "tags": {"aerialway": "station", "aerialway:access": "exit", "public_transport": "station", "wheelchair": "no"}}, {"type": "node", "id": 325133139, "lat": 49.1775474, "lon": 13.2534087, "tags": {"aerialway": "station", "name": "Panc\u00ed\u0159", "public_transport": "station"}}, {"type": "node", "id": 344355349, "lat": 49.1594563, "lon": 13.2281887, "tags": {"aerialway": "station", "name": "\u0160pi\u010d\u00e1k", "public_transport": "station"}}, {"type": "node", "id": 346296244, "lat": 49.1685328, "lon": 13.6138283, "tags": {"aerialway": "station", "name": "SKI Nezdice", "public_transport": "station"}}, {"type": "node", "id": 370579228, "lat": 49.2677172, "lon": 13.6173501, "tags": {"ele": "455", "name": "\u017dichovice", "operator": "cz:S\u017dDC", "public_transport": "station", "railway": "station", "railway:ref": "736256", "start_date": "1888-10-01", "uic_ref": "5473625", "wikidata": "Q18180618", "wikipedia": "cs:\u017dichovice (n\u00e1dra\u017e\u00ed)"}}, {"type": "node", "id": 479727555, "lat": 49.0065685, "lon": 13.2770485, "tags": {"name": "Zwieselau", "public_transport": "station", "rail": "yes", "railway": "halt", "railway:ref": "NZWU", "train": "yes", "uic_ref": "8006685", "wikidata": "Q116019233"}}, {"type": "node", "id": 528650068, "lat": 49.1214281, "lon": 13.2088713, "tags": {"addr:city": "Bayerisch Eisenstein", "addr:country": "DE", "addr:housenumber": "54", "addr:postcode": "94252", "addr:street": "Bahnhofstra\u00dfe", "name": "Bayerisch Eisenstein", "name:cs": "Bavorsk\u00e1 \u017delezn\u00e1 Ruda", "name:de": "Bayerisch Eisenstein", "note": "Namen wie an der Station sichtbar angepasst. Tschechischer Bahnhof als node angelegt. Der Doppelbahnhof ist in der Relation mit langem zweisprachigem Namen abgebildet.", "operator": "DB InfraGO AG", "public_transport": "station", "railway": "station", "railway:ref": "NBEI", "railway:station_category": "6", "ref:station": "435", "train": "yes", "wheelchair": "yes", "wikidata": "Q457834", "wikipedia": "de:Bahnhof Bayerisch Eisenstein / \u017delezn\u00e1 Ruda-Al\u017eb\u011bt\u00edn"}}, {"type": "node", "id": 528651675, "lat": 48.9685674, "lon": 13.1363909, "tags": {"name": "Regen", "public_transport": "station", "railway": "halt", "railway:ref": "NREG", "train": "yes", "wikidata": "Q116018262"}}, {"type": "node", "id": 563842732, "lat": 49.1725953, "lon": 13.2090559, "tags": {"aerialway": "station", "public_transport": "station"}}, {"type": "node", "id": 565446774, "lat": 49.1652083, "lon": 13.2214996, "tags": {"aerialway": "station", "name": "Lanovka \u0160pi\u010d\u00e1k - doln\u00ed stanice", "public_transport": "station"}}, {"type": "node", "id": 585138378, "lat": 49.1569943, "lon": 13.2278293, "tags": {"aerialway": "station", "name": "Alpalouka", "public_transport": "station"}}, {"type": "node", "id": 585139139, "lat": 49.1413625, "lon": 13.2311444, "tags": {"addr:city": "\u017delezn\u00e1 Ruda", "aerialway": "station", "name": "Nad N\u00e1dra\u017e\u00edm", "public_transport": "station"}}, {"type": "node", "id": 585139646, "lat": 49.1290478, "lon": 13.2426465, "tags": {"aerialway": "station", "name": "Vlek Samoty - horn\u00ed stanice", "public_transport": "station"}}, {"type": "node", "id": 585139647, "lat": 49.1352011, "lon": 13.236887, "tags": {"addr:city": "\u017delezn\u00e1 Ruda", "aerialway": "station", "name": "Samoty - velk\u00fd vlek", "public_transport": "station"}}, {"type": "node", "id": 593992689, "lat": 49.2754254, "lon": 13.4670677, "tags": {"name": "Mokrosuky", "railway": "halt", "wikidata": "Q56325032"}}, {"type": "node", "id": 627943429, "lat": 49.2984634, "lon": 13.6635924, "tags": {"name": "Velk\u00e9 Hyd\u010dice", "railway": "station", "wikidata": "Q19401578"}}, {"type": "node", "id": 666134932, "lat": 49.0617162, "lon": 13.1184389}, {"type": "node", "id": 666134974, "lat": 49.0575218, "lon": 13.1258227, "tags": {"aerialway": "station", "aerialway:access": "both", "aerialway:station": "top", "name": "Bergstation", "public_transport": "station", "wheelchair": "no"}}, {"type": "node", "id": 740366025, "lat": 49.10132, "lon": 13.669791}, {"type": "node", "id": 740366088, "lat": 49.1014941, "lon": 13.6696305}, {"type": "node", "id": 740366092, "lat": 49.1016914, "lon": 13.6694193}, {"type": "node", "id": 740366102, "lat": 49.1015947, "lon": 13.6693735}, {"type": "node", "id": 740366109, "lat": 49.1016876, "lon": 13.6691466}, {"type": "node", "id": 740366191, "lat": 49.1015821, "lon": 13.6697098}, {"type": "node", "id": 740366255, "lat": 49.101759, "lon": 13.670099}, {"type": "node", "id": 740366286, "lat": 49.1017693, "lon": 13.6692211}, {"type": "node", "id": 740366304, "lat": 49.1016097, "lon": 13.6693453}, {"type": "node", "id": 740366306, "lat": 49.1016831, "lon": 13.669453}, {"type": "node", "id": 888864652, "lat": 49.2775338, "lon": 13.1748503, "tags": {"internet_access": "no", "name": "De\u0161enice", "network": "Integrovan\u00e1 doprava Plze\u0148sk\u00e9ho kraje", "network:short": "IDPK", "network:wikidata": "Q12021682", "public_transport": "station", "railway": "halt", "train": "yes", "wikidata": "Q18614029"}}, {"type": "node", "id": 980063244, "lat": 49.0856209, "lon": 13.6968039}, {"type": "node", "id": 980063847, "lat": 49.0857259, "lon": 13.6966951}, {"type": "node", "id": 980064019, "lat": 49.0857783, "lon": 13.6968099}, {"type": "node", "id": 980064769, "lat": 49.0856746, "lon": 13.6969234}, {"type": "node", "id": 1085782555, "lat": 49.0207401, "lon": 13.1612614, "tags": {"addr:city": "Langdorf", "addr:housenumber": "6", "addr:postcode": "94264", "addr:street": "Nebelberg", "name": "Langdorf", "operator": "DB InfraGO AG", "public_transport": "station", "railway": "halt", "railway:ref": "NLG", "railway:station_category": "7", "ref:station": "3520", "train": "yes", "uic_name": "Nebelberg, Langdorf", "uic_ref": "542881", "wheelchair": "yes", "wikidata": "Q107024566"}}, {"type": "node", "id": 1150691955, "lat": 49.0704363, "lon": 13.1008232, "tags": {"addr:city": "Bodenmais", "addr:country": "DE", "addr:housenumber": "56", "addr:postcode": "94249", "addr:street": "Bahnhofstra\u00dfe", "name": "Bodenmais", "operator": "DB InfraGO AG", "public_transport": "station", "railway": "station", "railway:ref": "NBMA", "railway:station_category": "6", "ref:station": "740", "train": "yes", "wheelchair": "yes", "wikidata": "Q116019271"}}, {"type": "node", "id": 1177216506, "lat": 49.0088708, "lon": 13.2466713, "tags": {"name": "Lichtenthal", "public_transport": "station", "railway": "halt", "railway:ref": "NLH", "train": "yes", "uic_ref": "8003676", "wikidata": "Q116017567"}}, {"type": "node", "id": 1306062936, "lat": 49.2903652, "lon": 13.1388835}, {"type": "node", "id": 1306064932, "lat": 49.2903249, "lon": 13.1388582}, {"type": "node", "id": 1306066074, "lat": 49.2902602, "lon": 13.1390996}, {"type": "node", "id": 1306066681, "lat": 49.2902852, "lon": 13.1391997}, {"type": "node", "id": 1306067269, "lat": 49.2903034, "lon": 13.1391276}, {"type": "node", "id": 1306067771, "lat": 49.290443, "lon": 13.138718}, {"type": "node", "id": 1306068977, "lat": 49.290414, "lon": 13.138698}, {"type": "node", "id": 1316189095, "lat": 48.9976181, "lon": 13.1863298, "tags": {"image": "http://commons.wikimedia.org/wiki/File%3ABahnhof_Bettmanns%C3%A4ge.JPG", "name": "Bettmanns\u00e4ge", "public_transport": "station", "railway": "halt", "railway:ref": "NBMS", "train": "yes", "uic_ref": "8000928", "wikidata": "Q116018746"}}, {"type": "node", "id": 1672773197, "lat": 48.9674472, "lon": 13.1315087}, {"type": "node", "id": 1672773268, "lat": 48.9681813, "lon": 13.1336284}, {"type": "node", "id": 1672773442, "lat": 48.9688965, "lon": 13.1357047}, {"type": "node", "id": 2022626635, "lat": 49.0595018, "lon": 13.2379528, "tags": {"addr:city": "Lindberg", "addr:postcode": "94227", "addr:street": "Haus zur Wildnis", "name": "Ludwigsthal", "operator": "DB InfraGO AG", "public_transport": "station", "railway": "halt", "railway:ref": "NLT", "railway:station_category": "7", "ref:IFOPT": "de:09276:80783:1:1", "ref:station": "3845", "train": "yes", "wikidata": "Q116017597"}}, {"type": "node", "id": 2670573837, "lat": 49.1915744, "lon": 13.2226953, "tags": {"name": "Hojsova Str\u00e1\u017e-Br\u010d\u00e1ln\u00edk", "railway": "halt", "wikidata": "Q19400687"}}, {"type": "node", "id": 2712151104, "lat": 49.2461172, "lon": 13.5423595}, {"type": "node", "id": 2712151108, "lat": 49.2461824, "lon": 13.5415735}, {"type": "node", "id": 2712151112, "lat": 49.2462369, "lon": 13.5422849}, {"type": "node", "id": 2712151113, "lat": 49.2462865, "lon": 13.5422674}, {"type": "node", "id": 2876535016, "lat": 49.1277143, "lon": 13.2395857, "tags": {"aerialway": "station", "name": "Vlek U Debrn\u00edku - horn\u00ed stanice", "public_transport": "station"}}, {"type": "node", "id": 3245798663, "lat": 49.2461453, "lon": 13.5423802}, {"type": "node", "id": 3245798672, "lat": 49.2462237, "lon": 13.5421965}, {"type": "node", "id": 3300599123, "lat": 49.1207795, "lon": 13.1419155, "tags": {"aerialway": "station", "aerialway:access": "both", "aerialway:summer:access": "both", "name": "Talstation", "public_transport": "station"}}, {"type": "node", "id": 3451673703, "lat": 48.944744, "lon": 13.3360514, "tags": {"name": "Klingenbrunn", "public_transport": "station", "rail": "yes", "railway": "halt", "railway:ref": "NKNB", "railway:station_category": "7", "train": "yes", "uic_ref": "8003338", "wikidata": "Q116017434"}}, {"type": "node", "id": 3465197054, "lat": 48.9692274, "lon": 13.1362741}, {"type": "node", "id": 3465202906, "lat": 48.9690139, "lon": 13.137095}, {"type": "node", "id": 3716655347, "lat": 49.0616761, "lon": 13.1183908}, {"type": "node", "id": 3716655348, "lat": 49.0617018, "lon": 13.1183442}, {"type": "node", "id": 3716655350, "lat": 49.0617243, "lon": 13.1182991}, {"type": "node", "id": 3716655351, "lat": 49.0617638, "lon": 13.1183464}, {"type": "node", "id": 3958803078, "lat": 49.0856233, "lon": 13.6971085}, {"type": "node", "id": 3958803079, "lat": 49.085934, "lon": 13.6966395}, {"type": "node", "id": 3958803082, "lat": 49.08601, "lon": 13.6963077}, {"type": "node", "id": 3958803083, "lat": 49.0858583, "lon": 13.696281}, {"type": "node", "id": 3964040983, "lat": 49.0854382, "lon": 13.6969244}, {"type": "node", "id": 3964040990, "lat": 49.0855308, "lon": 13.697062}, {"type": "node", "id": 3964040991, "lat": 49.0855597, "lon": 13.6970196}, {"type": "node", "id": 3973154542, "lat": 48.9677835, "lon": 13.1325542}, {"type": "node", "id": 3973158158, "lat": 48.9670954, "lon": 13.1316842}, {"type": "node", "id": 3973158159, "lat": 48.9671928, "lon": 13.1320131}, {"type": "node", "id": 3973158163, "lat": 48.9687993, "lon": 13.1366367}, {"type": "node", "id": 3973158164, "lat": 48.9692381, "lon": 13.1362733}, {"type": "node", "id": 3973158165, "lat": 48.9694051, "lon": 13.1367263}, {"type": "node", "id": 3973161645, "lat": 48.9686628, "lon": 13.1349612}, {"type": "node", "id": 3973161646, "lat": 48.9687657, "lon": 13.1353089}, {"type": "node", "id": 3973161647, "lat": 48.9689413, "lon": 13.1361013}, {"type": "node", "id": 3973161648, "lat": 48.9690156, "lon": 13.1360418}, {"type": "node", "id": 3973161649, "lat": 48.9690793, "lon": 13.1362267}, {"type": "node", "id": 4609276320, "lat": 49.1420866, "lon": 13.2303932, "tags": {"aerialway": "station", "description": "doln\u00ed stanice lanovky B - poma", "name": "N\u00e1dra\u017e\u00ed\u010dko", "public_transport": "station", "website": "http://www.zeleznaruda.info/lyzovani-nad-nadrazim.php"}}, {"type": "node", "id": 4720485067, "lat": 48.968369, "lon": 13.1354212}, {"type": "node", "id": 4720485068, "lat": 48.9681689, "lon": 13.1346199}, {"type": "node", "id": 4720485069, "lat": 48.9687545, "lon": 13.1365368}, {"type": "node", "id": 4720485686, "lat": 48.9672759, "lon": 13.1322894}, {"type": "node", "id": 4720485688, "lat": 48.9675609, "lon": 13.1330111}, {"type": "node", "id": 4720486089, "lat": 48.9685598, "lon": 13.1359905}, {"type": "node", "id": 4720562763, "lat": 48.9690146, "lon": 13.1361827}, {"type": "node", "id": 4720562998, "lat": 48.9689565, "lon": 13.136125}, {"type": "node", "id": 4720562999, "lat": 48.969152, "lon": 13.1362578}, {"type": "node", "id": 4727457706, "lat": 49.0521238, "lon": 13.110905, "tags": {"addr:city": "Bodenmais", "addr:country": "DE", "addr:housenumber": "2", "addr:postcode": "94249", "addr:street": "B\u00f6hmhof-Kohlplatz", "name": "B\u00f6hmhof", "operator": "DB InfraGO AG", "public_transport": "station", "railway": "halt", "railway:ref": "NBHF", "railway:station_category": "7", "request_stop": "yes", "train": "yes", "wikidata": "Q116019461"}}, {"type": "node", "id": 5874070898, "lat": 49.101796, "lon": 13.6700026}, {"type": "node", "id": 5874070899, "lat": 49.1020545, "lon": 13.6693295}, {"type": "node", "id": 6705360063, "lat": 49.1020777, "lon": 13.6692691}, {"type": "node", "id": 6705360064, "lat": 49.1015596, "lon": 13.6688444}, {"type": "node", "id": 6979716384, "lat": 49.142685, "lon": 13.2448626, "tags": {"aerialway": "station", "name": "Belveder", "public_transport": "station"}}, {"type": "node", "id": 6980130292, "lat": 49.1351092, "lon": 13.2372735, "tags": {"addr:city": "\u017delezn\u00e1 Ruda", "aerialway": "station", "name": "Mal\u00fd vlek", "public_transport": "station"}}, {"type": "node", "id": 6980130293, "lat": 49.133736, "lon": 13.2400702, "tags": {"aerialway": "station", "name": "Mal\u00fd vlek - horn\u00ed stanice", "public_transport": "station"}}, {"type": "node", "id": 7041992457, "lat": 49.0857933, "lon": 13.6968948}, {"type": "node", "id": 7041992458, "lat": 49.0857414, "lon": 13.6965971}, {"type": "node", "id": 8155186928, "lat": 49.2459849, "lon": 13.5415581}, {"type": "node", "id": 8155273139, "lat": 49.2460349, "lon": 13.5418609}, {"type": "node", "id": 8155273140, "lat": 49.2460466, "lon": 13.5419321}, {"type": "node", "id": 8155273141, "lat": 49.2460584, "lon": 13.5420033}, {"type": "node", "id": 8155273142, "lat": 49.2460701, "lon": 13.5420746}, {"type": "node", "id": 8155273143, "lat": 49.2460819, "lon": 13.5421458}, {"type": "node", "id": 8155273144, "lat": 49.2460936, "lon": 13.542217}, {"type": "node", "id": 8155273145, "lat": 49.2461054, "lon": 13.5422882}, {"type": "node", "id": 8155273146, "lat": 49.2460231, "lon": 13.5417897}, {"type": "node", "id": 8155273148, "lat": 49.2460101, "lon": 13.5417109}, {"type": "node", "id": 8155273151, "lat": 49.2461278, "lon": 13.5424264}, {"type": "node", "id": 8155273152, "lat": 49.2461703, "lon": 13.5414903}, {"type": "node", "id": 8374777062, "lat": 49.2903121, "lon": 13.139217}, {"type": "node", "id": 8374777116, "lat": 49.2903567, "lon": 13.1388782}, {"type": "node", "id": 8374784717, "lat": 49.2903128, "lon": 13.1389032}, {"type": "node", "id": 9403245932, "lat": 49.2121166, "lon": 13.1742201, "tags": {"name": "Hamry-Hojsova Str\u00e1\u017e", "public_transport": "station", "railway": "station", "website": "https://www.cd.cz/stanice/5476985/", "wikidata": "Q19400672"}}, {"type": "node", "id": 9469213510, "lat": 49.1683701, "lon": 13.2431805, "tags": {"aerialway": "station", "name": "Hofmanova Bouda", "public_transport": "station"}}, {"type": "node", "id": 9469213511, "lat": 49.1684441, "lon": 13.2430521, "tags": {"aerialway": "station", "name": "Hofmanova Bouda", "public_transport": "station"}}, {"type": "node", "id": 10080742576, "lat": 49.0617082, "lon": 13.1184293}, {"type": "node", "id": 11157843920, "lat": 49.0593397, "lon": 13.1226525, "tags": {"aerialway": "station", "aerialway:access": "exit", "aerialway:station": "mid", "name": "Mittelstation", "public_transport": "station"}}, {"type": "node", "id": 11583782658, "lat": 48.9674274, "lon": 13.1327218}, {"type": "node", "id": 11583782659, "lat": 48.9677001, "lon": 13.1333144}, {"type": "node", "id": 12907581514, "lat": 49.1219628, "lon": 13.2103346, "tags": {"name": "\u017delezn\u00e1 Ruda - Al\u017eb\u011bt\u00edn", "name:cs": "\u017delezn\u00e1 Ruda - Al\u017eb\u011bt\u00edn", "name:de": "Markt Eisenstein - Elisenthal", "operator": "cz:S\u017dDC", "public_transport": "station", "railway": "station", "train": "yes", "wheelchair": "yes", "wikidata": "Q457834", "wikipedia": "cs:\u017delezn\u00e1_Ruda-Al\u017eb\u011bt\u00edn_(n\u00e1dra\u017e\u00ed)"}}, {"type": "way", "id": 59682435, "nodes": [740366286, 740366092, 740366304, 740366109, 740366286], "tags": {"building": "transportation", "building:levels": "3", "building:ruian:type": "17", "ref:ruian:building": "26133598", "source": "cuzk:ruian", "start_date": "2006-11-30"}}, {"type": "way", "id": 59682469, "nodes": [740366191, 740366088, 740366102, 740366306, 740366191], "tags": {"building": "transportation", "building:ruian:type": "17", "ref:ruian:building": "48073229", "source": "cuzk:ruian"}}, {"type": "way", "id": 84273063, "nodes": [980063847, 980064019, 980064769, 980063244, 980063847], "tags": {"addr:city": "Zd\u00edkov", "addr:conscriptionnumber": "38", "addr:country": "CZ", "addr:housenumber": "38", "addr:place": "Zd\u00edkov", "addr:postcode": "38472", "amenity": "bus_station", "building": "transportation", "building:levels": "1", "building:ruian:type": "17", "bus": "yes", "name": "Zd\u00edkov", "public_transport": "station", "ref:ruian:addr": "25230671", "ref:ruian:building": "24767263", "source": "cuzk:ruian", "start_date": "2000-06-06"}}, {"type": "way", "id": 115659512, "nodes": [1306062936, 1306068977, 1306067771, 8374777062, 1306066681, 1306067269, 1306066074, 8374784717, 1306064932, 8374777116, 1306062936], "tags": {"amenity": "bus_station", "building": "civic", "building:levels": "1", "building:ruian:type": "15", "bus": "yes", "name": "N\u00fdrsko, Komensk\u00e9ho", "public_transport": "station", "ref:ruian:building": "24957330", "source": "cuzk:ruian", "start_date": "2001-08-29"}}, {"type": "way", "id": 367785317, "nodes": [3716655351, 3716655350, 3716655348, 3716655347, 10080742576, 666134932, 3716655351], "tags": {"aerialway": "station", "aerialway:access": "both", "aerialway:station": "bottom", "building": "yes", "building:colour": "#D3853A", "building:material": "wood", "name": "Talstation", "public_transport": "station", "roof:colour": "#B87D77", "roof:shape": "gabled", "wheelchair": "no"}}, {"type": "way", "id": 392692367, "nodes": [3958803083, 7041992458, 3964040983, 3964040990, 3964040991, 3958803078, 7041992457, 3958803079, 3958803082, 3958803083], "tags": {"amenity": "bus_station", "bus": "yes", "name": "Zd\u00edkov", "public_transport": "station"}}, {"type": "way", "id": 394305384, "nodes": [3973158158, 3973158159, 4720485686, 11583782658, 4720485688, 11583782659, 4720485068, 4720485067, 4720486089, 4720485069, 3973158163, 3465202906, 3973158165, 3973158164, 3465197054, 4720562999, 3973161649, 4720562763, 4720562998, 3973161647, 3973161648, 1672773442, 3973161646, 3973161645, 1672773268, 3973154542, 1672773197, 3973158158], "tags": {"public_transport": "station"}}, {"type": "way", "id": 713309165, "nodes": [6705360064, 740366025, 740366255, 5874070898, 5874070899, 6705360063, 6705360064], "tags": {"source": "cuzk:km"}}, {"type": "way", "id": 876233600, "nodes": [8155273152, 8155186928, 8155273148, 8155273146, 8155273139, 8155273140, 8155273141, 8155273142, 8155273143, 8155273144, 8155273145, 2712151104, 8155273151, 3245798663, 3245798672, 2712151112, 2712151113, 2712151108, 8155273152], "tags": {"amenity": "bus_station", "bus": "yes", "name": "Su\u0161ice, \u017eel. st.", "public_transport": "station"}}, {"type": "relation", "id": 1242067, "members": [{"type": "way", "ref": 713309165, "role": "outer"}, {"type": "way", "ref": 59682435, "role": "inner"}, {"type": "way", "ref": 59682469, "role": "inner"}], "tags": {"amenity": "bus_station", "bus": "yes", "name": "Stachy", "public_transport": "station", "type": "multipolygon", "wheelchair": "limited"}}]}