{"version": 0.6, "generator": "Overpass API 0.7.62.8 e802775f", "osm3s": {"timestamp_osm_base": "2026-01-05T16:55:51Z", "copyright": "The data included in this document is from www.openstreetmap.org. The data is made available under ODbL."}, "elements": [{"type": "node", "id": 268779676, "lat": 48.7375472, "lon": 13.9469124, "tags": {"ele": "1119", "name": "Kopka", "name:de": "Gupfel", "natural": "peak", "source": "tisicovky.cz"}}, {"type": "node", "id": 268779759, "lat": 48.7839076, "lon": 13.8841922, "tags": {"ele": "1026", "name": "Ko\u0148sk\u00fd vrch", "name:cs": "Ko\u0148sk\u00fd vrch", "name:de": "Ro\u00dfberg", "natural": "peak", "source": "tisicovky.cz"}}, {"type": "node", "id": 270091940, "lat": 48.7746867, "lon": 13.813786, "tags": {"ele": "1341", "name": "Vysok\u00fd h\u0159eben", "name:cs": "Vysok\u00fd h\u0159eben", "name:de": "Hochkamm", "natural": "peak"}}, {"type": "node", "id": 270092058, "lat": 48.8076374, "lon": 13.8037216, "tags": {"ele": "1020.9", "name": "\u0160pi\u010d\u00e1k", "name:cs": "\u0160pi\u010d\u00e1k", "name:de": "Spitzberg", "natural": "peak", "source": "tisicovky.cz", "triangulation_point": "yes"}}, {"type": "node", "id": 283595849, "lat": 49.0397519, "lon": 13.5754283, "tags": {"man_made": "tower", "name": "Jezern\u00ed sla\u0165", "note": "vyhl\u00eddkov\u00e1 v\u011b\u017e", "tourism": "viewpoint", "tower:type": "observation"}}, {"type": "node", "id": 283595862, "lat": 49.0403371, "lon": 13.5744778, "tags": {"tourism": "viewpoint"}}, {"type": "node", "id": 283596131, "lat": 49.0642171, "lon": 13.3947854, "tags": {"ele": "1314.7", "name": "Poledn\u00edk", "name:cs": "Poledn\u00edk", "name:de": "Mittagsberg", "natural": "peak", "wikidata": "Q932032", "wikipedia": "cs:Poledn\u00edk (\u0160umava)"}}, {"type": "node", "id": 283596133, "lat": 49.0638902, "lon": 13.3952189}, {"type": "node", "id": 283607334, "lat": 48.9792832, "lon": 13.5509669, "tags": {"ele": "1316", "name": "\u010cern\u00e1 hora", "name:de": "Schwarzberg", "natural": "peak", "source": "\u010c\u00daZK"}}, {"type": "node", "id": 283610895, "lat": 48.9744237, "lon": 13.5607583, "tags": {"amenity": "shelter", "name": "An der Moldauquelle", "picnic_table": "yes", "shelter_type": "weather_shelter"}}, {"type": "node", "id": 288522356, "lat": 49.0536229, "lon": 13.4431195, "tags": {"ele": "1227.6", "name": "Obl\u00edk", "name:de": "Steiningberg", "natural": "peak", "wikidata": "Q2012849"}}, {"type": "node", "id": 326089868, "lat": 49.0827326, "lon": 13.4360658, "tags": {"name": "Zelenohorsk\u00e1 vyhl\u00eddka", "note": "nev\u00edm, kde p\u0159esn\u011b je, zna\u010d\u00edm podle odbo\u010dky k n\u00ed", "tourism": "viewpoint"}}, {"type": "node", "id": 355861088, "lat": 49.0314521, "lon": 13.6265699, "tags": {"amenity": "shelter"}}, {"type": "node", "id": 357866488, "lat": 49.0406127, "lon": 13.6178259, "tags": {"ele": "1221", "name": "P\u0159\u00edlba", "natural": "peak", "source": "\u010c\u00daZK"}}, {"type": "node", "id": 357913555, "lat": 48.9758532, "lon": 13.5799288, "tags": {"ele": "1308", "name": "Str\u00e1\u017e", "name:cs": "Str\u00e1\u017e", "name:de": "Postberg", "natural": "peak", "source": "\u010c\u00daZK", "wikimedia_commons": "File:2014-03-22 12.30.17 Str\u00e1\u017e.jpg"}}, {"type": "node", "id": 395379416, "lat": 49.0821259, "lon": 13.5152734}, {"type": "node", "id": 395379419, "lat": 49.0820633, "lon": 13.5153021}, {"type": "node", "id": 469130278, "lat": 49.1116193, "lon": 13.3296478, "tags": {"name:de": "Lakasee", "tourism": "viewpoint"}}, {"type": "node", "id": 473591550, "lat": 48.9981632, "lon": 13.6592293, "tags": {"name": "Chalupsk\u00e1 Slat", "tourism": "viewpoint"}}, {"type": "node", "id": 482551156, "lat": 48.9666654, "lon": 13.5926993, "tags": {"name": "\u017delezn\u00e1 opona", "tourism": "attraction"}}, {"type": "node", "id": 482551160, "lat": 48.966431, "lon": 13.5927254, "tags": {"tourism": "viewpoint"}}, {"type": "node", "id": 568291918, "lat": 49.1025619, "lon": 13.3483768, "tags": {"ele": "1300", "natural": "peak", "source": "\u010c\u00daZK"}}, {"type": "node", "id": 568291921, "lat": 49.1157564, "lon": 13.3413822, "tags": {"ele": "1205.8", "name": "D\u0159ev\u011bn\u00e1 h\u016fl", "name:de": "Hohenstock", "natural": "peak", "source": "cuzk:km", "source:ele": "tisicovky.cz"}}, {"type": "node", "id": 568291925, "lat": 49.1331219, "lon": 13.3005748, "tags": {"ele": "1228", "natural": "peak", "source": "\u010c\u00daZK"}}, {"type": "node", "id": 568291928, "lat": 49.1358061, "lon": 13.3398462, "tags": {"ele": "1099", "name": "H\u016freck\u00fd vrch", "name:de": "Hurkenberg", "natural": "peak", "source": "cuzk:km", "source:ele": "tisicovky.cz", "wikidata": "Q71376902"}}, {"type": "node", "id": 568307338, "lat": 49.1436773, "lon": 13.2828283, "tags": {"ele": "1195", "name": "Skl\u00e1\u0159sk\u00fd vrch", "name:de": "Pamferberg", "natural": "peak"}}, {"type": "node", "id": 568307341, "lat": 49.0791614, "lon": 13.3887957, "tags": {"ele": "1238", "name": "Skalka", "natural": "peak", "source": "cuzk:km", "source:ele": "tisicovky.cz", "wikidata": "Q23824266"}}, {"type": "node", "id": 568307343, "lat": 49.1146562, "lon": 13.4020337, "tags": {"ele": "995", "name": "Slune\u010dn\u00e1", "name:cs": "Slune\u010dn\u00e1", "name:de": "Sonnberg", "natural": "peak", "source": "cuzk:km", "wikidata": "Q109657578"}}, {"type": "node", "id": 568307346, "lat": 49.058183, "lon": 13.4644577, "tags": {"ele": "1006.9", "natural": "peak"}}, {"type": "node", "id": 568307348, "lat": 49.0660428, "lon": 13.467009, "tags": {"ele": "1020.5", "name": "Kosteln\u00ed vrch", "natural": "peak", "source": "tisicovky.cz"}}, {"type": "node", "id": 568307350, "lat": 49.0867346, "lon": 13.4848987, "tags": {"natural": "peak"}}, {"type": "node", "id": 568307351, "lat": 49.0912425, "lon": 13.4684089, "tags": {"ele": "1013", "name": "Sp\u00e1len\u00fd", "natural": "peak", "source": "cuzk:km", "wikidata": "Q71175663", "wikipedia": "cs:Sp\u00e1len\u00fd (\u0160umava)"}}, {"type": "node", "id": 576544425, "lat": 49.0397672, "lon": 13.4821198, "tags": {"ele": "1078", "name": "Adamova hora", "name:de": "Adamsberg", "natural": "peak", "source": "cuzk:km", "source:ele": "tisicovky.cz", "source:name": "tisicovky.cz", "wikidata": "Q23821603"}}, {"type": "node", "id": 576602719, "lat": 49.0332704, "lon": 13.54355, "tags": {"ele": "1194", "name": "B\u0159ezov\u00e1 hora", "natural": "peak", "source": "\u010c\u00daZK"}}, {"type": "node", "id": 576602727, "lat": 48.9997463, "lon": 13.6416845, "tags": {"ele": "1049", "name": "Kamen\u00e1\u010d", "name:cs": "Kamen\u00e1\u010d", "name:de": "Martin-Luther-Berg", "natural": "peak", "source": "\u010c\u00daZK"}}, {"type": "node", "id": 576602732, "lat": 48.9765119, "lon": 13.6605821, "tags": {"ele": "1045", "name": "Homole", "natural": "peak", "source": "\u010c\u00daZK"}}, {"type": "node", "id": 576602735, "lat": 49.0479931, "lon": 13.5359635, "tags": {"ele": "1254", "name": "Ant\u00fdgl", "name:de": "Antigl", "natural": "peak", "old_name": "Sokol", "source": "\u010c\u00daZK", "wikidata": "Q12055269"}}, {"type": "node", "id": 576602738, "lat": 49.0748627, "lon": 13.553881, "tags": {"ele": "1157", "name": "B\u0159emeno", "natural": "peak", "source": "\u010c\u00daZK"}}, {"type": "node", "id": 576603989, "lat": 48.9730994, "lon": 13.6534152, "tags": {"ele": "1008", "name": "Ve svahu", "natural": "peak", "source": "tisicovky.cz"}}, {"type": "node", "id": 576633912, "lat": 49.0023628, "lon": 13.5343739, "tags": {"ele": "1245", "name": "\u010cert\u016fv vrch", "name:de": "Steink\u00f6pfel (Teufelsh\u00fcgel)", "natural": "peak", "source": "\u010c\u00daZK"}}, {"type": "node", "id": 576633915, "lat": 49.0159124, "lon": 13.5496598, "tags": {"ele": "1260", "name": "Tet\u0159ev", "name:cs": "Tet\u0159ev", "name:de": "Hanifberg", "natural": "peak", "source": "\u010c\u00daZK"}}, {"type": "node", "id": 576633917, "lat": 49.0956789, "lon": 13.3674274, "tags": {"ele": "1017", "name": "Doln\u00ed \u017dd\u00e1nidla", "name:cs": "Doln\u00ed \u017dd\u00e1nidla", "name:de": "Untersteindlberg", "natural": "peak", "source:ele": "tisicovky.cz", "source:name": "tisicovky.cz"}}, {"type": "node", "id": 576647351, "lat": 48.9809253, "lon": 13.5799882, "tags": {"ele": "1294", "name": "Hol\u00fd vrch", "name:cs": "Hol\u00fd vrch", "name:de": "Hochbretterberg", "natural": "peak", "source": "\u010c\u00daZK", "wikimedia_commons": "File:2014-03-22 12.07.06 Hol\u00fd vrch.jpg"}}, {"type": "node", "id": 576699854, "lat": 48.8113149, "lon": 13.8720426, "tags": {"ele": "980", "name": "Ple\u0161ivec", "name:de": "Fl\u00f6sselberg", "natural": "peak"}}, {"type": "node", "id": 576699857, "lat": 48.8289258, "lon": 13.882192, "tags": {"ele": "1068", "name": "Jelensk\u00e1 hora", "name:cs": "Jelensk\u00e1 hora", "name:de": "Hirschberg", "natural": "peak", "source": "tisicovky.cz"}}, {"type": "node", "id": 576699868, "lat": 48.8166773, "lon": 13.9018794, "tags": {"ele": "1049", "name": "Pern\u00edk", "name:cs": "Pern\u00edk", "name:de": "Lebzelterberg", "natural": "peak", "source": "tisicovky.cz"}}, {"type": "node", "id": 576699871, "lat": 48.8335928, "lon": 13.9075542, "tags": {"ele": "1047", "name": "Hvozd", "name:cs": "Hvozd", "name:de": "Hochwald", "natural": "peak", "source:ele": "tisicovky.cz", "source:name": "tisicovky.cz"}}, {"type": "node", "id": 576699876, "lat": 48.9349683, "lon": 13.6757619, "tags": {"ele": "1040", "name": "Jelen\u00ed hora", "name:de": "Ha\u00dfberg", "natural": "peak", "source": "\u010c\u00daZK"}}, {"type": "node", "id": 576699901, "lat": 48.9500348, "lon": 13.6550574, "tags": {"ele": "1046", "name": "Jelen\u00ed sla\u0165", "name:cs": "Jelen\u00ed sla\u0165", "natural": "peak", "source:ele": "\u010c\u00daZK", "source:name": "tisicovky.cz"}}, {"type": "node", "id": 576699904, "lat": 49.0907, "lon": 13.5512467, "tags": {"ele": "1187", "name": "Hu\u0165sk\u00e1 hora", "name:de": "Knappenberg", "natural": "peak", "source:ele": "tisicovky.cz", "source:name": "tisicovky.cz", "wikidata": "Q23824270", "wikipedia": "cs:Hu\u0165sk\u00e1 hora"}}, {"type": "node", "id": 576699907, "lat": 49.0675709, "lon": 13.5351369, "tags": {"ele": "1126", "name": "Jelen\u00ed kali\u0161t\u011b", "natural": "peak", "source": "tisicovky.cz"}}, {"type": "node", "id": 576705743, "lat": 49.0713956, "lon": 13.4274409, "tags": {"ele": "1266.1", "name": "Jezernice", "name:cs": "Jezernice", "name:de": "Seer\u00fccken", "natural": "peak", "source": "tisicovky.cz", "wikidata": "Q23824271"}}, {"type": "node", "id": 576717518, "lat": 48.9939956, "lon": 13.4270897, "tags": {"ele": "1224", "name": "Medv\u011bd\u00ed hora", "name:de": "B\u00e4rnsteindl", "natural": "peak", "source": "\u010c\u00daZK"}}, {"type": "node", "id": 576717519, "lat": 49.0135135, "lon": 13.4789979, "tags": {"ele": "1157", "name": "Modravsk\u00e1 hora", "name:de": "Blohausberg", "natural": "peak", "source": "GPS"}}, {"type": "node", "id": 576717520, "lat": 48.9736986, "lon": 13.5938325, "tags": {"ele": "1219", "name": "Nad Bu\u010dinou", "name:cs": "Nad Bu\u010dinou", "name:de": "Buchwald", "natural": "peak", "source": "\u010c\u00daZK"}}, {"type": "node", "id": 576717521, "lat": 49.023422, "lon": 13.5706913, "tags": {"ele": "1172", "name": "Lapka", "natural": "peak", "source": "\u010c\u00daZK"}}, {"type": "node", "id": 576717523, "lat": 48.9662509, "lon": 13.6407338, "tags": {"ele": "1027", "name": "Nad Bukovou slat\u00ed", "name:cs": "Nad Bukovou slat\u00ed", "natural": "peak", "source": "tisicovky.cz", "source:ele": "\u010c\u00daZK"}}, {"type": "node", "id": 576717524, "lat": 49.1225031, "lon": 13.4479678, "tags": {"ele": "1125", "name": "K\u0159emeln\u00e1", "name:cs": "K\u0159emeln\u00e1", "name:de": "Kiesleiten", "natural": "peak", "source": "tisicovky.cz", "wikidata": "Q20799366"}}, {"type": "node", "id": 576722557, "lat": 49.1016667, "lon": 13.3313889, "tags": {"ele": "1227", "name": "Nad plesem", "name:cs": "Nad plesem", "natural": "peak", "source": "tisicovky.cz"}}, {"type": "node", "id": 576722561, "lat": 49.0263889, "lon": 13.4041667, "tags": {"ele": "1163", "name": "Nad Latschensee", "natural": "peak", "source": "tisicovky.cz"}}, {"type": "node", "id": 576722562, "lat": 49.0144444, "lon": 13.4416667, "tags": {"ele": "1133", "natural": "peak", "source": "\u010c\u00daZK"}}, {"type": "node", "id": 576722563, "lat": 49.0273881, "lon": 13.592136, "tags": {"ele": "1181", "name": "Orel", "natural": "peak", "source": "\u010c\u00daZK"}}, {"type": "node", "id": 576724097, "lat": 48.9521403, "lon": 13.6722958, "tags": {"ele": "1121", "name": "Poleck\u00fd vrch", "name:cs": "Poleck\u00fd vrch", "natural": "peak", "old_name": "\u0160pi\u010d\u00e1k", "source": "\u010c\u00daZK"}}, {"type": "node", "id": 576724098, "lat": 48.9647984, "lon": 13.6600601, "tags": {"ele": "1054", "name": "Poledn\u00ed vrch", "name:cs": "Poledn\u00ed vrch", "natural": "peak", "source": "\u010c\u00daZK"}}, {"type": "node", "id": 576733425, "lat": 49.0213889, "lon": 13.4552778, "tags": {"ele": "1062", "name": "P\u0159edn\u00ed Mlyn\u00e1\u0159sk\u00e1 sla\u0165", "natural": "peak", "source": "tisicovky.cz"}}, {"type": "node", "id": 576733430, "lat": 48.8880556, "lon": 13.6866667, "tags": {"ele": "1002", "name": "Pomezn\u00fd", "name:cs": "Pomezn\u00fd", "name:de": "Scheiblingsberg", "natural": "peak", "source": "tisicovky.cz"}}, {"type": "node", "id": 576733433, "lat": 48.8896018, "lon": 13.7808833, "tags": {"ele": "1025", "name": "Radvanovick\u00fd h\u0159bet", "natural": "peak", "source": "tisicovky.cz"}}, {"type": "node", "id": 577323239, "lat": 48.7576657, "lon": 13.8995477, "tags": {"ele": "1165", "ele:wgs84": "1211", "hiking": "yes", "name": "Studni\u010dn\u00e1 / Brunnauberg", "name:cs": "Studni\u010dn\u00e1", "name:de": "Brunnauberg", "natural": "peak", "operator": "cz:K\u010cT", "ref": "VO851", "source": "tisicovky.cz;survey"}}, {"type": "node", "id": 577323243, "lat": 48.9791667, "lon": 13.4644444, "tags": {"ele": "1302", "name": "Studen\u00e1 hora", "name:de": "Kaltstaude", "natural": "peak", "source": "\u010c\u00daZK", "wikidata": "Q12056727"}}, {"type": "node", "id": 577323244, "lat": 48.9608914, "lon": 13.4644308, "tags": {"ele": "1351", "name": "\u0160pi\u010dn\u00edk", "name:cs": "\u0160pi\u010dn\u00edk", "name:de": "Gro\u00dfer Spitzberg", "natural": "peak", "source": "tisicovky.cz", "wikidata": "Q10413433"}}, {"type": "node", "id": 577323245, "lat": 48.9065865, "lon": 13.6815072, "tags": {"ele": "1079", "name": "Skalnat\u00fd h\u0159bet", "name:cs": "Skalnat\u00fd h\u0159bet", "name:de": "Gaisberg", "natural": "peak", "source:ele": "\u010c\u00daZK", "source:name": "tisicovky.cz"}}, {"type": "node", "id": 577323246, "lat": 48.9203369, "lon": 13.6984541, "tags": {"ele": "1115", "name": "Str\u00e1\u017en\u00fd", "name:cs": "Str\u00e1\u017en\u00fd", "name:de": "Schl\u00f6sselberg", "natural": "peak", "source": "\u010c\u00daZK"}}, {"type": "node", "id": 577323247, "lat": 48.9837137, "lon": 13.6009859, "tags": {"ele": "1256", "name": "Stolov\u00e1 hora", "name:de": "Steinberg", "natural": "peak", "source": "\u010c\u00daZK"}}, {"type": "node", "id": 577323249, "lat": 48.8804163, "lon": 13.8277027, "tags": {"ele": "1065", "name": "Sto\u017eec", "name:de": "Tussetberg", "natural": "peak", "source": "survey;tisicovky.cz"}}, {"type": "node", "id": 577336411, "lat": 49.1565068, "lon": 13.2776647, "tags": {"ele": "1023", "name": "Tok", "name:de": "Hahnenriegel", "natural": "peak", "source": "tisicovky.cz"}}, {"type": "node", "id": 577336412, "lat": 49.1312401, "lon": 13.2604997, "tags": {"ele": "1129", "name": "Z\u00e1meck\u00fd les", "name:de": "Schlo\u00dfwald", "natural": "peak", "source": "tisicovky.cz"}}, {"type": "node", "id": 577336413, "lat": 48.7990939, "lon": 13.8478558, "tags": {"ele": "1157", "name": "V pa\u0159ez\u00ed", "name:de": "Am Stumpf", "natural": "peak", "source": "tisicovky.cz"}}, {"type": "node", "id": 577336416, "lat": 48.9546699, "lon": 13.5064049, "tags": {"ele": "1370", "name": "Velk\u00e1 Mokr\u016fvka", "name:cs": "Velk\u00e1 Mokr\u016fvka", "name:de": "Moorberg", "natural": "peak", "source": "\u010c\u00daZK", "wikidata": "Q11878617"}}, {"type": "node", "id": 577336418, "lat": 48.9238612, "lon": 13.6513017, "tags": {"ele": "1065", "name": "\u017d\u010f\u00e1reck\u00e1 hora", "name:cs": "\u017d\u010f\u00e1reck\u00e1 hora", "name:de": "Parmberg", "natural": "peak", "source": "\u010c\u00daZK"}}, {"type": "node", "id": 577336419, "lat": 48.987479, "lon": 13.6092334, "tags": {"ele": "1251", "name:de": "Hochruck", "natural": "peak", "source": "\u010c\u00daZK"}}, {"type": "node", "id": 577336420, "lat": 48.985, "lon": 13.6513889, "tags": {"ele": "1068", "name": "Vyhl\u00eddka", "name:cs": "Vyhl\u00eddka", "natural": "peak", "source": "tisicovky.cz"}}, {"type": "node", "id": 577336422, "lat": 49.1686762, "lon": 13.373881, "tags": {"ele": "1078", "name": "Vysok\u00fd h\u0159bet", "natural": "peak", "source": "tisicovky.cz", "wikidata": "Q23807790"}}, {"type": "node", "id": 577336423, "lat": 49.0716763, "lon": 13.5856234, "tags": {"ele": "1154", "name": "U t\u0159\u00ed jedl\u00ed", "natural": "peak", "source": "\u010c\u00daZK"}}, {"type": "node", "id": 577336424, "lat": 49.0975, "lon": 13.5925, "tags": {"ele": "1010", "name": "Valy", "natural": "peak", "source": "tisicovky.cz"}}, {"type": "node", "id": 577336428, "lat": 48.8753077, "lon": 13.7665696, "tags": {"ele": "1080", "name": "\u017dlebsk\u00fd vrch", "name:de": "Sulzberg", "natural": "peak", "source": "tisicovky.cz"}}, {"type": "node", "id": 799270297, "lat": 48.7765034, "lon": 13.8575227, "tags": {"name": "V\u00fdhled na Ple\u0161n\u00e9 jezero", "name:de": "Aussicht zum Pl\u00f6ckensteinsee", "tourism": "viewpoint", "wheelchair": "no"}}, {"type": "node", "id": 799270300, "lat": 48.7746818, "lon": 13.8554005, "tags": {"name": "Ku\u010derova vyhl\u00eddka", "name:de": "Aussicht auf Pl\u00f6ckensteiner See", "tourism": "viewpoint", "wheelchair": "no"}}, {"type": "node", "id": 948580589, "lat": 48.8164341, "lon": 13.8774626, "tags": {"name": "Tunel (doln\u00ed port\u00e1l)", "name:de": "Unteres Tunnelportal", "tourism": "attraction"}}, {"type": "node", "id": 948785651, "lat": 48.7795299, "lon": 13.9044371}, {"type": "node", "id": 949000225, "lat": 48.7796328, "lon": 13.9043638}, {"type": "node", "id": 949109439, "lat": 48.7795377, "lon": 13.9053178}, {"type": "node", "id": 1295132357, "lat": 49.0309187, "lon": 13.4246493, "tags": {"ele": "1111", "name": "Smrkov\u00fd vrch", "name:cs": "Smrkov\u00fd vrch", "name:de": "Sch\u00f6nfichte", "natural": "peak", "source": "\u010c\u00daZK"}}, {"type": "node", "id": 1346730433, "lat": 49.1017817, "lon": 13.3356232, "tags": {"tourism": "viewpoint"}}, {"type": "node", "id": 1350021382, "lat": 48.9797702, "lon": 13.4372723, "tags": {"ele": "1226", "natural": "peak", "source": "\u010c\u00daZK"}}, {"type": "node", "id": 1350021383, "lat": 48.9767339, "lon": 13.4534416, "tags": {"ele": "1276", "natural": "peak", "source": "\u010c\u00daZK"}}, {"type": "node", "id": 1350024106, "lat": 48.981338, "lon": 13.5029053, "tags": {"name": "Ztracen\u00fd vrch", "name:de": "Verlorener Berg", "natural": "peak", "source": "\u010c\u00daZK"}}, {"type": "node", "id": 1350079479, "lat": 49.1602079, "lon": 13.4015773, "tags": {"tourism": "viewpoint"}}, {"type": "node", "id": 1350081230, "lat": 49.1617851, "lon": 13.3654726, "tags": {"name": "Bor", "name:de": "Haid", "natural": "peak"}}, {"type": "node", "id": 1357925417, "lat": 49.0811643, "lon": 13.3492141, "tags": {"amenity": "shelter", "name": "ehem.Grenzw\u00e4rterh\u00fctte", "note": "Gsenget-Gunthersteig(B\u00f6hmweg)", "shelter_type": "weather_shelter"}}, {"type": "node", "id": 1359495743, "lat": 49.0405307, "lon": 13.4680942, "tags": {"amenity": "shelter", "shelter_type": "weather_shelter", "source": "survey"}}, {"type": "node", "id": 1370201141, "lat": 48.7793843, "lon": 13.8847319, "tags": {"amenity": "shelter", "shelter_type": "picnic_shelter"}}, {"type": "node", "id": 1401427466, "lat": 49.1050636, "lon": 13.3128899, "tags": {"ele": "1338", "name": "Plesn\u00e1", "name:cs": "Plesn\u00e1", "name:de": "Lackenberg", "natural": "peak", "source": "\u010c\u00daZK", "wikidata": "Q321991", "wikipedia": "de:Lackenberg (Bayerischer Wald)"}}, {"type": "node", "id": 1406990715, "lat": 49.1263722, "lon": 13.2963804, "tags": {"ele": "1293", "natural": "peak", "source": "\u010c\u00daZK"}}, {"type": "node", "id": 1406990721, "lat": 49.1169079, "lon": 13.3066933, "tags": {"ele": "1177", "name": "Vl\u010d\u00ed j\u00e1my", "name:de": "Wolfsgruben", "natural": "peak"}}, {"type": "node", "id": 1406991607, "lat": 49.1564412, "lon": 13.3085816, "tags": {"ele": "954", "name": "U \u0161kolky", "natural": "peak", "source": "\u010c\u00daZK"}}, {"type": "node", "id": 1410591376, "lat": 49.1097709, "lon": 13.4925228}, {"type": "node", "id": 1410591377, "lat": 49.1097827, "lon": 13.4926485}, {"type": "node", "id": 1410591393, "lat": 49.1098312, "lon": 13.4926403}, {"type": "node", "id": 1410591396, "lat": 49.1098397, "lon": 13.4926899}, {"type": "node", "id": 1410591397, "lat": 49.1098671, "lon": 13.4924836}, {"type": "node", "id": 1410591398, "lat": 49.10989, "lon": 13.492617}, {"type": "node", "id": 1451187357, "lat": 48.8187017, "lon": 13.8732919, "tags": {"historic": "yes", "name": "Tunel (horn\u00ed port\u00e1l)", "name:de": "Oberes Tunnelportal", "tourism": "attraction"}}, {"type": "node", "id": 1506543047, "lat": 48.8734616, "lon": 13.821235, "tags": {"ele": "974", "name": "Sto\u017eeck\u00e1 sk\u00e1la", "name:de": "Tussetfelsen", "natural": "peak"}}, {"type": "node", "id": 1774677537, "lat": 48.7720365, "lon": 13.8269626, "tags": {"alt_name": "Bayrischer Pl\u00f6ckenstein", "ele": "1362", "name": "Bayerischer Pl\u00f6ckenstein", "name:cs": "Trojmezn\u00e1 hora", "name:de": "Bayerischer Pl\u00f6ckenstein", "natural": "peak", "summit:cross": "yes", "wikidata": "Q812363", "wikimedia_commons": "Category:Bayerischer Pl\u00f6ckenstein (Dreisesselberg)", "wikipedia": "de:Bayerischer Pl\u00f6ckenstein"}}, {"type": "node", "id": 1786627566, "lat": 48.9015638, "lon": 13.8367022, "tags": {"access": "no", "building:material": "wood", "direction": "0-360", "fee": "no", "height": "9.22 m", "man_made": "tower", "name": "Soumarsk\u00e9 ra\u0161elini\u0161t\u011b", "note": "Rozhledna je z d\u016fvodu havarijn\u00edho stavu uzav\u0159ena.", "tourism": "viewpoint", "tower:construction": "freestanding", "tower:type": "observation", "wikidata": "Q123140413", "wikipedia": "cs:Soumarsk\u00e9 ra\u0161elini\u0161t\u011b (rozhledna)"}}, {"type": "node", "id": 1834650978, "lat": 48.9176791, "lon": 13.7977436, "tags": {"amenity": "shelter", "material": "wood", "panoramax": "e3abbfe9-d921-4e26-bd43-9d5ae76fa369", "shelter_type": "picnic_shelter"}}, {"type": "node", "id": 1842592893, "lat": 48.8981717, "lon": 13.7187465, "tags": {"ele": "937", "name": "Obecn\u00ed vrch", "name:cs": "Obecn\u00ed vrch", "natural": "peak"}}, {"type": "node", "id": 1845204467, "lat": 48.9117307, "lon": 13.7177288, "tags": {"tourism": "viewpoint"}}, {"type": "node", "id": 1888416786, "lat": 49.1232868, "lon": 13.329642}, {"type": "node", "id": 1888416839, "lat": 49.1233148, "lon": 13.3295996}, {"type": "node", "id": 1888416842, "lat": 49.1232478, "lon": 13.3295817}, {"type": "node", "id": 1888416878, "lat": 49.1232758, "lon": 13.3295393}, {"type": "node", "id": 1919359394, "lat": 49.1510522, "lon": 13.4243012, "tags": {"alt_name:de": "Guntherberg;Gunthersberg", "ele": "1006", "name": "B\u0159ezn\u00edk", "name:de": "St. G\u00fcnthersberg", "natural": "peak", "wikidata": "Q11706971"}}, {"type": "node", "id": 1941711149, "lat": 49.1013676, "lon": 13.480118, "tags": {"direction": "15-120", "ele": "915", "name": "Klostermannova vyhl\u00eddka", "tourism": "viewpoint"}}, {"type": "node", "id": 1972462104, "lat": 49.0637946, "lon": 13.3949668}, {"type": "node", "id": 1972462109, "lat": 49.0641484, "lon": 13.3944246}, {"type": "node", "id": 1972462111, "lat": 49.0639501, "lon": 13.3944678}, {"type": "node", "id": 1972462113, "lat": 49.0642432, "lon": 13.3944803}, {"type": "node", "id": 1972462114, "lat": 49.0638289, "lon": 13.3951047}, {"type": "node", "id": 1972462115, "lat": 49.0640659, "lon": 13.3953325}, {"type": "node", "id": 1972462118, "lat": 49.0638176, "lon": 13.3946776}, {"type": "node", "id": 1972462119, "lat": 49.0637907, "lon": 13.3948193}, {"type": "node", "id": 1972462121, "lat": 49.063972, "lon": 13.3952975}, {"type": "node", "id": 1978395695, "lat": 49.0611499, "lon": 13.395743, "tags": {"name": "Aussichts-Kanzel", "tourism": "viewpoint"}}, {"type": "node", "id": 1998009623, "lat": 48.9533134, "lon": 13.6169652, "tags": {"amenity": "shelter", "shelter_type": "picnic_shelter"}}, {"type": "node", "id": 1998018582, "lat": 48.9529337, "lon": 13.6158921}, {"type": "node", "id": 1998018583, "lat": 48.9529783, "lon": 13.6158641}, {"type": "node", "id": 1998018584, "lat": 48.9529659, "lon": 13.6158181}, {"type": "node", "id": 1998018618, "lat": 48.9529213, "lon": 13.6158461}, {"type": "node", "id": 2239473066, "lat": 49.0536463, "lon": 13.4432034, "tags": {"tourism": "viewpoint"}}, {"type": "node", "id": 2257650581, "lat": 49.1097996, "lon": 13.4927062}, {"type": "node", "id": 2271027667, "lat": 48.907883, "lon": 13.6775225, "tags": {"ele": "1058", "name": "Ob\u011btn\u00ed kameny", "name:cs": "Homole", "natural": "peak", "old_name": "Homole", "source": "\u010c\u00daZK"}}, {"type": "node", "id": 2315598008, "lat": 49.127357, "lon": 13.3307311, "tags": {"amenity": "shelter", "shelter_type": "lean_to"}}, {"type": "node", "id": 2345176156, "lat": 48.9652863, "lon": 13.5919649, "tags": {"amenity": "shelter", "shelter_type": "weather_shelter"}}, {"type": "node", "id": 2372480214, "lat": 49.1658546, "lon": 13.3929495, "tags": {"tourism": "viewpoint"}}, {"type": "node", "id": 2394376577, "lat": 49.0884017, "lon": 13.5544143, "tags": {"direction": "222", "tourism": "viewpoint"}}, {"type": "node", "id": 2395129254, "lat": 48.9729575, "lon": 13.5507815, "tags": {"tourism": "viewpoint"}}, {"type": "node", "id": 2485193428, "lat": 48.803588, "lon": 13.8126873, "tags": {"historic": "memorial", "name": "Rosenauer\u016fv pomn\u00edk", "name:cs": "Rosenauer\u016fv pomn\u00edk", "name:de": "Rosenauerstein", "source": "survey", "tourism": "attraction"}}, {"type": "node", "id": 2514752327, "lat": 49.0375512, "lon": 13.4424415, "tags": {"amenity": "shelter", "shelter_type": "picnic_shelter"}}, {"type": "node", "id": 2518191743, "lat": 49.0641533, "lon": 13.395119}, {"type": "node", "id": 2714686892, "lat": 49.0606667, "lon": 13.6013833, "tags": {"amenity": "shelter", "bench": "yes", "shelter_type": "weather_shelter"}}, {"type": "node", "id": 2741376528, "lat": 49.0189836, "lon": 13.5789765}, {"type": "node", "id": 2741376530, "lat": 49.0189989, "lon": 13.5789909}, {"type": "node", "id": 2741376532, "lat": 49.018993, "lon": 13.5789532}, {"type": "node", "id": 2741376533, "lat": 49.0190083, "lon": 13.5789676}, {"type": "node", "id": 2753124723, "lat": 48.9552213, "lon": 13.5996957, "tags": {"name": "T\u011b\u017eba tonalitu \u00b7 Tonalithf\u00f6rderung", "name:cs": "T\u011b\u017eba tonalitu", "name:de": "Tonalithf\u00f6rderung", "tourism": "attraction"}}, {"type": "node", "id": 2974009232, "lat": 48.9425203, "lon": 13.6578859, "tags": {"ele": "1031", "name:de": "Sch\u00f6nberg", "natural": "peak", "source": "\u010c\u00daZK"}}, {"type": "node", "id": 3066564123, "lat": 49.1205192, "lon": 13.4330826, "tags": {"amenity": "shelter", "shelter_type": "picnic_shelter", "source": "survey"}}, {"type": "node", "id": 3086880619, "lat": 49.08691, "lon": 13.4804953}, {"type": "node", "id": 3187760509, "lat": 48.969912, "lon": 13.6392816, "tags": {"amenity": "shelter", "name": "Rozc. Zidovska cesta - 990m (Abzweig. Judenweg)"}}, {"type": "node", "id": 3198607493, "lat": 49.1153143, "lon": 13.5365359, "tags": {"ele": "894", "name": "Kozinec", "natural": "peak"}}, {"type": "node", "id": 3207352552, "lat": 49.137082, "lon": 13.4891483, "tags": {"ele": "907.3", "name": "Radkovsk\u00fd vrch", "name:cs": "Radkovsk\u00fd vrch", "name:de": "Rogauer Berg", "natural": "peak"}}, {"type": "node", "id": 3242417750, "lat": 48.8538306, "lon": 13.7661454, "tags": {"amenity": "shelter", "name": "Kr\u00e1sn\u00e1 Hora"}}, {"type": "node", "id": 3242754647, "lat": 48.9730184, "lon": 13.5221733, "tags": {"ele": "1254", "name": "Mrtv\u00fd vrch", "name:cs": "Mrtv\u00fd vrch", "name:de": "Totenkopf", "natural": "peak", "source": "\u010c\u00daZK"}}, {"type": "node", "id": 3247777762, "lat": 49.0137717, "lon": 13.5256616, "tags": {"ele": "1165", "historic": "wayside_cross", "name": "Lov\u010d\u00ed sk\u00e1la", "natural": "peak", "source": "survey"}}, {"type": "node", "id": 3247844249, "lat": 49.1043517, "lon": 13.5912785, "tags": {"tourism": "viewpoint"}}, {"type": "node", "id": 3247844250, "lat": 49.1037655, "lon": 13.543764, "tags": {"direction": "13", "source": "survey", "tourism": "viewpoint"}}, {"type": "node", "id": 3412904274, "lat": 49.1008179, "lon": 13.4792864, "tags": {"ele": "926", "name": "Sedelsk\u00fd vrch", "name:cs": "Sedelsk\u00fd vrch", "name:de": "Sattelberg", "natural": "peak"}}, {"type": "node", "id": 3412904275, "lat": 49.110193, "lon": 13.5848484, "tags": {"ele": "928.9", "name": "\u0160af\u00e1\u0159\u016fv vr\u0161ek", "natural": "peak"}}, {"type": "node", "id": 3420287343, "lat": 48.8810229, "lon": 13.6709816, "tags": {"ele": "997", "name:cs": "P\u0159edn\u00ed kopec", "name:de": "Vorderscheibling", "natural": "peak"}}, {"type": "node", "id": 3420287344, "lat": 48.8892309, "lon": 13.6944712, "tags": {"ele": "998", "name": "Silnick\u00e1 hora", "name:cs": "Silnick\u00e1 hora", "natural": "peak"}}, {"type": "node", "id": 3420287345, "lat": 48.9061185, "lon": 13.6941972, "tags": {"ele": "1029", "name": "L\u00edskov\u00fd vrch", "natural": "peak", "source": "\u010c\u00daZK"}}, {"type": "node", "id": 3420287346, "lat": 48.9081607, "lon": 13.6495549, "tags": {"ele": "963", "name": "Pomezn\u00ed str\u00e1\u0148", "natural": "peak", "source": "\u010c\u00daZK"}}, {"type": "node", "id": 3420287347, "lat": 48.9290161, "lon": 13.6470304, "tags": {"ele": "1062", "name": "Stod\u016fleck\u00e1 hora", "name:de": "Scheurecker Berg", "natural": "peak", "source": "\u010c\u00daZK"}}, {"type": "node", "id": 3420287348, "lat": 48.9345124, "lon": 13.6885499, "tags": {"ele": "1022", "name": "Kohout\u00ed vrch", "name:cs": "Kohout\u00ed vrch", "natural": "peak", "source": "\u010c\u00daZK"}}, {"type": "node", "id": 3450921529, "lat": 48.8818136, "lon": 13.8817649, "tags": {"ele": "770", "name": "Nad \u0158ekou", "name:cs": "Nad \u0158ekou", "natural": "peak"}}, {"type": "node", "id": 3452208035, "lat": 48.8524397, "lon": 13.8396307, "tags": {"ele": "874", "name": "Na Vrchu", "name:cs": "Na Vrchu", "natural": "peak"}}, {"type": "node", "id": 3452208036, "lat": 48.8428095, "lon": 13.8184318, "tags": {"ele": "876", "name": "Ohradec", "name:cs": "Ohradec", "natural": "peak"}}, {"type": "node", "id": 3452208037, "lat": 48.8340885, "lon": 13.8513681, "tags": {"ele": "897", "name": "Jelen\u00ed vrch", "name:cs": "Jelen\u00ed vrch", "natural": "peak"}}, {"type": "node", "id": 3452208038, "lat": 48.8395536, "lon": 13.8481536, "tags": {"ele": "937", "name": "Vrchovi\u0161t\u011b", "name:cs": "Vrchovi\u0161t\u011b", "name:de": "Ferchenberg", "natural": "peak"}}, {"type": "node", "id": 3452208039, "lat": 48.851278, "lon": 13.876026, "tags": {"ele": "818", "name": "Sp\u00e1len\u00fd", "natural": "peak"}}, {"type": "node", "id": 3452208040, "lat": 48.8396391, "lon": 13.8881358, "tags": {"ele": "970", "name": "Bor", "natural": "peak"}}, {"type": "node", "id": 3452208041, "lat": 48.8148682, "lon": 13.8446214, "tags": {"ele": "1033", "name": "V\u00e1clavova hora", "name:de": "Forstwenzelberg", "natural": "peak"}}, {"type": "node", "id": 3452208042, "lat": 48.8179489, "lon": 13.8123902, "tags": {"ele": "978", "name": "Kamenn\u00e1", "name:cs": "Kamenn\u00e1", "name:de": "Steinkopf", "natural": "peak"}}, {"type": "node", "id": 3452208044, "lat": 48.781633, "lon": 13.8937, "tags": {"ele": "993", "name": "Kobyl\u00ed hlava", "name:cs": "Kobyl\u00ed hlava", "natural": "peak"}}, {"type": "node", "id": 3452208045, "lat": 48.7969313, "lon": 13.8941815, "tags": {"ele": "822", "name": "Mazn\u00edk", "natural": "peak"}}, {"type": "node", "id": 3452208046, "lat": 48.7941113, "lon": 13.9282885, "tags": {"ele": "826", "name": "Hajn\u00fd vrch", "name:cs": "Hajn\u00fd vrch", "name:de": "Hegerberg", "natural": "peak"}}, {"type": "node", "id": 3452208047, "lat": 48.8031007, "lon": 13.9281812, "tags": {"ele": "842", "name": "Ovesn\u00fd vrch", "name:cs": "Ovesn\u00fd vrch", "name:de": "Wahlberg", "natural": "peak"}}, {"type": "node", "id": 3452208049, "lat": 48.7427445, "lon": 13.9427617, "tags": {"ele": "1124", "name": "Bul\u00edk", "name:de": "Osenberg", "natural": "peak"}}, {"type": "node", "id": 3452208051, "lat": 48.7204249, "lon": 13.9610061, "tags": {"ele": "1014", "name": "Tokani\u0161t\u011b", "name:de": "Partlberg", "natural": "peak"}}, {"type": "node", "id": 3524996008, "lat": 49.0908274, "lon": 13.3565999, "tags": {"ele": "1102.2", "name": "Horn\u00ed \u017dd\u00e1nidla", "name:cs": "Horn\u00ed \u017dd\u00e1nidla", "name:de": "Obersteindlberg", "natural": "peak"}}, {"type": "node", "id": 3588572929, "lat": 49.1304068, "lon": 13.2886286, "tags": {"ele": "1295", "name": "Polom", "name:de": "Fallbaum", "natural": "peak", "wikidata": "Q23824268"}}, {"type": "node", "id": 3604478415, "lat": 48.7760088, "lon": 13.8714839, "tags": {"name": "vyhl\u00eddka do d\u00e1lky \"Ko\u0148sk\u00fd vrch\"", "name:en": "Distant view to Ko\u0148sk\u00fd vrch", "note": "Aussicht zum Ko\u0148sk\u00fd vrch", "tourism": "viewpoint"}}, {"type": "node", "id": 3606570108, "lat": 48.8414818, "lon": 13.8697757, "tags": {"name": "Rudolfstein", "name:cs": "Rudolf\u016fv k\u00e1men", "name:de": "Rudolfstein", "natural": "peak"}}, {"type": "node", "id": 3606704511, "lat": 48.7798752, "lon": 13.8390925, "tags": {"ele": "1285", "name": "Pta\u010d\u00ed sk\u00e1la", "name:cs": "Pta\u010d\u00ed sk\u00e1la", "name:de": "Vogelfelsen", "natural": "peak"}}, {"type": "node", "id": 3606706493, "lat": 48.7885612, "lon": 13.8263963, "tags": {"ele": "1103", "name": "Sp\u00e1lenec", "natural": "peak"}}, {"type": "node", "id": 3606706494, "lat": 48.7900703, "lon": 13.8331447, "tags": {"ele": "1140", "natural": "peak"}}, {"type": "node", "id": 3614628230, "lat": 48.7777382, "lon": 13.8584352, "tags": {"name": "V\u00fdhled na Ple\u0161n\u00e9 jezero", "name:de": "Seeblick", "tourism": "viewpoint"}}, {"type": "node", "id": 3638372897, "lat": 49.0874312, "lon": 13.5195057, "tags": {"tourism": "viewpoint"}}, {"type": "node", "id": 3675420656, "lat": 48.9714002, "lon": 13.4818646, "tags": {"amenity": "shelter", "name": "B\u0159ezn\u00edk"}}, {"type": "node", "id": 3675429127, "lat": 48.9674375, "lon": 13.4837096}, {"type": "node", "id": 3675429128, "lat": 48.9674631, "lon": 13.4837521}, {"type": "node", "id": 3675429129, "lat": 48.9674449, "lon": 13.4837775}, {"type": "node", "id": 3675429130, "lat": 48.9674193, "lon": 13.4837351}, {"type": "node", "id": 3678813666, "lat": 49.0239002, "lon": 13.4983712}, {"type": "node", "id": 3678813668, "lat": 49.0238176, "lon": 13.498372}, {"type": "node", "id": 3678813670, "lat": 49.0239009, "lon": 13.4984226}, {"type": "node", "id": 3678813671, "lat": 49.0238186, "lon": 13.4984234}, {"type": "node", "id": 3678818829, "lat": 49.0238181, "lon": 13.4983962, "tags": {"amenity": "post_box", "check_date:collection_times": "2022-09-09", "collection_times": "Mo-Fr 08:00", "operator": "\u010cesk\u00e1 po\u0161ta, s.p.", "operator:wikidata": "Q341090", "post_box:type": "wall", "ref": "34200:119"}}, {"type": "node", "id": 3678984580, "lat": 48.9903459, "lon": 13.6602488, "tags": {"amenity": "shelter", "shelter_type": "public_transport"}}, {"type": "node", "id": 3679010689, "lat": 49.0254208, "lon": 13.653015, "tags": {"amenity": "shelter", "shelter_type": "public_transport"}}, {"type": "node", "id": 3967869664, "lat": 49.0292333, "lon": 13.5862517, "tags": {"tourism": "viewpoint"}}, {"type": "node", "id": 3967869665, "lat": 49.0294144, "lon": 13.5880139, "tags": {"tourism": "viewpoint"}}, {"type": "node", "id": 4073251644, "lat": 49.1540531, "lon": 13.4305931, "tags": {"direction": "45", "tourism": "viewpoint"}}, {"type": "node", "id": 4087071130, "lat": 49.1579394, "lon": 13.4175951, "tags": {"tourism": "viewpoint"}}, {"type": "node", "id": 4173304201, "lat": 49.0701298, "lon": 13.4908067, "tags": {"noexit": "yes", "tourism": "viewpoint"}}, {"type": "node", "id": 4214850566, "lat": 48.7778158, "lon": 13.8673784}, {"type": "node", "id": 4214850567, "lat": 48.7778441, "lon": 13.867472}, {"type": "node", "id": 4214850568, "lat": 48.7778521, "lon": 13.8673531}, {"type": "node", "id": 4214850569, "lat": 48.7778804, "lon": 13.8674467}, {"type": "node", "id": 4214850575, "lat": 48.8009037, "lon": 13.861294}, {"type": "node", "id": 4214850576, "lat": 48.8009087, "lon": 13.8613404}, {"type": "node", "id": 4214850577, "lat": 48.8009402, "lon": 13.861285}, {"type": "node", "id": 4214850578, "lat": 48.8009451, "lon": 13.8613314}, {"type": "node", "id": 4284000376, "lat": 49.0237699, "lon": 13.4938402, "tags": {"amenity": "shelter"}}, {"type": "node", "id": 4286585108, "lat": 48.9724768, "lon": 13.5819784, "tags": {"tourism": "viewpoint"}}, {"type": "node", "id": 4286585109, "lat": 48.975911, "lon": 13.5799125, "tags": {"tourism": "viewpoint"}}, {"type": "node", "id": 4356502419, "lat": 49.0884854, "lon": 13.3519653}, {"type": "node", "id": 4356502420, "lat": 49.088511, "lon": 13.3520276}, {"type": "node", "id": 4356502421, "lat": 49.0884878, "lon": 13.35205}, {"type": "node", "id": 4356502422, "lat": 49.0884621, "lon": 13.3519876}, {"type": "node", "id": 4393348047, "lat": 49.1042718, "lon": 13.3791261, "tags": {"addr:city": "Pr\u00e1\u0161ily", "addr:conscriptionnumber": "100", "addr:country": "CZ", "addr:housenumber": "100", "addr:place": "Pr\u00e1\u0161ily", "addr:postcode": "34201", "name": "Chata K\u010cT Pr\u00e1\u0161ily", "phone": "+420 607 531 351", "source:addr": "cuzk:ruian", "tourism": "alpine_hut", "website": "http://www.ubytovnaprasily.cz/"}}, {"type": "node", "id": 4403428048, "lat": 48.8696243, "lon": 13.8220725, "tags": {"amenity": "shelter", "name": "Pod Sto\u017eeckou kapl\u00ed", "shelter_type": "picnic_shelter"}}, {"type": "node", "id": 4403505146, "lat": 48.8739694, "lon": 13.8216647, "tags": {"ele": "981", "natural": "peak"}}, {"type": "node", "id": 4403524895, "lat": 48.8735022, "lon": 13.8212674, "tags": {"ele": "974", "name": "Sto\u017eeck\u00e1 sk\u00e1la", "tourism": "viewpoint"}}, {"type": "node", "id": 4403535048, "lat": 48.8775921, "lon": 13.8613011}, {"type": "node", "id": 4403535049, "lat": 48.8775642, "lon": 13.8613481}, {"type": "node", "id": 4403535050, "lat": 48.8775597, "lon": 13.8613101}, {"type": "node", "id": 4403535051, "lat": 48.8775967, "lon": 13.861339}, {"type": "node", "id": 4403850604, "lat": 49.0836736, "lon": 13.4050365, "tags": {"amenity": "shelter", "shelter_type": "picnic_shelter"}}, {"type": "node", "id": 4418670552, "lat": 49.064097, "lon": 13.3951818}, {"type": "node", "id": 4421621512, "lat": 49.117641, "lon": 13.3028249}, {"type": "node", "id": 4421621513, "lat": 49.1176113, "lon": 13.3028901}, {"type": "node", "id": 4421621514, "lat": 49.117652, "lon": 13.3028606}, {"type": "node", "id": 4421621515, "lat": 49.1176002, "lon": 13.3028544}, {"type": "node", "id": 4431668122, "lat": 48.9674747, "lon": 13.4500843, "tags": {"ele": "1367", "name": "Blatn\u00fd vrch", "natural": "peak"}}, {"type": "node", "id": 4433694403, "lat": 49.0493113, "lon": 13.4789826, "tags": {"ele": "1027.9", "name": "V\u00fdb\u011b\u017eek", "natural": "peak", "source": "cuzk:km"}}, {"type": "node", "id": 4434098595, "lat": 49.0640831, "lon": 13.3951528, "tags": {"entrance": "yes"}}, {"type": "node", "id": 4434098605, "lat": 49.0643182, "lon": 13.3946905, "tags": {"tourism": "viewpoint"}}, {"type": "node", "id": 4678217342, "lat": 49.0682836, "lon": 13.4950846, "tags": {"direction": "240-270", "tourism": "viewpoint"}}, {"type": "node", "id": 4910703331, "lat": 49.144419, "lon": 13.3982552, "tags": {"name": "Kremelna", "name:cs": "Kremelna", "name:en": "Kremelna River", "tourism": "viewpoint"}}, {"type": "node", "id": 4910703332, "lat": 49.1179309, "lon": 13.501199, "tags": {"name": "Draci skaly", "name:cs": "Draci skaly", "tourism": "viewpoint"}}, {"type": "node", "id": 4910703527, "lat": 49.1581597, "lon": 13.4024768, "tags": {"name": "Kosatce Skelna", "name:cs": "Kosatce Skelna", "name:en": "Iris meadow by Skelna", "tourism": "viewpoint"}}, {"type": "node", "id": 4953628693, "lat": 49.0321965, "lon": 13.5276058, "tags": {"tourism": "viewpoint"}}, {"type": "node", "id": 5059541545, "lat": 48.9710771, "lon": 13.5973111, "tags": {"direction": "S", "tourism": "viewpoint"}}, {"type": "node", "id": 5193209329, "lat": 48.8144911, "lon": 13.8847272, "tags": {"name": "Znak 1833", "tourism": "attraction"}}, {"type": "node", "id": 5193367036, "lat": 48.8009791, "lon": 13.9000292, "tags": {"name": "Hir\u0161persk\u00e1 celnice", "note": "Spolek Svobodn\u00fd Hir\u0161perk", "tourism": "attraction"}}, {"type": "node", "id": 5422588915, "lat": 49.0142094, "lon": 13.5839517, "tags": {"amenity": "shelter", "bench": "yes", "shelter_type": "public_transport"}}, {"type": "node", "id": 5591332543, "lat": 49.104169, "lon": 13.5032186, "tags": {"tourism": "viewpoint"}}, {"type": "node", "id": 5591332566, "lat": 49.1079778, "lon": 13.5448657, "tags": {"direction": "11", "tourism": "viewpoint"}}, {"type": "node", "id": 5669650413, "lat": 49.0222011, "lon": 13.5820051, "tags": {"amenity": "shelter", "shelter_type": "picnic_shelter"}}, {"type": "node", "id": 5680021579, "lat": 49.0140305, "lon": 13.5789142, "tags": {"amenity": "shelter", "bench": "yes", "shelter_type": "public_transport"}}, {"type": "node", "id": 5904679869, "lat": 48.7919768, "lon": 13.9332443, "tags": {"amenity": "shelter", "shelter_type": "picnic_shelter"}}, {"type": "node", "id": 5904680621, "lat": 48.9263188, "lon": 13.6441347, "tags": {"amenity": "shelter", "shelter_type": "picnic_shelter"}}, {"type": "node", "id": 6026614994, "lat": 49.0419693, "lon": 13.4707372, "tags": {"ele": "1070", "natural": "peak"}}, {"type": "node", "id": 6109168069, "lat": 48.9713438, "lon": 13.5967203}, {"type": "node", "id": 6109168070, "lat": 48.9712977, "lon": 13.5967162}, {"type": "node", "id": 6109168071, "lat": 48.9712956, "lon": 13.5967696}, {"type": "node", "id": 6109168072, "lat": 48.9713418, "lon": 13.5967738}, {"type": "node", "id": 6227653327, "lat": 49.1367796, "lon": 13.4606101, "tags": {"tourism": "viewpoint"}}, {"type": "node", "id": 6301520067, "lat": 48.9913838, "lon": 13.6611724, "tags": {"amenity": "shelter"}}, {"type": "node", "id": 6453121642, "lat": 48.8667941, "lon": 13.7651278, "tags": {"direction": "180-320", "name:de": "Aussichtsplattform", "tourism": "viewpoint"}}, {"type": "node", "id": 6592105266, "lat": 48.8967389, "lon": 13.7145895, "tags": {"natural": "cave_entrance"}}, {"type": "node", "id": 6735244477, "lat": 49.0640258, "lon": 13.3947787}, {"type": "node", "id": 6735244481, "lat": 49.0638727, "lon": 13.3945562}, {"type": "node", "id": 6735244483, "lat": 49.0641204, "lon": 13.3950516}, {"type": "node", "id": 6735264886, "lat": 49.0640649, "lon": 13.3951161}, {"type": "node", "id": 6807893574, "lat": 48.8626028, "lon": 13.8341143, "tags": {"amenity": "shelter"}}, {"type": "node", "id": 6871470760, "lat": 49.1020478, "lon": 13.4316138, "tags": {"tourism": "viewpoint"}}, {"type": "node", "id": 7098631577, "lat": 49.0184228, "lon": 13.4876873, "tags": {"ele": "1101", "natural": "peak", "source": "\u010c\u00daZK"}}, {"type": "node", "id": 7098647125, "lat": 49.0098798, "lon": 13.4599822, "tags": {"ele": "1110", "natural": "peak", "source": "\u010c\u00daZK"}}, {"type": "node", "id": 7104759619, "lat": 49.0820904, "lon": 13.5153373}, {"type": "node", "id": 7104759625, "lat": 49.082194, "lon": 13.5153172}, {"type": "node", "id": 7104759626, "lat": 49.0821796, "lon": 13.5153431}, {"type": "node", "id": 7119713175, "lat": 49.1097906, "lon": 13.4926456}, {"type": "node", "id": 7119713176, "lat": 49.1097779, "lon": 13.4926228}, {"type": "node", "id": 7119713177, "lat": 49.109752, "lon": 13.4926328}, {"type": "node", "id": 7119713178, "lat": 49.1097572, "lon": 13.4926619}, {"type": "node", "id": 7119713179, "lat": 49.109753, "lon": 13.4926646}, {"type": "node", "id": 7119713180, "lat": 49.1097629, "lon": 13.4927148}, {"type": "node", "id": 7119713181, "lat": 49.1097986, "lon": 13.4927023}, {"type": "node", "id": 7391645085, "lat": 48.9746764, "lon": 13.560824, "tags": {"description": "Byl z\u0159\u00edzen v r.1943 u chaty K\u010cST pro rusk\u00e9 zajatce se vzd\u011bl\u00e1n\u00edm pro d\u016fln\u00ed \u010dinnost, pot\u0159ebnou pro stavbu bl\u00edzk\u00e9 podzemn\u00ed tov\u00e1rny. Turistick\u00e1 chata existovala v letech 30.6.1923 - 1953.", "name": "Zajateck\u00fd t\u00e1bor, Prameny Vltavy", "note": "http://www.veteranarmy.cz/data/pdf/Tajemstvi_Frantiskova.pdf", "tourism": "attraction", "website": "http://www.lipno-online.cz/2009040011-chata-u-pramene-vltavy-za-2-svetove-valky", "wikidata": "Q12046833", "wikipedia": "cs:Pramen Vltavy"}}, {"type": "node", "id": 7391908696, "lat": 48.9806336, "lon": 13.595983, "tags": {"ele": "1233", "natural": "peak", "source": "\u010c\u00daZK"}}, {"type": "node", "id": 7391908697, "lat": 48.9872666, "lon": 13.6066333, "tags": {"ele": "1252", "name": "Vysok\u00fd stolec", "natural": "peak", "source": "\u010c\u00daZK"}}, {"type": "node", "id": 7391908698, "lat": 48.9991501, "lon": 13.6051498, "tags": {"ele": "1160", "name": "Stanov\u00e1 hora", "natural": "peak", "source": "\u010c\u00daZK"}}, {"type": "node", "id": 7392239223, "lat": 49.0020121, "lon": 13.6195816, "tags": {"description": "U osady Franti\u0161kov byla vybudov\u00e1na za druh\u00e9 sv\u011btov\u00e9 v\u00e1lky podzemn\u00ed tov\u00e1rna, kde se montovali \u010d\u00e1sti trup\u016f a motory do st\u00edha\u010dek Messerschmitt ME - 262.", "name": "Podzemn\u00ed tov\u00e1rna", "tourism": "attraction", "website": "https://www.idnes.cz/zpravy/domaci/na-sumave-hledaji-nadsenci-podzemni-tovarnu-naciste-v-ni-vyrabeli-stihacky.A110124_104245_budejovice-zpravy_pp", "wikidata": "Q12017750", "wikipedia": "cs:Franti\u0161kov (Kvilda)"}}, {"type": "node", "id": 7647306354, "lat": 49.0821133, "lon": 13.5152123}, {"type": "node", "id": 7647306358, "lat": 49.082073, "lon": 13.5152848}, {"type": "node", "id": 7648638029, "lat": 49.041565, "lon": 13.5059396}, {"type": "node", "id": 7648638030, "lat": 49.0415339, "lon": 13.5060506}, {"type": "node", "id": 7648638031, "lat": 49.0413261, "lon": 13.5059347}, {"type": "node", "id": 7648638032, "lat": 49.0413523, "lon": 13.505826}, {"type": "node", "id": 7689170176, "lat": 48.9150064, "lon": 13.7987412, "tags": {"ele": "775", "name": "Hajn\u00fdho vyhl\u00eddka u M\u00e1jky", "tourism": "viewpoint"}}, {"type": "node", "id": 7700351779, "lat": 48.8791285, "lon": 13.7509692, "tags": {"natural": "peak"}}, {"type": "node", "id": 7700416866, "lat": 48.8809393, "lon": 13.7500384, "tags": {"natural": "peak"}}, {"type": "node", "id": 7773745925, "lat": 48.9695427, "lon": 13.5074488, "tags": {"ele": "1331", "name": "Mal\u00e1 Mokr\u016fvka", "name:de": "Moorkopf", "natural": "peak", "source": "\u010c\u00daZK", "wikidata": "Q12035052"}}, {"type": "node", "id": 8042561012, "lat": 49.1499376, "lon": 13.4151177, "tags": {"tourism": "viewpoint"}}, {"type": "node", "id": 8042561014, "lat": 49.1501433, "lon": 13.4150572, "tags": {"ele": "923.3", "natural": "peak"}}, {"type": "node", "id": 8069275406, "lat": 49.1387732, "lon": 13.4226071, "tags": {"ele": "957.5", "natural": "peak"}}, {"type": "node", "id": 8069275407, "lat": 49.1369076, "lon": 13.4162431, "tags": {"ele": "907", "natural": "peak"}}, {"type": "node", "id": 8069316093, "lat": 49.1387194, "lon": 13.4225169, "tags": {"name": "Skaln\u00ed \u00fatvary", "reservation": "no", "tourism": "attraction"}}, {"type": "node", "id": 8707540336, "lat": 48.7795197, "lon": 13.9048627}, {"type": "node", "id": 8943771360, "lat": 49.0285923, "lon": 13.5873616, "tags": {"tourism": "viewpoint"}}, {"type": "node", "id": 8943771370, "lat": 49.0299808, "lon": 13.5842676, "tags": {"tourism": "viewpoint"}}, {"type": "node", "id": 9350086943, "lat": 49.0700264, "lon": 13.4042643, "tags": {"ele": "1118.6", "natural": "peak"}}, {"type": "node", "id": 9350086945, "lat": 49.1040136, "lon": 13.3470931, "tags": {"ele": "1308", "name": "\u017dd\u00e1nidla", "name:cs": "\u017dd\u00e1nidla", "name:de": "Steindlberg", "natural": "peak", "source": "\u010c\u00daZK", "wikidata": "Q10271521"}}, {"type": "node", "id": 9532882552, "lat": 48.9888772, "lon": 13.45691, "tags": {"ele": "1203", "natural": "peak", "source": "\u010c\u00daZK"}}, {"type": "node", "id": 9532882553, "lat": 48.9927499, "lon": 13.456372, "tags": {"ele": "1188", "natural": "peak", "source": "\u010c\u00daZK"}}, {"type": "node", "id": 9532882554, "lat": 49.0072824, "lon": 13.4188336, "tags": {"ele": "1137", "name": "Medv\u011bd", "natural": "peak", "source": "\u010c\u00daZK"}}, {"type": "node", "id": 9532882555, "lat": 49.0447796, "lon": 13.4154893, "tags": {"ele": "1139", "name": "Javo\u0159\u00ed", "natural": "peak", "source": "\u010c\u00daZK"}}, {"type": "node", "id": 9532882556, "lat": 49.0261675, "lon": 13.4701511, "tags": {"ele": "1052", "natural": "peak", "source": "\u010c\u00daZK"}}, {"type": "node", "id": 9532882557, "lat": 48.9999773, "lon": 13.5833824, "tags": {"ele": "1149", "name": "Gabreta", "natural": "peak", "source": "\u010c\u00daZK"}}, {"type": "node", "id": 9687569630, "lat": 48.9041194, "lon": 13.8206331, "tags": {"historic": "yes", "name": "Wallernschanze", "tourism": "attraction"}}, {"type": "node", "id": 9689622940, "lat": 48.7650785, "lon": 13.8799413, "tags": {"ele": "1054", "name": "Steinwand", "name:de": "Steinwand", "natural": "peak"}}, {"type": "node", "id": 9813129987, "lat": 48.9053811, "lon": 13.8253695}, {"type": "node", "id": 9813129988, "lat": 48.9053311, "lon": 13.8253485}, {"type": "node", "id": 9813129989, "lat": 48.9053379, "lon": 13.8253108}, {"type": "node", "id": 9813129990, "lat": 48.9053085, "lon": 13.8252986}, {"type": "node", "id": 9813129991, "lat": 48.905291, "lon": 13.8253956}, {"type": "node", "id": 9813129992, "lat": 48.9053704, "lon": 13.8254288}, {"type": "node", "id": 9813130014, "lat": 48.8520847, "lon": 13.9207196}, {"type": "node", "id": 9813130015, "lat": 48.8520507, "lon": 13.9206535}, {"type": "node", "id": 9813130016, "lat": 48.8520141, "lon": 13.920697}, {"type": "node", "id": 9813149117, "lat": 48.8520482, "lon": 13.9207631}, {"type": "node", "id": 9924183963, "lat": 49.086951, "lon": 13.4804308}, {"type": "node", "id": 9954358935, "lat": 49.1053486, "lon": 13.3794793, "tags": {"amenity": "shelter", "information": "board", "shelter_type": "weather_shelter", "tourism": "information"}}, {"type": "node", "id": 10013326890, "lat": 49.0377815, "lon": 13.5232969, "tags": {"ele": "1177", "name": "Jelen\u00ed vrch", "natural": "peak", "source": "\u010c\u00daZK"}}, {"type": "node", "id": 10135382585, "lat": 49.1382833, "lon": 13.5062001, "tags": {"natural": "cave_entrance"}}, {"type": "node", "id": 10135657790, "lat": 49.137649, "lon": 13.4999735, "tags": {"ele": "747", "name": "Babylon", "natural": "peak"}}, {"type": "node", "id": 10180205361, "lat": 48.7260648, "lon": 13.9761606, "tags": {"ele": "920", "name": "Kronberg", "name:de": "Kronberg", "natural": "peak"}}, {"type": "node", "id": 10429642663, "lat": 49.0763337, "lon": 13.4031966, "tags": {"amenity": "shelter"}}, {"type": "node", "id": 11072690674, "lat": 49.080559, "lon": 13.4602026, "tags": {"name": "Miniatura Hauswaldsk\u00e9 kaple", "opening_hours": "24/7", "reservation": "no", "tourism": "attraction"}}, {"type": "node", "id": 11374855506, "lat": 49.0290052, "lon": 13.4962295, "tags": {"amenity": "shelter", "shelter_type": "picnic_shelter"}}, {"type": "node", "id": 11764722634, "lat": 49.1014514, "lon": 13.4832843, "tags": {"tourism": "viewpoint"}}, {"type": "node", "id": 12043117414, "lat": 49.1511766, "lon": 13.4241467, "tags": {"direction": "247-45", "tourism": "viewpoint"}}, {"type": "node", "id": 12095815834, "lat": 49.023147, "lon": 13.5807605}, {"type": "node", "id": 12095815835, "lat": 49.0231516, "lon": 13.5807938}, {"type": "node", "id": 12095815836, "lat": 49.0231685, "lon": 13.5807884}, {"type": "node", "id": 12095815837, "lat": 49.0231639, "lon": 13.5807551}, {"type": "node", "id": 12107918183, "lat": 49.0869417, "lon": 13.4805428}, {"type": "node", "id": 12107918184, "lat": 49.0869851, "lon": 13.4804825}, {"type": "node", "id": 12137010486, "lat": 48.9208485, "lon": 13.709302, "tags": {"tourism": "viewpoint"}}, {"type": "node", "id": 12137064598, "lat": 48.9118407, "lon": 13.7176214, "tags": {"amenity": "shelter", "shelter_type": "picnic_shelter"}}, {"type": "node", "id": 12137064652, "lat": 48.9130686, "lon": 13.714675, "tags": {"amenity": "shelter", "shelter_type": "picnic_shelter"}}, {"type": "node", "id": 12190062953, "lat": 49.0218029, "lon": 13.6352653, "tags": {"ele": "1134", "name": "Zv\u011b\u0159\u00edn", "name:de": "Thierberg", "natural": "peak", "source": "\u010c\u00daZK"}}, {"type": "node", "id": 12190062954, "lat": 49.0097525, "lon": 13.6262724, "tags": {"ele": "1113", "name": "Jansk\u00e1 hora", "name:de": "Martin-Lutherberg", "natural": "peak", "source": "\u010c\u00daZK"}}, {"type": "node", "id": 12190062955, "lat": 49.0649623, "lon": 13.5268243, "tags": {"ele": "1117", "name": "Li\u0161\u00e1k", "natural": "peak", "source": "\u010c\u00daZK"}}, {"type": "node", "id": 12190062958, "lat": 48.9070136, "lon": 13.6901242, "tags": {"ele": "1051", "natural": "peak", "source": "\u010c\u00daZK"}}, {"type": "node", "id": 12232709163, "lat": 48.8118459, "lon": 13.958203, "tags": {"tourism": "viewpoint"}}, {"type": "node", "id": 12232709176, "lat": 48.8210399, "lon": 13.9531213, "tags": {"tourism": "viewpoint"}}, {"type": "node", "id": 12248628863, "lat": 48.818087, "lon": 13.8744225, "tags": {"name:de": "Lichtloch", "tourism": "attraction"}}, {"type": "node", "id": 12248628864, "lat": 48.8171757, "lon": 13.8760987, "tags": {"name:de": "Lichtloch", "tourism": "attraction"}}, {"type": "node", "id": 12264986240, "lat": 49.1700274, "lon": 13.3219328, "tags": {"ele": "996", "name": "Na vyhl\u00eddce", "natural": "peak", "source": "\u010c\u00daZK"}}, {"type": "node", "id": 12280470533, "lat": 48.9073837, "lon": 13.6780834, "tags": {"description": "Views of Mitterdorf", "direction": "forward", "tourism": "viewpoint"}}, {"type": "node", "id": 12402284350, "lat": 49.1753224, "lon": 13.3538025, "tags": {"ele": "984", "natural": "peak"}}, {"type": "node", "id": 12402379916, "lat": 49.1671305, "lon": 13.343135, "tags": {"ele": "980", "natural": "peak"}}, {"type": "node", "id": 12402578741, "lat": 49.0770093, "lon": 13.5073778, "tags": {"ele": "960", "name": "B\u00e1ba", "natural": "peak"}}, {"type": "node", "id": 12402578748, "lat": 49.0755689, "lon": 13.5072054, "tags": {"ele": "941", "natural": "peak"}}, {"type": "node", "id": 12680405058, "lat": 49.1097574, "lon": 13.4926868}, {"type": "node", "id": 12736368038, "lat": 49.0642025, "lon": 13.3951446}, {"type": "node", "id": 12736368039, "lat": 49.0640982, "lon": 13.3952619}, {"type": "node", "id": 12736368040, "lat": 49.0639202, "lon": 13.3948931}, {"type": "node", "id": 12736368041, "lat": 49.0642511, "lon": 13.3952618}, {"type": "node", "id": 12736368042, "lat": 49.0643263, "lon": 13.3951575}, {"type": "node", "id": 12736368043, "lat": 49.0643745, "lon": 13.395021}, {"type": "node", "id": 12736368044, "lat": 49.0643901, "lon": 13.3948677}, {"type": "node", "id": 12736368045, "lat": 49.0643714, "lon": 13.3947153}, {"type": "node", "id": 12736368046, "lat": 49.0643205, "lon": 13.3945811}, {"type": "node", "id": 12736368047, "lat": 49.0640468, "lon": 13.3944203}, {"type": "node", "id": 12736368048, "lat": 49.0641623, "lon": 13.3953202}, {"type": "node", "id": 12736368049, "lat": 49.0639415, "lon": 13.3948691}, {"type": "node", "id": 12736368050, "lat": 49.064007, "lon": 13.3947998}, {"type": "node", "id": 12736368051, "lat": 49.0640599, "lon": 13.3949093}, {"type": "node", "id": 12736368052, "lat": 49.0639958, "lon": 13.3949814}, {"type": "node", "id": 12736368057, "lat": 49.0640177, "lon": 13.3948219}, {"type": "node", "id": 12736368058, "lat": 49.0639533, "lon": 13.3948934}, {"type": "node", "id": 12750098299, "lat": 48.9919373, "lon": 13.5819977}, {"type": "node", "id": 12750098300, "lat": 48.9919492, "lon": 13.5820432}, {"type": "node", "id": 12750105801, "lat": 48.9919757, "lon": 13.5820271}, {"type": "node", "id": 12750105802, "lat": 48.9919639, "lon": 13.5819817}, {"type": "node", "id": 12751720302, "lat": 49.0189893, "lon": 13.5789886}, {"type": "node", "id": 12751720303, "lat": 49.0190068, "lon": 13.5789822}, {"type": "node", "id": 12751720304, "lat": 49.0190026, "lon": 13.5789556}, {"type": "node", "id": 12751720305, "lat": 49.0189851, "lon": 13.5789619}, {"type": "node", "id": 12927973703, "lat": 49.1229967, "lon": 13.4550615, "tags": {"ele": "1084", "natural": "peak"}}, {"type": "node", "id": 13031855105, "lat": 49.1509245, "lon": 13.4243877, "tags": {"direction": "225-0", "tourism": "viewpoint"}}, {"type": "node", "id": 13042778091, "lat": 49.1420707, "lon": 13.5126727}, {"type": "node", "id": 13042778092, "lat": 49.142038, "lon": 13.5127463}, {"type": "node", "id": 13042778093, "lat": 49.1419894, "lon": 13.5126958}, {"type": "node", "id": 13042778094, "lat": 49.1420221, "lon": 13.5126222}, {"type": "node", "id": 13059392632, "lat": 49.019004, "lon": 13.5789126, "tags": {"amenity": "shelter", "shelter_type": "gazebo"}}, {"type": "node", "id": 13128292305, "lat": 49.0245247, "lon": 13.498432}, {"type": "node", "id": 13128292306, "lat": 49.0245253, "lon": 13.4984717}, {"type": "node", "id": 13128292307, "lat": 49.0244878, "lon": 13.4984731}, {"type": "node", "id": 13128292308, "lat": 49.0244872, "lon": 13.4984334}, {"type": "node", "id": 13128292321, "lat": 49.0252899, "lon": 13.4985959}, {"type": "node", "id": 13128292322, "lat": 49.0252912, "lon": 13.4986224}, {"type": "node", "id": 13128292323, "lat": 49.0252542, "lon": 13.4986266}, {"type": "node", "id": 13128292324, "lat": 49.0252529, "lon": 13.4986002}, {"type": "node", "id": 13352796664, "lat": 48.8565778, "lon": 13.7731151, "tags": {"ele": "1026", "name": "Kapra\u010f", "natural": "peak"}}, {"type": "node", "id": 13352796689, "lat": 48.856503, "lon": 13.7944368, "tags": {"ele": "873", "name": "Tok", "natural": "peak"}}, {"type": "node", "id": 13352831752, "lat": 48.8749329, "lon": 13.8527492, "tags": {"ele": "858", "name": "Sto\u017ee\u010dek", "natural": "peak"}}, {"type": "node", "id": 13352831765, "lat": 48.8777603, "lon": 13.7925016, "tags": {"ele": "955", "name": "Sp\u00e1leni\u0161t\u011b", "natural": "peak", "source": "CUZK"}}, {"type": "node", "id": 13352831767, "lat": 48.8944438, "lon": 13.7848991, "tags": {"ele": "1012", "name": "Radvansk\u00fd vrch", "natural": "peak", "source": "CUZK"}}, {"type": "node", "id": 13352844912, "lat": 48.9024423, "lon": 13.7572384, "tags": {"ele": "897", "name": "Hamersk\u00fd les", "natural": "peak", "source": "CUZK"}}, {"type": "node", "id": 13352857777, "lat": 48.8339936, "lon": 13.8327609, "tags": {"ele": "966", "natural": "peak"}}, {"type": "way", "id": 127449837, "nodes": [1410591397, 1410591398, 1410591393, 1410591396, 2257650581, 7119713181, 7119713180, 12680405058, 7119713179, 7119713178, 7119713177, 7119713176, 1410591377, 7119713175, 1410591376, 1410591397], "tags": {"building": "industrial", "building:ruian:type": "16", "frequency": "50", "generator:method": "run-of-the-river", "generator:output:electricity": "100 kW", "generator:source": "hydro", "generator:type": "francis_turbine", "name": "\u010ce\u0148kova Pila", "name:de": "Vinzenzs\u00e4ge", "operator": "\u010cEZ", "operator:wikidata": "Q336735", "power": "generator", "ref:ruian:building": "45159297", "source": "cuzk:ruian", "start_date": "1912", "tourism": "attraction", "wikidata": "Q55443517"}}, {"type": "way", "id": 178494808, "nodes": [1888416842, 1888416786, 1888416839, 1888416878, 1888416842], "tags": {"amenity": "shelter", "name": "by Jezern\u00ed potok - byStara Hurka"}}, {"type": "way", "id": 186522982, "nodes": [12736368048, 12736368041, 12736368042, 12736368043, 12736368044, 12736368045, 12736368046, 1972462113, 1972462109, 12736368047, 1972462111, 6735244481, 1972462118, 1972462119, 1972462104, 1972462114, 283596133, 1972462121, 1972462115, 12736368048], "tags": {"name": "Poledn\u00edk", "name:de": "Mittagsberg", "source": "survey;cuzk:km", "tourism": "attraction"}}, {"type": "way", "id": 189149561, "nodes": [1998018618, 1998018582, 1998018583, 1998018584, 1998018618], "tags": {"amenity": "shelter", "building": "yes", "shelter_type": "picnic_shelter"}}, {"type": "way", "id": 244504465, "nodes": [4418670552, 4434098595, 6735264886, 6735244483, 2518191743, 4418670552], "tags": {"building": "yes", "building:ruian:type": "19", "height": "37", "layer": "2", "man_made": "tower", "name": "Poledn\u00edk", "name:de": "Mittagsberg", "ref:ruian:building": "45148007", "source": "cuzk:ruian;cuzk:km", "tourism": "viewpoint", "tower:type": "observation", "website": "https://www.npsumava.cz/", "wikidata": "Q20948911", "wikipedia": "cs:Poledn\u00edk (rozhledna)"}}, {"type": "way", "id": 268823621, "nodes": [2741376533, 12751720303, 2741376530, 12751720302, 2741376528, 12751720305, 2741376532, 12751720304, 2741376533], "tags": {"amenity": "shelter", "bench": "yes", "shelter_type": "weather_shelter", "source": "survey", "survey:date": "2014-03-22"}}, {"type": "way", "id": 304161656, "nodes": [9924183963, 12107918184, 12107918183, 3086880619, 9924183963], "tags": {"amenity": "shelter", "building": "transportation", "building:ruian:type": "5", "ref:ruian:building": "42660017", "roof:shape": "skillion", "shelter_type": "public_transport", "source": "cuzk:ruian"}}, {"type": "way", "id": 363372222, "nodes": [3675429127, 3675429128, 3675429129, 3675429130, 3675429127], "tags": {"amenity": "shelter", "name": "B\u0159ezn\u00edk"}}, {"type": "way", "id": 363746151, "nodes": [3678813670, 3678813671, 3678818829, 3678813668, 3678813666, 3678813670], "tags": {"amenity": "shelter", "building": "roof", "shelter_type": "picnic_shelter"}}, {"type": "way", "id": 421733415, "nodes": [4214850568, 4214850569, 4214850567, 4214850566, 4214850568], "tags": {"amenity": "shelter", "building": "yes", "shelter_type": "weather_shelter"}}, {"type": "way", "id": 421733416, "nodes": [4214850577, 4214850578, 4214850576, 4214850575, 4214850577], "tags": {"amenity": "shelter", "building": "yes", "shelter_type": "picnic_shelter"}}, {"type": "way", "id": 437871325, "nodes": [4356502419, 4356502420, 4356502421, 4356502422, 4356502419], "tags": {"amenity": "shelter", "name": "Obersteindlberg", "shelter_type": "picnic_shelter"}}, {"type": "way", "id": 442683332, "nodes": [4403535048, 4403535051, 4403535049, 4403535050, 4403535048], "tags": {"amenity": "shelter", "building": "yes", "building:colour": "brown", "building:material": "wood", "shelter_type": "public_transport"}}, {"type": "way", "id": 444693548, "nodes": [4421621513, 4421621515, 4421621512, 4421621514, 4421621513], "tags": {"amenity": "shelter", "building": "roof", "horse": "no", "name": "Pod Polomem", "shelter_type": "picnic_shelter"}}, {"type": "way", "id": 651503357, "nodes": [6109168069, 6109168070, 6109168071, 6109168072, 6109168069], "tags": {"amenity": "shelter", "building": "yes", "picnic_table": "yes", "shelter_type": "public_transport"}}, {"type": "way", "id": 717141735, "nodes": [12736368038, 6735244477, 12736368050, 12736368057, 12736368051, 12736368052, 12736368058, 12736368049, 12736368040, 12736368039, 12736368038], "tags": {"amenity": "shelter", "building": "roof", "layer": "1"}}, {"type": "way", "id": 776607507, "nodes": [949000225, 948785651, 8707540336, 949109439], "tags": {"alt_name": "Schwarzenbersk\u00fd plavebn\u00ed kan\u00e1l", "bridge": "aqueduct", "dibavod:id": "400970100100", "layer": "1", "name": "Schwarzenbersk\u00fd kan\u00e1l", "name:de": "Schwarzenbergscher Schwemmkanal", "name:nl": "Schwarzenbergkanaal", "source": "dibavod", "tourism": "attraction", "waterway": "canal", "width": "0.8", "wikimedia_commons": "File:Akvadukt na Ko\u0148sk\u00e9m potoce - Aqu\u00e4dukt am Rossbach (Schwarzenberger Schwemmkanal).jpg"}}, {"type": "way", "id": 818872376, "nodes": [7104759625, 7104759626, 395379416, 7104759619, 395379419, 7647306358, 7647306354, 7104759625], "tags": {"amenity": "shelter", "building": "yes"}}, {"type": "way", "id": 819016408, "nodes": [7648638029, 7648638030, 7648638031, 7648638032, 7648638029], "tags": {"area": "yes", "name": "svazi\u0161t\u011b vor\u016f", "tourism": "attraction"}}, {"type": "way", "id": 1069071641, "nodes": [9813129987, 9813129988, 9813129989, 9813129990, 9813129991, 9813129992, 9813129987], "tags": {"amenity": "shelter", "building": "yes", "shelter_type": "picnic_shelter"}}, {"type": "way", "id": 1069071648, "nodes": [9813130014, 9813130015, 9813130016, 9813149117, 9813130014], "tags": {"amenity": "shelter", "building": "yes", "picnic_table": "yes", "shelter_type": "weather_shelter"}}, {"type": "way", "id": 1306015880, "nodes": [12095815837, 12095815836, 12095815835, 12095815834, 12095815837], "tags": {"amenity": "shelter", "shelter_type": "picnic_shelter"}}, {"type": "way", "id": 1377007216, "nodes": [12750105802, 12750105801, 12750098300, 12750098299, 12750105802], "tags": {"amenity": "shelter", "picnic_table": "yes", "shelter_type": "picnic_shelter", "source": "survey"}}, {"type": "way", "id": 1419352248, "nodes": [13042778091, 13042778092, 13042778093, 13042778094, 13042778091], "tags": {"amenity": "shelter", "building": "yes", "lightning_protection": "yes", "shelter_type": "picnic_shelter"}}, {"type": "way", "id": 1428005399, "nodes": [13128292305, 13128292306, 13128292307, 13128292308, 13128292305], "tags": {"amenity": "shelter", "bench": "yes", "lockable": "no", "shelter_type": "public_transport", "source": "survey"}}, {"type": "way", "id": 1428005401, "nodes": [13128292321, 13128292322, 13128292323, 13128292324, 13128292321], "tags": {"amenity": "shelter", "bench": "yes", "shelter_type": "public_transport"}}]}