{"version": 0.6, "generator": "Overpass API 0.7.62.8 e802775f", "osm3s": {"timestamp_osm_base": "2026-01-05T16:09:45Z", "copyright": "The data included in this document is from www.openstreetmap.org. The data is made available under ODbL."}, "elements": [{"type": "node", "id": 282482119, "lat": 49.7672167, "lon": 13.4301372, "tags": {"access": "yes", "climbing": "no", "direction": "360", "ele": "416.2", "fee": "donation", "heritage": "yes", "hiking": "yes", "name": "Chlum", "natural": "peak", "note": "B\u00fdval\u00e1 sopka", "summit:cross": "no", "summit:register": "no", "tourism": "viewpoint", "trail_visibility": "excellent", "wheelchair": "limited", "wikidata": "Q11725182", "wikipedia": "cs:Chlum (Rokycansk\u00e1 pahorkatina)"}}, {"type": "node", "id": 307773485, "lat": 49.7847513, "lon": 13.4357343, "tags": {"tourism": "viewpoint"}}, {"type": "node", "id": 307775636, "lat": 49.7838072, "lon": 13.435073, "tags": {"access": "yes", "climbing": "yes", "colour": "yellow", "direction": "90", "ele": "340", "est_width": "0.7", "fee": "no", "hiking": "yes", "incline": "11%", "network": "lwn", "note": "V\u00fdhled na \u0159eku Berounku", "operator": "K\u010cT", "osmc:symbol": "yellow:white:yellow_stripe", "sac_scale": "mountain_hiking", "smoothness": "intermediate", "smoothness:date": "2024", "summit:cross": "no", "summit:register": "yes", "surface": "cobblestone", "tourism": "viewpoint", "tracktype": "grade4", "trail_visibility": "intermediate"}}, {"type": "node", "id": 330683760, "lat": 49.9098299, "lon": 13.5526166, "tags": {"description": "vyhl\u00eddka na Lib\u0161tejn", "direction": "250", "name": "Vyhl\u00eddka Havlova sk\u00e1la", "tourism": "viewpoint"}}, {"type": "node", "id": 360251902, "lat": 49.7794187, "lon": 13.4025839, "tags": {"ele": "318", "hiking": "yes", "information": "guidepost", "name": "Ko\u0161in\u00e1\u0159 (ryb.)", "operator": "cz:K\u010cT", "ref": "PS292", "source": "survey", "tourism": "information"}}, {"type": "node", "id": 360251906, "lat": 49.7783439, "lon": 13.4032792, "tags": {"ele": "316", "hiking": "yes", "information": "guidepost", "name": "Rybn\u00edk Ko\u0161in\u00e1\u0159", "operator": "cz:K\u010cT", "ref": "PS224", "source": "survey", "tourism": "information"}}, {"type": "node", "id": 360251910, "lat": 49.7770668, "lon": 13.4099086, "tags": {"ele": "332", "hiking": "yes", "information": "guidepost", "name": "Plze\u0148-B\u00edl\u00e1 Hora (Rozc.)", "operator": "cz:K\u010cT", "ref": "PS343", "source": "survey", "tourism": "information"}}, {"type": "node", "id": 360280265, "lat": 49.7622763, "lon": 13.4212969, "tags": {"ele": "326", "hiking": "yes", "information": "guidepost", "name": "Plze\u0148-Doubravka (u trati)", "operator": "cz:K\u010cT", "ref": "PS003", "source": "survey", "tourism": "information"}}, {"type": "node", "id": 360280415, "lat": 49.7586894, "lon": 13.4248269, "tags": {"ele": "322", "hiking": "yes", "information": "guidepost", "name": "Plze\u0148-Doubravka (MHD)", "operator": "cz:K\u010cT", "ref": "PS019", "source": "survey", "tourism": "information"}}, {"type": "node", "id": 360808097, "lat": 49.7726525, "lon": 13.4072039, "tags": {"description": "V\u00fdchodi\u0161t\u011b k rekrea\u010dn\u00edm boleveck\u00fdm rybn\u00edk\u016fm", "ele": "340", "information": "guidepost", "name": "Plze\u0148-B\u00edl\u00e1 Hora (Host.)", "source": "survey", "tourism": "information"}}, {"type": "node", "id": 363841592, "lat": 49.7672861, "lon": 13.430816, "tags": {"description": "Rozhledna a b\u00fdval\u00e1 turistick\u00e1 chata L. Pika z\u00a0let 1925\u201329 vystav\u011bna svazem \u010cS d\u011blnick\u00fdch turist\u016f.", "ele": "416", "hiking": "yes", "information": "guidepost", "name": "Chlum", "operator": "cz:K\u010cT", "ref": "PS020", "source": "survey", "tourism": "information"}}, {"type": "node", "id": 365149090, "lat": 49.7527829, "lon": 13.5615413, "tags": {"ele": "350", "hiking": "yes", "information": "guidepost", "name": "Pod Vr\u0161\u00ed\u010dkem (rozcest\u00ed)", "official_name": "Pod Vr\u0161\u00ed\u010dkem (rozc.)", "operator": "cz:K\u010cT", "ref": "RO288", "source": "survey", "tourism": "information"}}, {"type": "node", "id": 365386311, "lat": 49.7767068, "lon": 13.5413146, "tags": {"ele": "443", "hiking": "yes", "information": "guidepost", "name": "Kokotsko", "operator": "cz:K\u010cT", "ref": "PS147", "source": "mavit: Garmin edge 705", "tourism": "information"}}, {"type": "node", "id": 370022499, "lat": 49.7759187, "lon": 13.4091764, "tags": {"ele": "333", "hiking": "yes", "information": "guidepost", "name": "Plze\u0148-B\u00edl\u00e1 Hora, MHD", "operator": "cz:K\u010cT", "ref": "PS223", "source": "survey", "tourism": "information"}}, {"type": "node", "id": 370027268, "lat": 49.8029323, "lon": 13.418695, "tags": {"ele": "382", "hiking": "yes", "information": "guidepost", "name": "Senec", "operator": "cz:K\u010cT", "ref": "PS139", "source": "survey", "tourism": "information"}}, {"type": "node", "id": 370043698, "lat": 49.7953429, "lon": 13.4511305, "tags": {"ele": "332", "hiking": "yes", "information": "guidepost", "name": "Druztov\u00e1", "operator": "cz:K\u010cT", "ref": "PS300", "source": "survey", "tourism": "information"}}, {"type": "node", "id": 370043749, "lat": 49.7949577, "lon": 13.4557493, "tags": {"ele": "305", "hiking": "yes", "information": "guidepost", "name": "V\u011b\u017eka", "operator": "cz:K\u010cT", "ref": "PS301", "source": "survey", "tourism": "information"}}, {"type": "node", "id": 370043753, "lat": 49.7950544, "lon": 13.4575236, "tags": {"ele": "320", "historic": "ruins", "information": "guidepost", "name": "V\u011b\u017eka", "source": "survey", "tourism": "information", "wikidata": "Q12004971"}}, {"type": "node", "id": 370050078, "lat": 49.7749075, "lon": 13.4385366, "tags": {"ele": "315", "hiking": "yes", "information": "guidepost", "name": "Poles\u00ed H\u00e1j", "name:cs": "Poles\u00ed H\u00e1j", "operator": "cz:K\u010cT", "place": "locality", "ref": "PS299", "source": "survey", "tourism": "information"}}, {"type": "node", "id": 427053683, "lat": 49.7540068, "lon": 13.5246891, "tags": {"ele": "335", "hiking": "yes", "information": "guidepost", "name": "U L\u00e1vky (odb.)", "operator": "cz:K\u010cT", "ref": "PS328", "source": "survey", "tourism": "information"}}, {"type": "node", "id": 427053764, "lat": 49.757269, "lon": 13.5181437, "tags": {"direction": "S", "tourism": "viewpoint"}}, {"type": "node", "id": 427076333, "lat": 49.7854721, "lon": 13.4968836, "tags": {"ele": "342", "hiking": "yes", "information": "guidepost", "name": "Chr\u00e1st (\u017dST)", "operator": "cz:K\u010cT", "ref": "PS145", "source": "survey", "tourism": "information"}}, {"type": "node", "id": 427076334, "lat": 49.7818711, "lon": 13.5122114, "tags": {"ele": "315", "hiking": "yes", "information": "guidepost", "name": "Nov\u00e1 Hu\u0165", "operator": "cz:K\u010cT", "ref": "PS146", "source": "survey", "tourism": "information"}}, {"type": "node", "id": 433263295, "lat": 49.7927824, "lon": 13.4922074, "tags": {"ele": "340", "hiking": "yes", "information": "guidepost", "name": "Chr\u00e1st", "operator": "cz:K\u010cT", "ref": "PS030", "source": "survey", "tourism": "information"}}, {"type": "node", "id": 433308260, "lat": 49.7999444, "lon": 13.5117941, "tags": {"ele": "338", "hiking": "yes", "information": "guidepost", "name": "Sm\u011bd\u010dice", "operator": "cz:K\u010cT", "ref": "PS031", "source": "survey", "tourism": "information"}}, {"type": "node", "id": 433308328, "lat": 49.808893, "lon": 13.5271655, "tags": {"ele": "342", "hiking": "yes", "information": "guidepost", "name": "Sedlecko", "operator": "cz:K\u010cT", "ref": "PS032", "source": "survey", "tourism": "information"}}, {"type": "node", "id": 433317964, "lat": 49.8145054, "lon": 13.5310216, "tags": {"ele": "291", "hiking": "yes", "information": "guidepost", "name": "Kore\u010dnick\u00fd ml\u00fdn", "name:cs": "Kore\u010dnick\u00fd ml\u00fdn", "operator": "cz:K\u010cT", "ref": "RO023", "source": "survey", "tourism": "information"}}, {"type": "node", "id": 433353880, "lat": 49.8189124, "lon": 13.5593742, "tags": {"ele": "360", "hiking": "yes", "information": "guidepost", "name": "V\u0161enice", "operator": "cz:K\u010cT", "ref": "RO250", "tourism": "information"}}, {"type": "node", "id": 433354017, "lat": 49.8232378, "lon": 13.5739024, "tags": {"ele": "431", "information": "guidepost", "name": "Stupno (U h\u0159bitova)", "name:cs": "Stupno (U h\u0159bitova)", "tourism": "information"}}, {"type": "node", "id": 433354100, "lat": 49.8244763, "lon": 13.5785873, "tags": {"ele": "431", "hiking": "yes", "information": "guidepost", "name": "Stupno (u \u017dST)", "operator": "cz:K\u010cT", "ref": "RO252", "source": "survey", "tourism": "information"}}, {"type": "node", "id": 433376529, "lat": 49.8229798, "lon": 13.5723892, "tags": {"name": "\u0160ternbersk\u00e1 hrobka", "source": "survey; cuzk:km; uhul:ortofoto", "tourism": "attraction"}}, {"type": "node", "id": 444725116, "lat": 49.7634466, "lon": 13.417559, "tags": {"description": "Rom\u00e1nsk\u00e1 stavba kostela nad soutokem M\u017ee a \u00daslavy \u2013 odtud Berounka", "hiking": "yes", "information": "guidepost", "name": "Kostel svat\u00e9ho Ji\u0159\u00ed (odbo\u010dka)", "official_name": "Kostel sv. Ji\u0159\u00ed (odb.)", "operator": "cz:K\u010cT", "ref": "PS018", "tourism": "information"}}, {"type": "node", "id": 505500235, "lat": 49.7773629, "lon": 13.5908257, "tags": {"ele": "401", "hiking": "yes", "information": "guidepost", "name": "Osek", "operator": "cz:K\u010cT", "ref": "RO315", "source": "survey", "tourism": "information"}}, {"type": "node", "id": 506307370, "lat": 49.7644439, "lon": 13.5668236, "tags": {"ele": "365", "hiking": "yes", "information": "guidepost", "name": "Litohlavy", "operator": "cz:K\u010cT", "ref": "RO318", "source": "survey", "tourism": "information"}}, {"type": "node", "id": 506307372, "lat": 49.7591402, "lon": 13.5679542, "tags": {"hiking": "yes", "information": "guidepost", "name": "Vr\u0161\u00ed\u010dek - odbo\u010dka", "operator": "cz:K\u010cT", "ref": "RO319", "source": "survey", "tourism": "information"}}, {"type": "node", "id": 506773015, "lat": 49.7545986, "lon": 13.5428565, "tags": {"ele": "353", "hiking": "yes", "information": "guidepost", "name": "Klabava", "operator": "cz:K\u010cT", "ref": "RO289", "source": "survey", "tourism": "information"}}, {"type": "node", "id": 516314314, "lat": 49.7837297, "lon": 13.4689527, "tags": {"ele": "392", "hiking": "yes", "information": "guidepost", "name": "Zadn\u00ed h\u00e1jovna", "operator": "cz:K\u010cT", "ref": "PS028", "source": "survey", "tourism": "information"}}, {"type": "node", "id": 516314374, "lat": 49.7757245, "lon": 13.4561205, "tags": {"ele": "367", "hiking": "yes", "information": "guidepost", "name": "Horn\u00ed Z\u00e1b\u011bl\u00e1, \u0161kolka", "operator": "cz:K\u010cT", "ref": "PS027", "source": "survey", "tourism": "information"}}, {"type": "node", "id": 516314376, "lat": 49.7756135, "lon": 13.4560163, "tags": {"amenity": "shelter", "source": "survey"}}, {"type": "node", "id": 516323419, "lat": 49.7728775, "lon": 13.4515697, "tags": {"ele": "368", "hiking": "yes", "information": "guidepost", "name": "Z\u00e1b\u011bl\u00e1 - lesovna", "operator": "cz:K\u010cT", "ref": "PS025", "source": "survey", "tourism": "information"}}, {"type": "node", "id": 516536399, "lat": 49.7725033, "lon": 13.4488917, "tags": {"amenity": "shelter", "lit": "no", "source": "survey"}}, {"type": "node", "id": 516536404, "lat": 49.7721043, "lon": 13.4458111, "tags": {"check_date": "2025-05-31", "direction": "45", "name": "Hol\u00fd vrch", "source": "survey", "tourism": "viewpoint", "wheelchair": "no"}}, {"type": "node", "id": 516536502, "lat": 49.7692265, "lon": 13.4402231, "tags": {"ele": "340", "hiking": "yes", "information": "guidepost", "name": "Plze\u0148 - Bukovec (MHD)", "operator": "cz:K\u010cT", "ref": "PS021", "source": "survey", "tourism": "information"}}, {"type": "node", "id": 516536503, "lat": 49.7715935, "lon": 13.446827, "tags": {"ele": "373", "hiking": "yes", "information": "guidepost", "name": "Plze\u0148 - Bukovec (hradi\u0161t\u011b)", "operator": "cz:K\u010cT", "ref": "PS023", "source": "survey", "tourism": "information"}}, {"type": "node", "id": 528047719, "lat": 49.7714379, "lon": 13.4428816, "tags": {"source": "survey", "tourism": "viewpoint"}}, {"type": "node", "id": 528047732, "lat": 49.776312, "lon": 13.4470538, "tags": {"source": "survey", "tourism": "viewpoint"}}, {"type": "node", "id": 528047756, "lat": 49.7783645, "lon": 13.4471407, "tags": {"amenity": "shelter", "source": "survey"}}, {"type": "node", "id": 528047774, "lat": 49.7807822, "lon": 13.4490396, "tags": {"amenity": "shelter", "source": "survey"}}, {"type": "node", "id": 528047801, "lat": 49.7775914, "lon": 13.4496206, "tags": {"ele": "324", "hiking": "yes", "information": "guidepost", "name": "Poles\u00ed Z\u00e1b\u011bl\u00e1 - podjezd", "operator": "cz:K\u010cT", "ref": "PS194", "tourism": "information"}}, {"type": "node", "id": 528047803, "lat": 49.7807267, "lon": 13.4488493, "tags": {"ele": "326", "hiking": "yes", "information": "guidepost", "name": "Z\u00e1b\u011bl\u00e1 (rokle)", "operator": "cz:K\u010cT", "ref": "PS195", "tourism": "information"}}, {"type": "node", "id": 691566172, "lat": 49.80218, "lon": 13.4625626, "tags": {"ele": "338", "hiking": "yes", "information": "guidepost", "name": "Dolansk\u00fd ml\u00fdn (rozc.)", "tourism": "information"}}, {"type": "node", "id": 691566183, "lat": 49.7982193, "lon": 13.4686623, "tags": {"ele": "295", "information": "guidepost", "name": "Dolansk\u00fd most (prav\u00fd b\u0159eh)", "tourism": "information"}}, {"type": "node", "id": 691566191, "lat": 49.800312, "lon": 13.4679726, "tags": {"ele": "295", "hiking": "yes", "information": "guidepost", "name": "Dolansk\u00fd most (lev\u00fd b\u0159eh)", "operator": "cz:K\u010cT", "ref": "PS143", "tourism": "information"}}, {"type": "node", "id": 886261815, "lat": 49.8589515, "lon": 13.4225898, "tags": {"ele": "380", "hiking": "yes", "information": "guidepost", "name": "Dv\u016fr B\u00fdkov", "operator": "cz:K\u010cT", "ref": "PS202", "tourism": "information"}}, {"type": "node", "id": 886261831, "lat": 49.8489819, "lon": 13.4442497, "tags": {"ele": "336", "hiking": "yes", "information": "guidepost", "name": "Hromnice", "operator": "cz:K\u010cT", "ref": "PS200", "tourism": "information"}}, {"type": "node", "id": 886261884, "lat": 49.8500985, "lon": 13.4472083, "tags": {"ele": "361", "hiking": "yes", "information": "guidepost", "name": "Hromnick\u00e9 jez\u00edrko", "operator": "cz:K\u010cT", "ref": "PS201", "tourism": "information"}}, {"type": "node", "id": 901474087, "lat": 49.9210522, "lon": 13.5993574, "tags": {"ele": "270", "hiking": "yes", "information": "guidepost", "name": "U Rakolusk (rozc.)", "operator": "cz:K\u010cT", "ref": "RO100", "tourism": "information"}}, {"type": "node", "id": 903349885, "lat": 49.9175764, "lon": 13.5455237, "tags": {"ele": "292", "hiking": "yes", "information": "guidepost", "name": "Libl\u00edn", "operator": "cz:K\u010cT", "ref": "RO032", "tourism": "information"}}, {"type": "node", "id": 903349916, "lat": 49.9147652, "lon": 13.5740819, "tags": {"ele": "344", "hiking": "yes", "information": "guidepost", "name": "Bujesily", "operator": "cz:K\u010cT", "ref": "RO033", "tourism": "information"}}, {"type": "node", "id": 1064150186, "lat": 49.8400169, "lon": 13.4581263, "tags": {"ele": "348", "hiking": "yes", "information": "guidepost", "name": "\u017dichlice", "operator": "cz:K\u010cT", "ref": "PS198", "tourism": "information"}}, {"type": "node", "id": 1064150188, "lat": 49.8443772, "lon": 13.4520706, "tags": {"ele": "325", "hiking": "yes", "information": "guidepost", "name": "\u017dichlice (most)", "operator": "cz:K\u010cT", "ref": "PS199", "tourism": "information"}}, {"type": "node", "id": 1064150190, "lat": 49.8554157, "lon": 13.4854162, "tags": {"ele": "345", "hiking": "yes", "information": "guidepost", "name": "Chotin\u00e1", "operator": "cz:K\u010cT", "ref": "PS287", "tourism": "information"}}, {"type": "node", "id": 1064150196, "lat": 49.8275279, "lon": 13.4529062, "tags": {"ele": "382", "hiking": "yes", "information": "guidepost", "name": "Silnice u Zru\u010de", "operator": "cz:K\u010cT", "ref": "PS197", "tourism": "information"}}, {"type": "node", "id": 1260540436, "lat": 49.9489369, "lon": 13.5881266, "tags": {"tourism": "viewpoint"}}, {"type": "node", "id": 1260540499, "lat": 49.9488892, "lon": 13.5887092, "tags": {"direction": "160", "name": "Kra\u0161ov", "note": "Zkou\u0161\u00edm z\u00e1v\u00e9st nov\u00fd tag website:horobranim s odkazem na kopec v Horobran\u00ed, kde je o kopci spousta dal\u0161\u00edch informac\u00ed z ov\u011b\u0159en\u00fdch zdroj\u016f (n\u00e1v\u0161tv\u011bva u\u017eivatel\u016f aplikace, \u010c\u00daZK apod.). Aplikace Horobran\u00ed z\u00e1rove\u0148 pou\u017e\u00edv\u00e1 mapu zalo\u017eenou na datech z OSM.", "tourism": "viewpoint", "website:horobrani": "https://cs.hory.app/mountain/31062-krasov-zricenina-hradu"}}, {"type": "node", "id": 1260540521, "lat": 49.9493558, "lon": 13.5969258, "tags": {"ele": "265", "hiking": "yes", "information": "guidepost", "name": "V\u0161ehrdsk\u00fd potok", "operator": "cz:K\u010cT", "ref": "PS384", "tourism": "information"}}, {"type": "node", "id": 1378913218, "lat": 49.8097728, "lon": 13.4521216, "tags": {"ele": "342", "hiking": "yes", "information": "guidepost", "name": "Drahot\u00ednsk\u00fd rybn\u00edk", "operator": "cz:K\u010cT", "ref": "PS141", "source": "survey", "tourism": "information"}}, {"type": "node", "id": 1378913219, "lat": 49.8092209, "lon": 13.4328467, "tags": {"ele": "351", "hiking": "yes", "information": "guidepost", "name": "Zru\u010d", "operator": "cz:K\u010cT", "ref": "PS140", "source": "survey", "tourism": "information"}}, {"type": "node", "id": 1482521418, "lat": 49.799216, "lon": 13.497569, "tags": {"ele": "339", "hiking": "yes", "information": "guidepost", "name": "Chr\u00e1st - Na Vilov\u011b", "operator": "cz:K\u010cT", "ref": "PS033", "source": "survey", "tourism": "information"}}, {"type": "node", "id": 1518427100, "lat": 49.7895065, "lon": 13.4239087, "tags": {"ele": "358", "hiking": "yes", "information": "guidepost", "name": "Pod Vysokou", "operator": "cz:K\u010cT", "ref": "PS297", "tourism": "information"}}, {"type": "node", "id": 1706427723, "lat": 49.938251, "lon": 13.571673, "tags": {"ele": "368", "hiking": "yes", "information": "guidepost", "name": "Bohy", "operator": "cz:K\u010cT", "ref": "PS365", "tourism": "information"}}, {"type": "node", "id": 1706427728, "lat": 49.9305788, "lon": 13.5433483, "tags": {"ele": "344", "hiking": "yes", "information": "guidepost", "name": "Kozojedy", "operator": "cz:K\u010cT", "ref": "PS364", "tourism": "information"}}, {"type": "node", "id": 1706427735, "lat": 49.9490299, "lon": 13.5875869, "tags": {"description": "P\u0159\u00edrodn\u00ed rezervace Kra\u0161ov \u2013 rezervace teplomiln\u00e9 kv\u011bteny lesn\u00ed a skaln\u00ed. Z\u0159\u00edcenina hradu z\u00a0let 1230-1253.", "ele": "330", "hiking": "yes", "information": "guidepost", "name": "Kra\u0161ov (z\u0159\u00edcenina)", "operator": "cz:K\u010cT", "ref": "PS160", "short_name": "Kra\u0161ov (z\u0159\u00edc.)", "tourism": "information"}}, {"type": "node", "id": 1706427746, "lat": 49.9482304, "lon": 13.5870801, "tags": {"ele": "272", "hiking": "yes", "information": "guidepost", "name": "Kra\u0161ov (rozcest\u00ed)", "operator": "cz:K\u010cT", "ref": "PS366", "short_name": "Kra\u0161ov (rozc.)", "tourism": "information"}}, {"type": "node", "id": 1749741249, "lat": 49.8061854, "lon": 13.5276366}, {"type": "node", "id": 1749741250, "lat": 49.8061925, "lon": 13.5275928}, {"type": "node", "id": 1749741251, "lat": 49.8062047, "lon": 13.5276442}, {"type": "node", "id": 1749741252, "lat": 49.8062118, "lon": 13.5276004}, {"type": "node", "id": 1884542048, "lat": 49.8330714, "lon": 13.5289528, "tags": {"disused": "yes", "ele": "344", "hiking": "yes", "information": "guidepost", "name": "Darovansk\u00fd dv\u016fr", "note": "UPOZORN\u011aN\u00cd: \u010cERVEN\u00c1 TURISTICK\u00c1 ZNA\u010cKA NOV\u011a VEDE P\u0158ES VODOP\u00c1D D\u00cdRKA, NIKOLIV V\u00ddCHODN\u00cd OKLIKOU!", "operator": "cz:K\u010cT", "ref": "PS034", "source": "survey;local knowledge;gps", "tourism": "information"}}, {"type": "node", "id": 1884542054, "lat": 49.8406727, "lon": 13.520939, "tags": {"ele": "290", "hiking": "yes", "information": "guidepost", "name": "Darov\u00e1 (p\u0159\u00edvoz)", "operator": "cz:K\u010cT", "ref": "PS035;RO025", "tourism": "information"}}, {"type": "node", "id": 1884542058, "lat": 49.8630472, "lon": 13.523656, "tags": {"ele": "330", "hiking": "yes", "information": "guidepost", "name": "Nad Kace\u0159ovsk\u00fdm ml\u00fdnem", "operator": "cz:K\u010cT", "ref": "PS037", "tourism": "information"}}, {"type": "node", "id": 2089061747, "lat": 49.7943868, "lon": 13.536585, "tags": {"destination": "Kokotsko, Ostr\u00fd k\u00e1men, Nov\u00e1 Hu\u0165", "ele": "390", "hiking": "yes", "information": "guidepost", "name": "Bu\u0161ovice", "operator": "cz:K\u010cT", "ref": "PS038", "source": "mavit: Garmin edge 705", "tourism": "information"}}, {"type": "node", "id": 2089061753, "lat": 49.7767356, "lon": 13.5368552, "tags": {"board_type": "nature", "check_date": "2025-12-11", "information": "board", "name": "Doln\u00ed kokotsk\u00fd rybn\u00edk", "ref": "5", "tourism": "information"}}, {"type": "node", "id": 2089061754, "lat": 49.7812788, "lon": 13.5145735, "tags": {"information": "board", "name": "D\u00fd\u0161ina \u2013 Nov\u00e1 Hu\u0165", "ref": "1", "source": "mavit: Garmin edge 705", "tourism": "information"}}, {"type": "node", "id": 2089061755, "lat": 49.777848, "lon": 13.5436006, "tags": {"board_type": "nature", "check_date": "2025-08-16", "information": "board", "name": "Horn\u00ed kokotsk\u00fd rybn\u00edk", "ref": "6", "tourism": "information"}}, {"type": "node", "id": 2089061756, "lat": 49.7776277, "lon": 13.5377484, "tags": {"ele": "445", "hiking": "yes", "information": "guidepost", "name": "Kokotsk\u00fd doln\u00ed rybn\u00edk", "operator": "cz:K\u010cT", "ref": "PS166", "source": "mavit: Garmin edge 705", "tourism": "information"}}, {"type": "node", "id": 2089061757, "lat": 49.7901694, "lon": 13.5274372, "tags": {"board_type": "nature", "information": "board", "name": "Krajina kolem Bu\u0161ovic", "ref": "10", "source": "mavit: Garmin edge 705", "tourism": "information"}}, {"type": "node", "id": 2089061758, "lat": 49.7917475, "lon": 13.5261666, "tags": {"amenity": "shelter", "name": "Kyt\u00edn", "shelter_type": "picnic_shelter", "source": "mavit: Garmin edge 705"}}, {"type": "node", "id": 2089061759, "lat": 49.7813572, "lon": 13.5145619, "tags": {"ele": "317", "hiking": "yes", "information": "guidepost", "name": "Nov\u00e1 Hu\u0165 (u koupali\u0161t\u011b)", "operator": "cz:K\u010cT", "ref": "PS035", "source": "mavit: Garmin edge 705", "tourism": "information"}}, {"type": "node", "id": 2089061761, "lat": 49.7944213, "lon": 13.5366659, "tags": {"board_type": "history", "information": "board", "name": "Obec Bu\u0161ovice", "ref": "9", "source": "mavit: Garmin edge 705", "tourism": "information"}}, {"type": "node", "id": 2089061762, "lat": 49.7728562, "lon": 13.5303928, "tags": {"alt_name": "\u010cert\u016fv k\u00e1men", "ele": "474", "name": "Ostr\u00fd k\u00e1men", "natural": "peak", "source": "mavit: Garmin edge 705"}}, {"type": "node", "id": 2089061763, "lat": 49.7747878, "lon": 13.5395397, "tags": {"board_type": "history", "check_date": "2025-08-16", "information": "board", "name": "St\u0159edov\u011bk\u00e1 ves Kokot", "ref": "4", "tourism": "information"}}, {"type": "node", "id": 2089061764, "lat": 49.7800408, "lon": 13.5140831, "tags": {"amenity": "shelter", "bench": "yes", "name": "U obr\u00e1zku", "shelter_type": "picnic_shelter", "source": "mavit: Garmin edge 705"}}, {"type": "node", "id": 2089061765, "lat": 49.7880541, "lon": 13.5412776, "tags": {"board_type": "notice", "information": "board", "name": "V\u00a0lese", "ref": "8", "source": "mavit: Garmin edge 705", "tourism": "information"}}, {"type": "node", "id": 2089061766, "lat": 49.7783516, "lon": 13.5208646, "tags": {"board_type": "history", "check_date": "2025-08-16", "information": "board", "name": "Velk\u00fd smrk", "source": "mavit: Garmin edge 705", "tourism": "information"}}, {"type": "node", "id": 2089061768, "lat": 49.785645, "lon": 13.5461154, "tags": {"board_type": "nature", "information": "board", "name": "Vrch Kokotsko", "ref": "7", "tourism": "information"}}, {"type": "node", "id": 2089061794, "lat": 49.7767647, "lon": 13.5368985, "tags": {"amenity": "shelter", "check_date": "2025-12-11", "shelter_type": "picnic_shelter"}}, {"type": "node", "id": 2089061816, "lat": 49.7812032, "lon": 13.5145644, "tags": {"bicycle": "yes", "information": "map", "source": "mavit: Garmin edge 705", "tourism": "information"}}, {"type": "node", "id": 2089061842, "lat": 49.7857913, "lon": 13.5458307, "tags": {"amenity": "shelter", "lit": "no", "name": "U sv\u011btla", "shelter_type": "picnic_shelter"}}, {"type": "node", "id": 2089061848, "lat": 49.7865677, "lon": 13.524704, "tags": {"board_type": "history", "information": "board", "ref": "11", "source": "mavit: Garmin edge 705", "tourism": "information"}}, {"type": "node", "id": 2089061860, "lat": 49.7725309, "lon": 13.5290498, "tags": {"board_type": "history", "check_date": "2025-08-16", "information": "board", "name": "\u010cert\u016fv k\u00e1men", "ref": "3", "tourism": "information"}}, {"type": "node", "id": 2089061862, "lat": 49.7791812, "lon": 13.5186204, "tags": {"board_type": "nature", "check_date": "2025-08-16", "information": "board", "name": "\u010c\u016fr\u00e1\u010dek", "ref": "2", "source": "mavit: Garmin edge 705", "tourism": "information"}}, {"type": "node", "id": 2183984693, "lat": 49.7552611, "lon": 13.5202018, "tags": {"description": "Chr\u00e1n\u011bn\u00e9 \u00fazem\u00ed je \u010d\u00e1st\u00ed pob\u0159e\u017e\u00ed ordovick\u00e9ho mo\u0159e.", "information": "board", "name": "Ejpovick\u00e9 \u00fatesy", "tourism": "information"}}, {"type": "node", "id": 2183984699, "lat": 49.7521631, "lon": 13.5157107, "tags": {"bicycle": "yes", "information": "guidepost", "operator": "cz:K\u010cT", "ref": "none", "tourism": "information"}}, {"type": "node", "id": 2186051248, "lat": 49.8545646, "lon": 13.5632137, "tags": {"fixme": "position approximate, somewhere near this crossing", "hiking": "yes", "information": "guidepost", "name": "Na Dr\u00e1\u017ek\u00e1ch", "operator": "cz:K\u010cT", "ref": "RO049", "tourism": "information"}}, {"type": "node", "id": 2205940646, "lat": 49.778412, "lon": 13.4033053, "tags": {"board_type": "plants", "check_date": "2025-06-13", "information": "board", "name": "Borovice u s\u00e1dek", "tourism": "information"}}, {"type": "node", "id": 2205940648, "lat": 49.7634234, "lon": 13.417279, "tags": {"board_type": "wildlife", "check_date": "2025-06-01", "information": "board", "name": "Kdo tu vlastn\u011b \u017eije, koho zde potk\u00e1me?", "tourism": "information"}}, {"type": "node", "id": 2205940660, "lat": 49.7795456, "lon": 13.4024437, "tags": {"ele": "318", "hiking": "yes", "information": "guidepost", "name": "Ko\u0161in\u00e1\u0159 (rybn\u00edk)", "operator": "cz:K\u010cT", "ref": "PS292", "tourism": "information", "wheelchair": "yes"}}, {"type": "node", "id": 2205940665, "lat": 49.7634381, "lon": 13.4173426, "tags": {"board_type": "nature", "check_date": "2025-06-01", "information": "board", "name": "Mok\u0159ady a t\u016f\u0148ky \u2013 biotop", "tourism": "information"}}, {"type": "node", "id": 2205940670, "lat": 49.7740905, "lon": 13.4054522, "tags": {"ele": "314", "hiking": "yes", "information": "guidepost", "name": "Pod B\u00edlou Horou", "operator": "cz:K\u010cT", "ref": "PS284", "tourism": "information", "wheelchair": "yes"}}, {"type": "node", "id": 2205940681, "lat": 49.7794696, "lon": 13.4021865, "tags": {"check_date": "2025-07-25", "information": "board", "name": "Rybn\u00edk Ko\u0161in\u00e1\u0159", "tourism": "information"}}, {"type": "node", "id": 2205940686, "lat": 49.7632709, "lon": 13.4161946, "tags": {"board_type": "nature", "check_date": "2025-06-01", "information": "board", "name": "Soutok s\u00a0\u00daslavou", "tourism": "information"}}, {"type": "node", "id": 2205940697, "lat": 49.7622433, "lon": 13.4155212, "tags": {"board_type": "history", "check_date": "2025-06-20", "information": "board", "name": "U svat\u00e9ho Ji\u0159\u00ed", "tourism": "information"}}, {"type": "node", "id": 2205940703, "lat": 49.7740897, "lon": 13.4052607, "tags": {"board_type": "nature", "information": "board", "name": "Velk\u00fd boleveck\u00fd rybn\u00edk", "tourism": "information"}}, {"type": "node", "id": 2205940731, "lat": 49.762278, "lon": 13.4155063, "tags": {"board_type": "nature", "check_date": "2025-06-20", "information": "board", "name": "\u00daslava", "tourism": "information"}}, {"type": "node", "id": 2284618142, "lat": 49.8767506, "lon": 13.5750048, "tags": {"source": "survey", "tourism": "information"}}, {"type": "node", "id": 2284618202, "lat": 49.8778692, "lon": 13.5487678, "tags": {"information": "board", "source": "survey", "tourism": "information"}}, {"type": "node", "id": 2293173245, "lat": 49.8999131, "lon": 13.5486063, "tags": {"ele": "305", "hiking": "yes", "information": "guidepost", "name": "Lib\u0161tejn (z\u0159\u00edc.)", "operator": "cz:K\u010cT", "ref": "PS040", "short_name": "Lib\u0161tejn (z\u0159\u00edc. odb.)", "tourism": "information"}}, {"type": "node", "id": 2293173246, "lat": 49.9159998, "lon": 13.5191452, "tags": {"description": "ml\u00fdn v \u00fast\u00ed Kralovick\u00e9ho potoka do St\u0159ely", "ele": "278", "hiking": "yes", "information": "guidepost", "name": "Pipl\u016fv ml\u00fdn", "operator": "cz:K\u010cT", "ref": "3604/2,5", "tourism": "information"}}, {"type": "node", "id": 2293173247, "lat": 49.900072, "lon": 13.5483343, "tags": {"description": "historie hradu Lib\u0161tejna a ze zadn\u00ed strany pov\u011bst o zaklet\u00e9m ryt\u00ed\u0159ovi", "information": "board", "name": "hrad Lib\u0161tejn / zaklet\u00fd ryt\u00ed\u0159", "tourism": "information"}}, {"type": "node", "id": 2294013773, "lat": 49.900697, "lon": 13.4747245, "tags": {"ele": "397", "hiking": "yes", "information": "guidepost", "name": "Koryta", "operator": "cz:K\u010cT", "ref": "PS296", "tourism": "information"}}, {"type": "node", "id": 2294013774, "lat": 49.899149, "lon": 13.4056265, "tags": {"ele": "438", "hiking": "yes", "information": "guidepost", "name": "Na M\u016fstk\u00e1ch", "operator": "cz:K\u010cT", "ref": "PS169", "tourism": "information"}}, {"type": "node", "id": 2294013775, "lat": 49.8967217, "lon": 13.4380204, "tags": {"information": "guidepost", "tourism": "information"}}, {"type": "node", "id": 2297525857, "lat": 49.9033129, "lon": 13.5928941, "tags": {"ele": "302", "hiking": "yes", "information": "guidepost", "name": "Nov\u00fd ml\u00fdn", "operator": "cz:K\u010cT", "ref": "RO132", "tourism": "information"}}, {"type": "node", "id": 2377080028, "lat": 49.9157761, "lon": 13.5111272, "tags": {"FIXME": "exact position", "tourism": "viewpoint"}}, {"type": "node", "id": 2399880975, "lat": 49.7714057, "lon": 13.4026849, "tags": {"board_type": "geology", "check_date": "2025-06-13", "information": "board", "name": "Plze\u0148sk\u00e1 karbonsk\u00e1 p\u00e1nev", "source": "survey", "tourism": "information"}}, {"type": "node", "id": 2467549895, "lat": 49.905294, "lon": 13.5185533, "tags": {"board_type": "notice", "information": "board", "tourism": "information"}}, {"type": "node", "id": 2506295596, "lat": 49.8443085, "lon": 13.5544797, "tags": {"addr:city": "Vranovice", "name": "Poh\u00e1dkov\u00fd statek", "tourism": "information"}}, {"type": "node", "id": 2592152615, "lat": 49.7858394, "lon": 13.5477223, "tags": {"ele": "501", "name": "Kokotsko", "natural": "peak", "source": "mavit GPS"}}, {"type": "node", "id": 2597463836, "lat": 49.8585239, "lon": 13.5967346, "tags": {"ele": "400", "hiking": "yes", "information": "guidepost", "name": "Radnice (vlak)", "official_name": "Radnice (\u017dST)", "operator": "cz:K\u010cT", "ref": "RO036;PS292", "tourism": "information"}}, {"type": "node", "id": 2597535517, "lat": 49.8496505, "lon": 13.5587881, "tags": {"ele": "467", "name": "Hov\u011bz\u00e1k", "natural": "peak"}}, {"type": "node", "id": 2597535530, "lat": 49.8601135, "lon": 13.571425, "tags": {"ele": "432", "hiking": "yes", "information": "guidepost", "name": "\u00dajezd u Svat\u00e9ho K\u0159\u00ed\u017ee", "operator": "cz:K\u010cT", "ref": "RO035;PS291", "tourism": "information"}}, {"type": "node", "id": 2609883352, "lat": 49.950687, "lon": 13.4165603, "tags": {"information": "board", "name": "Sokolka", "ref": "2", "source": "survey", "tourism": "information"}}, {"type": "node", "id": 2709683652, "lat": 49.7710764, "lon": 13.4012973, "tags": {"information": "board", "name": "Ryb\u00e1rna", "source": "survey", "tourism": "information"}}, {"type": "node", "id": 2750251390, "lat": 49.8803884, "lon": 13.463047, "tags": {"man_made": "tower", "name": "Radost", "tourism": "viewpoint", "tower:type": "observation"}}, {"type": "node", "id": 2773282709, "lat": 49.7703156, "lon": 13.4396356, "tags": {"board_type": "history", "check_date": "2025-06-13", "description": "NS \u00dadol\u00edm Berounky", "information": "board", "name": "Bukovec", "ref": "6", "tourism": "information"}}, {"type": "node", "id": 2816000637, "lat": 49.84604, "lon": 13.575768}, {"type": "node", "id": 2816000638, "lat": 49.846049, "lon": 13.575659}, {"type": "node", "id": 2816000642, "lat": 49.84611, "lon": 13.575783}, {"type": "node", "id": 2816000643, "lat": 49.84612, "lon": 13.575676}, {"type": "node", "id": 2835736670, "lat": 49.8651175, "lon": 13.5042196, "tags": {"information": "board", "name": "Nau\u010d. st. Ka\u0148onem Horn\u00ed Berounky", "tourism": "information"}}, {"type": "node", "id": 3022931622, "lat": 49.8516874, "lon": 13.5030486, "tags": {"tourism": "viewpoint"}}, {"type": "node", "id": 3022935094, "lat": 49.8574936, "lon": 13.5103512, "tags": {"tourism": "viewpoint"}}, {"type": "node", "id": 3034404551, "lat": 49.7713624, "lon": 13.5909956, "tags": {"ele": "420", "hiking": "yes", "information": "guidepost", "name": "Kam\u00fdk (z\u0159\u00edcenina)", "official_name": "Kam\u00fdk (z\u0159\u00edc.)", "operator": "cz:K\u010cT", "ref": "RO701", "tourism": "information"}}, {"type": "node", "id": 3039692326, "lat": 49.7888356, "lon": 13.4109143, "tags": {"amenity": "shelter", "shelter_type": "weather_shelter"}}, {"type": "node", "id": 3199791761, "lat": 49.7588804, "lon": 13.5651579, "tags": {"ele": "462", "name": "Vr\u0161\u00ed\u010dek", "natural": "peak", "wikidata": "Q7943220", "wikipedia": "cs:Vr\u0161\u00ed\u010dek"}}, {"type": "node", "id": 3257474691, "lat": 49.9129051, "lon": 13.4964525, "tags": {"ele": "346", "hiking": "yes", "information": "guidepost", "name": "Doln\u00ed Hradi\u0161t\u011b", "operator": "cz:K\u010cT", "ref": "PS204", "tourism": "information"}}, {"type": "node", "id": 3257474874, "lat": 49.9237256, "lon": 13.4608509, "tags": {"amenity": "shelter", "shelter_type": "picnic_shelter"}}, {"type": "node", "id": 3257474883, "lat": 49.9224328, "lon": 13.4609427, "tags": {"ele": "408", "hiking": "yes", "information": "guidepost", "name": "\u010ce\u010d\u00edn", "operator": "cz:K\u010cT", "ref": "PS265", "tourism": "information"}}, {"type": "node", "id": 3921314188, "lat": 49.7548228, "lon": 13.4847562, "tags": {"amenity": "shelter", "shelter_type": "public_transport"}}, {"type": "node", "id": 3922553443, "lat": 49.9217142, "lon": 13.4133449, "tags": {"ele": "315", "hiking": "yes", "information": "guidepost", "name": "Neb\u0159eziny", "operator": "cz:K\u010cT", "ref": "PS206", "tourism": "information"}}, {"type": "node", "id": 4017350893, "lat": 49.9251835, "lon": 13.4365775, "tags": {"ele": "423", "hiking": "yes", "information": "guidepost", "name": "Richardka (h\u00e1j,)", "operator": "cz:K\u010cT", "ref": "PS205", "tourism": "information"}}, {"type": "node", "id": 4052968512, "lat": 49.8509461, "lon": 13.4430968, "tags": {"tourism": "viewpoint"}}, {"type": "node", "id": 4113427267, "lat": 49.9301438, "lon": 13.4773122, "tags": {"amenity": "shelter", "shelter_type": "public_transport"}}, {"type": "node", "id": 4143930935, "lat": 49.7586449, "lon": 13.5649673, "tags": {"hiking": "yes", "information": "guidepost", "name": "Vr\u0161\u00ed\u010dek (kostel)", "operator": "cz:K\u010cT", "ref": "RO018", "tourism": "information"}}, {"type": "node", "id": 4156635798, "lat": 49.779705, "lon": 13.4023083, "tags": {"information": "guidepost", "ref": "PS284", "tourism": "information", "wheelchair": "yes"}}, {"type": "node", "id": 4167763989, "lat": 49.7818301, "lon": 13.568926, "tags": {"ele": "448", "hiking": "yes", "information": "guidepost", "name": "Hudlice dv\u016fr", "operator": "cz:K\u010cT", "ref": "RO041", "tourism": "information"}}, {"type": "node", "id": 4252217085, "lat": 49.9421482, "lon": 13.5652689, "tags": {"ele": "390", "hiking": "yes", "information": "guidepost", "name": "Rohy", "operator": "cz:K\u010cT", "ref": "PS277", "tourism": "information"}}, {"type": "node", "id": 4252217086, "lat": 49.9453237, "lon": 13.5439076, "tags": {"ele": "404", "hiking": "yes", "information": "guidepost", "name": "Zimohr\u00e1z", "operator": "cz:K\u010cT", "ref": "PS369", "tourism": "information"}}, {"type": "node", "id": 4254405489, "lat": 49.7817687, "lon": 13.5092015, "tags": {"ele": "323", "hiking": "yes", "information": "guidepost", "name": "Nov\u00e1 Hu\u0165 (odbo\u010dka)", "official_name": "Nov\u00e1 Hu\u0165 (odb.)", "operator": "cz:K\u010cT", "ref": "PS390", "tourism": "information"}}, {"type": "node", "id": 4254405495, "lat": 49.770996, "lon": 13.4530837, "tags": {"hiking": "yes", "information": "guidepost", "name": "Z\u00e1b\u011bl\u00e1 - bus", "operator": "cz:K\u010cT", "ref": "PS026", "tourism": "information"}}, {"type": "node", "id": 4254405496, "lat": 49.7720449, "lon": 13.445798, "tags": {"ele": "373", "hiking": "yes", "information": "guidepost", "name": "Hol\u00fd vrch - vyhl\u00eddka", "operator": "cz:K\u010cT", "ref": "PS024", "tourism": "information"}}, {"type": "node", "id": 4329433789, "lat": 49.7871295, "lon": 13.4966127, "tags": {"ele": "432", "hiking": "yes", "information": "guidepost", "name": "Chr\u00e1st (odb. k \u017dST)", "operator": "cz:K\u010cT", "ref": "PS358", "tourism": "information"}}, {"type": "node", "id": 4583950944, "lat": 49.7903706, "lon": 13.4093423, "tags": {"access": "private", "amenity": "shelter", "fireplace": "yes"}}, {"type": "node", "id": 4826657883, "lat": 49.8787098, "lon": 13.5280599, "tags": {"board_type": "nature", "information": "board", "name": "Berounka a vodn\u00ed ptactvo", "ref": "10", "source": "survey", "tourism": "information"}}, {"type": "node", "id": 4826657884, "lat": 49.8768379, "lon": 13.5327606, "tags": {"board_type": "nature", "information": "board", "name": "Oboj\u017eiveln\u00edci", "ref": "9", "source": "survey", "tourism": "information"}}, {"type": "node", "id": 4826657885, "lat": 49.8769977, "lon": 13.5368547, "tags": {"board_type": "nature", "information": "board", "name": "Trnovn\u00edk ak\u00e1t", "ref": "8", "source": "survey", "tourism": "information"}}, {"type": "node", "id": 4826657886, "lat": 49.8769318, "lon": 13.5379488, "tags": {"board_type": "nature", "information": "board", "name": "Douglaska tisolist\u00e1", "ref": "7", "source": "survey", "tourism": "information"}}, {"type": "node", "id": 4826657887, "lat": 49.8766324, "lon": 13.5403423, "tags": {"board_type": "nature", "information": "board", "name": "Prameni\u0161t\u011b a kali\u0161t\u011b", "ref": "6", "source": "survey", "tourism": "information"}}, {"type": "node", "id": 4826657888, "lat": 49.8767872, "lon": 13.5408817, "tags": {"board_type": "nature", "information": "board", "name": "Geologie", "ref": "5", "source": "survey", "tourism": "information"}}, {"type": "node", "id": 4826657889, "lat": 49.8764924, "lon": 13.5427543, "tags": {"board_type": "nature", "information": "board", "name": "Savci lesa a luk", "ref": "4", "source": "survey", "tourism": "information"}}, {"type": "node", "id": 4826657890, "lat": 49.876625, "lon": 13.5443009, "tags": {"board_type": "nature", "information": "board", "name": "Stromy v \u00fadol\u00ed", "ref": "3", "source": "survey", "tourism": "information"}}, {"type": "node", "id": 4826657891, "lat": 49.8774271, "lon": 13.5455563, "tags": {"board_type": "nature", "information": "board", "name": "P\u0159\u00edvalov\u00e9 de\u0161t\u011b a vodn\u00ed eroze", "ref": "2", "source": "survey", "tourism": "information"}}, {"type": "node", "id": 4826657892, "lat": 49.8776833, "lon": 13.5464167, "tags": {"board_type": "nature", "information": "board", "name": "Nau\u010dn\u00e1 stezka a ves Ole\u0161n\u00e1", "ref": "1", "source": "survey", "tourism": "information"}}, {"type": "node", "id": 4826666937, "lat": 49.8776834, "lon": 13.5463873, "tags": {"amenity": "shelter", "shelter_type": "picnic_shelter", "source": "survey"}}, {"type": "node", "id": 4840622258, "lat": 49.8267239, "lon": 13.4058966, "tags": {"board_type": "history", "information": "board", "name": "Rodn\u00fd d\u016fm mal\u00ed\u0159e V\u00e1clava Bro\u017e\u00edka", "ref": "3", "tourism": "information"}}, {"type": "node", "id": 4972418118, "lat": 49.9221109, "lon": 13.4135905, "tags": {"information": "map", "map_size": "region", "map_type": "topo", "tourism": "information"}}, {"type": "node", "id": 5050151847, "lat": 49.7829419, "lon": 13.4794722, "tags": {"ele": "414", "name": "Chlum", "natural": "peak"}}, {"type": "node", "id": 5050538160, "lat": 49.8239609, "lon": 13.5396452, "tags": {"ele": "429", "name": "Chlum", "natural": "peak"}}, {"type": "node", "id": 5050538161, "lat": 49.8115487, "lon": 13.5100199, "tags": {"ele": "337", "natural": "peak"}}, {"type": "node", "id": 5050538162, "lat": 49.7943814, "lon": 13.5083929, "tags": {"ele": "386", "name": "Chr\u00e1steck\u00fd vrch", "natural": "peak"}}, {"type": "node", "id": 5050538163, "lat": 49.8045305, "lon": 13.4941394, "tags": {"ele": "339", "name": "Na Kameni", "natural": "peak"}}, {"type": "node", "id": 5050538164, "lat": 49.8116932, "lon": 13.4652793, "tags": {"ele": "397", "name": "Vl\u010diny", "natural": "peak"}}, {"type": "node", "id": 5050984906, "lat": 49.8016376, "lon": 13.5790036, "tags": {"ele": "505", "name": "P\u0159e\u0161ov", "natural": "peak"}}, {"type": "node", "id": 5051032976, "lat": 49.7608259, "lon": 13.5522877, "tags": {"ele": "443", "name": "Smrkov\u00fd vrch", "natural": "peak"}}, {"type": "node", "id": 5051967050, "lat": 49.7998076, "lon": 13.5569355, "tags": {"ele": "485", "name": "Hol\u00fd vrch", "natural": "peak"}}, {"type": "node", "id": 5051971537, "lat": 49.7690619, "lon": 13.4697732, "tags": {"ele": "419", "name": "\u010cern\u00e1 m\u00fd\u0165", "natural": "peak"}}, {"type": "node", "id": 5051973743, "lat": 49.8323944, "lon": 13.4534812, "tags": {"ele": "406", "name": "U Petra", "natural": "peak"}}, {"type": "node", "id": 5051976525, "lat": 49.7624451, "lon": 13.4539037, "tags": {"ele": "399", "natural": "peak"}}, {"type": "node", "id": 5051978901, "lat": 49.7712547, "lon": 13.4472168, "tags": {"ele": "373", "name": "Hol\u00fd vrch", "natural": "peak"}}, {"type": "node", "id": 5051984737, "lat": 49.8154214, "lon": 13.4371513, "tags": {"ele": "368", "name": "Za k\u0159\u00ed\u017ekem", "natural": "peak"}}, {"type": "node", "id": 5051993791, "lat": 49.8378874, "lon": 13.5263373, "tags": {"ele": "382", "name": "Hol\u00fd vrch", "natural": "peak"}}, {"type": "node", "id": 5051998277, "lat": 49.8461105, "lon": 13.5758726, "tags": {"ele": "482", "name": "Na vr\u0161\u00edch", "natural": "peak"}}, {"type": "node", "id": 5054489457, "lat": 49.774221, "lon": 13.5467468, "tags": {"ele": "485", "name": "H\u016frka", "natural": "peak"}}, {"type": "node", "id": 5054507377, "lat": 49.7540331, "lon": 13.5985724, "tags": {"ele": "411", "name": "Oseck\u00fd vrch", "natural": "peak"}}, {"type": "node", "id": 5054509259, "lat": 49.7600607, "lon": 13.596507, "tags": {"ele": "407", "natural": "peak"}}, {"type": "node", "id": 5054518735, "lat": 49.8001138, "lon": 13.5194682, "tags": {"ele": "381", "natural": "peak"}}, {"type": "node", "id": 5054520568, "lat": 49.8019559, "lon": 13.5106624, "tags": {"ele": "348", "natural": "peak"}}, {"type": "node", "id": 5054530597, "lat": 49.7617317, "lon": 13.5154656, "tags": {"ele": "430", "name": "Hradi\u0161t\u011b", "natural": "peak"}}, {"type": "node", "id": 5056804901, "lat": 49.8406905, "lon": 13.4885009, "tags": {"ele": "394", "natural": "peak"}}, {"type": "node", "id": 5056805680, "lat": 49.843736, "lon": 13.4591962, "tags": {"ele": "393", "name": "Peklo", "natural": "peak"}}, {"type": "node", "id": 5056806405, "lat": 49.8709435, "lon": 13.4654815, "tags": {"ele": "397", "natural": "peak"}}, {"type": "node", "id": 5056809566, "lat": 49.8485733, "lon": 13.4473014, "tags": {"ele": "372", "natural": "peak"}}, {"type": "node", "id": 5056810487, "lat": 49.8515548, "lon": 13.442939, "tags": {"ele": "390", "natural": "peak"}}, {"type": "node", "id": 5056811238, "lat": 49.8542499, "lon": 13.4320919, "tags": {"alt_name": "Past\u00fd\u0159\u016fv vrch", "ele": "397", "name": "H\u016frka", "natural": "peak"}}, {"type": "node", "id": 5056812404, "lat": 49.8664816, "lon": 13.4351174, "tags": {"ele": "463", "name": "Dol\u00ed\u010dka", "natural": "peak"}}, {"type": "node", "id": 5056815007, "lat": 49.860194, "lon": 13.4399591, "tags": {"ele": "456", "name": "Kosina", "natural": "peak"}}, {"type": "node", "id": 5056817884, "lat": 49.8837844, "lon": 13.4185442, "tags": {"ele": "515", "name": "\u010cerven\u00fd vrch", "natural": "peak"}}, {"type": "node", "id": 5056822541, "lat": 49.8878309, "lon": 13.4521528, "tags": {"alt_name": "Hrn\u010d\u00ed\u0159ka", "ele": "461", "name": "Kamenn\u00fd vrch", "natural": "peak"}}, {"type": "node", "id": 5056825779, "lat": 49.8775615, "lon": 13.4898675, "tags": {"ele": "394", "natural": "peak"}}, {"type": "node", "id": 5056828578, "lat": 49.899713, "lon": 13.4855107, "tags": {"ele": "420", "natural": "peak"}}, {"type": "node", "id": 5056830059, "lat": 49.9012838, "lon": 13.4516031, "tags": {"ele": "414", "name": "St\u0159edn\u00ed vrch", "natural": "peak"}}, {"type": "node", "id": 5056836789, "lat": 49.8989214, "lon": 13.404397, "tags": {"ele": "485", "name": "Na m\u016fstk\u00e1ch", "natural": "peak"}}, {"type": "node", "id": 5057711234, "lat": 49.7752427, "lon": 13.5316949, "tags": {"ele": "466", "name": "Dubov\u00fd vrch", "natural": "peak"}}, {"type": "node", "id": 5074144909, "lat": 49.9461071, "lon": 13.4384105, "tags": {"ele": "512", "name": "Sp\u00e1len\u00e1 hora", "natural": "peak"}}, {"type": "node", "id": 5074153123, "lat": 49.9267635, "lon": 13.4014702, "tags": {"ele": "411", "name": "\u0160pit\u00e1l", "natural": "peak"}}, {"type": "node", "id": 5074157675, "lat": 49.9236294, "lon": 13.4193224, "tags": {"ele": "424", "name": "Lazy", "natural": "peak"}}, {"type": "node", "id": 5074188634, "lat": 49.8021603, "lon": 13.4855512, "tags": {"tourism": "viewpoint"}}, {"type": "node", "id": 5074190950, "lat": 49.791833, "lon": 13.5258987, "tags": {"tourism": "viewpoint"}}, {"type": "node", "id": 5074225054, "lat": 49.7930371, "lon": 13.4928441, "tags": {"information": "office", "tourism": "information"}}, {"type": "node", "id": 5074941244, "lat": 49.8240588, "lon": 13.4167782, "tags": {"ele": "410", "name": "Luhov\u00e1", "natural": "peak"}}, {"type": "node", "id": 5074947376, "lat": 49.8523324, "lon": 13.4048449, "tags": {"alt_name": "Svat\u00fd Josef", "ele": "453", "name": "Kamenn\u00fd vrch", "natural": "peak"}}, {"type": "node", "id": 5101682253, "lat": 49.8283616, "lon": 13.4295443, "tags": {"hiking": "yes", "information": "guidepost", "tourism": "information"}}, {"type": "node", "id": 5101710155, "lat": 49.8343152, "lon": 13.4223398, "tags": {"hiking": "yes", "information": "guidepost", "tourism": "information"}}, {"type": "node", "id": 5101710156, "lat": 49.8343885, "lon": 13.4221228, "tags": {"hiking": "yes", "information": "guidepost", "tourism": "information"}}, {"type": "node", "id": 5570968364, "lat": 49.8200405, "lon": 13.4135667, "tags": {"information": "board", "name": "Luhov\u00e1", "ref": "2", "tourism": "information"}}, {"type": "node", "id": 5570968365, "lat": 49.8098086, "lon": 13.4044593, "tags": {"information": "board", "name": "Skl\u00e1rna", "ref": "9", "tourism": "information"}}, {"type": "node", "id": 5724826973, "lat": 49.89437, "lon": 13.539374, "tags": {"direction": "45-202", "tourism": "viewpoint"}}, {"type": "node", "id": 5724826978, "lat": 49.8941618, "lon": 13.5388939, "tags": {"direction": "45-202", "tourism": "viewpoint"}}, {"type": "node", "id": 5773573605, "lat": 49.7724483, "lon": 13.5291692, "tags": {"ele": "471", "hiking": "yes", "information": "guidepost", "name": "Ostr\u00fd k\u00e1men (odbo\u010dka)", "official_name": "Ostr\u00fd k\u00e1men (odb.)", "operator": "cz:K\u010cT", "ref": "PS377", "tourism": "information"}}, {"type": "node", "id": 6008285003, "lat": 49.7766376, "lon": 13.4017527, "tags": {"amenity": "shelter", "bench": "yes", "shelter_type": "picnic_shelter"}}, {"type": "node", "id": 6225739815, "lat": 49.8671444, "lon": 13.5567236, "tags": {"ele": "445", "name": "Na Hradn\u00e9", "natural": "peak"}}, {"type": "node", "id": 6225749697, "lat": 49.8709232, "lon": 13.5506523, "tags": {"ele": "442", "name": "Na Vr\u0161\u00edch", "natural": "peak"}}, {"type": "node", "id": 6225750760, "lat": 49.8908457, "lon": 13.5601668, "tags": {"ele": "431", "name": "Na M\u00fdti", "natural": "peak"}}, {"type": "node", "id": 6225752842, "lat": 49.8990126, "lon": 13.5275548, "tags": {"ele": "385", "name": "Za Ov\u010d\u00ednem", "natural": "peak"}}, {"type": "node", "id": 6254392888, "lat": 49.8804072, "lon": 13.4630699, "tags": {"information": "board", "name": "Rozhledna Radost", "ref": "2", "tourism": "information"}}, {"type": "node", "id": 6254392927, "lat": 49.8727688, "lon": 13.4743129, "tags": {"board_type": "history", "information": "board", "name": "Jarov", "ref": "1", "tourism": "information"}}, {"type": "node", "id": 6254392964, "lat": 49.8605261, "lon": 13.4786029, "tags": {"information": "board", "name": "U pap\u00edrny", "ref": "9", "tourism": "information"}}, {"type": "node", "id": 6254393096, "lat": 49.8650469, "lon": 13.4699658, "tags": {"fixme": "maybe missing, position unknown", "information": "board", "name": "U potoka", "ref": "7", "tourism": "information"}}, {"type": "node", "id": 6254393097, "lat": 49.8624989, "lon": 13.4753696, "tags": {"information": "board", "name": "Na B\u011blidle", "ref": "8", "tourism": "information"}}, {"type": "node", "id": 6254393174, "lat": 49.8656295, "lon": 13.4666298, "tags": {"information": "guidepost", "tourism": "information"}}, {"type": "node", "id": 6254393175, "lat": 49.8668034, "lon": 13.4613801, "tags": {"board_type": "wildlife", "information": "board", "name": "Na rozcest\u00ed", "ref": "6", "tourism": "information"}}, {"type": "node", "id": 6254393176, "lat": 49.8667971, "lon": 13.4612657, "tags": {"amenity": "shelter", "shelter_type": "picnic_shelter"}}, {"type": "node", "id": 6254393220, "lat": 49.8657674, "lon": 13.4509463, "tags": {"board_type": "history", "information": "board", "name": "T\u0159ebokov", "ref": "5", "tourism": "information"}}, {"type": "node", "id": 6254393231, "lat": 49.8679228, "lon": 13.4527811, "tags": {"board_type": "history", "information": "board", "name": "T\u0159ebekov - h\u00e1jovna", "ref": "4", "tourism": "information"}}, {"type": "node", "id": 6343466040, "lat": 49.8892656, "lon": 13.4135464, "tags": {"information": "map", "name": "St\u0159ela a Horn\u00ed Berounka", "source": "survey", "tourism": "information"}}, {"type": "node", "id": 6384264962, "lat": 49.8955026, "lon": 13.5237032, "tags": {"information": "board", "name": "Vodn\u00ed rostily", "ref": "13", "tourism": "information"}}, {"type": "node", "id": 6384363139, "lat": 49.883421, "lon": 13.5193634, "tags": {"information": "board", "name": "Alternativn\u00ed zdroje energie", "ref": "10b", "tourism": "information"}}, {"type": "node", "id": 6384363140, "lat": 49.8957817, "lon": 13.5209861, "tags": {"information": "board", "name": "Divok\u00e1 prasata v okol\u00ed \u010civic", "ref": "13a", "tourism": "information"}}, {"type": "node", "id": 6384363141, "lat": 49.8936564, "lon": 13.5217237, "tags": {"information": "board", "name": "Chemick\u00e9 zpracov\u00e1n\u00ed kyzov\u00e9 b\u0159idlice v okol\u00ed \u010civic", "ref": "12", "tourism": "information"}}, {"type": "node", "id": 6384363142, "lat": 49.8920391, "lon": 13.520447, "tags": {"information": "board", "name": "Plaven\u00ed d\u0159eva po Berounce", "ref": "11", "tourism": "information"}}, {"type": "node", "id": 6384363167, "lat": 49.8918697, "lon": 13.5165739, "tags": {"information": "board", "name": "L\u00edpy uprost\u0159ed lesa", "ref": "13b", "tourism": "information"}}, {"type": "node", "id": 6384363168, "lat": 49.8877993, "lon": 13.516755, "tags": {"information": "board", "ref": "13c", "tourism": "information"}}, {"type": "node", "id": 6384363170, "lat": 49.8830848, "lon": 13.5124353, "tags": {"check_date": "2026-01-02", "information": "board", "tourism": "information"}}, {"type": "node", "id": 6384516732, "lat": 49.7710745, "lon": 13.4020831, "tags": {"information": "guidepost", "operator": "cz:K\u010cT", "ref": "PS284", "tourism": "information", "wheelchair": "yes"}}, {"type": "node", "id": 6389219552, "lat": 49.7855621, "lon": 13.542546, "tags": {"natural": "peak"}}, {"type": "node", "id": 6418951635, "lat": 49.7591551, "lon": 13.5666638, "tags": {"information": "board", "tourism": "information"}}, {"type": "node", "id": 6418951752, "lat": 49.7772494, "lon": 13.5910549, "tags": {"board_type": "history", "information": "board", "name": "D\u011bjiny, v\u00fdvoj os\u00eddlen\u00ed z \u017eelez\u00e1\u0159stv\u00ed v Oseku", "ref": "1", "tourism": "information"}}, {"type": "node", "id": 6418951774, "lat": 49.7718485, "lon": 13.5909475, "tags": {"information": "board", "tourism": "information"}}, {"type": "node", "id": 6418951775, "lat": 49.771302, "lon": 13.5907186, "tags": {"ele": "424", "name": "Kam\u00fdk", "natural": "peak"}}, {"type": "node", "id": 6418951776, "lat": 49.771368, "lon": 13.5906861, "tags": {"tourism": "viewpoint"}}, {"type": "node", "id": 6420874028, "lat": 49.7731996, "lon": 13.5290584, "tags": {"board_type": "history", "check_date": "2025-08-16", "information": "board", "name": "Pov\u011bst o \u010certov\u011b kameni", "tourism": "information"}}, {"type": "node", "id": 6420875691, "lat": 49.7761266, "lon": 13.5452203, "tags": {"hiking": "yes", "information": "guidepost", "operator": "local", "ref": "none", "tourism": "information"}}, {"type": "node", "id": 6420875694, "lat": 49.7772326, "lon": 13.5438487, "tags": {"ele": "445", "hiking": "yes", "information": "guidepost", "name": "Kokotsk\u00fd horn\u00ed rybn\u00edk", "operator": "cz:K\u010cT", "ref": "PS284", "tourism": "information"}}, {"type": "node", "id": 6420876022, "lat": 49.7639567, "lon": 13.5322895, "tags": {"information": "map", "tourism": "information"}}, {"type": "node", "id": 6420876024, "lat": 49.7639362, "lon": 13.532286, "tags": {"direction": "180", "tourism": "viewpoint"}}, {"type": "node", "id": 6420876025, "lat": 49.7546099, "lon": 13.5428127, "tags": {"information": "map", "tourism": "information"}}, {"type": "node", "id": 6420876029, "lat": 49.7529728, "lon": 13.5384712, "tags": {"check_date": "2025-12-11", "information": "map", "tourism": "information"}}, {"type": "node", "id": 6453842192, "lat": 49.8611851, "lon": 13.4410053, "tags": {"hiking": "yes", "information": "guidepost", "name": "Kosina", "operator": "cz:K\u010cT", "tourism": "information"}}, {"type": "node", "id": 6453842193, "lat": 49.8852097, "lon": 13.4212178, "tags": {"hiking": "yes", "information": "guidepost", "name": "\u010cerven\u00fd vrch", "operator": "cz:K\u010cT", "tourism": "information"}}, {"type": "node", "id": 6453842194, "lat": 49.8891326, "lon": 13.4133518, "tags": {"ele": "496", "hiking": "yes", "information": "guidepost", "name": "Obora", "operator": "cz:K\u010cT", "ref": "PS294", "tourism": "information"}}, {"type": "node", "id": 6457296451, "lat": 49.9195814, "lon": 13.5568948, "tags": {"name": "V\u00fdhled na Libl\u00edn", "tourism": "viewpoint"}}, {"type": "node", "id": 7008310577, "lat": 49.7790427, "lon": 13.4031586, "tags": {"information": "guidepost", "operator": "cz:K\u010cT", "ref": "PS284", "tourism": "information", "wheelchair": "yes"}}, {"type": "node", "id": 7294107901, "lat": 49.8161013, "lon": 13.5641305}, {"type": "node", "id": 7294107902, "lat": 49.8160752, "lon": 13.5641375}, {"type": "node", "id": 7294107903, "lat": 49.8160827, "lon": 13.5642041}, {"type": "node", "id": 7294107904, "lat": 49.8161088, "lon": 13.5641971}, {"type": "node", "id": 7294107910, "lat": 49.8169506, "lon": 13.5754823}, {"type": "node", "id": 7294107911, "lat": 49.8169306, "lon": 13.5754736}, {"type": "node", "id": 7294107912, "lat": 49.8169183, "lon": 13.5755423}, {"type": "node", "id": 7294107913, "lat": 49.8169383, "lon": 13.575551}, {"type": "node", "id": 7294107914, "lat": 49.8272752, "lon": 13.5957936}, {"type": "node", "id": 7294107915, "lat": 49.8272609, "lon": 13.5957614}, {"type": "node", "id": 7294107916, "lat": 49.827234, "lon": 13.5957902}, {"type": "node", "id": 7294107917, "lat": 49.8272484, "lon": 13.5958223}, {"type": "node", "id": 7342749297, "lat": 49.8806598, "lon": 13.5956886, "tags": {"ele": "340", "hiking": "yes", "information": "guidepost", "name": "Kamenec", "operator": "cz:K\u010cT", "ref": "RO131", "tourism": "information"}}, {"type": "node", "id": 7411473318, "lat": 49.8556077, "lon": 13.5528052, "tags": {"information": "map", "map_size": "region", "map_type": "scheme", "mtb": "yes", "name": "Berounka Trails", "tourism": "information"}}, {"type": "node", "id": 7411473319, "lat": 49.8631623, "lon": 13.5531338, "tags": {"information": "map", "map_size": "region", "map_type": "scheme", "mtb": "yes", "name": "Berounka Trails", "tourism": "information"}}, {"type": "node", "id": 7411473320, "lat": 49.8558161, "lon": 13.5601611, "tags": {"information": "map", "map_size": "region", "map_type": "scheme", "mtb": "yes", "name": "Berounka Trails", "tourism": "information"}}, {"type": "node", "id": 7411473321, "lat": 49.8542027, "lon": 13.56699, "tags": {"information": "guidepost", "mtb": "yes", "operator": "Cykloresort Radnicko", "ref": "none", "tourism": "information"}}, {"type": "node", "id": 7411473322, "lat": 49.8606189, "lon": 13.5595576, "tags": {"information": "map", "map_size": "region", "map_type": "scheme", "mtb": "yes", "name": "Berounka Trails", "tourism": "information"}}, {"type": "node", "id": 7538485809, "lat": 49.7914448, "lon": 13.4915471}, {"type": "node", "id": 7538485811, "lat": 49.7914793, "lon": 13.4915077}, {"type": "node", "id": 7538485812, "lat": 49.7914628, "lon": 13.4914908}, {"type": "node", "id": 7538485813, "lat": 49.7914406, "lon": 13.4915427}, {"type": "node", "id": 7538485814, "lat": 49.7914571, "lon": 13.4915596}, {"type": "node", "id": 7556318399, "lat": 49.7855144, "lon": 13.4968886, "tags": {"bicycle": "yes", "check_date": "2025-07-18", "hiking": "yes", "information": "map", "map_size": "region", "map_type": "topo", "name": "Plze\u0148sko a Rokycansko", "tourism": "information"}}, {"type": "node", "id": 7618727347, "lat": 49.9382528, "lon": 13.5716421, "tags": {"information": "map", "map_size": "region", "map_type": "topo", "tourism": "information"}}, {"type": "node", "id": 7618796363, "lat": 49.9426616, "lon": 13.4637639, "tags": {"information": "map", "map_size": "region", "map_type": "topo", "tourism": "information"}}, {"type": "node", "id": 7618796365, "lat": 49.9301955, "lon": 13.475866, "tags": {"information": "map", "map_size": "region", "map_type": "topo", "tourism": "information"}}, {"type": "node", "id": 7618796367, "lat": 49.9138427, "lon": 13.4954193, "tags": {"information": "map", "map_size": "region", "map_type": "topo", "tourism": "information"}}, {"type": "node", "id": 7618796376, "lat": 49.9183073, "lon": 13.5170299, "tags": {"information": "map", "map_size": "region", "map_type": "topo", "tourism": "information"}}, {"type": "node", "id": 7618796378, "lat": 49.9422948, "lon": 13.5142967, "tags": {"information": "map", "map_size": "region", "map_type": "topo", "tourism": "information"}}, {"type": "node", "id": 7620818012, "lat": 49.9375769, "lon": 13.4286618, "tags": {"information": "map", "map_size": "region", "map_type": "topo", "tourism": "information"}}, {"type": "node", "id": 7620908609, "lat": 49.9146415, "lon": 13.5734716, "tags": {"information": "map", "map_size": "region", "map_type": "topo", "tourism": "information"}}, {"type": "node", "id": 7620908614, "lat": 49.8839325, "lon": 13.468494, "tags": {"information": "map", "map_size": "region", "map_type": "topo", "tourism": "information"}}, {"type": "node", "id": 7620908615, "lat": 49.8838271, "lon": 13.468152, "tags": {"information": "map", "map_size": "region", "map_type": "topo", "tourism": "information"}}, {"type": "node", "id": 7620908617, "lat": 49.8728273, "lon": 13.4744471, "tags": {"information": "map", "map_size": "region", "map_type": "topo", "tourism": "information"}}, {"type": "node", "id": 7620908618, "lat": 49.8728013, "lon": 13.474254, "tags": {"information": "map", "map_size": "region", "map_type": "topo", "tourism": "information"}}, {"type": "node", "id": 7620908621, "lat": 49.8547128, "lon": 13.4850579, "tags": {"information": "map", "map_size": "region", "map_type": "topo", "tourism": "information"}}, {"type": "node", "id": 7620960860, "lat": 49.833699, "lon": 13.5099032, "tags": {"information": "map", "map_size": "region", "map_type": "topo", "tourism": "information"}}, {"type": "node", "id": 7620960863, "lat": 49.8460154, "lon": 13.5107133, "tags": {"information": "map", "map_size": "region", "map_type": "topo", "tourism": "information"}}, {"type": "node", "id": 7620960868, "lat": 49.883058, "lon": 13.5124527, "tags": {"check_date": "2026-01-02", "information": "map", "map_size": "region", "map_type": "topo", "tourism": "information"}}, {"type": "node", "id": 7655063080, "lat": 49.7790657, "lon": 13.4031292, "tags": {"board_type": "nature", "information": "board", "name": "Borovice u S\u00e1dek", "tourism": "information"}}, {"type": "node", "id": 7660474631, "lat": 49.7535292, "lon": 13.5881091}, {"type": "node", "id": 7660474632, "lat": 49.7535437, "lon": 13.5882287}, {"type": "node", "id": 7660474633, "lat": 49.7534853, "lon": 13.5882456}, {"type": "node", "id": 7660474634, "lat": 49.7534708, "lon": 13.5881261}, {"type": "node", "id": 7660474635, "lat": 49.7535021, "lon": 13.588117}, {"type": "node", "id": 7660474645, "lat": 49.7535166, "lon": 13.5882365}, {"type": "node", "id": 7706659437, "lat": 49.8343676, "lon": 13.4049215, "tags": {"information": "board", "name": "Pramen", "ref": "6", "tourism": "information"}}, {"type": "node", "id": 7706659438, "lat": 49.8342576, "lon": 13.4029392, "tags": {"information": "board", "name": "mapa", "ref": "7", "tourism": "information"}}, {"type": "node", "id": 7706659439, "lat": 49.8322107, "lon": 13.4087893, "tags": {"information": "board", "name": "T\u016fn\u011b", "ref": "4", "tourism": "information"}}, {"type": "node", "id": 7706659440, "lat": 49.8310801, "lon": 13.4103926, "tags": {"information": "board", "name": "Mal\u00e1 vodn\u00ed n\u00e1dr\u017e", "ref": "3", "tourism": "information"}}, {"type": "node", "id": 7706659441, "lat": 49.8321605, "lon": 13.4096149, "tags": {"amenity": "shelter", "shelter_type": "picnic_shelter"}}, {"type": "node", "id": 8062254291, "lat": 49.8581186, "lon": 13.52578, "tags": {"information": "board", "name": "Hradi\u0161t\u011b Radn\u00e1", "tourism": "information", "wikipedia": "cs:Radn\u00e1"}}, {"type": "node", "id": 8077317077, "lat": 49.7627891, "lon": 13.4229248, "tags": {"board_type": "history", "check_date": "2025-06-13", "information": "board", "name": "Chlum", "tourism": "information"}}, {"type": "node", "id": 8083599136, "lat": 49.7637499, "lon": 13.4222629, "tags": {"board_type": "history", "check_date": "2025-06-13", "information": "board", "name": "Bukovec", "tourism": "information"}}, {"type": "node", "id": 8091745011, "lat": 49.8592624, "lon": 13.4239894, "tags": {"board_type": "history", "information": "board", "name": "Nau\u010dn\u00e1 stezka B\u00fdkov - \u017dichlice", "ref": "1", "tourism": "information"}}, {"type": "node", "id": 8091745012, "lat": 49.8501542, "lon": 13.4467815, "tags": {"direction": "WNW", "tourism": "viewpoint"}}, {"type": "node", "id": 8091745014, "lat": 49.8501248, "lon": 13.4468324, "tags": {"board_type": "nature", "information": "board", "name": "P\u0159\u00edrodn\u00ed pam\u00e1tka Hromnick\u00e9 jez\u00edrko", "tourism": "information"}}, {"type": "node", "id": 8133968172, "lat": 49.800759, "lon": 13.4878389, "tags": {"information": "board", "name": "NS Chr\u00e1st: \u010cOV Chr\u00e1st", "tourism": "information"}}, {"type": "node", "id": 8134027661, "lat": 49.8022392, "lon": 13.4856817, "tags": {"information": "board", "name": "NS Chr\u00e1st: Poradn\u00ed sk\u00e1la", "tourism": "information"}}, {"type": "node", "id": 8709470426, "lat": 49.904124, "lon": 13.4330377}, {"type": "node", "id": 8709470427, "lat": 49.9040902, "lon": 13.4330901}, {"type": "node", "id": 8709470428, "lat": 49.904048, "lon": 13.4330246}, {"type": "node", "id": 8709470429, "lat": 49.9040817, "lon": 13.4329721}, {"type": "node", "id": 8745451350, "lat": 49.7683197, "lon": 13.4015199, "tags": {"amenity": "shelter", "bench": "yes", "bin": "yes", "check_date": "2025-05-31", "lit": "yes", "lockable": "no", "name": "N\u00e1dra\u017e\u00ed B\u00edl\u00e1 Hora", "operator": "Plze\u0148sk\u00e9 m\u011bstsk\u00e9 dopravn\u00ed podniky", "shelter_type": "public_transport", "wheelchair": "yes"}}, {"type": "node", "id": 8745451351, "lat": 49.7682465, "lon": 13.4008889, "tags": {"amenity": "shelter", "bench": "yes", "bin": "yes", "check_date": "2025-05-31", "lit": "yes", "lockable": "no", "name": "N\u00e1dra\u017e\u00ed B\u00edl\u00e1 Hora", "operator": "Plze\u0148sk\u00e9 m\u011bstsk\u00e9 dopravn\u00ed podniky", "shelter_type": "public_transport", "wheelchair": "yes"}}, {"type": "node", "id": 8816646651, "lat": 49.7722884, "lon": 13.5920044, "tags": {"board_type": "history", "information": "board", "name": "Letohr\u00e1dek Kam\u00fdk", "ref": "3", "tourism": "information"}}, {"type": "node", "id": 8953435974, "lat": 49.7629486, "lon": 13.4224005, "tags": {"board_type": "history", "information": "board", "name": "Tunel Ejpovice", "tourism": "information"}}, {"type": "node", "id": 9066371010, "lat": 49.7768287, "lon": 13.451782, "tags": {"description": "NS Z\u00e1b\u011bl\u00e1", "information": "board", "name": "Ol\u0161ov\u00e1 j\u00e1ma", "ref": "4", "tourism": "information"}}, {"type": "node", "id": 9066386460, "lat": 49.7777073, "lon": 13.4493558, "tags": {"description": "NS Z\u00e1b\u011bl\u00e1", "information": "board", "name": "U podjezdu", "ref": "5", "tourism": "information"}}, {"type": "node", "id": 9066392463, "lat": 49.7983976, "lon": 13.5002223, "tags": {"information": "board", "tourism": "information"}}, {"type": "node", "id": 9066402064, "lat": 49.7758379, "lon": 13.4566857, "tags": {"board_type": "nature", "description": "NS Z\u00e1b\u011bl\u00e1", "information": "board", "name": "U lesn\u00ed \u0161kolky", "ref": "3", "tourism": "information"}}, {"type": "node", "id": 9066403478, "lat": 49.7929766, "lon": 13.494905, "tags": {"information": "board", "tourism": "information"}}, {"type": "node", "id": 9066408216, "lat": 49.848698, "lon": 13.5594498, "tags": {"information": "board", "tourism": "information"}}, {"type": "node", "id": 9066427831, "lat": 49.8232188, "lon": 13.5738312, "tags": {"information": "board", "tourism": "information"}}, {"type": "node", "id": 9066437075, "lat": 49.8185635, "lon": 13.5615032, "tags": {"information": "board", "tourism": "information"}}, {"type": "node", "id": 9066446032, "lat": 49.8286034, "lon": 13.5856872, "tags": {"information": "board", "tourism": "information"}}, {"type": "node", "id": 9087966303, "lat": 49.7672063, "lon": 13.4303583, "tags": {"board_type": "history", "information": "board", "name": "Rozhledna Chlum", "tourism": "information"}}, {"type": "node", "id": 9095227674, "lat": 49.8429339, "lon": 13.5743563, "tags": {"amenity": "shelter"}}, {"type": "node", "id": 9095228917, "lat": 49.8460201, "lon": 13.5756443, "tags": {"information": "board", "name": "\u201eNa Vrch\u00e1ch\u201c - rozhledna m\u00edsto radar\u016f", "tourism": "information"}}, {"type": "node", "id": 9095283235, "lat": 49.8804596, "lon": 13.4629221, "tags": {"amenity": "shelter"}}, {"type": "node", "id": 9095283236, "lat": 49.8804641, "lon": 13.4628054, "tags": {"amenity": "shelter"}}, {"type": "node", "id": 9277905274, "lat": 49.778289, "lon": 13.4480168, "tags": {"information": "board", "tourism": "information"}}, {"type": "node", "id": 9292236115, "lat": 49.9105198, "lon": 13.5329745, "tags": {"description": "NS Krajem Bohumila Kone\u010dn\u00e9ho", "information": "board", "ref": "1", "tourism": "information"}}, {"type": "node", "id": 9292273508, "lat": 49.9147473, "lon": 13.529651, "tags": {"description": "NS Krajem Bohumila Kone\u010dn\u00e9ho", "information": "board", "name": "Soutok St\u0159ely a Berounky", "ref": "3", "tourism": "information"}}, {"type": "node", "id": 9292308884, "lat": 49.9160904, "lon": 13.519285, "tags": {"check_date": "2026-01-02", "description": "NS Krajem Bohumila Kone\u010dn\u00e9ho", "information": "board", "name": "Pipl\u016fv ml\u00fdn", "ref": "4", "tourism": "information"}}, {"type": "node", "id": 9292311671, "lat": 49.9176134, "lon": 13.5456297, "tags": {"description": "NS Krajem Bohumila Kone\u010dn\u00e9ho", "information": "board", "name": "Libl\u00edn", "ref": "2", "tourism": "information"}}, {"type": "node", "id": 9377450057, "lat": 49.7696229, "lon": 13.4271414, "tags": {"name": "Zanikl\u00fd ly\u017ea\u0159sk\u00fd skokansk\u00fd m\u016fstek", "source": "http://rozhlednachlum.8u.cz/skoky.html", "tourism": "attraction", "wheelchair": "no"}}, {"type": "node", "id": 9551951205, "lat": 49.8562007, "lon": 13.5724716, "tags": {"amenity": "shelter"}}, {"type": "node", "id": 9551951206, "lat": 49.856258, "lon": 13.5725087, "tags": {"information": "board", "tourism": "information"}}, {"type": "node", "id": 9551986517, "lat": 49.8460466, "lon": 13.5756881}, {"type": "node", "id": 9754544111, "lat": 49.77112, "lon": 13.4009, "tags": {"information": "board", "name": "V\u00fdukov\u00fd are\u00e1l s vodn\u00edmi prvky na hr\u00e1zi Velk\u00e9ho Boleveck\u00e9ho rybn\u00edka", "source": "survey", "tourism": "information"}}, {"type": "node", "id": 9867774012, "lat": 49.8423193, "lon": 13.5875701}, {"type": "node", "id": 9867774013, "lat": 49.8423262, "lon": 13.587592}, {"type": "node", "id": 9867774014, "lat": 49.8423658, "lon": 13.5875622}, {"type": "node", "id": 9867774015, "lat": 49.842359, "lon": 13.5875402}, {"type": "node", "id": 9933067341, "lat": 49.8305806, "lon": 13.5535975, "tags": {"board_type": "notice", "information": "board", "tourism": "information"}}, {"type": "node", "id": 9952619010, "lat": 49.8926563, "lon": 13.4035153, "tags": {"ele": "494", "name": "Zadn\u00ed Puch\u00fd\u0159", "natural": "peak"}}, {"type": "node", "id": 9963437144, "lat": 49.9328426, "lon": 13.4423405, "tags": {"ele": "486", "name": "Pytel", "natural": "peak"}}, {"type": "node", "id": 10006554234, "lat": 49.8887453, "lon": 13.5187872, "tags": {"description": "Nau\u010dn\u00e1 stezka Ka\u0148onem Horn\u00ed Berounky", "information": "board", "name": "Plaven\u00ed d\u0159eva po Berounce", "ref": "11", "tourism": "information"}}, {"type": "node", "id": 10021560944, "lat": 49.8715998, "lon": 13.4027069}, {"type": "node", "id": 10021560945, "lat": 49.8715874, "lon": 13.4026865}, {"type": "node", "id": 10021560946, "lat": 49.8715565, "lon": 13.4027318}, {"type": "node", "id": 10021560947, "lat": 49.8715689, "lon": 13.4027522}, {"type": "node", "id": 10026424767, "lat": 49.9388945, "lon": 13.5746122, "tags": {"amenity": "shelter"}}, {"type": "node", "id": 10026424769, "lat": 49.9387398, "lon": 13.5745598, "tags": {"board_type": "history", "information": "board", "name": "Obec Bohy", "subject:wikidata": "Q42572", "subject:wikipedia": "cs:Bohy", "tourism": "information"}}, {"type": "node", "id": 10291836414, "lat": 49.7786666, "lon": 13.531642}, {"type": "node", "id": 10291836415, "lat": 49.7786437, "lon": 13.5316053}, {"type": "node", "id": 10291836416, "lat": 49.7786827, "lon": 13.5315472}, {"type": "node", "id": 10291836417, "lat": 49.7787056, "lon": 13.531584}, {"type": "node", "id": 10295393838, "lat": 49.7444036, "lon": 13.3795608}, {"type": "node", "id": 10295393839, "lat": 49.7444032, "lon": 13.3795579}, {"type": "node", "id": 10295393840, "lat": 49.7444022, "lon": 13.3795554}, {"type": "node", "id": 10295393841, "lat": 49.7443923, "lon": 13.3795657}, {"type": "node", "id": 10295393842, "lat": 49.7443936, "lon": 13.3795682}, {"type": "node", "id": 10295393843, "lat": 49.7443953, "lon": 13.3795699}, {"type": "node", "id": 10295393844, "lat": 49.7444007, "lon": 13.3795534}, {"type": "node", "id": 10295393845, "lat": 49.7443989, "lon": 13.3795524}, {"type": "node", "id": 10295393846, "lat": 49.744397, "lon": 13.3795522}, {"type": "node", "id": 10295393847, "lat": 49.7443952, "lon": 13.379553}, {"type": "node", "id": 10295393848, "lat": 49.7443936, "lon": 13.3795547}, {"type": "node", "id": 10295393849, "lat": 49.7443924, "lon": 13.379557}, {"type": "node", "id": 10295393850, "lat": 49.7443918, "lon": 13.3795598}, {"type": "node", "id": 10295393851, "lat": 49.7443918, "lon": 13.3795628}, {"type": "node", "id": 10295393852, "lat": 49.7443973, "lon": 13.3795707}, {"type": "node", "id": 10295393853, "lat": 49.7443993, "lon": 13.3795703}, {"type": "node", "id": 10295393854, "lat": 49.7444011, "lon": 13.379569}, {"type": "node", "id": 10295393855, "lat": 49.7444026, "lon": 13.3795668}, {"type": "node", "id": 10295393856, "lat": 49.7444034, "lon": 13.3795639}, {"type": "node", "id": 10295393877, "lat": 49.7448383, "lon": 13.3795819}, {"type": "node", "id": 10295393878, "lat": 49.7448403, "lon": 13.3795816}, {"type": "node", "id": 10295393879, "lat": 49.7448421, "lon": 13.3795803}, {"type": "node", "id": 10295393880, "lat": 49.7448436, "lon": 13.3795781}, {"type": "node", "id": 10295393881, "lat": 49.7448444, "lon": 13.3795752}, {"type": "node", "id": 10295393882, "lat": 49.7448447, "lon": 13.3795721}, {"type": "node", "id": 10295393883, "lat": 49.7448442, "lon": 13.3795692}, {"type": "node", "id": 10295393884, "lat": 49.7448432, "lon": 13.3795666}, {"type": "node", "id": 10295393885, "lat": 49.7448417, "lon": 13.3795647}, {"type": "node", "id": 10295393886, "lat": 49.7448399, "lon": 13.3795636}, {"type": "node", "id": 10295393887, "lat": 49.744838, "lon": 13.3795635}, {"type": "node", "id": 10295393888, "lat": 49.7448362, "lon": 13.3795643}, {"type": "node", "id": 10295393889, "lat": 49.7448346, "lon": 13.379566}, {"type": "node", "id": 10295393890, "lat": 49.7448334, "lon": 13.3795683}, {"type": "node", "id": 10295393891, "lat": 49.7448328, "lon": 13.3795711}, {"type": "node", "id": 10295393892, "lat": 49.7448328, "lon": 13.3795741}, {"type": "node", "id": 10295393893, "lat": 49.7448334, "lon": 13.3795769}, {"type": "node", "id": 10295393894, "lat": 49.7448346, "lon": 13.3795795}, {"type": "node", "id": 10295393895, "lat": 49.7448363, "lon": 13.3795812}, {"type": "node", "id": 10295393896, "lat": 49.7448506, "lon": 13.3780625}, {"type": "node", "id": 10295393897, "lat": 49.7448527, "lon": 13.3780622}, {"type": "node", "id": 10295393898, "lat": 49.7448545, "lon": 13.3780609}, {"type": "node", "id": 10295393899, "lat": 49.7448559, "lon": 13.3780586}, {"type": "node", "id": 10295393900, "lat": 49.7448568, "lon": 13.3780558}, {"type": "node", "id": 10295393901, "lat": 49.744857, "lon": 13.3780527}, {"type": "node", "id": 10295393902, "lat": 49.7448566, "lon": 13.3780498}, {"type": "node", "id": 10295393903, "lat": 49.7448556, "lon": 13.3780472}, {"type": "node", "id": 10295393904, "lat": 49.7448541, "lon": 13.3780453}, {"type": "node", "id": 10295393905, "lat": 49.7448523, "lon": 13.3780442}, {"type": "node", "id": 10295393906, "lat": 49.7448504, "lon": 13.3780441}, {"type": "node", "id": 10295393907, "lat": 49.7448486, "lon": 13.3780449}, {"type": "node", "id": 10295393908, "lat": 49.744847, "lon": 13.3780465}, {"type": "node", "id": 10295414409, "lat": 49.7448458, "lon": 13.3780489}, {"type": "node", "id": 10295414410, "lat": 49.7448452, "lon": 13.3780517}, {"type": "node", "id": 10295414411, "lat": 49.7448451, "lon": 13.3780547}, {"type": "node", "id": 10295414412, "lat": 49.7448457, "lon": 13.3780575}, {"type": "node", "id": 10295414413, "lat": 49.744847, "lon": 13.37806}, {"type": "node", "id": 10295414414, "lat": 49.7448487, "lon": 13.3780618}, {"type": "node", "id": 10295414415, "lat": 49.7449676, "lon": 13.376788}, {"type": "node", "id": 10295414416, "lat": 49.7449696, "lon": 13.3767877}, {"type": "node", "id": 10295414417, "lat": 49.7449715, "lon": 13.3767863}, {"type": "node", "id": 10295414418, "lat": 49.7449729, "lon": 13.3767841}, {"type": "node", "id": 10295414419, "lat": 49.7449738, "lon": 13.3767813}, {"type": "node", "id": 10295414420, "lat": 49.744974, "lon": 13.3767781}, {"type": "node", "id": 10295414421, "lat": 49.7449736, "lon": 13.3767752}, {"type": "node", "id": 10295414422, "lat": 49.7449726, "lon": 13.3767727}, {"type": "node", "id": 10295414423, "lat": 49.7449711, "lon": 13.3767708}, {"type": "node", "id": 10295414424, "lat": 49.7449693, "lon": 13.3767697}, {"type": "node", "id": 10295414425, "lat": 49.7449674, "lon": 13.3767695}, {"type": "node", "id": 10295414426, "lat": 49.7449655, "lon": 13.3767703}, {"type": "node", "id": 10295414427, "lat": 49.7449639, "lon": 13.376772}, {"type": "node", "id": 10295414428, "lat": 49.7449628, "lon": 13.3767744}, {"type": "node", "id": 10295414429, "lat": 49.7449621, "lon": 13.3767772}, {"type": "node", "id": 10295414430, "lat": 49.7449621, "lon": 13.3767802}, {"type": "node", "id": 10295414431, "lat": 49.7449627, "lon": 13.376783}, {"type": "node", "id": 10295414432, "lat": 49.7449639, "lon": 13.3767855}, {"type": "node", "id": 10295414433, "lat": 49.7449656, "lon": 13.3767872}, {"type": "node", "id": 10295414437, "lat": 49.7466242, "lon": 13.3796331}, {"type": "node", "id": 10295414438, "lat": 49.7466262, "lon": 13.3796327}, {"type": "node", "id": 10295414439, "lat": 49.746628, "lon": 13.3796314}, {"type": "node", "id": 10295414440, "lat": 49.7466295, "lon": 13.3796292}, {"type": "node", "id": 10295414441, "lat": 49.7466303, "lon": 13.3796263}, {"type": "node", "id": 10295414442, "lat": 49.7466305, "lon": 13.3796232}, {"type": "node", "id": 10295414443, "lat": 49.7466301, "lon": 13.3796203}, {"type": "node", "id": 10295414444, "lat": 49.7466291, "lon": 13.3796178}, {"type": "node", "id": 10295414445, "lat": 49.7466276, "lon": 13.3796158}, {"type": "node", "id": 10295414446, "lat": 49.7466258, "lon": 13.3796148}, {"type": "node", "id": 10295414447, "lat": 49.7466239, "lon": 13.3796146}, {"type": "node", "id": 10295414448, "lat": 49.7466221, "lon": 13.3796154}, {"type": "node", "id": 10295414449, "lat": 49.7466205, "lon": 13.3796171}, {"type": "node", "id": 10295414450, "lat": 49.7466193, "lon": 13.3796194}, {"type": "node", "id": 10295414451, "lat": 49.7466187, "lon": 13.3796222}, {"type": "node", "id": 10295414452, "lat": 49.7466187, "lon": 13.3796252}, {"type": "node", "id": 10295414453, "lat": 49.7466192, "lon": 13.3796281}, {"type": "node", "id": 10295414454, "lat": 49.7466205, "lon": 13.3796306}, {"type": "node", "id": 10295414455, "lat": 49.7466222, "lon": 13.3796323}, {"type": "node", "id": 10295414456, "lat": 49.7389587, "lon": 13.3879189}, {"type": "node", "id": 10295414457, "lat": 49.7389607, "lon": 13.3879186}, {"type": "node", "id": 10295414458, "lat": 49.7389625, "lon": 13.3879173}, {"type": "node", "id": 10295414459, "lat": 49.738964, "lon": 13.387915}, {"type": "node", "id": 10295414460, "lat": 49.7389648, "lon": 13.3879122}, {"type": "node", "id": 10295414461, "lat": 49.7389651, "lon": 13.3879091}, {"type": "node", "id": 10295414462, "lat": 49.7389646, "lon": 13.3879062}, {"type": "node", "id": 10295414463, "lat": 49.7389636, "lon": 13.3879036}, {"type": "node", "id": 10295414464, "lat": 49.7389621, "lon": 13.3879017}, {"type": "node", "id": 10295414465, "lat": 49.7389604, "lon": 13.3879006}, {"type": "node", "id": 10295414466, "lat": 49.7389584, "lon": 13.3879005}, {"type": "node", "id": 10295414467, "lat": 49.7389566, "lon": 13.3879013}, {"type": "node", "id": 10295414468, "lat": 49.738955, "lon": 13.3879029}, {"type": "node", "id": 10295414469, "lat": 49.7389538, "lon": 13.3879053}, {"type": "node", "id": 10295414470, "lat": 49.7389532, "lon": 13.3879081}, {"type": "node", "id": 10295414471, "lat": 49.7389532, "lon": 13.3879111}, {"type": "node", "id": 10295414472, "lat": 49.7389538, "lon": 13.3879139}, {"type": "node", "id": 10295414473, "lat": 49.738955, "lon": 13.3879164}, {"type": "node", "id": 10295414474, "lat": 49.7389567, "lon": 13.3879182}, {"type": "node", "id": 10295414475, "lat": 49.7319633, "lon": 13.3752229}, {"type": "node", "id": 10295414476, "lat": 49.7319654, "lon": 13.3752225}, {"type": "node", "id": 10295414477, "lat": 49.7319672, "lon": 13.3752212}, {"type": "node", "id": 10295414478, "lat": 49.7319687, "lon": 13.375219}, {"type": "node", "id": 10295414479, "lat": 49.7319695, "lon": 13.3752161}, {"type": "node", "id": 10295414480, "lat": 49.7319697, "lon": 13.375213}, {"type": "node", "id": 10295414481, "lat": 49.7319693, "lon": 13.3752101}, {"type": "node", "id": 10295414482, "lat": 49.7319683, "lon": 13.3752076}, {"type": "node", "id": 10295414483, "lat": 49.7319668, "lon": 13.3752056}, {"type": "node", "id": 10295414484, "lat": 49.731965, "lon": 13.3752046}, {"type": "node", "id": 10295414485, "lat": 49.7319631, "lon": 13.3752044}, {"type": "node", "id": 10295414486, "lat": 49.7319613, "lon": 13.3752052}, {"type": "node", "id": 10295414487, "lat": 49.7319597, "lon": 13.3752069}, {"type": "node", "id": 10295414488, "lat": 49.7319585, "lon": 13.3752092}, {"type": "node", "id": 10295414489, "lat": 49.7319579, "lon": 13.375212}, {"type": "node", "id": 10295414490, "lat": 49.7319579, "lon": 13.375215}, {"type": "node", "id": 10295414491, "lat": 49.7319584, "lon": 13.3752179}, {"type": "node", "id": 10295414492, "lat": 49.7319597, "lon": 13.3752204}, {"type": "node", "id": 10295414493, "lat": 49.7319614, "lon": 13.3752221}, {"type": "node", "id": 10295414494, "lat": 49.7525853, "lon": 13.415539}, {"type": "node", "id": 10295414495, "lat": 49.7525874, "lon": 13.4155387}, {"type": "node", "id": 10295414496, "lat": 49.7525892, "lon": 13.4155373}, {"type": "node", "id": 10295414497, "lat": 49.7525906, "lon": 13.4155351}, {"type": "node", "id": 10295414498, "lat": 49.7525915, "lon": 13.4155323}, {"type": "node", "id": 10295414499, "lat": 49.7525917, "lon": 13.4155291}, {"type": "node", "id": 10295414500, "lat": 49.7525913, "lon": 13.4155262}, {"type": "node", "id": 10295414501, "lat": 49.7525903, "lon": 13.4155237}, {"type": "node", "id": 10295414502, "lat": 49.7525888, "lon": 13.4155218}, {"type": "node", "id": 10295414503, "lat": 49.752587, "lon": 13.4155207}, {"type": "node", "id": 10295414504, "lat": 49.7525851, "lon": 13.4155205}, {"type": "node", "id": 10295414505, "lat": 49.7525833, "lon": 13.4155213}, {"type": "node", "id": 10295414506, "lat": 49.7525817, "lon": 13.415523}, {"type": "node", "id": 10295414507, "lat": 49.7525805, "lon": 13.4155253}, {"type": "node", "id": 10295414508, "lat": 49.7525799, "lon": 13.4155282}, {"type": "node", "id": 10295414509, "lat": 49.7525798, "lon": 13.4155311}, {"type": "node", "id": 10295414510, "lat": 49.7525804, "lon": 13.415534}, {"type": "node", "id": 10295414511, "lat": 49.7525817, "lon": 13.4155365}, {"type": "node", "id": 10295414512, "lat": 49.7525834, "lon": 13.4155382}, {"type": "node", "id": 10295414513, "lat": 49.7835295, "lon": 13.3829965}, {"type": "node", "id": 10295414514, "lat": 49.7835315, "lon": 13.3829962}, {"type": "node", "id": 10295414515, "lat": 49.7835333, "lon": 13.3829949}, {"type": "node", "id": 10295414516, "lat": 49.7835348, "lon": 13.3829927}, {"type": "node", "id": 10295414517, "lat": 49.7835356, "lon": 13.3829898}, {"type": "node", "id": 10295414518, "lat": 49.7835359, "lon": 13.3829867}, {"type": "node", "id": 10295414519, "lat": 49.7835354, "lon": 13.3829838}, {"type": "node", "id": 10295414520, "lat": 49.7835344, "lon": 13.3829812}, {"type": "node", "id": 10295414521, "lat": 49.7835329, "lon": 13.3829793}, {"type": "node", "id": 10295414522, "lat": 49.7835312, "lon": 13.3829782}, {"type": "node", "id": 10295414523, "lat": 49.7835292, "lon": 13.3829781}, {"type": "node", "id": 10295414524, "lat": 49.7835274, "lon": 13.3829789}, {"type": "node", "id": 10295414525, "lat": 49.7835258, "lon": 13.3829805}, {"type": "node", "id": 10295414526, "lat": 49.7835246, "lon": 13.3829829}, {"type": "node", "id": 10295414527, "lat": 49.783524, "lon": 13.3829857}, {"type": "node", "id": 10295414528, "lat": 49.783524, "lon": 13.3829887}, {"type": "node", "id": 10295414529, "lat": 49.7835246, "lon": 13.3829915}, {"type": "node", "id": 10295414530, "lat": 49.7835258, "lon": 13.382994}, {"type": "node", "id": 10295414531, "lat": 49.7835275, "lon": 13.3829958}, {"type": "node", "id": 10691374948, "lat": 49.9141123, "lon": 13.5289689, "tags": {"direction": "75", "name": "Karv\u00e1nka", "tourism": "viewpoint"}}, {"type": "node", "id": 10716252682, "lat": 49.8992486, "lon": 13.5648881, "tags": {"description": "Z\u0159\u00edcenina gotick\u00e9ho hradu", "information": "board", "name": "Lib\u0161tejn", "tourism": "information"}}, {"type": "node", "id": 10743420834, "lat": 49.9010855, "lon": 13.411922, "tags": {"ele": "476", "name": "K\u0159\u00edstal\u016fv vrch", "natural": "peak"}}, {"type": "node", "id": 10870394436, "lat": 49.7785964, "lon": 13.5036703, "tags": {"board_type": "history", "information": "board", "name": "Od sokolsk\u00e9ho cvi\u010den\u00ed ke skate parku s in-line dr\u00e1hou", "tourism": "information"}}, {"type": "node", "id": 10870503497, "lat": 49.7780636, "lon": 13.4911138, "tags": {"information": "board", "name": "obec D\u00fd\u0161ina", "tourism": "information"}}, {"type": "node", "id": 10908121747, "lat": 49.772692, "lon": 13.5882372, "tags": {"direction": "270", "tourism": "viewpoint"}}, {"type": "node", "id": 10970524310, "lat": 49.7780521, "lon": 13.5955153, "tags": {"city": "yes", "information": "guidepost", "ref": "none", "tourism": "information"}}, {"type": "node", "id": 10989398128, "lat": 49.9308957, "lon": 13.5572769, "tags": {"direction": "180", "name": "skaln\u00ed vyhl\u00eddka Pavu\u010dina", "tourism": "viewpoint"}}, {"type": "node", "id": 11003428260, "lat": 49.794988, "lon": 13.4556675, "tags": {"amenity": "shelter"}}, {"type": "node", "id": 11140498688, "lat": 49.9416878, "lon": 13.4652603, "tags": {"information": "map", "name": "Na kole po barokn\u00edch perl\u00e1ch", "tourism": "information"}}, {"type": "node", "id": 11140546926, "lat": 49.9232922, "lon": 13.4608972, "tags": {"information": "board", "name": "Sv. Jilj\u00ed", "tourism": "information"}}, {"type": "node", "id": 11143154916, "lat": 49.8289356, "lon": 13.4063097, "tags": {"description": "Tremo\u0161n\u00e1 Nau\u010dn\u00e1 stezka Okolo b\u0159eh\u016f", "information": "board", "name": "Kyzov\u00e9 b\u0159idlice", "ref": "2", "tourism": "information"}}, {"type": "node", "id": 11143184787, "lat": 49.827315, "lon": 13.4038608, "tags": {"description": "Tremo\u0161n\u00e1 Nau\u010dn\u00e1 stezka Okolo b\u0159eh\u016f", "information": "board", "name": "Okolo b\u0159eh\u016f", "ref": "1", "tourism": "information"}}, {"type": "node", "id": 11143194742, "lat": 49.8329511, "lon": 13.4057692, "tags": {"description": "Tremo\u0161n\u00e1 Nau\u010dn\u00e1 stezka Okolo b\u0159eh\u016f", "information": "board", "name": "Lesn\u00ed fauna a fl\u00f3ra", "ref": "5", "tourism": "information"}}, {"type": "node", "id": 11143197788, "lat": 49.8892758, "lon": 13.4135737, "tags": {"information": "map", "name": "Na kole po barokn\u00edch perl\u00e1ch", "source": "survey", "tourism": "information"}}, {"type": "node", "id": 11186544474, "lat": 49.7651136, "lon": 13.5664396, "tags": {"amenity": "shelter", "shelter_type": "picnic_shelter"}}, {"type": "node", "id": 11186544476, "lat": 49.7579672, "lon": 13.5660131, "tags": {"amenity": "shelter", "shelter_type": "picnic_shelter"}}, {"type": "node", "id": 11188807899, "lat": 49.7782328, "lon": 13.5979747, "tags": {"board_type": "history", "information": "board", "name": "Letohr\u00e1dek Kam\u00fdk a z\u00e1mek Osek", "tourism": "information"}}, {"type": "node", "id": 11292596302, "lat": 49.7756585, "lon": 13.5839552, "tags": {"ele": "401", "hiking": "yes", "information": "guidepost", "name": "Osek (rozc.)", "operator": "cz:K\u010cT", "ref": "RO187", "tourism": "information"}}, {"type": "node", "id": 11392196511, "lat": 49.8852396, "lon": 13.4212193, "tags": {"name": "Nejmen\u0161\u00ed rozhledna v \u010cesk\u00e9 republice", "tourism": "attraction"}}, {"type": "node", "id": 11429312811, "lat": 49.7645039, "lon": 13.5667755, "tags": {"amenity": "shelter", "shelter_type": "public_transport"}}, {"type": "node", "id": 11468911037, "lat": 49.7637381, "lon": 13.4141515, "tags": {"information": "guidepost", "name": "Kostel svat\u00e9ho Ji\u0159\u00ed", "tourism": "information"}}, {"type": "node", "id": 11518696801, "lat": 49.7980033, "lon": 13.4674503, "tags": {"description": "Nau\u010dn\u00e1 stezka Z\u00e1b\u011bl\u00e1", "information": "board", "name": "Dolansk\u00fd most", "ref": "i/3", "tourism": "information"}}, {"type": "node", "id": 11518739990, "lat": 49.7844008, "lon": 13.4178772, "tags": {"description": "Po stop\u00e1ch Franti\u0161ka Malocha", "information": "board", "name": "Tvrz Roudn\u00e1", "ref": "2", "tourism": "information"}}, {"type": "node", "id": 11518938918, "lat": 49.7886892, "lon": 13.4460255, "tags": {"description": "Po stop\u00e1ch Franti\u0161ka Malocha", "information": "board", "name": "Poles\u00ed H\u00e1j", "ref": "9", "tourism": "information"}}, {"type": "node", "id": 11518949726, "lat": 49.7848838, "lon": 13.4358142, "tags": {"description": "Po stop\u00e1ch Franti\u0161ka Malocha", "information": "board", "name": "Botanik Franti\u0161ek Maloch", "ref": "4", "tourism": "information"}}, {"type": "node", "id": 11602968017, "lat": 49.8496682, "lon": 13.422996, "tags": {"name": "\u0160kubal\u016fv vrch", "natural": "peak"}}, {"type": "node", "id": 11764580105, "lat": 49.8442245, "lon": 13.5623363, "tags": {"description": "NS Po stop\u00e1ch d\u016fln\u00ed \u010dinnosti na B\u0159asku", "information": "board", "name": "D\u00edreck\u00fd potok - voda v podzem\u00ed a na povrchu", "ref": "4", "tourism": "information"}}, {"type": "node", "id": 11764582783, "lat": 49.8323807, "lon": 13.5687547, "tags": {"description": "NS Po stop\u00e1ch d\u016fln\u00ed \u010dinnosti na B\u0159asku", "information": "board", "name": "Stopy t\u011b\u017eby uhl\u00ed a pr\u016fmyslov\u00e9 revoluce na B\u0159asku", "ref": "1", "tourism": "information"}}, {"type": "node", "id": 11764582887, "lat": 49.8396498, "lon": 13.5596086, "tags": {"description": "NS Po stop\u00e1ch d\u016fln\u00ed \u010dinnosti na B\u0159asku", "information": "board", "name": "Uhlobaronsk\u00fd z\u00e1me\u010dek Hochperk", "ref": "2", "tourism": "information"}}, {"type": "node", "id": 11764582939, "lat": 49.8410038, "lon": 13.5624707, "tags": {"description": "NS Po stop\u00e1ch d\u016fln\u00ed \u010dinnosti na B\u0159asku", "information": "board", "name": "D\u016fln\u00ed \u00fazkokolejky a lanovky", "ref": "3", "tourism": "information"}}, {"type": "node", "id": 11764625275, "lat": 49.844804, "lon": 13.5670589, "tags": {"description": "NS Po stop\u00e1ch d\u016fln\u00ed \u010dinnosti na B\u0159asku", "information": "board", "name": "Vranovick\u00e9 jezero - rekreace v poddolovan\u00e9m \u00fazem\u00ed", "ref": "6", "tourism": "information"}}, {"type": "node", "id": 11764661750, "lat": 49.8325979, "lon": 13.5721827, "tags": {"description": "NS Po stop\u00e1ch d\u016fln\u00ed \u010dinnosti na B\u0159asku", "information": "board", "name": "Odkliz Florentina (Flora) - t\u011b\u017eba a odpady", "ref": "8", "tourism": "information"}}, {"type": "node", "id": 11764665837, "lat": 49.8394034, "lon": 13.5668731, "tags": {"description": "NS Po stop\u00e1ch d\u016fln\u00ed \u010dinnosti na B\u0159asku", "information": "board", "name": "D\u016fl Liewald (Matylda I) a okoln\u00ed olejny", "ref": "7", "tourism": "information"}}, {"type": "node", "id": 11764679120, "lat": 49.8473022, "lon": 13.562068, "tags": {"description": "NS Po stop\u00e1ch d\u016fln\u00ed \u010dinnosti na B\u0159asku", "information": "board", "name": "D\u016fl Terezie a odkliz Kristi\u00e1n - karbonsk\u00fd prales", "ref": "5", "tourism": "information"}}, {"type": "node", "id": 11822103263, "lat": 49.761665, "lon": 13.4055085, "tags": {"board_type": "history", "information": "board", "note": "Informa\u010dn\u00ed tabule o n\u00e1letu na b\u00fdvalou kolonii Cik\u00e1nka.", "tourism": "information"}}, {"type": "node", "id": 11822109264, "lat": 49.7614415, "lon": 13.4054949, "tags": {"board_type": "history", "information": "board", "note": "Informa\u010dn\u00ed tabule o bombardov\u00e1n\u00ed Plzn\u011b.", "tourism": "information"}}, {"type": "node", "id": 11822131138, "lat": 49.7617982, "lon": 13.4055809, "tags": {"board_type": "history", "information": "board", "note": "Informa\u010dn\u00ed tabule o bombardov\u00e1n\u00ed Plzn\u011b.", "tourism": "information"}}, {"type": "node", "id": 11953403648, "lat": 49.7952096, "lon": 13.4954512, "tags": {"information": "board", "tourism": "information"}}, {"type": "node", "id": 12188745303, "lat": 49.7740316, "lon": 13.4218244, "tags": {"board_type": "geology", "description": "Nau\u010dn\u00e1 stezka \u00dadol\u00edm Berounky", "information": "board", "name": "\u00dadol\u00ed pod B\u00edlou Horou", "ref": "5", "tourism": "information"}}, {"type": "node", "id": 12195041348, "lat": 49.7784542, "lon": 13.4470708, "tags": {"board_type": "history", "description": "Nau\u010dn\u00e1 stezka Z\u00e1b\u011bl\u00e1", "information": "board", "name": "Restaurace", "ref": "7", "tourism": "information"}}, {"type": "node", "id": 12195120581, "lat": 49.7764286, "lon": 13.4473089, "tags": {"board_type": "nature", "description": "NS Z\u00e1b\u011bl\u00e1", "information": "board", "name": "Koz\u00ed bouda", "ref": "6", "tourism": "information"}}, {"type": "node", "id": 12400792444, "lat": 49.8599882, "lon": 13.5696111, "tags": {"board_type": "history", "information": "board", "name": "\u00dajezd u Svat\u00e9ho K\u0159\u00ed\u017ee", "tourism": "information"}}, {"type": "node", "id": 12400795198, "lat": 49.8343762, "lon": 13.550317, "tags": {"information": "map", "map_type": "cycleway", "name": "K\u0159\u00ed\u0161e", "tourism": "information"}}, {"type": "node", "id": 12533757426, "lat": 49.8294013, "lon": 13.5863939, "tags": {"direction": "350", "tourism": "viewpoint"}}, {"type": "node", "id": 12536024423, "lat": 49.7649077, "lon": 13.4166538, "tags": {"description": "V\u00fdhled na Berounku", "direction": "45", "tourism": "viewpoint", "wheelchair": "no"}}, {"type": "node", "id": 12541156520, "lat": 49.8765374, "lon": 13.5732814, "tags": {"amenity": "shelter"}}, {"type": "node", "id": 12543293134, "lat": 49.767439, "lon": 13.4196653, "tags": {"alt_name": "Skaln\u00ed vyhl\u00eddka na Berounku", "check_date": "2024-12-19", "direction": "west", "name": "Vyhl\u00eddka na \u0159eku Berounku", "name:en": "Berounka river lookout place", "tourism": "viewpoint", "wheelchair": "no"}}, {"type": "node", "id": 12544887719, "lat": 49.8169358, "lon": 13.5754759}, {"type": "node", "id": 12544887720, "lat": 49.8169239, "lon": 13.5755447}, {"type": "node", "id": 12545000927, "lat": 49.8160798, "lon": 13.5641363}, {"type": "node", "id": 12545016155, "lat": 49.8064124, "lon": 13.5434233}, {"type": "node", "id": 12545016156, "lat": 49.8063993, "lon": 13.543446}, {"type": "node", "id": 12545016157, "lat": 49.806419, "lon": 13.5434733}, {"type": "node", "id": 12545016158, "lat": 49.8064321, "lon": 13.5434506}, {"type": "node", "id": 12545047187, "lat": 49.8001153, "lon": 13.4969356}, {"type": "node", "id": 12545047188, "lat": 49.8001268, "lon": 13.4969181}, {"type": "node", "id": 12545047189, "lat": 49.8001348, "lon": 13.4969666}, {"type": "node", "id": 12545047190, "lat": 49.8001464, "lon": 13.4969491}, {"type": "node", "id": 12545073709, "lat": 49.7914669, "lon": 13.4914951}, {"type": "node", "id": 12545525682, "lat": 49.7673418, "lon": 13.5043051}, {"type": "node", "id": 12545525683, "lat": 49.7673408, "lon": 13.5043431}, {"type": "node", "id": 12545525684, "lat": 49.7674068, "lon": 13.5043472}, {"type": "node", "id": 12545525685, "lat": 49.7674078, "lon": 13.5043092}, {"type": "node", "id": 12590074473, "lat": 49.8824623, "lon": 13.5974282, "tags": {"direction": "S", "hiking": "yes", "name": "V\u00fdhled na Kamenec", "tourism": "viewpoint", "wheelchair": "no"}}, {"type": "node", "id": 12604369043, "lat": 49.9268306, "lon": 13.5131587, "tags": {"ele": "390", "name": "Za Kamen\u00edkov\u00fdm", "natural": "peak", "summit:cross": "no", "summit:register": "no"}}, {"type": "node", "id": 12615982193, "lat": 49.7527724, "lon": 13.5453329, "tags": {"board_type": "nature", "information": "board", "name": "Vodn\u00ed d\u00edlo Klabava", "tourism": "information"}}, {"type": "node", "id": 12638278634, "lat": 49.7618734, "lon": 13.4054876, "tags": {"board_type": "tourism", "information": "board", "name": "T\u00fdnec", "tourism": "information"}}, {"type": "node", "id": 12638315524, "lat": 49.8008797, "lon": 13.5035689, "tags": {"board_type": "history", "information": "board", "name": "Chr\u00e1st", "tourism": "information"}}, {"type": "node", "id": 12655775472, "lat": 49.7807747, "lon": 13.5899817}, {"type": "node", "id": 12655775473, "lat": 49.7807679, "lon": 13.5899823}, {"type": "node", "id": 12655775474, "lat": 49.7807615, "lon": 13.5899861}, {"type": "node", "id": 12655775475, "lat": 49.7807562, "lon": 13.5899928}, {"type": "node", "id": 12655775476, "lat": 49.7807638, "lon": 13.5900462}, {"type": "node", "id": 12655775477, "lat": 49.7807711, "lon": 13.5900489}, {"type": "node", "id": 12655775478, "lat": 49.7807785, "lon": 13.5900476}, {"type": "node", "id": 12655775479, "lat": 49.7807852, "lon": 13.5900425}, {"type": "node", "id": 12655775480, "lat": 49.7807904, "lon": 13.5900343}, {"type": "node", "id": 12655775481, "lat": 49.7807525, "lon": 13.5900017}, {"type": "node", "id": 12655775482, "lat": 49.7807507, "lon": 13.590012}, {"type": "node", "id": 12655775483, "lat": 49.7807511, "lon": 13.5900225}, {"type": "node", "id": 12655775484, "lat": 49.7807537, "lon": 13.5900324}, {"type": "node", "id": 12655775485, "lat": 49.780758, "lon": 13.5900406}, {"type": "node", "id": 12655775486, "lat": 49.7807935, "lon": 13.5900238}, {"type": "node", "id": 12655775487, "lat": 49.7807941, "lon": 13.5900123}, {"type": "node", "id": 12655775488, "lat": 49.7807922, "lon": 13.5900011}, {"type": "node", "id": 12655775489, "lat": 49.7807879, "lon": 13.5899916}, {"type": "node", "id": 12655775490, "lat": 49.7807819, "lon": 13.5899849}, {"type": "node", "id": 12840139218, "lat": 49.8768972, "lon": 13.5407475}, {"type": "node", "id": 12840139219, "lat": 49.8768759, "lon": 13.5407246}, {"type": "node", "id": 12840139220, "lat": 49.8768617, "lon": 13.5407564}, {"type": "node", "id": 12840139221, "lat": 49.876883, "lon": 13.5407793}, {"type": "node", "id": 12949555264, "lat": 49.8775696, "lon": 13.4466281, "tags": {"board_type": "nature", "information": "board", "name": "U strostl\u00e9ho buhu", "tourism": "information"}}, {"type": "node", "id": 13034224387, "lat": 49.9425902, "lon": 13.463703, "tags": {"hiking": "yes", "information": "guidepost", "name": "Kopidlo", "operator": "cz:K\u010cT", "ref": "PS164", "tourism": "information"}}, {"type": "node", "id": 13059409714, "lat": 49.8858385, "lon": 13.4115069, "tags": {"ele": "508", "name": "Za Farou", "natural": "peak"}}, {"type": "node", "id": 13059409728, "lat": 49.8758053, "lon": 13.4269452, "tags": {"ele": "476", "name": "U Prokopa", "natural": "peak", "place": "locality"}}, {"type": "node", "id": 13059409729, "lat": 49.8672486, "lon": 13.4543088, "tags": {"ele": "412", "name": "Prost\u0159edn\u00ed vrch", "natural": "peak"}}, {"type": "node", "id": 13059409776, "lat": 49.8965722, "lon": 13.4312689, "tags": {"ele": "427", "natural": "peak"}}, {"type": "node", "id": 13059409777, "lat": 49.8944089, "lon": 13.4304213, "tags": {"ele": "449", "natural": "peak"}}, {"type": "node", "id": 13059409778, "lat": 49.8935311, "lon": 13.4260225, "tags": {"ele": "452", "natural": "peak"}}, {"type": "node", "id": 13059409779, "lat": 49.8891659, "lon": 13.4308547, "tags": {"ele": "475", "natural": "peak"}}, {"type": "node", "id": 13059785670, "lat": 49.9435965, "lon": 13.4430854, "tags": {"ele": "503", "natural": "peak"}}, {"type": "node", "id": 13059785680, "lat": 49.9368065, "lon": 13.4488228, "tags": {"ele": "492", "natural": "peak"}}, {"type": "node", "id": 13059848421, "lat": 49.9194024, "lon": 13.4273538, "tags": {"ele": "411", "natural": "peak"}}, {"type": "node", "id": 13059848447, "lat": 49.8967598, "lon": 13.4528025, "tags": {"ele": "426", "natural": "peak"}}, {"type": "node", "id": 13089006830, "lat": 49.8326384, "lon": 13.52416}, {"type": "node", "id": 13089006831, "lat": 49.8326317, "lon": 13.5241761}, {"type": "node", "id": 13089006832, "lat": 49.8326339, "lon": 13.5241968}, {"type": "node", "id": 13089006833, "lat": 49.8326445, "lon": 13.5242092}, {"type": "node", "id": 13089006834, "lat": 49.8326575, "lon": 13.5242054}, {"type": "node", "id": 13089006835, "lat": 49.8326653, "lon": 13.5241891}, {"type": "node", "id": 13089006836, "lat": 49.8326623, "lon": 13.5241673}, {"type": "node", "id": 13089006837, "lat": 49.8326514, "lon": 13.5241554}, {"type": "node", "id": 13089006838, "lat": 49.8399073, "lon": 13.5313484}, {"type": "node", "id": 13089006839, "lat": 49.8399297, "lon": 13.5313928}, {"type": "node", "id": 13089006840, "lat": 49.8399002, "lon": 13.5314286}, {"type": "node", "id": 13089006841, "lat": 49.8398778, "lon": 13.5313842}, {"type": "node", "id": 13089006842, "lat": 49.8340892, "lon": 13.5187133}, {"type": "node", "id": 13089006843, "lat": 49.8341092, "lon": 13.518762}, {"type": "node", "id": 13089006844, "lat": 49.8340788, "lon": 13.5187919}, {"type": "node", "id": 13089006845, "lat": 49.8340589, "lon": 13.5187433}, {"type": "node", "id": 13204378747, "lat": 49.7809461, "lon": 13.4490935, "tags": {"description": "NS Z\u00e1b\u011bl\u00e1", "information": "board", "name": "U Rokle", "ref": "10", "tourism": "information"}}, {"type": "node", "id": 13204378748, "lat": 49.7719898, "lon": 13.4458307, "tags": {"board_type": "nature", "description": "NS Z\u00e1b\u011bl\u00e1", "information": "board", "name": "Vyhl\u00eddka Hol\u00fd vrch", "ref": "2", "tourism": "information"}}, {"type": "node", "id": 13204378749, "lat": 49.7716463, "lon": 13.4468821, "tags": {"board_type": "history", "description": "NS Z\u00e1b\u011bl\u00e1", "information": "board", "name": "Hradi\u0161t\u011b Bukovec", "ref": "1", "tourism": "information"}}, {"type": "node", "id": 13369643807, "lat": 49.7585953, "lon": 13.5648967, "tags": {"tourism": "viewpoint"}}, {"type": "node", "id": 13401072720, "lat": 49.754402, "lon": 13.4172263, "tags": {"board_type": "notice", "information": "board", "tourism": "information"}}, {"type": "node", "id": 13419131112, "lat": 49.8507857, "lon": 13.5422151, "tags": {"ele": "456", "name": "Hol\u00fd vrch", "natural": "peak"}}, {"type": "node", "id": 13426480488, "lat": 49.937988, "lon": 13.5675254, "tags": {"amenity": "shelter"}}, {"type": "node", "id": 13426564721, "lat": 49.9478255, "lon": 13.5834682, "tags": {"check_date": "2026-01-02", "ele": "389", "natural": "peak", "note": "Zkou\u0161\u00edm z\u00e1v\u00e9st nov\u00fd tag website:horobranim s odkazem na kopec v Horobran\u00ed, kde je o kopci spousta dal\u0161\u00edch informac\u00ed z ov\u011b\u0159en\u00fdch zdroj\u016f (n\u00e1v\u0161tv\u011bva u\u017eivatel\u016f aplikace, \u010c\u00daZK apod.). Aplikace Horobran\u00ed z\u00e1rove\u0148 pou\u017e\u00edv\u00e1 mapu zalo\u017eenou na datech z OSM.", "summit:cross": "no", "website:horobrani": "https://cs.hory.app/mountain/11459-u-krasova"}}, {"type": "way", "id": 163226900, "nodes": [1749741251, 1749741249, 1749741250, 1749741252, 1749741251], "tags": {"amenity": "shelter", "building": "yes", "shelter_type": "public_transport", "source": "cuzk:km"}}, {"type": "way", "id": 277053318, "nodes": [2816000642, 2816000637, 9551986517, 2816000638, 2816000643, 2816000642], "tags": {"building": "yes", "man_made": "tower", "name": "Rozhledna Na Vr\u0161\u00edch", "source": "cuzk:km", "tourism": "viewpoint", "tower:type": "observation"}}, {"type": "way", "id": 781252908, "nodes": [7294107904, 7294107903, 7294107902, 12545000927, 7294107901, 7294107904], "tags": {"amenity": "shelter", "building": "transportation", "shelter_type": "public_transport"}}, {"type": "way", "id": 781252910, "nodes": [7294107913, 12544887720, 7294107912, 7294107911, 12544887719, 7294107910, 7294107913], "tags": {"amenity": "shelter", "building": "transportation", "shelter_type": "public_transport"}}, {"type": "way", "id": 781252911, "nodes": [7294107917, 7294107916, 7294107915, 7294107914, 7294107917], "tags": {"amenity": "shelter", "building": "transportation", "shelter_type": "public_transport"}}, {"type": "way", "id": 806136584, "nodes": [7538485811, 12545073709, 7538485812, 7538485813, 7538485809, 7538485814, 7538485811], "tags": {"amenity": "shelter", "building": "yes", "shelter_type": "public_transport"}}, {"type": "way", "id": 820387025, "nodes": [7660474631, 7660474632, 7660474645, 7660474633, 7660474634, 7660474635, 7660474631], "tags": {"amenity": "shelter", "building": "yes"}}, {"type": "way", "id": 940404087, "nodes": [8709470426, 8709470427, 8709470428, 8709470429, 8709470426], "tags": {"amenity": "shelter", "building": "yes"}}, {"type": "way", "id": 1076003993, "nodes": [9867774015, 9867774014, 9867774013, 9867774012, 9867774015], "tags": {"amenity": "shelter", "building": "transportation", "shelter_type": "public_transport"}}, {"type": "way", "id": 1094250157, "nodes": [10021560944, 10021560945, 10021560946, 10021560947, 10021560944], "tags": {"amenity": "shelter", "building": "yes"}}, {"type": "way", "id": 1125457164, "nodes": [10291836414, 10291836415, 10291836416, 10291836417, 10291836414], "tags": {"amenity": "shelter", "area": "yes", "building": "yes", "shelter_type": "basic_hut"}}, {"type": "way", "id": 1125877634, "nodes": [10295393852, 10295393853, 10295393854, 10295393855, 10295393856, 10295393838, 10295393839, 10295393840, 10295393844, 10295393845, 10295393846, 10295393847, 10295393848, 10295393849, 10295393850, 10295393851, 10295393841, 10295393842, 10295393843, 10295393852], "tags": {"area": "yes", "information": "board", "memorial": "plaque", "name": "Merkur", "name:de": "Merkur", "name:en": "Mercury", "name:fr": "Mercure", "name:pl": "Merkury", "name:ru": "\u041c\u0435\u0440\u043a\u0443\u0440\u0438\u0439", "name:uk": "\u041c\u0435\u0440\u043a\u0443\u0440\u0456\u0439", "note": "Planeta z expozice \"Pou\u0165 k planet\u00e1m\" od Techmania Science Center, kter\u00e1 ukazuje model slune\u010dn\u00ed soustavy v m\u011b\u0159\u00edtku 1:1 000 000 000", "ref": "\u263f", "surface": "concrete", "tourism": "attraction", "website": "http://edu.techmania.cz/cs/katalog/pout-k-planetam/1554/merkur", "wheelchair": "yes"}}, {"type": "way", "id": 1125877635, "nodes": [10295393877, 10295393878, 10295393879, 10295393880, 10295393881, 10295393882, 10295393883, 10295393884, 10295393885, 10295393886, 10295393887, 10295393888, 10295393889, 10295393890, 10295393891, 10295393892, 10295393893, 10295393894, 10295393895, 10295393877], "tags": {"area": "yes", "information": "board", "memorial": "plaque", "name": "Slunce", "name:de": "Sonne", "name:en": "Sun", "name:fr": "Soleil", "name:pl": "S\u0142o\u0144ce", "name:ru": "\u0421\u043e\u043b\u043d\u0446\u0435", "name:uk": "\u0421\u043e\u043d\u0446\u0435", "note": "Planeta z expozice \"Pou\u0165 k planet\u00e1m\" od Techmania Science Center, kter\u00e1 ukazuje model slune\u010dn\u00ed soustavy v m\u011b\u0159\u00edtku 1:1 000 000 000", "ref": "\u2609", "surface": "concrete", "tourism": "attraction", "website": "http://edu.techmania.cz/cs/katalog/pout-k-planetam/1552/slunce", "wheelchair": "yes"}}, {"type": "way", "id": 1125877636, "nodes": [10295393896, 10295393897, 10295393898, 10295393899, 10295393900, 10295393901, 10295393902, 10295393903, 10295393904, 10295393905, 10295393906, 10295393907, 10295393908, 10295414409, 10295414410, 10295414411, 10295414412, 10295414413, 10295414414, 10295393896], "tags": {"area": "yes", "information": "board", "memorial": "plaque", "name": "Venu\u0161e", "name:en": "Venus", "name:fr": "V\u00e9nus", "name:pl": "Wenus", "name:ru": "\u0412\u0435\u043d\u0435\u0440\u0430", "name:uk": "\u0412\u0435\u043d\u0435\u0440\u0430", "note": "Planeta z expozice \"Pou\u0165 k planet\u00e1m\" od Techmania Science Center, kter\u00e1 ukazuje model slune\u010dn\u00ed soustavy v m\u011b\u0159\u00edtku 1:1 000 000 000", "ref": "\u2640", "surface": "concrete", "tourism": "attraction", "website": "http://edu.techmania.cz/cs/katalog/pout-k-planetam/1555/venuse", "wheelchair": "yes"}}, {"type": "way", "id": 1125877637, "nodes": [10295414415, 10295414416, 10295414417, 10295414418, 10295414419, 10295414420, 10295414421, 10295414422, 10295414423, 10295414424, 10295414425, 10295414426, 10295414427, 10295414428, 10295414429, 10295414430, 10295414431, 10295414432, 10295414433, 10295414415], "tags": {"alt_ref": "\u2641", "area": "yes", "information": "board", "memorial": "plaque", "name": "Zem\u011b", "name:de": "Erde", "name:en": "Earth", "name:fr": "Terre", "name:pl": "Ziemia", "name:ru": "\u0417\u0435\u043c\u043b\u044f", "name:uk": "\u0417\u0435\u043c\u043b\u044f", "note": "Planeta z expozice \"Pou\u0165 k planet\u00e1m\" od Techmania Science Center, kter\u00e1 ukazuje model slune\u010dn\u00ed soustavy v m\u011b\u0159\u00edtku 1:1 000 000 000", "ref": "\ud83d\udf28", "surface": "concrete", "tourism": "attraction", "website": "http://edu.techmania.cz/cs/katalog/pout-k-planetam/1556/zeme", "wheelchair": "yes"}}, {"type": "way", "id": 1125877638, "nodes": [10295414437, 10295414438, 10295414439, 10295414440, 10295414441, 10295414442, 10295414443, 10295414444, 10295414445, 10295414446, 10295414447, 10295414448, 10295414449, 10295414450, 10295414451, 10295414452, 10295414453, 10295414454, 10295414455, 10295414437], "tags": {"area": "yes", "information": "board", "memorial": "plaque", "name": "Mars", "name:de": "Mars", "name:en": "Mars", "name:fr": "Mars", "name:pl": "Mars", "name:ru": "\u041c\u0430\u0440\u0441", "name:uk": "\u041c\u0430\u0440\u0441", "note": "Planeta z expozice \"Pou\u0165 k planet\u00e1m\" od Techmania Science Center, kter\u00e1 ukazuje model slune\u010dn\u00ed soustavy v m\u011b\u0159\u00edtku 1:1 000 000 000", "ref": "\u2642", "surface": "concrete", "tourism": "attraction", "website": "http://edu.techmania.cz/cs/katalog/pout-k-planetam/1557/mars", "wheelchair": "yes"}}, {"type": "way", "id": 1125877639, "nodes": [10295414456, 10295414457, 10295414458, 10295414459, 10295414460, 10295414461, 10295414462, 10295414463, 10295414464, 10295414465, 10295414466, 10295414467, 10295414468, 10295414469, 10295414470, 10295414471, 10295414472, 10295414473, 10295414474, 10295414456], "tags": {"area": "yes", "information": "board", "memorial": "plaque", "name": "Jupiter", "name:de": "Jupiter", "name:en": "Jupiter", "name:fr": "Jupiter", "name:pl": "Jowisz", "name:ru": "\u042e\u043f\u0438\u0442\u0435\u0440", "name:uk": "\u042e\u043f\u0456\u0442\u0435\u0440", "note": "Planeta z expozice \"Pou\u0165 k planet\u00e1m\" od Techmania Science Center, kter\u00e1 ukazuje model slune\u010dn\u00ed soustavy v m\u011b\u0159\u00edtku 1:1 000 000 000", "ref": "\u2643", "surface": "concrete", "tourism": "attraction", "website": "http://edu.techmania.cz/cs/katalog/pout-k-planetam/1558/jupiter"}}, {"type": "way", "id": 1125877640, "nodes": [10295414475, 10295414476, 10295414477, 10295414478, 10295414479, 10295414480, 10295414481, 10295414482, 10295414483, 10295414484, 10295414485, 10295414486, 10295414487, 10295414488, 10295414489, 10295414490, 10295414491, 10295414492, 10295414493, 10295414475], "tags": {"area": "yes", "information": "board", "memorial": "plaque", "name": "Saturn", "name:de": "Saturn", "name:en": "Saturn", "name:fr": "Saturne", "name:pl": "Saturn", "name:ru": "\u0421\u0430\u0442\u0443\u0440\u043d", "name:uk": "\u0421\u0430\u0442\u0443\u0440\u043d", "note": "Planeta z expozice \"Pou\u0165 k planet\u00e1m\" od Techmania Science Center, kter\u00e1 ukazuje model slune\u010dn\u00ed soustavy v m\u011b\u0159\u00edtku 1:1 000 000 000", "ref": "\u2644", "surface": "concrete", "tourism": "attraction", "website": "http://edu.techmania.cz/cs/katalog/pout-k-planetam/1559/saturn"}}, {"type": "way", "id": 1125877641, "nodes": [10295414494, 10295414495, 10295414496, 10295414497, 10295414498, 10295414499, 10295414500, 10295414501, 10295414502, 10295414503, 10295414504, 10295414505, 10295414506, 10295414507, 10295414508, 10295414509, 10295414510, 10295414511, 10295414512, 10295414494], "tags": {"alt_ref": "\u26e2", "area": "yes", "fee": "no", "information": "board", "memorial": "plaque", "name": "Uran", "name:de": "Uranus", "name:en": "Uranus", "name:fr": "Uranus", "name:pl": "Uran", "name:ru": "\u0423\u0440\u0430\u043d", "name:uk": "\u0423\u0440\u0430\u043d", "note": "Planeta z expozice \"Pou\u0165 k planet\u00e1m\" od Techmania Science Center, kter\u00e1 ukazuje model slune\u010dn\u00ed soustavy v m\u011b\u0159\u00edtku 1:1 000 000 000", "ref": "\u2645", "surface": "concrete", "tourism": "attraction", "website": "http://edu.techmania.cz/cs/katalog/pout-k-planetam/1560/uran"}}, {"type": "way", "id": 1125877642, "nodes": [10295414513, 10295414514, 10295414515, 10295414516, 10295414517, 10295414518, 10295414519, 10295414520, 10295414521, 10295414522, 10295414523, 10295414524, 10295414525, 10295414526, 10295414527, 10295414528, 10295414529, 10295414530, 10295414531, 10295414513], "tags": {"area": "yes", "information": "board", "memorial": "plaque", "name": "Neptun", "name:de": "Neptun", "name:en": "Neptune", "name:fr": "Neptune", "name:pl": "Neptun", "name:ru": "\u041d\u0435\u043f\u0442\u0443\u043d", "name:uk": "\u041d\u0435\u043f\u0442\u0443\u043d", "note": "Planeta z expozice \"Pou\u0165 k planet\u00e1m\" od Techmania Science Center, kter\u00e1 ukazuje model slune\u010dn\u00ed soustavy v m\u011b\u0159\u00edtku 1:1 000 000 000", "ref": "\u2646", "surface": "concrete", "tourism": "attraction", "website": "http://edu.techmania.cz/cs/katalog/pout-k-planetam/1561/neptun"}}, {"type": "way", "id": 1355514849, "nodes": [12545016155, 12545016156, 12545016157, 12545016158, 12545016155], "tags": {"amenity": "shelter", "building": "service", "shelter_type": "public_transport"}}, {"type": "way", "id": 1355517710, "nodes": [12545047190, 12545047188, 12545047187, 12545047189, 12545047190], "tags": {"amenity": "shelter", "building": "yes", "shelter_type": "public_transport"}}, {"type": "way", "id": 1355564773, "nodes": [12545525682, 12545525683, 12545525684, 12545525685, 12545525682], "tags": {"amenity": "shelter", "building": "yes", "shelter_type": "public_transport"}}, {"type": "way", "id": 1366526065, "nodes": [12655775486, 12655775487, 12655775488, 12655775489, 12655775490, 12655775472, 12655775473, 12655775474, 12655775475, 12655775481, 12655775482, 12655775483, 12655775484, 12655775485, 12655775476, 12655775477, 12655775478, 12655775479, 12655775480, 12655775486], "tags": {"amenity": "shelter", "building": "yes", "shelter_type": "gazebo"}}, {"type": "way", "id": 1387015245, "nodes": [12840139218, 12840139219, 12840139220, 12840139221, 12840139218], "tags": {"amenity": "shelter", "building": "yes", "shelter_type": "picnic_shelter"}}, {"type": "way", "id": 1424102682, "nodes": [13089006830, 13089006831, 13089006832, 13089006833, 13089006834, 13089006835, 13089006836, 13089006837, 13089006830], "tags": {"amenity": "shelter", "building": "yes", "shelter_type": "gazebo"}}, {"type": "way", "id": 1424102683, "nodes": [13089006838, 13089006839, 13089006840, 13089006841, 13089006838], "tags": {"amenity": "shelter", "bench": "no", "building": "yes", "lit": "no", "shelter_type": "gazebo"}}, {"type": "way", "id": 1424102684, "nodes": [13089006842, 13089006843, 13089006844, 13089006845, 13089006842], "tags": {"amenity": "shelter", "bench": "no", "building": "yes", "lit": "no", "shelter_type": "gazebo"}}, {"type": "relation", "id": 15066717, "members": [{"type": "way", "ref": 1125877635, "role": ""}, {"type": "way", "ref": 1125877634, "role": ""}, {"type": "way", "ref": 1125877636, "role": ""}, {"type": "way", "ref": 1125877637, "role": ""}, {"type": "way", "ref": 1125877638, "role": ""}, {"type": "way", "ref": 1125877639, "role": ""}, {"type": "way", "ref": 1125877640, "role": ""}, {"type": "way", "ref": 1125877641, "role": ""}, {"type": "way", "ref": 1125877642, "role": ""}], "tags": {"information": "board", "memorial": "plaque", "name": "Pou\u0165 k planet\u00e1m", "operator": "Techmania Science Center", "tourism": "attraction", "type": "site", "website": "http://edu.techmania.cz/cs/katalog/1551/pout-k-planetam"}}]}