{"version": 0.6, "generator": "Overpass API 0.7.62.8 e802775f", "osm3s": {"timestamp_osm_base": "2026-01-04T12:29:45Z", "copyright": "The data included in this document is from www.openstreetmap.org. The data is made available under ODbL."}, "elements": [{"type": "node", "id": 323838844, "lat": 48.8972514, "lon": 13.022115, "tags": {"ele": "1092", "name": "Dreitannenriegel", "natural": "peak", "summit:cross": "yes", "summit:register": "yes", "tourism": "viewpoint", "wheelchair": "no", "wikidata": "Q1258188", "wikipedia": "de:Dreitannenriegel"}}, {"type": "node", "id": 323838968, "lat": 48.9139044, "lon": 13.0301875, "tags": {"tourism": "viewpoint"}}, {"type": "node", "id": 323839655, "lat": 48.9240769, "lon": 13.0374226, "tags": {"ele": "1097", "name": "Gei\u00dfkopf", "natural": "peak", "wikidata": "Q163484", "wikipedia": "de:Gei\u00dfkopf"}}, {"type": "node", "id": 323850384, "lat": 48.906548, "lon": 13.0300211, "tags": {"alt_name": "Breitenau Riegel", "ele": "1114", "image": "https://photos.app.goo.gl/mRE7GwWuhPCEhYZf7", "loc_name": "Breitenauer Riegel", "name": "Breitenauriegel", "natural": "peak", "sport": "climbing", "summit:cross": "yes", "summit:register": "no", "tourism": "viewpoint", "wikidata": "Q906089", "wikipedia": "de:Breitenauriegel"}}, {"type": "node", "id": 849651456, "lat": 48.9084423, "lon": 13.0413368, "tags": {"bicycle": "yes", "hiking": "yes", "information": "guidepost", "ski": "yes", "tourism": "information"}}, {"type": "node", "id": 849651461, "lat": 48.9162795, "lon": 13.0347295, "tags": {"hiking": "yes", "information": "guidepost", "tourism": "information"}}, {"type": "node", "id": 849651469, "lat": 48.9034345, "lon": 13.0338166, "tags": {"hiking": "yes", "information": "guidepost", "tourism": "information"}}, {"type": "node", "id": 849651504, "lat": 48.914401, "lon": 13.0296322, "tags": {"board:title": "Renarurierung der \"Hochmoors auf der Oberbreitenau\"", "board_type": "nature", "check_date": "2022-08-21", "information": "board", "operator": "Bayerische Staatsforsten", "panoramax": "f33560b1-be0e-449a-a143-06b6c0194d27", "tourism": "information"}}, {"type": "node", "id": 849651517, "lat": 48.9004021, "lon": 13.0219041, "tags": {"bicycle": "yes", "hiking": "yes", "information": "guidepost", "tourism": "information"}}, {"type": "node", "id": 849651536, "lat": 48.9177979, "lon": 13.0307091, "tags": {"hiking": "yes", "information": "guidepost", "tourism": "information"}}, {"type": "node", "id": 849651542, "lat": 48.9042478, "lon": 13.0126011, "tags": {"hiking": "yes", "information": "guidepost", "tourism": "information"}}, {"type": "node", "id": 849651560, "lat": 48.9000886, "lon": 13.0368716, "tags": {"hiking": "yes", "information": "guidepost", "material": "wood", "tourism": "information"}}, {"type": "node", "id": 849651564, "lat": 48.9225487, "lon": 13.0344963, "tags": {"hiking": "yes", "information": "guidepost", "tourism": "information"}}, {"type": "node", "id": 849651578, "lat": 48.9061106, "lon": 13.0161232, "tags": {"hiking": "yes", "information": "guidepost", "tourism": "information"}}, {"type": "node", "id": 849651620, "lat": 48.9221721, "lon": 13.0387389, "tags": {"hiking": "yes", "information": "guidepost", "tourism": "information"}}, {"type": "node", "id": 849651633, "lat": 48.9059028, "lon": 13.0131777, "tags": {"amenity": "drinking_water", "bottle": "yes", "name": "Hubertusbrunnen", "natural": "spring", "panoramax": "9d74c3ac-792c-40ed-bff3-be4e7f3d1b69", "water_source": "spring", "wikidata": "Q32060683", "wikimedia_commons": "File:Hubertusbrunnen.jpg"}}, {"type": "node", "id": 849651637, "lat": 48.8942905, "lon": 13.0414182, "tags": {"hiking": "yes", "information": "guidepost", "note": "Rettungsbox D2", "tourism": "information"}}, {"type": "node", "id": 849651648, "lat": 48.9218743, "lon": 13.0378482, "tags": {"hiking": "yes", "information": "guidepost", "tourism": "information"}}, {"type": "node", "id": 849651684, "lat": 48.9220833, "lon": 13.0345791, "tags": {"hiking": "yes", "information": "guidepost", "tourism": "information"}}, {"type": "node", "id": 849651699, "lat": 48.88315, "lon": 13.0521113, "tags": {"hiking": "yes", "information": "guidepost", "tourism": "information"}}, {"type": "node", "id": 849651701, "lat": 48.9243183, "lon": 13.0325673, "tags": {"hiking": "yes", "information": "guidepost", "tourism": "information"}}, {"type": "node", "id": 849651709, "lat": 48.9131492, "lon": 13.0268152, "tags": {"hiking": "yes", "information": "guidepost", "ski": "yes", "tourism": "information"}}, {"type": "node", "id": 849651714, "lat": 48.9239969, "lon": 13.0378046, "tags": {"direction_north": "Winterwanderweg", "direction_south": "Oberbreitenau - Landshuter Haus 1.5 km;Rundwanderweg um den Gei\u00dfkopf", "hiking": "yes", "information": "guidepost", "lwn": "yes", "network": "lwn", "tourism": "information"}}, {"type": "node", "id": 849651722, "lat": 48.8829211, "lon": 13.0512669, "tags": {"hiking": "yes", "information": "guidepost", "tourism": "information"}}, {"type": "node", "id": 849651738, "lat": 48.9240515, "lon": 13.0373969, "tags": {"direction_east": "Rundwanderweg um den Gei\u00dfkopf", "direction_northwest": "H\u00f6henloipe", "direction_west": "Gotteszell 9.5 km;K\u00f6ckersried 8 km;Kleinried 4.5 km;Zachenberg 5.5 km;Oberbreitenau - Landshuter Haus 2 km;Habischried 4 km", "hiking": "yes", "information": "guidepost", "lwn": "yes", "network": "lwn", "tourism": "information"}}, {"type": "node", "id": 849651752, "lat": 48.9135334, "lon": 13.0273818, "tags": {"hiking": "yes", "information": "guidepost", "note": "Rettungsbox D5", "tourism": "information"}}, {"type": "node", "id": 849651780, "lat": 48.9212457, "lon": 13.035106, "tags": {"hiking": "yes", "information": "guidepost", "tourism": "information"}}, {"type": "node", "id": 849651792, "lat": 48.9027963, "lon": 13.0256604, "tags": {"hiking": "yes", "information": "guidepost", "ski": "yes", "tourism": "information"}}, {"type": "node", "id": 849651802, "lat": 48.9147112, "lon": 13.0293227, "tags": {"hiking": "yes", "information": "guidepost", "tourism": "information"}}, {"type": "node", "id": 849651817, "lat": 48.8949536, "lon": 13.0415162, "tags": {"hiking": "yes", "information": "guidepost", "tourism": "information"}}, {"type": "node", "id": 849651823, "lat": 48.8973435, "lon": 13.0221419, "tags": {"hiking": "yes", "information": "guidepost", "tourism": "information"}}, {"type": "node", "id": 849651847, "lat": 48.9053161, "lon": 13.0132281, "tags": {"hiking": "yes", "information": "guidepost", "note": "Rettungsbox", "tourism": "information"}}, {"type": "node", "id": 849651861, "lat": 48.9039315, "lon": 13.0402215, "tags": {"hiking": "yes", "information": "guidepost", "tourism": "information"}}, {"type": "node", "id": 849651894, "lat": 48.9260269, "lon": 13.0314704, "tags": {"hiking": "yes", "information": "guidepost", "tourism": "information"}}, {"type": "node", "id": 849651897, "lat": 48.9065757, "lon": 13.0303566, "tags": {"hiking": "yes", "information": "guidepost", "tourism": "information"}}, {"type": "node", "id": 849651920, "lat": 48.9091005, "lon": 13.0251736, "tags": {"hiking": "yes", "information": "guidepost", "tourism": "information"}}, {"type": "node", "id": 849651947, "lat": 48.9134233, "lon": 13.0273097, "tags": {"hiking": "yes", "information": "guidepost", "tourism": "information"}}, {"type": "node", "id": 987564984, "lat": 48.9033901, "lon": 13.0081744, "tags": {"ele": "1043", "name": "Gei\u00dfriegel", "natural": "peak", "summit:cross": "no", "wikidata": "Q1499141", "wikimedia_commons": "File:Gei\u00dfriegel (Bayerischer Wald).jpg", "wikipedia": "de:Gei\u00dfriegel (Bayerischer Wald)"}}, {"type": "node", "id": 998138210, "lat": 48.8685504, "lon": 13.0621509, "tags": {"ele": "874", "name": "Ge\u00dfinger Stein", "tourism": "viewpoint"}}, {"type": "node", "id": 998138786, "lat": 48.8680196, "lon": 13.0699446, "tags": {"ele": "869", "name": "K\u00f6nigstein", "tourism": "viewpoint"}}, {"type": "node", "id": 1404351251, "lat": 48.9215624, "lon": 12.9990247, "tags": {"ele": "835", "name": "K\u00fchberg", "natural": "peak", "wikidata": "Q31532892"}}, {"type": "node", "id": 1404352472, "lat": 48.9224929, "lon": 12.987695, "tags": {"name": "Hummelsberg", "natural": "peak"}}, {"type": "node", "id": 1404355088, "lat": 48.8929932, "lon": 12.9925943, "tags": {"ele": "723", "name": "Buchenh\u00f6he", "natural": "peak"}}, {"type": "node", "id": 1404357596, "lat": 48.9036526, "lon": 13.0453947, "tags": {"ele": "984", "name": "Anhangberg", "natural": "peak"}}, {"type": "node", "id": 1404363111, "lat": 48.9197435, "lon": 13.0630651, "tags": {"ele": "824", "name": "Hermannschopf", "natural": "peak"}}, {"type": "node", "id": 1404363122, "lat": 48.9224929, "lon": 13.0679896, "tags": {"tourism": "information"}}, {"type": "node", "id": 1783003201, "lat": 48.899214, "lon": 13.0117941, "tags": {"natural": "spring"}}, {"type": "node", "id": 1783005989, "lat": 48.8872689, "lon": 13.0405362, "tags": {"natural": "spring"}}, {"type": "node", "id": 1783005994, "lat": 48.8885051, "lon": 13.0386221, "tags": {"natural": "spring"}}, {"type": "node", "id": 1943982214, "lat": 48.8912119, "lon": 13.0415789}, {"type": "node", "id": 1943982215, "lat": 48.8912622, "lon": 13.0417072}, {"type": "node", "id": 1943982220, "lat": 48.8913249, "lon": 13.0414765}, {"type": "node", "id": 1943982222, "lat": 48.8913752, "lon": 13.0416049}, {"type": "node", "id": 1944554412, "lat": 48.8756985, "lon": 13.0475485}, {"type": "node", "id": 1944554413, "lat": 48.8757475, "lon": 13.0474126}, {"type": "node", "id": 1944554414, "lat": 48.8758665, "lon": 13.0476887}, {"type": "node", "id": 1944554417, "lat": 48.8759155, "lon": 13.0475528}, {"type": "node", "id": 1945125592, "lat": 48.9153754, "lon": 12.9995056}, {"type": "node", "id": 1945125594, "lat": 48.9154555, "lon": 12.9997174}, {"type": "node", "id": 1945125596, "lat": 48.9154693, "lon": 12.9994006}, {"type": "node", "id": 1945125598, "lat": 48.9154699, "lon": 12.9997014}, {"type": "node", "id": 1945125600, "lat": 48.9155393, "lon": 12.999891}, {"type": "node", "id": 1945125602, "lat": 48.9155427, "lon": 12.9997158}, {"type": "node", "id": 1945125604, "lat": 48.9155939, "lon": 12.9996587}, {"type": "node", "id": 1945125606, "lat": 48.9155964, "lon": 12.9998271}, {"type": "node", "id": 2310327495, "lat": 48.9115059, "lon": 13.0001442, "tags": {"bench": "yes", "ele": "1000", "tourism": "viewpoint"}}, {"type": "node", "id": 2324634835, "lat": 48.9238136, "lon": 13.0375203}, {"type": "node", "id": 2324634840, "lat": 48.9238231, "lon": 13.0373889}, {"type": "node", "id": 2324634844, "lat": 48.9244111, "lon": 13.0381093}, {"type": "node", "id": 2324634845, "lat": 48.9237253, "lon": 13.0373725}, {"type": "node", "id": 2324634849, "lat": 48.924228, "lon": 13.0381551}, {"type": "node", "id": 2324634878, "lat": 48.9243592, "lon": 13.0382597}, {"type": "node", "id": 2324634887, "lat": 48.9237158, "lon": 13.037504}, {"type": "node", "id": 2324634893, "lat": 48.9242798, "lon": 13.0380044}, {"type": "node", "id": 2362228098, "lat": 48.870936, "lon": 13.0705657, "tags": {"ele": "917", "name": "Hausstein", "natural": "peak", "wikidata": "Q1591314", "wikipedia": "de:Hausstein"}}, {"type": "node", "id": 2383468987, "lat": 48.8893398, "lon": 13.0060725, "tags": {"hiking": "yes", "information": "guidepost", "tourism": "information"}}, {"type": "node", "id": 2976304436, "lat": 48.9164293, "lon": 13.0701466, "tags": {"amenity": "drinking_water", "check_date": "2024-08-30", "name": "Hermannsbrunn", "natural": "spring"}}, {"type": "node", "id": 3255643894, "lat": 48.9186508, "lon": 13.0307891, "tags": {"description": "Backofen , Waschhaus", "tourism": "information"}}, {"type": "node", "id": 3255665599, "lat": 48.9260131, "lon": 13.028868, "tags": {"information": "guidepost", "tourism": "information"}}, {"type": "node", "id": 3255776108, "lat": 48.9187836, "lon": 13.0305698, "tags": {"tourism": "information"}}, {"type": "node", "id": 3255857541, "lat": 48.9205496, "lon": 13.0291724, "tags": {"information": "guidepost", "tourism": "information"}}, {"type": "node", "id": 3255857546, "lat": 48.9211216, "lon": 13.0285716, "tags": {"description": "E6 Zeichen an Buche", "information": "route_marker", "tourism": "information"}}, {"type": "node", "id": 3255872991, "lat": 48.9225571, "lon": 13.0266913, "tags": {"information": "guidepost", "name": "Goldsteigwegweiser", "tourism": "information"}}, {"type": "node", "id": 3257887055, "lat": 48.9155684, "lon": 13.0000524, "tags": {"information": "guidepost", "tourism": "information"}}, {"type": "node", "id": 3257887056, "lat": 48.9149718, "lon": 12.9996934, "tags": {"information": "guidepost", "tourism": "information"}}, {"type": "node", "id": 3359468895, "lat": 48.9226134, "lon": 13.049445, "tags": {"direction_northeast": "Unterbreitenau 2 km", "direction_south": "Greising 8 km;Rusel 7 km;Hermannsried 4.5 km;Bischofsmais 6 km;Zellwiese;Degenhard-Kapelle", "direction_southwest": "Oberbreitenau / Landshuter Haus 1.5 km;Gei\u00dfkopf", "hiking": "yes", "information": "guidepost", "lwn": "yes", "network": "lwn", "tourism": "information"}}, {"type": "node", "id": 3359626522, "lat": 48.9229935, "lon": 13.0447739, "tags": {"direction_northwest": "Unterbreitenau 3.5 km", "direction_south": "Bischofsmais 6.5 km", "direction_southwest": "Oberbreitenau / Landshuter Haus;Gei\u00dfkopf", "hiking": "yes", "information": "guidepost", "lwn": "yes", "network": "lwn", "tourism": "information"}}, {"type": "node", "id": 3359690650, "lat": 48.9226905, "lon": 13.0440165, "tags": {"direction_northeast": "Habischried", "direction_southwest": "Oberbreitenau / Landshuter Haus 1 km", "direction_west": "Gei\u00dfkopf 600 m", "hiking": "yes", "information": "guidepost", "lwn": "yes", "network": "lwn", "tourism": "information"}}, {"type": "node", "id": 3359805335, "lat": 48.9240483, "lon": 13.0376711, "tags": {"bicycle": "yes", "hiking": "yes", "information": "map", "map_size": "site", "map_type": "scheme", "mtb": "yes", "ski": "yes", "tourism": "information"}}, {"type": "node", "id": 3517586712, "lat": 48.9144088, "lon": 13.0403846, "tags": {"information": "guidepost", "tourism": "information"}}, {"type": "node", "id": 3736431761, "lat": 48.9207116, "lon": 13.0494519, "tags": {"natural": "spring"}}, {"type": "node", "id": 3957399008, "lat": 48.914957, "lon": 12.9756491}, {"type": "node", "id": 3957399009, "lat": 48.9149876, "lon": 12.9754215}, {"type": "node", "id": 3957399020, "lat": 48.915153, "lon": 12.9757101}, {"type": "node", "id": 3957399024, "lat": 48.9151836, "lon": 12.9754825}, {"type": "node", "id": 4298771847, "lat": 48.9239505, "lon": 13.0680882, "tags": {"addr:city": "Bischofsmais", "addr:country": "DE", "addr:housenumber": "3", "addr:postcode": "94253", "addr:street": "Lina-M\u00fcller-Weg", "addr:suburb": "Wastls\u00e4ge", "internet_access": "wlan", "name": "Familotel Wastls\u00e4ge", "smoking": "outside", "tourism": "hotel"}}, {"type": "node", "id": 4336593189, "lat": 48.8574653, "lon": 13.0708742, "tags": {"amenity": "restaurant", "cuisine": "regional", "email": "duellhof@t-online.de", "fax": "+49 9904 1080", "name": "Landgasthof D\u00fcllhof", "outdoor_seating": "yes", "phone": "+49 9904 293", "toilets:wheelchair": "yes", "website": "https://duellhof.de/", "wheelchair": "yes"}}, {"type": "node", "id": 6399626357, "lat": 48.9183548, "lon": 12.9598881, "tags": {"hiking": "yes", "information": "map", "map_size": "site", "map_type": "topo", "tourism": "information"}}, {"type": "node", "id": 8331284067, "lat": 48.8761828, "lon": 13.0655206, "tags": {"hiking": "yes", "information": "guidepost", "name": "Schneeschuhpfad", "tourism": "information", "website": "https://www.landkreis-deggendorf.de/tourismus-kultur/freizeit-aktiv/winterland/winterwanderungen/"}}, {"type": "node", "id": 8358928702, "lat": 48.9099431, "lon": 12.9972003, "tags": {"backrest": "yes", "bench": "yes", "ele": "940", "tourism": "viewpoint"}}, {"type": "node", "id": 8569328622, "lat": 48.8832578, "lon": 13.0435679, "tags": {"ele": "885", "information": "guidepost;map", "name": "Oberfohnreut", "note": "Rettungsbox D1", "tourism": "information"}}, {"type": "node", "id": 8599219105, "lat": 48.9056598, "lon": 12.9738611, "tags": {"information": "map", "tourism": "information"}}, {"type": "node", "id": 8683932092, "lat": 48.8718489, "lon": 13.0475112, "tags": {"drinking_water:legal": "no", "natural": "spring"}}, {"type": "node", "id": 8718734632, "lat": 48.9155302, "lon": 12.9684067, "tags": {"information": "map", "map_size": "region", "map_type": "map", "tourism": "information"}}, {"type": "node", "id": 8718907946, "lat": 48.9181588, "lon": 12.9571611, "tags": {"tourism": "viewpoint"}}, {"type": "node", "id": 9121718016, "lat": 48.9056979, "lon": 13.0478731, "tags": {"information": "guidepost", "tourism": "information"}}, {"type": "node", "id": 9142738190, "lat": 48.8708397, "lon": 13.0740116, "tags": {"information": "board", "name": "Dr. Elisabeth Gilbert- Lichtwer", "tourism": "information"}}, {"type": "node", "id": 9142775782, "lat": 48.8707737, "lon": 13.074114, "tags": {"tourism": "viewpoint"}}, {"type": "node", "id": 9142775795, "lat": 48.8688286, "lon": 13.0696698, "tags": {"board:title": "Ort der Stille", "board_type": "history", "information": "board", "ref": "8", "tourism": "information"}}, {"type": "node", "id": 9142775796, "lat": 48.868435, "lon": 13.0697841, "tags": {"board:title": "Summfelsen", "information": "board", "ref": "7", "tourism": "information"}}, {"type": "node", "id": 9142775809, "lat": 48.874828, "lon": 13.0728733, "tags": {"information": "guidepost", "tourism": "information"}}, {"type": "node", "id": 9195627149, "lat": 48.89937, "lon": 12.999599, "tags": {"information": "guidepost", "tourism": "information"}}, {"type": "node", "id": 9195711550, "lat": 48.898886, "lon": 12.999552, "tags": {"hiking": "yes", "information": "guidepost", "support": "pole", "tourism": "information"}}, {"type": "node", "id": 9195742666, "lat": 48.908341, "lon": 12.9986991, "tags": {"hiking": "yes", "information": "guidepost", "tourism": "information"}}, {"type": "node", "id": 9195744967, "lat": 48.9028611, "lon": 13.0011157, "tags": {"hiking": "yes", "information": "guidepost", "tourism": "information"}}, {"type": "node", "id": 9195766432, "lat": 48.9035847, "lon": 13.0007946, "tags": {"information": "route_marker", "support": "pole", "tourism": "information", "winter_hiking": "yes"}}, {"type": "node", "id": 9195774276, "lat": 48.9100722, "lon": 12.9975596, "tags": {"hiking": "yes", "information": "guidepost", "tourism": "information"}}, {"type": "node", "id": 9195821694, "lat": 48.9065357, "lon": 13.0062288, "tags": {"bicycle": "yes", "hiking": "yes", "information": "guidepost", "tourism": "information"}}, {"type": "node", "id": 9195843882, "lat": 48.9039063, "lon": 13.0123645, "tags": {"hiking": "yes", "information": "guidepost", "tourism": "information"}}, {"type": "node", "id": 9195898529, "lat": 48.9047907, "lon": 13.0209948, "tags": {"information": "guidepost", "tourism": "information"}}, {"type": "node", "id": 9195903844, "lat": 48.903436, "lon": 13.0250362, "tags": {"information": "guidepost", "tourism": "information"}}, {"type": "node", "id": 9195919576, "lat": 48.9035057, "lon": 13.0340136, "tags": {"hiking": "yes", "information": "guidepost", "tourism": "information"}}, {"type": "node", "id": 9195919793, "lat": 48.9036541, "lon": 13.0339123, "tags": {"information": "guidepost", "tourism": "information"}}, {"type": "node", "id": 9195921635, "lat": 48.9033225, "lon": 13.0338712, "tags": {"bicycle": "yes", "hiking": "yes", "information": "guidepost", "tourism": "information"}}, {"type": "node", "id": 9195992839, "lat": 48.9028498, "lon": 13.0257125, "tags": {"hiking": "yes", "information": "guidepost", "ski": "yes", "tourism": "information"}}, {"type": "node", "id": 9196007743, "lat": 48.893324, "lon": 13.0170008, "tags": {"hiking": "yes", "information": "guidepost", "tourism": "information"}}, {"type": "node", "id": 9196010110, "lat": 48.8891956, "lon": 13.0056284, "tags": {"hike": "yes", "hiking": "yes", "information": "guidepost", "skitour": "yes", "tourism": "information"}}, {"type": "node", "id": 9196032520, "lat": 48.8893378, "lon": 13.0060751, "tags": {"ele": "738", "information": "map", "map_size": "region", "name": "Rohrm\u00fcnz Parkplatz", "tourism": "information"}}, {"type": "node", "id": 9196076496, "lat": 48.8972509, "lon": 13.0221083, "tags": {"tourism": "viewpoint"}}, {"type": "node", "id": 9196153697, "lat": 48.9114981, "lon": 13.00033, "tags": {"ele": "1000", "name": "Steinberg", "natural": "peak", "summit:cross": "yes", "summit:register": "no", "wikidata": "Q31519185"}}, {"type": "node", "id": 9202818534, "lat": 48.8762016, "lon": 13.0655591}, {"type": "node", "id": 9202818535, "lat": 48.8761732, "lon": 13.0655459}, {"type": "node", "id": 9202818536, "lat": 48.8761609, "lon": 13.0656071}, {"type": "node", "id": 9202818537, "lat": 48.8761893, "lon": 13.0656203}, {"type": "node", "id": 9202818538, "lat": 48.87617, "lon": 13.0655619, "tags": {"information": "map", "tourism": "information"}}, {"type": "node", "id": 9229916042, "lat": 48.8843149, "lon": 13.0435981, "tags": {"information": "guidepost", "tourism": "information"}}, {"type": "node", "id": 9229955906, "lat": 48.88321, "lon": 13.0436246, "tags": {"hiking": "yes", "information": "guidepost", "tourism": "information"}}, {"type": "node", "id": 9229963451, "lat": 48.8913567, "lon": 13.0413356, "tags": {"information": "map", "tourism": "information"}}, {"type": "node", "id": 9229969248, "lat": 48.8938837, "lon": 13.041613, "tags": {"information": "guidepost", "tourism": "information", "winter": "yes", "winter_hiking": "yes"}}, {"type": "node", "id": 9229998298, "lat": 48.8941141, "lon": 13.0412523, "tags": {"information": "guidepost", "ski:nordic": "yes", "tourism": "information"}}, {"type": "node", "id": 9229999726, "lat": 48.8937476, "lon": 13.0410999, "tags": {"information": "guidepost", "material": "wood", "tourism": "information"}}, {"type": "node", "id": 9229999727, "lat": 48.8940696, "lon": 13.0413722, "tags": {"ele": "971", "hiking": "yes", "information": "guidepost", "tourism": "information"}}, {"type": "node", "id": 9230019540, "lat": 48.9011323, "lon": 13.0366535, "tags": {"hiking": "yes", "information": "guidepost", "note": "Rettungsbox D3", "tourism": "information"}}, {"type": "node", "id": 9230098570, "lat": 48.9144842, "lon": 13.0293266, "tags": {"information": "guidepost", "ski": "yes", "tourism": "information"}}, {"type": "node", "id": 9230154909, "lat": 48.9146173, "lon": 13.0292699, "tags": {"bicycle": "yes", "hiking": "yes", "information": "guidepost", "tourism": "information"}}, {"type": "node", "id": 9230243083, "lat": 48.912207, "lon": 13.0359602, "tags": {"hiking": "yes", "information": "guidepost", "tourism": "information"}}, {"type": "node", "id": 9230273604, "lat": 48.9036892, "lon": 13.0423726, "tags": {"information": "guidepost", "tourism": "information"}}, {"type": "node", "id": 9230416677, "lat": 48.9066011, "lon": 13.0390772, "tags": {"hiking": "yes", "information": "guidepost", "note": "Rettungsbox D4", "tourism": "information"}}, {"type": "node", "id": 9232431282, "lat": 48.8941623, "lon": 13.0416513, "tags": {"information": "stele", "inscription": "H\u00f6lzerne Hand\nIm Hochwald verirrte sich einmal ein Mann. Lange suchte er nach einem Weg, einer Spur, um wieder aus dem schier endlosen Waldgebiet heraus zu finden. Nicht einmal Kirchenglocken hatten ihm irgendwann einmal die Richtung angedeutet....", "name": "Die h\u00f6lzerne Hand", "tourism": "information", "wikimedia_commons": "File:H\u00f6lzerne Hand Info.jpg"}}, {"type": "node", "id": 9232431288, "lat": 48.9146041, "lon": 13.0292923, "tags": {"information": "guidepost", "ski:nordic": "yes", "snowshoe": "yes", "tourism": "information"}}, {"type": "node", "id": 9315400645, "lat": 48.9220959, "lon": 12.9961717, "tags": {"bicycle": "yes", "hiking": "yes", "information": "guidepost", "tourism": "information"}}, {"type": "node", "id": 9315587837, "lat": 48.9154307, "lon": 12.9993515, "tags": {"bicycle": "yes", "hiking": "yes", "information": "guidepost", "tourism": "information"}}, {"type": "node", "id": 9315894423, "lat": 48.9155826, "lon": 13.0000638, "tags": {"information": "map", "map_size": "region", "map_type": "hiking", "tourism": "information"}}, {"type": "node", "id": 9319100279, "lat": 48.9147657, "lon": 12.9996506, "tags": {"guidepost": "ski", "information": "guidepost", "tourism": "information"}}, {"type": "node", "id": 9332062194, "lat": 48.9035111, "lon": 13.0122142, "tags": {"hiking": "yes", "information": "guidepost", "tourism": "information"}}, {"type": "node", "id": 9332192757, "lat": 48.8972127, "lon": 13.0093241, "tags": {"hike": "yes", "hiking": "yes", "information": "guidepost", "skitour": "yes", "tourism": "information"}}, {"type": "node", "id": 9332214196, "lat": 48.891977, "lon": 13.0086604, "tags": {"hiking": "yes", "information": "guidepost", "tourism": "information"}}, {"type": "node", "id": 9332901842, "lat": 48.8973535, "lon": 13.0221379, "tags": {"information": "map", "map_size": "local", "map_type": "hiking", "panoramax": "65cdfb0f-cd25-41ea-84b2-5263436d167c", "tourism": "information"}}, {"type": "node", "id": 9455559172, "lat": 48.8695594, "lon": 13.0636331, "tags": {"board:title": "Ge\u00dfingerstein", "board_type": "nature", "information": "board", "tourism": "information"}}, {"type": "node", "id": 9582504111, "lat": 48.8755018, "lon": 13.065942, "tags": {"hiking": "yes", "information": "guidepost", "tourism": "information"}}, {"type": "node", "id": 9582546403, "lat": 48.8755092, "lon": 13.0659108, "tags": {"information": "map", "panoramax": "1d2d5c57-554b-48b7-b513-0ad2209dcdc7", "tourism": "information"}}, {"type": "node", "id": 9582557126, "lat": 48.8753677, "lon": 13.0657285, "tags": {"hiking": "yes", "information": "guidepost", "tourism": "information"}}, {"type": "node", "id": 9655724875, "lat": 48.9140007, "lon": 12.9705598, "tags": {"hiking": "yes", "information": "guidepost", "tourism": "information"}}, {"type": "node", "id": 9694336134, "lat": 48.8739947, "lon": 13.0274974, "tags": {"addr:housenumber": "30", "addr:place": "Greising", "amenity": "restaurant", "contact:email": "greisingerhof@gmx.de", "contact:phone": "+4999121764", "contact:website": "http://www.greisingerhof.de/restaurant.htm", "cuisine": "regional", "name": "Kiefl Greisinger Hof", "opening_hours": "Th 14:00-20:00; Fr,Sa 11:00-20:00", "operator": "Renate und Helmut Kiefl", "outdoor_seating": "terrace"}}, {"type": "node", "id": 9704737747, "lat": 48.8878767, "lon": 13.055437, "tags": {"board_type": "history", "information": "board", "inscription": "Die Steinplasterung  Auf diesem Teilst\u00fcck des B\u00f6hmwegs ist die damals parktizierte Packlage noch  sehr gut zu sehen.", "name": "Der B\u00f6hmweg", "tourism": "information"}}, {"type": "node", "id": 9704768601, "lat": 48.8938948, "lon": 13.0570196, "tags": {"hiking": "yes", "information": "guidepost", "tourism": "information"}}, {"type": "node", "id": 9704782408, "lat": 48.8896315, "lon": 13.0563289, "tags": {"hiking": "yes", "information": "guidepost", "tourism": "information"}}, {"type": "node", "id": 9704811579, "lat": 48.886123, "lon": 13.0559077, "tags": {"hiking": "yes", "information": "guidepost", "tourism": "information"}}, {"type": "node", "id": 9704861061, "lat": 48.8983639, "lon": 13.0549976, "tags": {"hiking": "yes", "information": "guidepost", "tourism": "information"}}, {"type": "node", "id": 9704955113, "lat": 48.9062453, "lon": 13.0595802, "tags": {"information": "guidepost", "tourism": "information"}}, {"type": "node", "id": 9704962290, "lat": 48.9035005, "lon": 13.0561005, "tags": {"hiking": "yes", "information": "guidepost", "tourism": "information"}}, {"type": "node", "id": 9704967470, "lat": 48.9061697, "lon": 13.0594234, "tags": {"bicycle": "yes", "hiking": "yes", "information": "guidepost", "tourism": "information"}}, {"type": "node", "id": 9704972818, "lat": 48.9065691, "lon": 13.0590174, "tags": {"hiking": "yes;used", "information": "guidepost", "tourism": "information"}}, {"type": "node", "id": 9704973263, "lat": 48.9065561, "lon": 13.0554526, "tags": {"hiking": "yes", "information": "guidepost", "tourism": "information"}}, {"type": "node", "id": 9705190162, "lat": 48.9118278, "lon": 13.028037, "tags": {"hiking": "yes", "information": "guidepost", "tourism": "information"}}, {"type": "node", "id": 9705756080, "lat": 48.9156502, "lon": 13.03435, "tags": {"information": "map", "map_size": "route", "map_type": "map", "tourism": "information"}}, {"type": "node", "id": 9705756082, "lat": 48.9156573, "lon": 13.0325399, "tags": {"board_type": "history", "information": "board", "name": "Ehemaliges Bergdorf Oberbreitenau", "panoramax": "04aa7a2f-e898-43b4-b93c-efa24dd98dc6", "tourism": "information"}}, {"type": "node", "id": 9705756093, "lat": 48.891368, "lon": 13.0415846}, {"type": "node", "id": 9705756096, "lat": 48.8913373, "lon": 13.0415076}, {"type": "node", "id": 9705924219, "lat": 48.8912703, "lon": 13.045932, "tags": {"ele": "980", "name": "Hirschenkopf", "natural": "peak", "wikidata": "Q31540417"}}, {"type": "node", "id": 9705949303, "lat": 48.8819981, "lon": 13.0343006, "tags": {"ele": "924", "name": "Schergenh\u00f6he", "natural": "peak"}}, {"type": "node", "id": 9794732688, "lat": 48.9083011, "lon": 12.9791518, "tags": {"bicycle": "yes", "hiking": "yes", "information": "guidepost", "tourism": "information"}}, {"type": "node", "id": 9797999351, "lat": 48.9157474, "lon": 13.0345833, "tags": {"addr:city": "Bischofsmais", "addr:housenumber": "1", "addr:place": "Oberbreitenau", "addr:postcode": "94253", "contact:email": "landshuter.haus@gmail.com", "contact:website": "https://www.landshuterhaus.eu/", "description": "aktuell bis voraussichtlich Herbst 2024 wegen Renovierung geschlossen", "disused": "yes", "electricity": "yes", "fee": "yes", "name": "Landshuter Haus", "tourism": "alpine_hut"}}, {"type": "node", "id": 9817914758, "lat": 48.8755936, "lon": 13.0232766, "tags": {"information": "map", "map_size": "region", "map_type": "hiking", "tourism": "information"}}, {"type": "node", "id": 9846359472, "lat": 48.8579938, "lon": 13.0717999, "tags": {"board_type": "information", "information": "board", "name": "Der Natur auf der Spur", "tourism": "information"}}, {"type": "node", "id": 9846410434, "lat": 48.8585223, "lon": 13.071975, "tags": {"information": "guidepost", "tourism": "information"}}, {"type": "node", "id": 9846422345, "lat": 48.8568976, "lon": 13.071992, "tags": {"information": "guidepost", "tourism": "information"}}, {"type": "node", "id": 9846426920, "lat": 48.8555639, "lon": 13.0750399, "tags": {"information": "guidepost", "tourism": "information"}}, {"type": "node", "id": 9846433361, "lat": 48.8594373, "lon": 13.0704246, "tags": {"information": "guidepost", "tourism": "information"}}, {"type": "node", "id": 9846440655, "lat": 48.8619436, "lon": 13.072116, "tags": {"information": "guidepost", "tourism": "information"}}, {"type": "node", "id": 9846452454, "lat": 48.8620635, "lon": 13.0728702, "tags": {"information": "guidepost", "tourism": "information"}}, {"type": "node", "id": 9846454026, "lat": 48.8623615, "lon": 13.074312, "tags": {"information": "guidepost", "tourism": "information"}}, {"type": "node", "id": 9846477144, "lat": 48.8625489, "lon": 13.0741352, "tags": {"information": "guidepost", "tourism": "information"}}, {"type": "node", "id": 9846581154, "lat": 48.8576924, "lon": 13.0715785, "tags": {"information": "board", "tourism": "information"}}, {"type": "node", "id": 10180529560, "lat": 48.9104972, "lon": 12.9980836, "tags": {"hiking": "yes", "information": "guidepost", "tourism": "information"}}, {"type": "node", "id": 10180578009, "lat": 48.907074, "lon": 13.0111109, "tags": {"hiking": "yes", "information": "guidepost", "tourism": "information"}}, {"type": "node", "id": 10180578609, "lat": 48.9123092, "lon": 13.0021495, "tags": {"hiking": "yes", "information": "guidepost", "tourism": "information"}}, {"type": "node", "id": 10180640761, "lat": 48.9095146, "lon": 13.0250833, "tags": {"information": "guidepost", "tourism": "information"}}, {"type": "node", "id": 10180751625, "lat": 48.9131271, "lon": 13.0267736, "tags": {"hiking": "yes", "information": "guidepost", "tourism": "information"}}, {"type": "node", "id": 10271242220, "lat": 48.8702663, "lon": 13.0629651, "tags": {"information": "guidepost", "tourism": "information"}}, {"type": "node", "id": 10271257306, "lat": 48.8755637, "lon": 13.0654596, "tags": {"bicycle": "yes", "information": "guidepost", "tourism": "information"}}, {"type": "node", "id": 10271271713, "lat": 48.8702878, "lon": 13.0629988, "tags": {"information": "guidepost", "tourism": "information"}}, {"type": "node", "id": 10271288709, "lat": 48.8687659, "lon": 13.0623562, "tags": {"board:title": "Weite des Raumes", "information": "board", "panoramax": "a4bfc6d8-160c-44ca-a50d-6ad6065be9c0", "ref": "3", "tourism": "information"}}, {"type": "node", "id": 10271294293, "lat": 48.8684159, "lon": 13.0674158, "tags": {"information": "guidepost", "tourism": "information"}}, {"type": "node", "id": 10271390401, "lat": 48.8753575, "lon": 13.0669385, "tags": {"information": "guidepost", "tourism": "information"}}, {"type": "node", "id": 10271586730, "lat": 48.8680743, "lon": 13.0699308, "tags": {"board:title": "Ort der Kraft", "information": "board", "panoramax": "2ccac418-8d3e-4586-980c-723c3362fe86", "ref": "6", "tourism": "information"}}, {"type": "node", "id": 10271586732, "lat": 48.8677343, "lon": 13.0699951, "tags": {"board:title": "K\u00f6nigstein 850 m", "board_type": "history", "information": "board", "panoramax": "74bb202d-9a0c-4cf5-9c33-3d3b6eac51c7", "tourism": "information"}}, {"type": "node", "id": 10271586733, "lat": 48.8684554, "lon": 13.0673872, "tags": {"board:title": "Dynamisces Sitzen", "board_type": "sport", "information": "board", "panoramax": "f6d95564-9781-40e5-b2d0-ac51e4d3ee9e", "ref": "5", "tourism": "information"}}, {"type": "node", "id": 10271586734, "lat": 48.8697265, "lon": 13.0637192, "tags": {"board:title": "Klangspiele", "information": "board", "panoramax": "ab630cec-43ed-4222-994c-68ce5a1ae555", "ref": "4", "tourism": "information"}}, {"type": "node", "id": 10271586740, "lat": 48.8755137, "lon": 13.0658909, "tags": {"board:title": "GEHsundheitsweg", "board_type": "hiking", "information": "board", "panoramax": "520d2497-333d-4041-a21c-39caf312eb47", "tourism": "information"}}, {"type": "node", "id": 10271586741, "lat": 48.873992, "lon": 13.0648515, "tags": {"board:title": "sehende Fu\u00dfsohlen", "information": "board", "panoramax": "5a91539f-c0b1-46d3-a0e0-e9c6ee9d339e", "ref": "1", "tourism": "information"}}, {"type": "node", "id": 10271586742, "lat": 48.8725201, "lon": 13.0619985, "tags": {"board:title": "Perspektivenwechsel", "information": "board", "panoramax": "0cac95dd-43ca-4215-8e6c-8c6843af3738", "ref": "2", "tourism": "information"}}, {"type": "node", "id": 10649507966, "lat": 48.9122414, "lon": 13.0336812, "tags": {"board:title": "Renarurierung der \"Hochmoors auf der Oberbreitenau\"", "board_type": "nature", "information": "board", "operator": "Bayerische Staatsforsten", "panoramax": "3adec3b9-7b7b-4ac6-8bdd-c03d9b6aec6c", "tourism": "information"}}, {"type": "node", "id": 10751945821, "lat": 48.8964509, "lon": 13.0446446, "tags": {"natural": "spring"}}, {"type": "node", "id": 10751945828, "lat": 48.8959854, "lon": 13.0450201, "tags": {"natural": "spring"}}, {"type": "node", "id": 10751947660, "lat": 48.901388, "lon": 12.988522, "tags": {"ele": "716", "name": "Sollerberg", "natural": "peak", "wikidata": "Q31520519"}}, {"type": "node", "id": 10752007861, "lat": 48.919993, "lon": 13.0274194, "tags": {"natural": "spring"}}, {"type": "node", "id": 10752007864, "lat": 48.9205641, "lon": 13.0274033, "tags": {"natural": "spring"}}, {"type": "node", "id": 10754424563, "lat": 48.9093922, "lon": 13.0086064, "tags": {"natural": "spring"}}, {"type": "node", "id": 10754424602, "lat": 48.9069523, "lon": 13.0151296, "tags": {"natural": "spring"}}, {"type": "node", "id": 10754434701, "lat": 48.9100339, "lon": 13.0107844, "tags": {"natural": "spring"}}, {"type": "node", "id": 10754686233, "lat": 48.9164573, "lon": 13.0000985, "tags": {"natural": "spring"}}, {"type": "node", "id": 10754686245, "lat": 48.9169227, "lon": 12.9958713, "tags": {"natural": "spring"}}, {"type": "node", "id": 10757471154, "lat": 48.9207474, "lon": 13.0361796, "tags": {"natural": "spring"}}, {"type": "node", "id": 10757471242, "lat": 48.9127451, "lon": 13.0285782, "tags": {"natural": "spring"}}, {"type": "node", "id": 10763676112, "lat": 48.897992, "lon": 13.0093467, "tags": {"natural": "spring"}}, {"type": "node", "id": 10763676113, "lat": 48.9155372, "lon": 12.9976094, "tags": {"natural": "spring"}}, {"type": "node", "id": 10763676117, "lat": 48.9136934, "lon": 13.0005008, "tags": {"natural": "spring"}}, {"type": "node", "id": 10763676121, "lat": 48.9093604, "lon": 13.0007636, "tags": {"natural": "spring"}}, {"type": "node", "id": 10763676248, "lat": 48.9208214, "lon": 13.0303001, "tags": {"natural": "spring"}}, {"type": "node", "id": 10763676252, "lat": 48.9236413, "lon": 13.0323011, "tags": {"natural": "spring"}}, {"type": "node", "id": 10763687025, "lat": 48.9119377, "lon": 12.9855287, "tags": {"natural": "spring"}}, {"type": "node", "id": 10763687050, "lat": 48.9083714, "lon": 12.9826212, "tags": {"natural": "spring"}}, {"type": "node", "id": 10763742689, "lat": 48.9007956, "lon": 12.9932642, "tags": {"natural": "spring"}}, {"type": "node", "id": 10763742695, "lat": 48.8996495, "lon": 13.0006027, "tags": {"natural": "spring"}}, {"type": "node", "id": 10764132122, "lat": 48.8807547, "lon": 13.0728239, "tags": {"natural": "spring"}}, {"type": "node", "id": 10764132466, "lat": 48.8881025, "lon": 13.0679369, "tags": {"natural": "spring"}}, {"type": "node", "id": 10764132472, "lat": 48.8882895, "lon": 13.059622, "tags": {"ele": "919", "name": "Steinberg", "natural": "peak", "wikidata": "Q31308060"}}, {"type": "node", "id": 10764132482, "lat": 48.8873583, "lon": 13.0556309, "tags": {"natural": "spring"}}, {"type": "node", "id": 10764160961, "lat": 48.9133056, "lon": 13.064332, "tags": {"ele": "759", "name": "Kleiner Riedstein", "natural": "peak"}}, {"type": "node", "id": 10764160962, "lat": 48.9120858, "lon": 13.0734837, "tags": {"ele": "751", "name": "Schachel", "natural": "peak"}}, {"type": "node", "id": 10764161048, "lat": 48.9007709, "lon": 13.0736554, "tags": {"ele": "728", "name": "Wimmesbichel", "natural": "peak"}}, {"type": "node", "id": 10780587382, "lat": 48.8573317, "lon": 13.0577069, "tags": {"natural": "spring"}}, {"type": "node", "id": 10780600165, "lat": 48.8649159, "lon": 13.0642194, "tags": {"natural": "spring"}}, {"type": "node", "id": 10780600166, "lat": 48.8667121, "lon": 13.0627441, "tags": {"natural": "spring"}}, {"type": "node", "id": 10780600167, "lat": 48.872633, "lon": 13.0739719, "tags": {"natural": "spring"}}, {"type": "node", "id": 10780600169, "lat": 48.8652723, "lon": 13.0514789, "tags": {"ele": "798", "name": "Tannenberg", "natural": "peak"}}, {"type": "node", "id": 10780602133, "lat": 48.8544163, "lon": 13.0618322, "tags": {"natural": "spring"}}, {"type": "node", "id": 10780602314, "lat": 48.8557964, "lon": 13.0777699, "tags": {"ele": "472", "name": "Steinb\u00fchl", "natural": "peak"}}, {"type": "node", "id": 10796090234, "lat": 48.8515078, "lon": 13.0717134, "tags": {"natural": "spring"}}, {"type": "node", "id": 10800326877, "lat": 48.9233029, "lon": 12.9681587, "tags": {"natural": "spring"}}, {"type": "node", "id": 10800326878, "lat": 48.9215758, "lon": 12.9555416, "tags": {"natural": "spring"}}, {"type": "node", "id": 10800358453, "lat": 48.9159303, "lon": 12.9659244, "tags": {"natural": "spring"}}, {"type": "node", "id": 10800359129, "lat": 48.9199084, "lon": 12.9775089, "tags": {"natural": "spring"}}, {"type": "node", "id": 11300764318, "lat": 48.8711944, "lon": 13.0730049, "tags": {"tourism": "viewpoint"}}, {"type": "node", "id": 11391888569, "lat": 48.8953642, "lon": 12.9969306, "tags": {"hike": "yes", "hiking": "yes", "information": "guidepost", "skitour": "yes", "tourism": "information"}}, {"type": "node", "id": 11391903669, "lat": 48.8948296, "lon": 12.9969606, "tags": {"hiking": "yes", "information": "guidepost", "tourism": "information"}}, {"type": "node", "id": 11392502885, "lat": 48.9039499, "lon": 13.0120799, "tags": {"hike": "yes", "information": "guidepost", "skitour": "yes", "tourism": "information"}}, {"type": "node", "id": 11533726793, "lat": 48.8833158, "lon": 13.0521145, "tags": {"information": "trail_blaze", "tourism": "information", "winter_hiking": "yes"}}, {"type": "node", "id": 11533966011, "lat": 48.8945668, "lon": 13.0268813, "tags": {"natural": "spring"}}, {"type": "node", "id": 11537636939, "lat": 48.8988836, "lon": 12.9995632, "tags": {"information": "route_marker", "support": "pole", "tourism": "information", "winter_hiking": "yes"}}, {"type": "node", "id": 11537640356, "lat": 48.883133, "lon": 13.0521628, "tags": {"information": "trail_blaze", "tourism": "information", "winter_hiking": "yes"}}, {"type": "node", "id": 11537672865, "lat": 48.9083438, "lon": 12.9986957, "tags": {"information": "route_marker", "support": "pole", "tourism": "information", "winter_hiking": "yes"}}, {"type": "node", "id": 11537672866, "lat": 48.9123142, "lon": 13.0021541, "tags": {"information": "route_marker", "support": "pole", "tourism": "information", "winter_hiking": "yes"}}, {"type": "node", "id": 11537672867, "lat": 48.9039481, "lon": 13.0120888, "tags": {"information": "trail_blaze", "support": "pole", "tourism": "information", "winter_hiking": "yes"}}, {"type": "node", "id": 11537672868, "lat": 48.904261, "lon": 13.0126046, "tags": {"information": "route_marker", "support": "pole", "tourism": "information", "winter_hiking": "yes"}}, {"type": "node", "id": 11537690169, "lat": 48.9035245, "lon": 13.012212, "tags": {"information": "trail_blaze", "tourism": "information", "winter_hiking": "yes"}}, {"type": "node", "id": 11537690170, "lat": 48.9005256, "lon": 13.0219759, "tags": {"information": "trail_blaze", "tourism": "information", "winter_hiking": "yes"}}, {"type": "node", "id": 11537690171, "lat": 48.9003183, "lon": 13.0220314, "tags": {"information": "trail_blaze", "tourism": "information", "winter_hiking": "yes"}}, {"type": "node", "id": 11537690172, "lat": 48.9028078, "lon": 13.0255754, "tags": {"information": "trail_blaze", "tourism": "information", "winter_hiking": "yes"}}, {"type": "node", "id": 11537690173, "lat": 48.9033237, "lon": 13.0338482, "tags": {"information": "route_marker", "tourism": "information", "winter_hiking": "yes"}}, {"type": "node", "id": 11537690174, "lat": 48.9036314, "lon": 13.0339145, "tags": {"information": "route_marker", "tourism": "information", "winter_hiking": "yes"}}, {"type": "node", "id": 11537690176, "lat": 48.8941043, "lon": 13.0412548, "tags": {"information": "trail_blaze", "tourism": "information", "winter_hiking": "yes"}}, {"type": "node", "id": 11537690177, "lat": 48.893893, "lon": 13.041601, "tags": {"information": "trail_blaze", "tourism": "information", "winter_hiking": "yes"}}, {"type": "node", "id": 11722166174, "lat": 48.8715033, "lon": 13.028522, "tags": {"information": "board", "tourism": "information"}}, {"type": "node", "id": 11926236207, "lat": 48.915115, "lon": 12.9758562, "tags": {"information": "map", "tourism": "information"}}, {"type": "node", "id": 12112175952, "lat": 48.9195067, "lon": 13.0687862, "tags": {"direction": "100", "tourism": "viewpoint"}}, {"type": "node", "id": 12135594953, "lat": 48.9200246, "lon": 13.0732479, "tags": {"bicycle": "yes", "hiking": "yes", "information": "map", "map_size": "region", "map_type": "topo", "mtb": "yes", "tourism": "information"}}, {"type": "node", "id": 12138421875, "lat": 48.9265399, "lon": 13.057079, "tags": {"information": "board", "tourism": "information"}}, {"type": "node", "id": 12170010295, "lat": 48.9226982, "lon": 13.0678272, "tags": {"information": "board", "tourism": "information"}}, {"type": "node", "id": 12170010297, "lat": 48.92271, "lon": 13.0678037, "tags": {"hiking": "yes", "information": "guidepost", "tourism": "information"}}, {"type": "node", "id": 12229694187, "lat": 48.8663315, "lon": 13.0707334, "tags": {"hiking": "yes", "information": "guidepost", "tourism": "information"}}, {"type": "node", "id": 12229694792, "lat": 48.8663887, "lon": 13.0707368, "tags": {"board:title": "Wilde Waldnatur", "board_type": "nature", "information": "board", "operator": "Bayerische Staatsforsten", "tourism": "information"}}, {"type": "node", "id": 12246832820, "lat": 48.9258456, "lon": 13.0653523, "tags": {"information": "board", "name": "B'maiser Wegerl Box 6", "tourism": "information"}}, {"type": "node", "id": 12723744449, "lat": 48.8716206, "lon": 13.0284982, "tags": {"information": "guidepost", "material": "wood", "tourism": "information"}}, {"type": "node", "id": 13065386483, "lat": 48.875952, "lon": 13.0668049, "tags": {"board:title": "Stiller Wald Rusel", "information": "board", "tourism": "information"}}, {"type": "node", "id": 13200273502, "lat": 48.8761701, "lon": 13.0652903, "tags": {"board:title": "Stiller Wald Rusel", "information": "board", "tourism": "information"}}, {"type": "node", "id": 13227411090, "lat": 48.8791186, "lon": 13.0679892, "tags": {"board:title": "Stiller Wald Rusel", "information": "board", "tourism": "information"}}, {"type": "node", "id": 13227421020, "lat": 48.8774243, "lon": 13.0689176, "tags": {"board:title": "Stiller Wald Rusel", "information": "board", "tourism": "information"}}, {"type": "node", "id": 13227461888, "lat": 48.8815017, "lon": 13.0621752, "tags": {"board:title": "Stiller Wald Rusel", "information": "board", "tourism": "information"}}, {"type": "way", "id": 183964702, "nodes": [1943982220, 1943982214, 1943982215, 1943982222, 9705756093, 9705756096, 1943982220], "tags": {"addr:city": "Deggendorf", "addr:housenumber": "4", "addr:place": "Greisingerhochwald", "addr:postcode": "94469", "alt_name": "Hochwaldh\u00fctte", "building": "yes", "contact:phone": "+499920180997", "contact:website": "https://www.alpenverein-deggendorf.de/huetten", "name": "Hochwald - H\u00fctte", "opening_hours": "Jan-Mar,May-Oct Sa 12:00-17:00; Jan-Mar,May-Oct Su 12:00-17:00", "operator": "DAV Sektion Deggendorf", "tourism": "alpine_hut"}}, {"type": "way", "id": 184016349, "nodes": [1944554417, 1944554413, 1944554412, 1944554414, 1944554417], "tags": {"addr:city": "Deggendorf", "addr:housenumber": "5", "addr:place": "Frohnreut", "addr:postcode": "94469", "amenity": "restaurant", "building": "yes", "building:colour": "white", "building:levels": "2", "contact:phone": "+49 9920 1800138", "contact:website": "https://meating-deggendorf.de/", "cuisine": "greek;burger;steak", "indoor_seating": "yes", "loc_name": "Gasthaus Wegmacherkurve", "name": "Meating greek food & steak house", "opening_hours": "Mo, We, Th, Su 17:00-22:00; Fr 17:00-23:00; Sa 11:30-23:00", "operator": "Fridman Pilana", "outdoor_seating": "yes", "roof:levels": "1"}}, {"type": "way", "id": 184077472, "nodes": [1945125596, 1945125592, 1945125598, 1945125594, 1945125600, 1945125606, 1945125602, 1945125604, 1945125596], "tags": {"addr:city": "Grafling", "addr:housenumber": "1", "addr:place": "Loderhart", "addr:postcode": "94539", "amenity": "restaurant", "building": "yes", "cuisine": "regional", "description": "Sonder\u00f6ffnungszeiten und Schlie\u00dfzeiten beachten.\nSind auf der Homepage ver\u00f6ffentlicht und auf Aush\u00e4ngen an den typischen Startpunkten.", "name": "Berghaus Loderhart", "opening_hours": "Sa-Su,PH 10:00-17:00 (Winter 16:00)", "operator": "NaturFreunde Deutschland", "outdoor_seating": "yes", "phone": "+49 9929 1064", "ref": "N 042", "tourism": "alpine_hut", "website": "https://www.loderhart.de/"}}, {"type": "way", "id": 223583859, "nodes": [2324634844, 2324634893, 2324634849, 2324634878, 2324634844], "tags": {"addr:city": "Bischofsmais", "addr:housenumber": "5", "addr:place": "Unterbreitenau", "addr:postcode": "94253", "amenity": "restaurant", "building": "yes", "contact:phone": "+49 9920 336", "indoor_seating": "yes", "name": "Geisskopfh\u00fctte", "operator": "Roland Holdenrieder", "outdoor_seating": "yes"}}, {"type": "way", "id": 223583861, "nodes": [2324634840, 2324634845, 2324634887, 2324634835, 2324634840], "tags": {"access": "yes", "building": "yes", "height": "23", "man_made": "tower", "name": "Gei\u00dfkopfturm", "tourism": "viewpoint", "tower:type": "observation"}}, {"type": "way", "id": 392522800, "nodes": [3957399024, 3957399020, 3957399008, 3957399009, 3957399024], "tags": {"addr:city": "Grafling", "addr:country": "DE", "addr:housenumber": "18", "addr:place": "Datting", "addr:postcode": "94539", "amenity": "restaurant", "building": "yes", "cuisine": "regional", "name": "Gasthaus Falter", "outdoor_seating": "yes", "phone": "+49 9929 958476"}}, {"type": "way", "id": 996661108, "nodes": [9202818534, 9202818535, 9202818538, 9202818536, 9202818537, 9202818534], "tags": {"amenity": "shelter", "bench": "yes", "building": "yes", "information": "map", "shelter_type": "weather_shelter", "start_date": "1983", "tourism": "information"}}]}