{"version": 0.6, "generator": "Overpass API 0.7.62.8 e802775f", "osm3s": {"timestamp_osm_base": "2026-01-05T16:27:06Z", "copyright": "The data included in this document is from www.openstreetmap.org. The data is made available under ODbL."}, "elements": [{"type": "node", "id": 31994144, "lat": 49.1151213, "lon": 13.8303344, "tags": {"bicycle": "yes", "information": "route_marker", "operator": "cz:K\u010cT", "tourism": "information"}}, {"type": "node", "id": 283601695, "lat": 48.9912312, "lon": 13.8175226, "tags": {"ele": "1362", "name": "Boub\u00edn", "name:de": "Kubany", "natural": "peak", "prominence": "357", "summit:cross": "no", "wikidata": "Q594147", "wikipedia": "cs:Boub\u00edn"}}, {"type": "node", "id": 283601715, "lat": 48.9839664, "lon": 13.8208397, "tags": {"ele": "1150", "hiking": "yes", "information": "guidepost", "name": "Loveck\u00fd z\u00e1me\u010dek", "name:de": "Jagdschl\u00f6sschen", "operator": "cz:K\u010cT", "ref": "VO563", "source": "survey", "tourism": "information"}}, {"type": "node", "id": 458233979, "lat": 48.9978039, "lon": 13.9078342, "tags": {"ele": "645", "hiking": "yes", "information": "guidepost", "name": "\u0158epe\u0161\u00edn rozcest\u00ed", "operator": "cz:K\u010cT", "ref": "VO504", "tourism": "information"}}, {"type": "node", "id": 458234020, "lat": 48.9856802, "lon": 13.8812236, "tags": {"ele": "830", "hiking": "yes", "information": "guidepost", "name": "Mile\u0161ice", "operator": "cz:K\u010cT", "ref": "VO506", "tourism": "information"}}, {"type": "node", "id": 576571447, "lat": 48.9750818, "lon": 13.8522288, "tags": {"ele": "1155", "name": "Solovec", "name:de": "Soloberg", "natural": "peak", "source": "\u010c\u00daZK"}}, {"type": "node", "id": 576602744, "lat": 48.9586959, "lon": 13.8654306, "tags": {"ele": "1265", "name": "Bob\u00edk", "name:cs": "Bob\u00edk", "name:de": "Schreiner", "natural": "peak", "source": "\u010c\u00daZK"}}, {"type": "node", "id": 576717528, "lat": 49.0114005, "lon": 13.8052714, "tags": {"ele": "1044", "name": "Kupa", "natural": "peak", "source": "tisicovky.cz"}}, {"type": "node", "id": 576717529, "lat": 48.9702684, "lon": 13.8649064, "tags": {"ele": "1037", "name": "Mal\u00fd Bob\u00edk", "natural": "peak", "source": "\u010c\u00daZK"}}, {"type": "node", "id": 577336430, "lat": 49.0072222, "lon": 13.8558333, "tags": {"ele": "1006", "name": "V obo\u0159e", "natural": "peak", "source": "tisicovky.cz"}}, {"type": "node", "id": 577336431, "lat": 49.0061111, "lon": 13.8341667, "tags": {"ele": "1057", "name": "V\u010delensk\u00fd vrch", "natural": "peak", "source": "tisicovky.cz"}}, {"type": "node", "id": 577336432, "lat": 48.979108, "lon": 13.8371351, "tags": {"ele": "1164", "name": "V\u011bt\u0159\u00edn", "natural": "peak", "source": "\u010c\u00daZK"}}, {"type": "node", "id": 1383990952, "lat": 48.9668254, "lon": 13.8233097, "tags": {"ele": "885", "hiking": "yes", "information": "guidepost", "name": "Amortovka", "operator": "cz:K\u010cT", "ref": "VO558", "source": "survey", "tourism": "information"}}, {"type": "node", "id": 1383990953, "lat": 48.9733595, "lon": 13.8191996, "tags": {"ele": "925", "hiking": "yes", "information": "guidepost", "name": "Boub\u00ednsk\u00e9 jez\u00edrko - za\u010d\u00e1tek nau\u010dn\u00e9 stezky", "operator": "cz:K\u010cT", "ref": "VO559", "source": "survey", "tourism": "information"}}, {"type": "node", "id": 1383990954, "lat": 48.9578376, "lon": 13.8261832, "tags": {"board_type": "nature", "information": "board", "name": "Idina pila", "source": "survey", "tourism": "information"}}, {"type": "node", "id": 1383990955, "lat": 48.9632734, "lon": 13.8263791, "tags": {"addr:city": "Lenora", "addr:housenumber": "61", "addr:postcode": "38442", "addr:street": "Kaplice", "contact:email": "isidinapila@npsumava.cz", "contact:website": "http://www.npsumava.cz/cz/1107/sekce/is-idina-pila/", "information": "office", "name": "Idina pila", "source": "survey", "tourism": "information"}}, {"type": "node", "id": 1383990957, "lat": 48.9581257, "lon": 13.8256007, "tags": {"ele": "835", "hiking": "yes", "information": "guidepost", "name": "Pod Boub\u00ednem (tab.)", "operator": "cz:K\u010cT", "ref": "VO544", "tourism": "information"}}, {"type": "node", "id": 1383993194, "lat": 48.9737683, "lon": 13.8198158, "tags": {"board_type": "nature", "information": "board", "name": "Kr\u00e1l smrk\u016f", "source": "survey", "tourism": "information"}}, {"type": "node", "id": 1383993217, "lat": 48.9738122, "lon": 13.8197964, "tags": {"amenity": "shelter", "shelter_type": "weather_shelter", "source": "survey"}}, {"type": "node", "id": 1398324886, "lat": 48.9529217, "lon": 13.8421703, "tags": {"ele": "948", "hiking": "yes", "information": "guidepost", "name": "U Obr\u00e1zku", "operator": "cz:K\u010cT", "ref": "VO556", "source": "survey", "tourism": "information"}}, {"type": "node", "id": 1398324909, "lat": 48.9689801, "lon": 13.8600938, "tags": {"ele": "1020", "hiking": "yes", "information": "guidepost", "name": "Na Kubrnech", "operator": "cz:K\u010cT", "ref": "PT552", "source": "survey", "tourism": "information"}}, {"type": "node", "id": 1416923259, "lat": 48.9913052, "lon": 13.8174407, "tags": {"ele": "1362", "hiking": "yes", "information": "guidepost", "name": "Boub\u00edn", "operator": "cz:K\u010cT", "ref": "VO494", "source": "survey", "tourism": "information"}}, {"type": "node", "id": 1416923260, "lat": 48.9960085, "lon": 13.8137363, "tags": {"ele": "1300", "hiking": "yes", "information": "guidepost", "name": "Boub\u00ednsk\u00e1 severn\u00ed cesta (rozcest\u00ed)", "official_name": "Boub\u00ednsk\u00e1 sever. cesta (rozc.)", "operator": "cz:K\u010cT", "ref": "VO490", "tourism": "information"}}, {"type": "node", "id": 1416923263, "lat": 48.985849, "lon": 13.8277131, "tags": {"ele": "1138", "hiking": "yes", "information": "guidepost", "name": "Na K\u0159\u00ed\u017ek\u00e1ch", "name:cs": "Na K\u0159\u00ed\u017ek\u00e1ch", "operator": "cz:K\u010cT", "place": "locality", "ref": "VO495", "tourism": "information"}}, {"type": "node", "id": 1416923264, "lat": 48.993524, "lon": 13.8135781, "tags": {"ele": "1352", "hiking": "yes", "information": "guidepost", "name": "Pod Boub\u00ednem", "operator": "cz:K\u010cT", "ref": "VO493", "source": "survey", "tourism": "information"}}, {"type": "node", "id": 1472403742, "lat": 48.9943881, "lon": 13.8204535, "tags": {"ele": "1235", "hiking": "yes", "information": "guidepost", "name": "Na Boub\u00ednsk\u00e9 severn\u00ed cest\u011b", "official_name": "Na Boub\u00ednsk\u00e9 sever. cest\u011b", "operator": "cz:K\u010cT", "ref": "VO492", "source": "survey", "tourism": "information"}}, {"type": "node", "id": 1472403745, "lat": 49.004076, "lon": 13.8185532, "tags": {"ele": "1033", "hiking": "yes", "information": "guidepost", "name": "Na Kubohu\u0165sk\u00e9 cest\u011b", "operator": "cz:K\u010cT", "ref": "VO030", "source": "survey", "tourism": "information"}}, {"type": "node", "id": 1472403756, "lat": 49.0055705, "lon": 13.8171419, "tags": {"ele": "1010", "hiking": "yes", "information": "guidepost", "name": "Nad Veselkou", "operator": "cz:K\u010cT", "ref": "VO029", "source": "survey", "tourism": "information"}}, {"type": "node", "id": 1472403757, "lat": 48.9631336, "lon": 13.855087, "tags": {"ele": "1085", "hiking": "yes", "information": "guidepost", "name": "Pod Bob\u00edkem (sedlo)", "operator": "cz:K\u010cT", "ref": "VO553", "source": "cuzk:km;uhul:ortofoto;survey", "tourism": "information"}}, {"type": "node", "id": 1472403758, "lat": 48.9555249, "lon": 13.8615822, "tags": {"ele": "1207", "hiking": "yes", "information": "guidepost", "name": "Pod Bob\u00edkem", "operator": "cz:K\u010cT", "ref": "VO554", "source": "survey", "tourism": "information"}}, {"type": "node", "id": 1472403773, "lat": 48.9773243, "lon": 13.8540656, "tags": {"ele": "1056", "hiking": "yes", "information": "guidepost", "name": "Pod Solovcem", "operator": "cz:K\u010cT", "ref": "VO551", "source": "survey", "tourism": "information"}}, {"type": "node", "id": 1472403774, "lat": 49.0116446, "lon": 13.813427, "tags": {"ele": "960", "hiking": "yes", "information": "guidepost", "name": "Veselka (h\u00e1j.)", "operator": "cz:K\u010cT", "ref": "VO491", "tourism": "information"}}, {"type": "node", "id": 1472404751, "lat": 49.0436743, "lon": 13.8065247, "tags": {"bicycle": "yes", "hiking": "yes", "information": "map", "map_size": "region", "map_type": "topo", "source": "survey", "tourism": "information"}}, {"type": "node", "id": 1774506798, "lat": 48.9705222, "lon": 13.9967102, "tags": {"ele": "900", "hiking": "yes", "information": "guidepost", "name": "rozcest\u00ed \"U Sed\u00fdlka\"", "operator": "cz:K\u010cT", "ref": "PT925", "source": "survey", "tourism": "information"}}, {"type": "node", "id": 1774507146, "lat": 48.9762382, "lon": 13.9897299, "tags": {"ele": "855", "hiking": "yes", "information": "guidepost", "name": "Lib\u00ednsk\u00e9 sedlo", "operator": "cz:K\u010cT", "ref": "PT589", "tourism": "information"}}, {"type": "node", "id": 1870358689, "lat": 49.0567211, "lon": 13.9755724, "tags": {"ele": "603", "name": "Na Vr\u00e1\u017e\u00edch", "natural": "peak", "source": "cuzk"}}, {"type": "node", "id": 1879759750, "lat": 49.0985739, "lon": 13.8691799, "tags": {"ele": "620", "hiking": "yes", "information": "guidepost", "name": "V\u011bnec", "operator": "cz:K\u010cT", "ref": "PT196", "tourism": "information"}}, {"type": "node", "id": 1879759752, "lat": 49.0986341, "lon": 13.8692433, "tags": {"description": "historie m\u00edsta", "information": "board", "name": "V\u011bnec", "tourism": "information"}}, {"type": "node", "id": 1879759754, "lat": 49.1035309, "lon": 13.8770005, "tags": {"name": "pod V\u011bncem 2009", "tourism": "information"}}, {"type": "node", "id": 1899199922, "lat": 49.0720136, "lon": 13.8474584, "tags": {"ele": "907", "hiking": "yes", "information": "guidepost", "name": "Ma\u0159sk\u00fd vrch (rozc.)", "operator": "cz:K\u010cT", "ref": "PT226", "source": "survey", "tourism": "information"}}, {"type": "node", "id": 1899199925, "lat": 49.072725, "lon": 13.8481997, "tags": {"ele": "918", "hiking": "yes", "information": "guidepost", "name": "Ma\u0159sk\u00fd vrch (vrchol)", "ref": "231", "source": "survey", "tourism": "information"}}, {"type": "node", "id": 1899199933, "lat": 49.0699704, "lon": 13.8436937, "tags": {"ele": "840", "hiking": "yes", "information": "guidepost", "name": "Pod Ma\u0159sk\u00fdm vrchem", "operator": "cz:K\u010cT", "ref": "PT219", "tourism": "information"}}, {"type": "node", "id": 1899200056, "lat": 49.0724621, "lon": 13.8474425, "tags": {"amenity": "shelter", "shelter_type": "picnic_shelter"}}, {"type": "node", "id": 1899218420, "lat": 49.0858958, "lon": 13.8527636, "tags": {"ele": "635", "hiking": "yes", "information": "guidepost", "name": "Budilov", "operator": "cz:K\u010cT", "ref": "PT227", "tourism": "information"}}, {"type": "node", "id": 1899218421, "lat": 49.0984166, "lon": 13.84123, "tags": {"ele": "585", "hiking": "yes", "information": "guidepost", "name": "Hrad\u010dany", "operator": "cz:K\u010cT", "ref": "PT181", "tourism": "information"}}, {"type": "node", "id": 1927729053, "lat": 48.9676181, "lon": 13.8584256, "tags": {"amenity": "shelter", "fireplace": "no", "shelter_type": "picnic_shelter", "source": "survey"}}, {"type": "node", "id": 1927729189, "lat": 48.9858775, "lon": 13.8276625, "tags": {"amenity": "shelter", "fireplace": "no", "name": "Na K\u0159\u00ed\u017ek\u00e1ch", "shelter_type": "picnic_shelter", "source": "survey"}}, {"type": "node", "id": 1948129993, "lat": 48.9660138, "lon": 13.9281962, "tags": {"name": "Pansk\u00fd vrch", "natural": "peak", "source": "gps"}}, {"type": "node", "id": 1948133290, "lat": 48.9700404, "lon": 13.9345088, "tags": {"natural": "peak", "source": "gps"}}, {"type": "node", "id": 2305615602, "lat": 48.9988286, "lon": 13.9316951, "tags": {"ele": "590", "hiking": "yes", "information": "guidepost", "name": "Z\u00e1blat\u00ed", "operator": "cz:K\u010cT", "ref": "PT516", "tourism": "information"}}, {"type": "node", "id": 2305637841, "lat": 48.9683733, "lon": 13.9374392, "tags": {"ele": "785", "hiking": "yes", "information": "guidepost", "name": "K\u0159i\u0161\u0165anovick\u00fd rybn\u00edk (t\u00e1b.)", "operator": "cz:K\u010cT", "ref": "VO581", "tourism": "information"}}, {"type": "node", "id": 2305637852, "lat": 48.9959717, "lon": 13.9131655, "tags": {"ele": "603", "hiking": "yes", "information": "guidepost", "name": "\u0158epe\u0161\u00ednsk\u00fd ml\u00fdn", "operator": "cz:K\u010cT", "ref": "VO114", "tourism": "information"}}, {"type": "node", "id": 2320543515, "lat": 49.0140855, "lon": 13.9998581, "tags": {"ele": "560", "hiking": "yes", "information": "guidepost", "mapillary": "615128622781601", "name": "Mal\u00e9 n\u00e1m\u011bst\u00ed", "operator": "cz:K\u010cT", "ref": "PT888", "tourism": "information"}}, {"type": "node", "id": 2344227051, "lat": 49.0587264, "lon": 13.9928482, "tags": {"ele": "573", "name": "Homolina", "natural": "peak"}}, {"type": "node", "id": 2439634141, "lat": 49.0393901, "lon": 13.8948127, "tags": {"ele": "820", "hiking": "yes", "information": "guidepost", "name": "Vojslavice", "operator": "cz:K\u010cT", "ref": "PT299", "tourism": "information"}}, {"type": "node", "id": 2439637372, "lat": 49.0484226, "lon": 13.8825348, "tags": {"ele": "800", "hiking": "yes", "information": "guidepost", "name": "Kosmo", "operator": "cz:K\u010cT", "ref": "PT298", "tourism": "information"}}, {"type": "node", "id": 2570308838, "lat": 48.9898102, "lon": 13.8051118, "tags": {"ele": "1296", "name": "Srn\u00ed vrch", "natural": "peak", "summit:cross": "no"}}, {"type": "node", "id": 2570352997, "lat": 48.9664666, "lon": 13.8058709, "tags": {"ele": "1125", "name": "Kyt\u00fdrka", "natural": "peak"}}, {"type": "node", "id": 2581788130, "lat": 48.9622602, "lon": 13.8117335, "tags": {"ele": "970", "hiking": "yes", "information": "guidepost", "name": "Lom p\u0159ed Sov\u00ed sk\u00e1lou", "operator": "cz:K\u010cT", "ref": "VO396", "source": "survey", "tourism": "information"}}, {"type": "node", "id": 2581788131, "lat": 48.9593848, "lon": 13.8102013, "tags": {"ele": "960", "hiking": "yes", "information": "guidepost", "name": "Lukensk\u00e1 cesta", "operator": "cz:K\u010cT", "ref": "VO352", "source": "survey", "tourism": "information"}}, {"type": "node", "id": 2581788136, "lat": 48.9737225, "lon": 13.8198223, "tags": {"information": "map", "map_size": "region", "map_type": "topo", "source": "survey", "tourism": "information"}}, {"type": "node", "id": 2742711026, "lat": 48.9955366, "lon": 13.9888339, "tags": {"ele": "660", "hiking": "yes", "information": "guidepost", "name": "Na Zlat\u00e9 stezce", "operator": "cz:K\u010cT", "ref": "PT528", "tourism": "information"}}, {"type": "node", "id": 2742711040, "lat": 49.002116, "lon": 13.9977956, "tags": {"ele": "615", "hiking": "yes", "information": "guidepost", "name": "L\u00e1zn\u011b sv. Mark\u00e9ty (rozc.)", "operator": "cz:K\u010cT", "ref": "PT325", "tourism": "information"}}, {"type": "node", "id": 2742711044, "lat": 49.0003559, "lon": 14.0002731, "tags": {"ele": "632", "hiking": "yes", "information": "guidepost", "name": "L\u00e1zn\u011b sv. Mark\u00e9ty", "operator": "cz:K\u010cT", "ref": "PT885", "source": "survey", "tourism": "information"}}, {"type": "node", "id": 2742711049, "lat": 49.0003061, "lon": 14.0002372, "tags": {"board_type": "history", "information": "board", "name": "L\u00e1zn\u011b sv. Mark\u00e9ty", "ref": "6", "tourism": "information"}}, {"type": "node", "id": 2742711053, "lat": 48.9989729, "lon": 13.9895817, "tags": {"board_type": "nature", "information": "board", "name": "Na Zlat\u00e9 stezce", "ref": "7", "tourism": "information"}}, {"type": "node", "id": 2742711062, "lat": 49.0032967, "lon": 13.9904358, "tags": {"ele": "665", "hiking": "yes", "information": "guidepost", "name": "Nad kapli", "operator": "cz:K\u010cT", "ref": "PT241", "tourism": "information"}}, {"type": "node", "id": 2742711067, "lat": 49.0128179, "lon": 13.9866696, "tags": {"board_type": "nature", "information": "board", "name": "Pod Cvr\u010dkovem", "ref": "9", "tourism": "information"}}, {"type": "node", "id": 2742711075, "lat": 49.012824, "lon": 13.9865019, "tags": {"ele": "668", "hiking": "yes", "information": "guidepost", "name": "Pod Cvr\u010dkovem", "operator": "cz:K\u010cT", "ref": "PT217", "tourism": "information"}}, {"type": "node", "id": 2742711084, "lat": 49.0073565, "lon": 13.987632, "tags": {"ele": "680", "hiking": "yes", "information": "guidepost", "name": "Pod \u010dernou horou", "operator": "cz:K\u010cT", "ref": "PT216", "tourism": "information"}}, {"type": "node", "id": 2988070888, "lat": 48.9993531, "lon": 13.9951722, "tags": {"ele": "700", "hiking": "yes", "information": "guidepost", "name": "Nad l\u00e1zn\u011bmi sv. Mark\u00e9ty", "operator": "cz:K\u010cT", "ref": "PT511", "source": "survey", "tourism": "information"}}, {"type": "node", "id": 2988070889, "lat": 49.0064731, "lon": 13.9966195, "tags": {"ele": "580", "hiking": "yes", "information": "guidepost", "name": "Prachatice - L\u00e1zn\u011b (\u017est, rozc.", "operator": "cz:K\u010cT", "ref": "PT886", "source": "survey", "tourism": "information"}}, {"type": "node", "id": 2988071881, "lat": 48.996998, "lon": 13.9965348, "tags": {"source": "survey", "tourism": "viewpoint"}}, {"type": "node", "id": 3034476403, "lat": 49.0131506, "lon": 13.9987598, "tags": {"bicycle": "yes", "information": "guidepost", "tourism": "information"}}, {"type": "node", "id": 3045116778, "lat": 48.9994276, "lon": 13.8054681, "tags": {"ele": "1064", "hiking": "yes", "information": "guidepost", "name": "Kubohu\u0165sk\u00e1 cesta (na ns)", "operator": "cz:K\u010cT", "ref": "VO397", "source": "survey", "tourism": "information"}}, {"type": "node", "id": 3045116780, "lat": 49.0070594, "lon": 13.8067734, "tags": {"ele": "1000", "hiking": "yes", "information": "guidepost", "name": "U buku", "operator": "cz:K\u010cT", "ref": "VO347", "source": "survey", "tourism": "information"}}, {"type": "node", "id": 3045116789, "lat": 49.0304439, "lon": 13.8024131, "tags": {"ele": "855", "hiking": "yes", "information": "guidepost", "name": "Za Prav\u011bt\u00ednem (za\u010d. NS)", "note": "fixme", "operator": "cz:K\u010cT", "ref": "VO359", "source": "survey", "tourism": "information"}}, {"type": "node", "id": 3045116790, "lat": 49.039969, "lon": 13.8062585, "tags": {"ele": "780", "hiking": "yes", "information": "guidepost", "name": "Prav\u011bt\u00edn", "operator": "cz:K\u010cT", "ref": "VO291", "source": "survey", "tourism": "information"}}, {"type": "node", "id": 3045168341, "lat": 49.0212763, "lon": 13.888759, "tags": {"ele": "680", "hiking": "yes", "information": "guidepost", "name": "Cik\u00e1nsk\u00fd potok", "operator": "cz:K\u010cT", "ref": "VO304", "source": "survey", "tourism": "information"}}, {"type": "node", "id": 3045168342, "lat": 49.0152473, "lon": 13.8497876, "tags": {"ele": "870", "hiking": "yes", "information": "guidepost", "name": "Na pile (rozc.)", "operator": "cz:K\u010cT", "ref": "VO497", "source": "survey", "tourism": "information"}}, {"type": "node", "id": 3045168343, "lat": 49.0276534, "lon": 13.8965148, "tags": {"ele": "774", "hiking": "yes", "information": "guidepost", "name": "Pod Studenou", "operator": "cz:K\u010cT", "ref": "PT014", "source": "survey", "tourism": "information"}}, {"type": "node", "id": 3045168344, "lat": 48.9985491, "lon": 13.8321914, "tags": {"ele": "1048", "hiking": "yes", "information": "guidepost", "name": "Pod V\u010delensk\u00fdm vrchem", "operator": "cz:K\u010cT", "ref": "VO116", "source": "survey", "tourism": "information"}}, {"type": "node", "id": 3045168345, "lat": 49.0178247, "lon": 13.9025783, "tags": {"ele": "680", "hiking": "yes", "information": "guidepost", "name": "Trp\u00edn", "operator": "cz:K\u010cT", "ref": "VO507", "source": "survey", "tourism": "information"}}, {"type": "node", "id": 3045168346, "lat": 49.0228803, "lon": 13.8578892, "tags": {"ele": "880", "hiking": "yes", "information": "guidepost", "name": "V\u010deln\u00e1 pod Boub\u00ednem", "operator": "cz:K\u010cT", "ref": "VO295", "source": "survey", "tourism": "information"}}, {"type": "node", "id": 3045168375, "lat": 49.0333771, "lon": 13.8853175, "tags": {"ele": "815", "hiking": "yes", "information": "guidepost", "name": "\u0160karez", "operator": "cz:K\u010cT", "ref": "PT301", "source": "survey", "tourism": "information"}}, {"type": "node", "id": 3120165569, "lat": 48.9841417, "lon": 13.8357707, "tags": {"board_type": "nature", "information": "board", "name": "P\u0159\u00edrodn\u00ed rezervace Mile\u0161ick\u00fd prales", "tourism": "information"}}, {"type": "node", "id": 3231249670, "lat": 48.9840718, "lon": 13.8274471, "tags": {"board_type": "history", "information": "board", "name": "K\u0159\u00ed\u017eov\u00e1 smr\u010d", "name:de": "Kreuzfichte", "source": "survey;uhul:ortofoto", "tourism": "information"}}, {"type": "node", "id": 3420194267, "lat": 49.1324632, "lon": 13.8032109, "tags": {"ele": "800", "name": "Na Sl\u00e1dkov\u011b", "natural": "peak"}}, {"type": "node", "id": 3420194268, "lat": 49.1335442, "lon": 13.8247544, "tags": {"ele": "699", "name": "Chrastnice", "natural": "peak"}}, {"type": "node", "id": 3420194269, "lat": 49.1319437, "lon": 13.846609, "tags": {"ele": "751", "name": "Na Kobyle", "natural": "peak"}}, {"type": "node", "id": 3420194270, "lat": 49.1368645, "lon": 13.8439804, "tags": {"ele": "769", "name": "Na Mlad\u00fdch", "natural": "peak"}}, {"type": "node", "id": 3420194271, "lat": 49.134148, "lon": 13.8704592, "tags": {"ele": "598", "name": "Dubovec", "natural": "peak"}}, {"type": "node", "id": 3420194272, "lat": 49.1337548, "lon": 13.8818425, "tags": {"ele": "586", "name": "P\u00e1tek", "natural": "peak"}}, {"type": "node", "id": 3420194273, "lat": 49.1400512, "lon": 13.8730127, "tags": {"ele": "651.2", "name": "Beta\u0148", "natural": "peak"}}, {"type": "node", "id": 3420194274, "lat": 49.1350044, "lon": 13.9069265, "tags": {"ele": "639", "name": "Brankovec", "natural": "peak"}}, {"type": "node", "id": 3420194275, "lat": 49.1447467, "lon": 13.926732, "tags": {"ele": "612", "name": "Ra\u010d\u00ed", "natural": "peak"}}, {"type": "node", "id": 3420194276, "lat": 49.1122765, "lon": 13.910231, "tags": {"ele": "621", "name": "Bo\u0159k\u016fv kopec", "natural": "peak"}}, {"type": "node", "id": 3420194277, "lat": 49.1083576, "lon": 13.9224619, "tags": {"ele": "654.3", "name": "P\u00e1lenica", "natural": "peak"}}, {"type": "node", "id": 3420194278, "lat": 49.087325, "lon": 13.9222366, "tags": {"ele": "822", "name": "Uh\u0159ice", "natural": "peak"}}, {"type": "node", "id": 3420194279, "lat": 49.0643715, "lon": 13.9155311, "tags": {"ele": "882", "name": "Kokovec", "natural": "peak"}}, {"type": "node", "id": 3420194280, "lat": 49.0605653, "lon": 13.8936609, "tags": {"ele": "925", "name": "B\u011ble\u010d", "natural": "peak"}}, {"type": "node", "id": 3420194281, "lat": 49.0515241, "lon": 13.8418245, "tags": {"ele": "822", "name": "Vysok\u00e1", "natural": "peak"}}, {"type": "node", "id": 3420194282, "lat": 49.0335977, "lon": 13.8279843, "tags": {"ele": "926", "name": "V\u00fd\u0161ina", "natural": "peak"}}, {"type": "node", "id": 3420194283, "lat": 49.0360736, "lon": 13.8196695, "tags": {"ele": "928", "name": "Na Vr\u0161\u00edch", "natural": "peak"}}, {"type": "node", "id": 3420194286, "lat": 49.0026496, "lon": 13.8438992, "tags": {"ele": "1014", "name": "Pale\u010dkovsk\u00fd vrch", "name:de": "Brentenberg", "natural": "peak"}}, {"type": "node", "id": 3420194287, "lat": 48.9642127, "lon": 13.8892243, "tags": {"ele": "918", "name": "Blata", "natural": "peak", "source": "\u010c\u00daZK"}}, {"type": "node", "id": 3420194288, "lat": 48.9700648, "lon": 13.8954105, "tags": {"ele": "891", "name": "Mlyn\u00e1\u0159ovick\u00fd kopec", "name:de": "Buchberg", "natural": "peak", "source": "\u010c\u00daZK"}}, {"type": "node", "id": 3420194289, "lat": 48.9775217, "lon": 13.8792116, "tags": {"ele": "948", "name": "Pastvi\u0161t\u011b", "name:de": "Viehberg", "natural": "peak", "source": "\u010c\u00daZK"}}, {"type": "node", "id": 3420194290, "lat": 48.9834151, "lon": 13.8955629, "tags": {"ele": "871", "name": "Krej\u010dovick\u00fd kopec", "natural": "peak", "source": "\u010c\u00daZK"}}, {"type": "node", "id": 3420194291, "lat": 48.9857951, "lon": 13.868321, "tags": {"ele": "928", "name": "Put\u00ednsk\u00fd les", "natural": "peak", "source": "\u010c\u00daZK"}}, {"type": "node", "id": 3420194292, "lat": 48.9950435, "lon": 13.8816714, "tags": {"ele": "899", "name": "Vysok\u00e1", "natural": "peak"}}, {"type": "node", "id": 3420194393, "lat": 49.0017305, "lon": 13.8799226, "tags": {"ele": "862", "name": "\u010certova str\u00e1\u0148", "name:de": "Alte S\u00e4gwand", "natural": "peak"}}, {"type": "node", "id": 3420194394, "lat": 49.010366, "lon": 13.8743329, "tags": {"ele": "904", "name": "Str\u00e9bl\u016fv vrch", "name:de": "Str\u00f6blberg", "natural": "peak"}}, {"type": "node", "id": 3420194395, "lat": 49.0160236, "lon": 13.8819611, "tags": {"ele": "906", "name": "\u010cern\u00fd les", "name:de": "Schwarzwaldberg", "natural": "peak"}}, {"type": "node", "id": 3420194396, "lat": 49.0194573, "lon": 13.8952756, "tags": {"ele": "793", "name": "Lou\u010dov\u00e1", "natural": "peak"}}, {"type": "node", "id": 3420194397, "lat": 49.0357993, "lon": 13.8915741, "tags": {"ele": "885.2", "name": "Studen\u00e1", "natural": "peak"}}, {"type": "node", "id": 3420194398, "lat": 49.0094934, "lon": 13.9204561, "tags": {"ele": "679", "name": "Str\u00e1\u0148", "natural": "peak"}}, {"type": "node", "id": 3420194399, "lat": 48.996219, "lon": 13.9727163, "tags": {"ele": "952", "name": "Volovick\u00fd vrch", "natural": "peak"}}, {"type": "node", "id": 3420194400, "lat": 49.0153728, "lon": 13.9842176, "tags": {"ele": "760", "name": "Dubov\u00fd vrch", "natural": "peak"}}, {"type": "node", "id": 3420194401, "lat": 49.0284978, "lon": 13.9828121, "tags": {"ele": "686", "name": "V\u00fdrovec", "natural": "peak"}}, {"type": "node", "id": 3428981832, "lat": 49.141763, "lon": 13.9347729, "tags": {"ele": "591", "name": "V Ho\u0159e", "natural": "peak"}}, {"type": "node", "id": 3428981833, "lat": 49.1411383, "lon": 13.9562627, "tags": {"ele": "581", "name": "Horn\u00ed hora", "natural": "peak"}}, {"type": "node", "id": 3428981834, "lat": 49.1199652, "lon": 13.9501902, "tags": {"ele": "596", "name": "Bi\u0148ovec", "natural": "peak"}}, {"type": "node", "id": 3428981835, "lat": 49.1348491, "lon": 13.9824196, "tags": {"ele": "527", "name": "Bukovec", "natural": "peak"}}, {"type": "node", "id": 3428981836, "lat": 49.1202531, "lon": 13.9754352, "tags": {"ele": "559", "name": "H\u016frka", "natural": "peak"}}, {"type": "node", "id": 3428981837, "lat": 49.1076755, "lon": 13.97109, "tags": {"ele": "577", "name": "Dolej\u0161\u00ed hora", "natural": "peak"}}, {"type": "node", "id": 3428981841, "lat": 49.0777885, "lon": 13.9873281, "tags": {"ele": "581", "name": "Hrad\u011bjn", "natural": "peak"}}, {"type": "node", "id": 3433245042, "lat": 49.0059856, "lon": 13.8114572, "tags": {"amenity": "shelter", "name": "Roblovka", "shelter_type": "picnic_shelter"}}, {"type": "node", "id": 3450921501, "lat": 49.1163696, "lon": 13.811298, "tags": {"ele": "578", "name": "Skalnice", "natural": "peak"}}, {"type": "node", "id": 3450921502, "lat": 49.1140803, "lon": 13.8166946, "tags": {"ele": "576", "name": "Na Skalnici", "natural": "peak"}}, {"type": "node", "id": 3450921506, "lat": 49.0949329, "lon": 13.8291078, "tags": {"ele": "732", "name": "K\u0159\u00ed\u017eovnice", "natural": "peak"}}, {"type": "node", "id": 3450921507, "lat": 49.090563, "lon": 13.8286465, "tags": {"ele": "742", "name": "Ivovice", "natural": "peak"}}, {"type": "node", "id": 3450921508, "lat": 49.0857786, "lon": 13.8651057, "tags": {"ele": "725", "name": "Siln\u00e1 hora", "natural": "peak"}}, {"type": "node", "id": 3450921510, "lat": 49.1065536, "lon": 13.9513171, "tags": {"ele": "613", "name": "Za Horou", "natural": "peak"}}, {"type": "node", "id": 3450921511, "lat": 49.1027094, "lon": 13.9430695, "tags": {"ele": "601", "name": "Na Klobou\u010dku", "natural": "peak"}}, {"type": "node", "id": 3450921512, "lat": 49.0901625, "lon": 13.9516204, "tags": {"ele": "619", "name": "Z\u00e1horsk\u00e1", "natural": "peak"}}, {"type": "node", "id": 3450921513, "lat": 49.0952842, "lon": 13.9752453, "tags": {"ele": "608", "name": "Skalka", "natural": "peak"}}, {"type": "node", "id": 3450921514, "lat": 49.0657904, "lon": 13.9320403, "tags": {"ele": "808", "name": "Ho\u0159ej\u0161\u00ed vrch", "natural": "peak"}}, {"type": "node", "id": 3450921515, "lat": 49.0550834, "lon": 13.9521783, "tags": {"ele": "655", "name": "Vr\u00e1\u017ee", "natural": "peak"}}, {"type": "node", "id": 3450921516, "lat": 49.0522568, "lon": 13.9523178, "tags": {"ele": "644", "name": "Mokr\u00fd", "natural": "peak"}}, {"type": "node", "id": 3450921517, "lat": 49.0423276, "lon": 13.9678639, "tags": {"ele": "650", "name": "\u0160irok\u00fd", "natural": "peak"}}, {"type": "node", "id": 3450921518, "lat": 49.0385649, "lon": 13.9645701, "tags": {"ele": "683", "name": "Pintovka", "natural": "peak"}}, {"type": "node", "id": 3450921519, "lat": 49.0292519, "lon": 13.9565557, "tags": {"ele": "682", "name": "Na Vyhl\u00eddce", "natural": "peak"}}, {"type": "node", "id": 3450921520, "lat": 49.0296177, "lon": 13.9342933, "tags": {"ele": "701", "name": "Str\u00e1\u017e", "natural": "peak"}}, {"type": "node", "id": 3450921521, "lat": 49.0192266, "lon": 13.9586945, "tags": {"ele": "802", "name": "Dehetn\u00edk", "natural": "peak"}}, {"type": "node", "id": 3450921522, "lat": 49.0085377, "lon": 13.9611798, "tags": {"ele": "932", "name": "K\u0159eplick\u00fd vrch", "natural": "peak"}}, {"type": "node", "id": 3450921530, "lat": 48.9901241, "lon": 13.9627569, "tags": {"ele": "835", "name": "Petrovick\u00fd kopec", "natural": "peak"}}, {"type": "node", "id": 3450921531, "lat": 48.9866602, "lon": 13.9809101, "tags": {"ele": "897", "name": "\u010cern\u00e1 hora", "natural": "peak"}}, {"type": "node", "id": 3450921532, "lat": 48.9889977, "lon": 13.9303237, "tags": {"ele": "732", "name": "\u0160erovna", "natural": "peak"}}, {"type": "node", "id": 3450921533, "lat": 48.9741404, "lon": 13.9599031, "tags": {"ele": "839", "name": "Albrechtovick\u00fd kopec", "natural": "peak"}}, {"type": "node", "id": 3450921550, "lat": 48.9938693, "lon": 13.999589, "tags": {"ele": "828", "name": "Na Vyhl\u00eddce", "natural": "peak"}}, {"type": "node", "id": 3450921551, "lat": 48.9715091, "lon": 13.9895704, "tags": {"ele": "901", "name": "Lib\u00ednsk\u00fd les", "natural": "peak"}}, {"type": "node", "id": 3450921552, "lat": 48.958532, "lon": 13.9768224, "tags": {"ele": "935", "name": "Svi\u0148ovsk\u00fd vrch", "natural": "peak"}}, {"type": "node", "id": 3451745031, "lat": 49.0384176, "lon": 13.9949154, "tags": {"ele": "520", "hiking": "yes", "information": "guidepost", "name": "Blanice (p\u0159ehr.)", "operator": "cz:K\u010cT", "ref": "PT311", "tourism": "information"}}, {"type": "node", "id": 3451745032, "lat": 49.0519108, "lon": 13.98555, "tags": {"hiking": "yes", "information": "map", "name": "Husineck\u00e1 nau\u010dn\u00e1 stezka", "tourism": "information"}}, {"type": "node", "id": 3451745033, "lat": 49.0448035, "lon": 13.9854771, "tags": {"ele": "500", "hiking": "yes", "information": "guidepost", "name": "Husova sk\u00e1la", "operator": "cz:K\u010cT", "ref": "PT312", "tourism": "information"}}, {"type": "node", "id": 3451745054, "lat": 49.0402784, "lon": 13.9778101, "tags": {"board_type": "history", "information": "board", "tourism": "information"}}, {"type": "node", "id": 3451745061, "lat": 49.0448324, "lon": 13.985381, "tags": {"board_type": "history", "information": "board", "tourism": "information"}}, {"type": "node", "id": 3451745062, "lat": 49.0465089, "lon": 13.9815273, "tags": {"board_type": "history", "information": "board", "tourism": "information"}}, {"type": "node", "id": 3451745063, "lat": 49.0496007, "lon": 13.9825153, "tags": {"board_type": "history", "information": "board", "tourism": "information"}}, {"type": "node", "id": 3451745080, "lat": 49.0503399, "lon": 13.9862098, "tags": {"board_type": "history", "information": "board", "tourism": "information"}}, {"type": "node", "id": 3451745084, "lat": 49.052616, "lon": 13.988059, "tags": {"board_type": "history", "information": "board", "tourism": "information"}}, {"type": "node", "id": 3451745085, "lat": 49.052679, "lon": 13.9882476, "tags": {"ele": "500", "hiking": "yes", "information": "guidepost", "name": "Husinec", "operator": "cz:K\u010cT", "ref": "PT251", "tourism": "information"}}, {"type": "node", "id": 3451745694, "lat": 49.0540502, "lon": 13.9871289, "tags": {"board_type": "history", "information": "board", "tourism": "information"}}, {"type": "node", "id": 3451745695, "lat": 49.054922, "lon": 13.9912081, "tags": {"board_type": "history", "information": "board", "tourism": "information"}}, {"type": "node", "id": 3451745700, "lat": 49.0553619, "lon": 13.9821663, "tags": {"board_type": "history", "information": "board", "tourism": "information"}}, {"type": "node", "id": 3451745701, "lat": 49.0555946, "lon": 13.9980126, "tags": {"board_type": "history", "information": "board", "tourism": "information"}}, {"type": "node", "id": 3451745705, "lat": 49.0563384, "lon": 13.9799224, "tags": {"tourism": "viewpoint"}}, {"type": "node", "id": 3451745706, "lat": 49.0563458, "lon": 13.9799939, "tags": {"board_type": "history", "information": "board", "tourism": "information"}}, {"type": "node", "id": 3451745713, "lat": 49.0577607, "lon": 13.9857195, "tags": {"board_type": "history", "information": "board", "name": "Kostel\u00edk Cyrila a Metod\u011bje", "ref": "8;12", "tourism": "information"}}, {"type": "node", "id": 3451745720, "lat": 49.0598991, "lon": 13.9907427, "tags": {"tourism": "viewpoint"}}, {"type": "node", "id": 3451745721, "lat": 49.059902, "lon": 13.9907641, "tags": {"board_type": "history", "information": "board", "name": "Severn\u00ed vyhl\u00eddka", "ref": "13", "tourism": "information"}}, {"type": "node", "id": 3749117960, "lat": 49.0497767, "lon": 13.8968307}, {"type": "node", "id": 3749117961, "lat": 49.0497774, "lon": 13.8968872}, {"type": "node", "id": 3749117962, "lat": 49.0497958, "lon": 13.8968301}, {"type": "node", "id": 3749117963, "lat": 49.0497965, "lon": 13.8968866}, {"type": "node", "id": 3814517503, "lat": 48.9721214, "lon": 13.8117532, "tags": {"board_type": "nature", "information": "board", "name": "Ochrann\u00e9 p\u00e1smo", "source": "survey", "tourism": "information"}}, {"type": "node", "id": 3814517504, "lat": 48.9797882, "lon": 13.8067861, "tags": {"board_type": "plants", "information": "board", "name": "Boub\u00ednsk\u00fd prales - Rostlinstvo", "source": "survey", "tourism": "information"}}, {"type": "node", "id": 3814517524, "lat": 48.9795206, "lon": 13.8068464, "tags": {"amenity": "shelter", "fireplace": "no", "shelter_type": "picnic_shelter", "source": "survey"}}, {"type": "node", "id": 3953204017, "lat": 48.9993801, "lon": 13.9994077, "tags": {"bicycle": "yes", "check_date": "2021-10-30", "hiking": "yes", "information": "map", "map_size": "site", "map_type": "topo", "ski": "yes", "tourism": "information"}}, {"type": "node", "id": 3959793979, "lat": 49.0727573, "lon": 13.8479695}, {"type": "node", "id": 3959793996, "lat": 49.0727977, "lon": 13.8479668}, {"type": "node", "id": 3959794032, "lat": 49.0727556, "lon": 13.8479103}, {"type": "node", "id": 3963061451, "lat": 49.072796, "lon": 13.8479075}, {"type": "node", "id": 4013658843, "lat": 49.0777492, "lon": 13.8234003, "tags": {"ele": "730.4", "natural": "peak"}}, {"type": "node", "id": 4013761683, "lat": 49.1164935, "lon": 13.8338383, "tags": {"ele": "585.3", "name": "Alt\u00e1nek", "natural": "peak"}}, {"type": "node", "id": 4019702685, "lat": 48.9593749, "lon": 13.9508832, "tags": {"board_type": "history", "information": "board", "name": "Dopravn\u00ed uzel Zlat\u00e9 stezky \u010d. 4", "tourism": "information"}}, {"type": "node", "id": 4019702686, "lat": 48.9582744, "lon": 13.9287357, "tags": {"ele": "735", "hiking": "yes", "information": "guidepost", "name": "HUS (z\u0159\u00edc.)", "operator": "cz:K\u010cT", "ref": "VO576", "tourism": "information"}}, {"type": "node", "id": 4019705542, "lat": 48.958522, "lon": 13.928813, "tags": {"tourism": "viewpoint"}}, {"type": "node", "id": 4019705544, "lat": 48.9589942, "lon": 13.9287935, "tags": {"tourism": "viewpoint"}}, {"type": "node", "id": 4021031322, "lat": 48.956639, "lon": 13.9396083, "tags": {"ele": "750", "hiking": "yes", "information": "guidepost", "name": "Blanick\u00fd ml\u00fdn", "operator": "cz:K\u010cT", "ref": "PT128", "tourism": "information"}}, {"type": "node", "id": 4203541594, "lat": 49.1121931, "lon": 13.8295017, "tags": {"hiking": "yes", "information": "guidepost", "name": "\u010ckyn\u011b - \u017est.", "operator": "cz:K\u010cT", "ref": "PS182", "tourism": "information"}}, {"type": "node", "id": 4381903520, "lat": 49.060815, "lon": 13.8890836, "tags": {"ele": "897", "hiking": "yes", "information": "guidepost", "name": "B\u011ble\u010d sedlo", "operator": "cz:K\u010cT", "ref": "PT238", "tourism": "information"}}, {"type": "node", "id": 4381909703, "lat": 49.0643614, "lon": 13.880794, "tags": {"ele": "871", "hiking": "yes", "information": "guidepost", "name": "\u0160\u00e1r", "operator": "cz:K\u010cT", "ref": "PT237", "tourism": "information"}}, {"type": "node", "id": 4395918591, "lat": 49.0125535, "lon": 13.997302, "tags": {"information": "office", "name": "Informa\u010dn\u00ed centrum", "opening_hours": "Mo-We 08:00-17:00; Th,Fr 08:00-14:00", "tourism": "information", "website": "https://www.kisprachatice.cz/informacni-centrum/"}}, {"type": "node", "id": 4405103235, "lat": 48.9594088, "lon": 13.8101389, "tags": {"board_type": "nature", "information": "board", "name": "Demonstra\u010dn\u00ed objekt - rozvinut\u00e1 p\u0159irozen\u00e1 obnova BK", "ref": "29", "tourism": "information"}}, {"type": "node", "id": 4405103238, "lat": 48.9837495, "lon": 13.8077731, "tags": {"board_type": "wildlife", "information": "board", "name": "Les", "tourism": "information"}}, {"type": "node", "id": 4405103239, "lat": 48.9829438, "lon": 13.8100615, "tags": {"board_type": "history", "information": "board", "name": "Loveck\u00fd chodn\u00edk", "tourism": "information"}}, {"type": "node", "id": 4405103240, "lat": 48.9840827, "lon": 13.8092406, "tags": {"board_type": "history", "information": "board", "name": "Lukensk\u00e1 cesta", "tourism": "information"}}, {"type": "node", "id": 4405103242, "lat": 48.9592018, "lon": 13.8101908, "tags": {"board_type": "nature", "hiking": "yes", "information": "board", "map_size": "region", "name": "Nau\u010dn\u00e1 lesnick\u00e1 stezka Boub\u00ednem", "tourism": "information"}}, {"type": "node", "id": 4405103246, "lat": 48.9623449, "lon": 13.8115128, "tags": {"board_type": "nature", "information": "board", "name": "Sov\u00ed sk\u00e1la", "ref": "30", "tourism": "information"}}, {"type": "node", "id": 4405103247, "lat": 48.9739469, "lon": 13.8197497, "tags": {"board_type": "nature", "check_date": "2024-09-28", "information": "board", "name": "U jez\u00edrka", "tourism": "information"}}, {"type": "node", "id": 4405103248, "lat": 48.9738299, "lon": 13.8198564, "tags": {"board_type": "nature", "information": "board", "name": "Vidlicov\u00fd smrk", "tourism": "information"}}, {"type": "node", "id": 4405103251, "lat": 48.9747335, "lon": 13.8115989, "tags": {"board_type": "wildlife", "information": "board", "name": "Zv\u00ed\u0159ena", "tourism": "information"}}, {"type": "node", "id": 4405103255, "lat": 48.9623813, "lon": 13.8115667, "tags": {"amenity": "shelter", "material": "wood", "shelter_type": "picnic_shelter"}}, {"type": "node", "id": 4405103258, "lat": 48.9737609, "lon": 13.8197354, "tags": {"board_type": "nature", "check_date": "2024-09-28", "information": "board", "tourism": "information"}}, {"type": "node", "id": 4418686784, "lat": 48.9963858, "lon": 13.9891416, "tags": {"board_type": "geology", "information": "board", "name": "Gegologick\u00e1 expozice Fefrovsk\u00e9 rybn\u00edky", "tourism": "information"}}, {"type": "node", "id": 4418686790, "lat": 48.9955601, "lon": 13.9888593, "tags": {"board_type": "notice", "check_date": "2023-10-29", "information": "board", "name": "Nordic Walking Prachatice", "tourism": "information"}}, {"type": "node", "id": 4418686797, "lat": 48.9944696, "lon": 13.9881974, "tags": {"board_type": "history", "information": "board", "name": "Zastaven\u00ed 2 - Prachatick\u00fd syst\u00e9m (Zlat\u00e1 stezka)", "tourism": "information"}}, {"type": "node", "id": 4418686798, "lat": 48.9955677, "lon": 13.98886, "tags": {"board_type": "nature", "information": "board", "name": "Zast 3 - U Fefersk\u00fdch rybn\u00ed\u010dk\u016f", "tourism": "information"}}, {"type": "node", "id": 4418686799, "lat": 48.9948454, "lon": 13.988618, "tags": {"board_type": "notice", "information": "board", "name": "Zookoutek Fefersk\u00e9 rybn\u00ed\u010dky", "tourism": "information"}}, {"type": "node", "id": 4457487101, "lat": 48.9709879, "lon": 13.9660068, "tags": {"ele": "799", "hiking": "yes", "information": "guidepost", "name": "Albrechtovice", "operator": "cz:K\u010cT", "ref": "PT580", "tourism": "information"}}, {"type": "node", "id": 4457487102, "lat": 48.9818011, "lon": 13.9821806, "tags": {"ele": "830", "hiking": "yes", "information": "guidepost", "name": "Pod Perlovicemi", "operator": "cz:K\u010cT", "ref": "PT591", "tourism": "information"}}, {"type": "node", "id": 4553771443, "lat": 49.0245235, "lon": 13.9869006, "tags": {"ele": "683", "hiking": "yes", "information": "guidepost", "name": "Pod Dubov\u00fdm vrchem", "operator": "cz:K\u010cT", "ref": "PT517", "tourism": "information"}}, {"type": "node", "id": 4553771444, "lat": 49.0244919, "lon": 13.9869935, "tags": {"board_type": "nature", "information": "board", "name": "Pod Dubov\u00fdm vrchem", "ref": "10", "tourism": "information"}}, {"type": "node", "id": 4594362615, "lat": 48.9912736, "lon": 13.8173767}, {"type": "node", "id": 4594362616, "lat": 48.9913075, "lon": 13.8174217}, {"type": "node", "id": 4594362617, "lat": 48.9912765, "lon": 13.817476}, {"type": "node", "id": 4594362618, "lat": 48.9912426, "lon": 13.817431}, {"type": "node", "id": 4600872510, "lat": 49.0976523, "lon": 13.8145175, "tags": {"ele": "555", "hiking": "yes", "information": "guidepost", "name": "Bohumilice (\u017est.)", "operator": "cz:K\u010cT", "ref": "PT177", "tourism": "information"}}, {"type": "node", "id": 4634801310, "lat": 48.9547721, "lon": 13.9269155, "tags": {"ele": "775", "hiking": "yes", "information": "guidepost", "name": "Cudrovice", "operator": "cz:K\u010cT", "ref": "VO575", "tourism": "information"}}, {"type": "node", "id": 4748338390, "lat": 49.025202, "lon": 13.954498, "tags": {"tourism": "viewpoint"}}, {"type": "node", "id": 4846919123, "lat": 48.9590293, "lon": 13.8653027, "tags": {"ele": "1264", "hiking": "yes", "information": "guidepost", "name": "Bob\u00edk", "operator": "cz:K\u010cT", "ref": "VO573", "tourism": "information"}}, {"type": "node", "id": 4851098465, "lat": 49.1206383, "lon": 13.8201839, "tags": {"ele": "600", "hiking": "yes", "information": "guidepost", "name": "P\u0159edenice", "operator": "cz:K\u010cT", "ref": "PT070", "tourism": "information"}}, {"type": "node", "id": 4851098466, "lat": 49.1151973, "lon": 13.8259379, "tags": {"ele": "525", "hiking": "yes", "information": "guidepost", "name": "\u010ckyn\u011b", "operator": "cz:K\u010cT", "ref": "PT071", "tourism": "information"}}, {"type": "node", "id": 4854024127, "lat": 49.0725657, "lon": 13.830328, "tags": {"ele": "765", "hiking": "yes", "information": "guidepost", "name": "\u0160t\u00edtkov", "operator": "cz:K\u010cT", "ref": "PT224", "tourism": "information"}}, {"type": "node", "id": 4854024128, "lat": 49.083817, "lon": 13.8208383, "tags": {"ele": "647", "hiking": "yes", "information": "guidepost", "name": "Smr\u010dn\u00e1", "operator": "cz:K\u010cT", "ref": "PT223", "tourism": "information"}}, {"type": "node", "id": 4855992866, "lat": 49.0285127, "lon": 13.8214713, "tags": {"ele": "910", "hiking": "yes", "information": "guidepost", "name": "Pod V\u00fd\u0161inou", "operator": "cz:K\u010cT", "ref": "VO292", "tourism": "information"}}, {"type": "node", "id": 4856045257, "lat": 49.0642643, "lon": 13.8309932, "tags": {"ele": "769", "hiking": "yes", "information": "guidepost", "name": "Svat\u00e1 m\u00e1\u0159\u00ed", "operator": "cz:K\u010cT", "ref": "PT220", "tourism": "information"}}, {"type": "node", "id": 4856949984, "lat": 49.0642924, "lon": 13.9048827, "tags": {"ele": "825", "hiking": "yes", "information": "guidepost", "name": "Mojkov", "operator": "cz:K\u010cT", "ref": "PT239", "tourism": "information"}}, {"type": "node", "id": 4856950002, "lat": 49.0726809, "lon": 13.8754952, "tags": {"ele": "835", "hiking": "yes", "information": "guidepost", "name": "Dvorec", "operator": "cz:K\u010cT", "ref": "PT235", "tourism": "information"}}, {"type": "node", "id": 4856951796, "lat": 49.0681705, "lon": 13.8781296, "tags": {"ele": "895", "hiking": "yes", "information": "guidepost", "name": "L\u0161t\u011bn\u00ed", "operator": "cz:K\u010cT", "ref": "PT236", "tourism": "information"}}, {"type": "node", "id": 4857014071, "lat": 49.1074393, "lon": 13.8949799, "tags": {"ele": "555", "hiking": "yes", "information": "guidepost", "name": "Z\u00e1lezly", "operator": "cz:K\u010cT", "ref": "PT191", "tourism": "information"}}, {"type": "node", "id": 4857014094, "lat": 49.09342, "lon": 13.8784726, "tags": {"ele": "620", "hiking": "yes", "information": "guidepost", "name": "Pod V\u011bncem", "operator": "cz:K\u010cT", "ref": "PT136", "tourism": "information"}}, {"type": "node", "id": 4857014601, "lat": 49.0769126, "lon": 13.8565304, "tags": {"ele": "754", "hiking": "yes", "information": "guidepost", "name": "Brdo", "operator": "cz:K\u010cT", "ref": "PT226", "tourism": "information"}}, {"type": "node", "id": 4857053343, "lat": 49.1087983, "lon": 13.865599, "tags": {"ele": "510", "hiking": "yes", "information": "guidepost", "name": "L\u010dovice", "operator": "cz:K\u010cT", "ref": "PT194", "tourism": "information"}}, {"type": "node", "id": 4857102299, "lat": 49.1468495, "lon": 13.8855772, "tags": {"ele": "542", "hiking": "yes", "information": "guidepost", "name": "Pod Betan\u00ed", "operator": "cz:K\u010cT", "ref": "ST114", "tourism": "information"}}, {"type": "node", "id": 4857102300, "lat": 49.1256305, "lon": 13.8797128, "tags": {"ele": "515", "hiking": "yes", "information": "guidepost", "name": "Malenice", "operator": "cz:K\u010cT", "ref": "ST115", "tourism": "information"}}, {"type": "node", "id": 4857102301, "lat": 49.1245844, "lon": 13.8832265, "tags": {"ele": "515", "hiking": "yes", "information": "guidepost", "name": "Malenice \u017est", "operator": "cz:K\u010cT", "ref": "ST116", "tourism": "information"}}, {"type": "node", "id": 4857197845, "lat": 49.0814435, "lon": 13.8962906, "tags": {"ele": "690", "hiking": "yes", "information": "guidepost", "name": "Libotyn\u011b", "operator": "cz:K\u010cT", "ref": "PT243", "tourism": "information"}}, {"type": "node", "id": 4857197855, "lat": 49.0841976, "lon": 13.9141076, "tags": {"ele": "750", "hiking": "yes", "information": "guidepost", "name": "Uh\u0159ice", "operator": "cz:K\u010cT", "ref": "PT242", "tourism": "information"}}, {"type": "node", "id": 4858027525, "lat": 49.0616162, "lon": 13.9331632, "tags": {"ele": "745", "hiking": "yes", "information": "guidepost", "name": "Doln\u00ed Ko\u017el\u00ed", "operator": "cz:K\u010cT", "ref": "PT253", "tourism": "information"}}, {"type": "node", "id": 4858027526, "lat": 49.0668459, "lon": 13.9632234, "tags": {"ele": "530", "hiking": "yes", "information": "guidepost", "name": "Chlumany", "operator": "cz:K\u010cT", "ref": "PT255", "tourism": "information"}}, {"type": "node", "id": 4858968890, "lat": 49.0818318, "lon": 13.9581889, "tags": {"ele": "555", "hiking": "yes", "information": "guidepost", "name": "Vlachovo B\u0159ez\u00ed", "operator": "cz:K\u010cT", "ref": "PT256", "tourism": "information"}}, {"type": "node", "id": 4949337898, "lat": 49.0139712, "lon": 13.9966606}, {"type": "node", "id": 4949337899, "lat": 49.0139605, "lon": 13.99663}, {"type": "node", "id": 4949337900, "lat": 49.0139387, "lon": 13.9966198}, {"type": "node", "id": 4949337901, "lat": 49.0139186, "lon": 13.9966362}, {"type": "node", "id": 4949337903, "lat": 49.013912, "lon": 13.9966694}, {"type": "node", "id": 4949337904, "lat": 49.0139227, "lon": 13.9967}, {"type": "node", "id": 4949337905, "lat": 49.0139445, "lon": 13.9967102}, {"type": "node", "id": 4949337906, "lat": 49.0139646, "lon": 13.9966939}, {"type": "node", "id": 4950859385, "lat": 49.0188092, "lon": 13.99889}, {"type": "node", "id": 4950859386, "lat": 49.0187997, "lon": 13.9988757}, {"type": "node", "id": 4950859387, "lat": 49.0187877, "lon": 13.9988666}, {"type": "node", "id": 4950859388, "lat": 49.0187745, "lon": 13.9988635}, {"type": "node", "id": 4950859389, "lat": 49.0187318, "lon": 13.9989288}, {"type": "node", "id": 4950859390, "lat": 49.0187343, "lon": 13.9989509}, {"type": "node", "id": 4950859391, "lat": 49.0187415, "lon": 13.9989703}, {"type": "node", "id": 4950859392, "lat": 49.0187526, "lon": 13.9989849}, {"type": "node", "id": 4950859393, "lat": 49.0187663, "lon": 13.998993}, {"type": "node", "id": 4950859394, "lat": 49.0187613, "lon": 13.9988667}, {"type": "node", "id": 4950859395, "lat": 49.0187494, "lon": 13.9988761}, {"type": "node", "id": 4950859396, "lat": 49.01874, "lon": 13.9988905}, {"type": "node", "id": 4950859397, "lat": 49.0187339, "lon": 13.9989087}, {"type": "node", "id": 4950859398, "lat": 49.0187809, "lon": 13.9989936}, {"type": "node", "id": 4950859399, "lat": 49.0187949, "lon": 13.9989866}, {"type": "node", "id": 4950859400, "lat": 49.0188064, "lon": 13.9989729}, {"type": "node", "id": 4950859401, "lat": 49.0188143, "lon": 13.998954}, {"type": "node", "id": 4950859402, "lat": 49.0188175, "lon": 13.9989322}, {"type": "node", "id": 4950859403, "lat": 49.0188158, "lon": 13.99891}, {"type": "node", "id": 4957248721, "lat": 48.9632112, "lon": 13.8264299, "tags": {"addr:city": "Lenora", "addr:postcode": "38442", "addr:street": "Kaplice", "name:de": "Nationalpark Informationszentrum", "name:en": "National Park Information Center", "tourism": "information"}}, {"type": "node", "id": 4959494030, "lat": 49.0245388, "lon": 13.9868578, "tags": {"tourism": "viewpoint"}}, {"type": "node", "id": 5019954497, "lat": 49.0222209, "lon": 13.9945205, "tags": {"information": "board", "tourism": "information"}}, {"type": "node", "id": 5164939030, "lat": 49.045932, "lon": 13.8994431, "tags": {"bicycle": "yes", "hiking": "yes", "information": "map", "map_size": "region", "map_type": "topo", "tourism": "information"}}, {"type": "node", "id": 5164939076, "lat": 49.0391375, "lon": 13.8951516, "tags": {"bicycle": "yes", "hiking": "yes", "information": "map", "map_size": "region", "map_type": "topo", "tourism": "information"}}, {"type": "node", "id": 5164939078, "lat": 49.0484661, "lon": 13.8834089, "tags": {"bicycle": "yes", "hiking": "yes", "information": "map", "map_size": "region", "map_type": "topo", "tourism": "information"}}, {"type": "node", "id": 5164939089, "lat": 49.0607261, "lon": 13.8890132, "tags": {"bicycle": "yes", "information": "route_marker", "operator": "cz:K\u010cT", "ref": "none", "tourism": "information"}}, {"type": "node", "id": 5164939090, "lat": 49.0611501, "lon": 13.8959402, "tags": {"bicycle": "yes", "information": "route_marker", "operator": "cz:K\u010cT", "ref": "none", "tourism": "information"}}, {"type": "node", "id": 5164939091, "lat": 49.0643241, "lon": 13.9051294, "tags": {"bicycle": "yes", "information": "route_marker", "operator": "cz:K\u010cT", "ref": "none", "tourism": "information"}}, {"type": "node", "id": 5164939092, "lat": 49.0643838, "lon": 13.9054137, "tags": {"bicycle": "yes", "information": "guidepost", "operator": "cz:K\u010cT", "ref": "none", "tourism": "information"}}, {"type": "node", "id": 5164939093, "lat": 49.0641554, "lon": 13.9061004, "tags": {"bicycle": "yes", "information": "route_marker", "operator": "cz:K\u010cT", "ref": "none", "tourism": "information"}}, {"type": "node", "id": 5164939094, "lat": 49.0615965, "lon": 13.9127523, "tags": {"bicycle": "yes", "information": "route_marker", "operator": "cz:K\u010cT", "ref": "none", "tourism": "information"}}, {"type": "node", "id": 5164939144, "lat": 49.0581341, "lon": 13.9462423, "tags": {"bicycle": "yes", "information": "route_marker", "operator": "cz:K\u010cT", "ref": "none", "tourism": "information"}}, {"type": "node", "id": 5164939201, "lat": 49.0669004, "lon": 13.9610803, "tags": {"bicycle": "yes", "information": "guidepost", "operator": "cz:K\u010cT", "ref": "none", "tourism": "information"}}, {"type": "node", "id": 5164939316, "lat": 49.0821902, "lon": 13.9575559, "tags": {"bicycle": "yes", "information": "guidepost", "operator": "cz:K\u010cT", "ref": "none", "tourism": "information"}}, {"type": "node", "id": 5164939317, "lat": 49.0830616, "lon": 13.957234, "tags": {"bicycle": "yes", "information": "route_marker", "operator": "cz:K\u010cT", "ref": "none", "tourism": "information"}}, {"type": "node", "id": 5164939318, "lat": 49.0813716, "lon": 13.9590459, "tags": {"bicycle": "yes", "information": "guidepost", "operator": "cz:K\u010cT", "ref": "none", "tourism": "information"}}, {"type": "node", "id": 5164939319, "lat": 49.0814559, "lon": 13.9583927, "tags": {"bicycle": "yes", "information": "route_marker", "operator": "cz:K\u010cT", "ref": "none", "tourism": "information"}}, {"type": "node", "id": 5164939320, "lat": 49.0815437, "lon": 13.9576149, "tags": {"bicycle": "yes", "information": "guidepost", "operator": "cz:K\u010cT", "ref": "none", "tourism": "information"}}, {"type": "node", "id": 5164939421, "lat": 49.0815086, "lon": 13.9570624, "tags": {"bicycle": "yes", "information": "guidepost", "operator": "cz:K\u010cT", "ref": "none", "tourism": "information"}}, {"type": "node", "id": 5164939422, "lat": 49.0810167, "lon": 13.9554852, "tags": {"bicycle": "yes", "information": "guidepost", "operator": "cz:K\u010cT", "ref": "none", "tourism": "information"}}, {"type": "node", "id": 5164939423, "lat": 49.0809183, "lon": 13.9548576, "tags": {"bicycle": "yes", "information": "route_marker", "operator": "cz:K\u010cT", "ref": "none", "tourism": "information"}}, {"type": "node", "id": 5164939424, "lat": 49.080718, "lon": 13.9534521, "tags": {"bicycle": "yes", "information": "route_marker", "operator": "cz:K\u010cT", "ref": "none", "tourism": "information"}}, {"type": "node", "id": 5164939425, "lat": 49.0804686, "lon": 13.953023, "tags": {"bicycle": "yes", "information": "route_marker", "operator": "cz:K\u010cT", "ref": "none", "tourism": "information"}}, {"type": "node", "id": 5164939436, "lat": 49.0790806, "lon": 13.913632, "tags": {"bicycle": "yes", "information": "route_marker", "operator": "cz:K\u010cT", "ref": "none", "tourism": "information"}}, {"type": "node", "id": 5164939468, "lat": 49.0816562, "lon": 13.905285, "tags": {"bicycle": "no", "hiking": "yes", "information": "guidepost", "operator": "cz:K\u010cT", "ref": "none", "tourism": "information"}}, {"type": "node", "id": 5164939469, "lat": 49.0816105, "lon": 13.9098823, "tags": {"bicycle": "no", "hiking": "yes", "information": "guidepost", "operator": "cz:K\u010cT", "ref": "none", "tourism": "information"}}, {"type": "node", "id": 5164939690, "lat": 49.068141, "lon": 13.8757378, "tags": {"bicycle": "yes", "information": "route_marker", "operator": "cz:K\u010cT", "ref": "none", "tourism": "information"}}, {"type": "node", "id": 5164939779, "lat": 49.0394188, "lon": 13.8718647, "tags": {"check_date": "2023-07-02", "hiking": "yes", "information": "map", "map_type": "scheme", "tourism": "information"}}, {"type": "node", "id": 5167193029, "lat": 48.977541, "lon": 13.994564, "tags": {"tourism": "viewpoint"}}, {"type": "node", "id": 5330968351, "lat": 49.0342878, "lon": 13.951714, "tags": {"ele": "540", "hiking": "yes", "information": "guidepost", "name": "Podedvorsk\u00fd ml\u00fdn", "operator": "cz:K\u010cT", "ref": "PT319", "tourism": "information"}}, {"type": "node", "id": 5330968378, "lat": 49.0214387, "lon": 13.942616, "tags": {"ele": "559", "hiking": "yes", "information": "guidepost", "name": "Z\u00e1brdsk\u00fd ml\u00fdn", "operator": "cz:K\u010cT", "ref": "PT320", "tourism": "information"}}, {"type": "node", "id": 5330968379, "lat": 49.0203341, "lon": 13.9291084, "tags": {"ele": "640", "hiking": "yes", "information": "guidepost", "name": "Kratu\u0161\u00edn", "operator": "cz:K\u010cT", "ref": "PT303", "tourism": "information"}}, {"type": "node", "id": 5330968380, "lat": 49.026017, "lon": 13.9206595, "tags": {"ele": "655", "hiking": "yes", "information": "guidepost", "name": "Drslavice", "operator": "cz:K\u010cT", "ref": "PT384", "tourism": "information"}}, {"type": "node", "id": 5331508980, "lat": 49.0155178, "lon": 13.9607048, "tags": {"ele": "790", "hiking": "yes", "information": "guidepost", "name": "T\u0159em\u0161\u00edn", "operator": "cz:K\u010cT", "ref": "PT513", "tourism": "information"}}, {"type": "node", "id": 5331508981, "lat": 49.034294, "lon": 13.9592176, "tags": {"ele": "530", "hiking": "yes", "information": "guidepost", "name": "V Lou\u010dk\u00e1ch", "operator": "cz:K\u010cT", "ref": "PT318", "tourism": "information"}}, {"type": "node", "id": 5331508982, "lat": 49.0191837, "lon": 13.9725816, "tags": {"hiking": "yes", "information": "guidepost", "name": "Kahov bus", "operator": "cz:K\u010cT", "ref": "PT313", "tourism": "information"}}, {"type": "node", "id": 5331518358, "lat": 49.0133365, "lon": 13.9392364, "tags": {"ele": "640", "hiking": "yes", "information": "guidepost", "name": "Skaln\u00ed vyhl\u00eddka", "operator": "cz:K\u010cT", "ref": "PT523", "tourism": "information"}}, {"type": "node", "id": 5331550279, "lat": 48.981895, "lon": 13.9360498, "tags": {"ele": "760", "hiking": "yes", "information": "guidepost", "name": "Hl\u00e1sn\u00e1 Lhota", "operator": "cz:K\u010cT", "ref": "PT593", "tourism": "information"}}, {"type": "node", "id": 5331595855, "lat": 48.9928585, "lon": 13.8988155, "tags": {"ele": "601", "hiking": "yes", "information": "guidepost", "name": "Krej\u010dovice - rozc.", "operator": "cz:K\u010cT", "ref": "VO505", "tourism": "information"}}, {"type": "node", "id": 5332762120, "lat": 48.9897702, "lon": 13.8049255, "tags": {"ele": "1296", "hiking": "yes", "information": "guidepost", "name": "John\u016fv k\u00e1men", "operator": "cz:K\u010cT", "ref": "VO017", "tourism": "information"}}, {"type": "node", "id": 5332763121, "lat": 48.9858527, "lon": 13.8276236, "tags": {"ele": "1138", "hiking": "yes", "information": "guidepost", "name": "Na K\u0159\u00ed\u017ek\u00e1ch", "operator": "cz:K\u010cT", "ref": "VO495", "tourism": "information"}}, {"type": "node", "id": 5332858719, "lat": 48.9739637, "lon": 13.9379597, "tags": {"ele": "790", "hiking": "yes", "information": "guidepost", "name": "U Horelic\u016f", "operator": "cz:K\u010cT", "ref": "PT582", "tourism": "information"}}, {"type": "node", "id": 5332858720, "lat": 48.9565941, "lon": 13.9509201, "tags": {"ele": "762", "hiking": "yes", "information": "guidepost", "name": "Bla\u017eejovice", "operator": "cz:K\u010cT", "ref": "VO578", "tourism": "information"}}, {"type": "node", "id": 5332864221, "lat": 48.9643921, "lon": 13.947342, "tags": {"ele": "805", "hiking": "yes", "information": "guidepost", "name": "K\u0159i\u0161\u0165anovice", "operator": "cz:K\u010cT", "ref": "PT013", "tourism": "information"}}, {"type": "node", "id": 5732641951, "lat": 49.0161487, "lon": 14.0000554, "tags": {"board_type": "history", "information": "board", "name": "Skalka", "ref": "1", "tourism": "information"}}, {"type": "node", "id": 5772476196, "lat": 49.0120532, "lon": 13.9814631, "tags": {"ele": "730", "hiking": "yes", "information": "guidepost", "name": "U \u0160im\u00e1k\u016f", "operator": "cz:K\u010cT", "ref": "PT132", "tourism": "information"}}, {"type": "node", "id": 6282741236, "lat": 49.0112451, "lon": 13.9964781, "tags": {"amenity": "shelter", "shelter_type": "gazebo"}}, {"type": "node", "id": 6353834556, "lat": 49.1437027, "lon": 13.8106513, "tags": {"description": "Mach\u016fv vy\u0159ez\u00e1van\u00fd malovan\u00fd v\u010del\u00edn", "ele": "735", "hiking": "yes", "information": "guidepost", "name": "Kru\u0161lov", "operator": "cz:K\u010cT", "ref": "ST001", "tourism": "information"}}, {"type": "node", "id": 6353834557, "lat": 49.1383333, "lon": 13.8116705, "tags": {"hiking": "yes", "information": "guidepost", "name": "\u010cert\u016fv k\u00e1men", "operator": "cz:K\u010cT", "tourism": "information"}}, {"type": "node", "id": 6453866864, "lat": 48.9912885, "lon": 13.9869734, "tags": {"amenity": "shelter", "shelter_type": "picnic_shelter"}}, {"type": "node", "id": 6453866865, "lat": 48.9841316, "lon": 13.985425, "tags": {"amenity": "shelter", "shelter_type": "picnic_shelter"}}, {"type": "node", "id": 6453866870, "lat": 48.9548255, "lon": 13.9269398, "tags": {"amenity": "shelter", "shelter_type": "picnic_shelter"}}, {"type": "node", "id": 6454207776, "lat": 49.0625103, "lon": 13.9200309, "tags": {"amenity": "shelter", "shelter_type": "picnic_shelter"}}, {"type": "node", "id": 6604895855, "lat": 49.0998577, "lon": 13.9280838, "tags": {"information": "map", "tourism": "information"}}, {"type": "node", "id": 6638107033, "lat": 49.081477, "lon": 13.9589439, "tags": {"bicycle": "yes", "information": "guidepost", "operator": "cz:K\u010cT", "ref": "none", "tourism": "information"}}, {"type": "node", "id": 6641049167, "lat": 48.9542731, "lon": 13.9538095, "tags": {"information": "map", "tourism": "information"}}, {"type": "node", "id": 6695274794, "lat": 49.0887549, "lon": 13.8401958, "tags": {"information": "board", "tourism": "information"}}, {"type": "node", "id": 6695275082, "lat": 49.0958591, "lon": 13.9043355}, {"type": "node", "id": 6695275083, "lat": 49.0958134, "lon": 13.904369}, {"type": "node", "id": 6695275084, "lat": 49.0957942, "lon": 13.904308}, {"type": "node", "id": 6695275085, "lat": 49.0958399, "lon": 13.9042745}, {"type": "node", "id": 6732453665, "lat": 49.1365864, "lon": 13.9925413, "tags": {"information": "map", "tourism": "information"}}, {"type": "node", "id": 6732454240, "lat": 49.1326159, "lon": 13.9586576, "tags": {"information": "map", "tourism": "information"}}, {"type": "node", "id": 6732454756, "lat": 49.1385948, "lon": 13.9468552, "tags": {"information": "map", "tourism": "information"}}, {"type": "node", "id": 6835447547, "lat": 49.0314777, "lon": 13.9822376, "tags": {"tourism": "viewpoint"}}, {"type": "node", "id": 7238046934, "lat": 49.0026004, "lon": 13.9933967, "tags": {"board_type": "sport", "information": "board", "tourism": "information"}}, {"type": "node", "id": 7256348268, "lat": 48.9528362, "lon": 13.8425013, "tags": {"amenity": "shelter", "name": "U Obr\u00e1zku", "shelter_type": "picnic_shelter"}}, {"type": "node", "id": 7257438927, "lat": 49.0153138, "lon": 14.0005034, "tags": {"ele": "570", "hiking": "yes", "information": "guidepost", "name": "\u017di\u017ekova skalka", "operator": "cz:K\u010cT", "ref": "PT047", "tourism": "information"}}, {"type": "node", "id": 7260605397, "lat": 49.0524601, "lon": 13.9936048, "tags": {"ele": "505", "hiking": "yes", "information": "guidepost", "name": "V\u00fdrov rozcest\u00ed", "operator": "cz:K\u010cT", "ref": "PT041", "tourism": "information"}}, {"type": "node", "id": 7260605398, "lat": 49.0487826, "lon": 13.9968771, "tags": {"ele": "510", "hiking": "yes", "information": "guidepost", "name": "V\u00fdrov", "operator": "cz:K\u010cT", "ref": "PT040", "tourism": "information"}}, {"type": "node", "id": 7260605409, "lat": 49.0473973, "lon": 13.9843136, "tags": {"ele": "497", "hiking": "yes", "information": "guidepost", "name": "Husova sk\u00e1la rozcest\u00ed", "operator": "cz:K\u010cT", "ref": "PT053", "tourism": "information"}}, {"type": "node", "id": 7260605410, "lat": 49.0553394, "lon": 13.9820552, "tags": {"ele": "540", "hiking": "yes", "information": "guidepost", "name": "Na Sv\u011btsk\u00e9 cest\u011b", "operator": "cz:K\u010cT", "ref": "PT032", "tourism": "information"}}, {"type": "node", "id": 7260605415, "lat": 49.0542988, "lon": 13.9887768, "tags": {"ele": "500", "hiking": "yes", "information": "guidepost", "name": "Husinec", "operator": "cz:K\u010cT", "ref": "PT251", "tourism": "information"}}, {"type": "node", "id": 7333171828, "lat": 48.9736557, "lon": 13.9152269, "tags": {"ele": "736", "name": "Blanice", "natural": "peak", "source": "\u010c\u00daZK"}}, {"type": "node", "id": 7333193295, "lat": 48.954768, "lon": 13.9177262, "tags": {"ele": "834", "name": "K\u00e1dr\u016fv kopec", "natural": "peak", "source": "\u010c\u00daZK"}}, {"type": "node", "id": 7572099191, "lat": 48.9935171, "lon": 13.8134529, "tags": {"board_type": "nature", "information": "board", "name": "Horsk\u00e1 smr\u010dina", "tourism": "information"}}, {"type": "node", "id": 7572099192, "lat": 48.9914298, "lon": 13.817151, "tags": {"bicycle": "yes", "check_date": "2024-09-28", "hiking": "yes", "information": "map", "map_size": "region", "map_type": "topo", "mtb": "yes", "name": "Zveme v\u00e1s na n\u00e1v\u0161t\u011bvu na\u0161\u00ed partnersk\u00e9 rozhledny", "name:de": "Wir laden Sie ein zu unserem Nachbarn", "tourism": "information"}}, {"type": "node", "id": 7572099193, "lat": 48.9914003, "lon": 13.8171724, "tags": {"board_type": "history", "check_date": "2024-09-28", "information": "board", "name": "\u017divot Kelt\u016f", "tourism": "information"}}, {"type": "node", "id": 7572099194, "lat": 48.9843238, "lon": 13.821132, "tags": {"board_type": "history", "information": "board", "name": "Loveck\u00e1 chata Z\u00e1me\u010dek a kaple svat\u00e9ho Huberta", "official_name": "Loveck\u00e1 chata Z\u00e1me\u010dek a kaple sv. Huberta", "tourism": "information"}}, {"type": "node", "id": 7659387019, "lat": 49.0260504, "lon": 13.9942928, "tags": {"hiking": "yes", "information": "guidepost", "tourism": "information"}}, {"type": "node", "id": 7707996807, "lat": 49.1267424, "lon": 13.9258428, "tags": {"board_type": "history", "information": "board", "tourism": "information"}}, {"type": "node", "id": 7758138160, "lat": 49.0808738, "lon": 13.8537216, "tags": {"amenity": "shelter", "shelter_type": "picnic_shelter"}}, {"type": "node", "id": 7758138161, "lat": 49.0808887, "lon": 13.8536291, "tags": {"board_type": "history", "information": "board", "name": "Bo\u0161ice", "tourism": "information"}}, {"type": "node", "id": 7758138163, "lat": 49.0841389, "lon": 13.8480559, "tags": {"amenity": "shelter", "bench": "yes", "shelter_type": "public_transport"}}, {"type": "node", "id": 7758138165, "lat": 49.0878185, "lon": 13.8579004, "tags": {"amenity": "shelter", "shelter_type": "picnic_shelter"}}, {"type": "node", "id": 7758138166, "lat": 49.0912967, "lon": 13.8703579, "tags": {"amenity": "shelter", "shelter_type": "picnic_shelter"}}, {"type": "node", "id": 7778848048, "lat": 48.9670089, "lon": 13.8247623, "tags": {"information": "map", "tourism": "information"}}, {"type": "node", "id": 7778848050, "lat": 48.9625333, "lon": 13.8262571, "tags": {"information": "map", "tourism": "information"}}, {"type": "node", "id": 7840575659, "lat": 49.0038805, "lon": 13.9753935, "tags": {"information": "guidepost", "tourism": "information"}}, {"type": "node", "id": 7840575672, "lat": 49.0038708, "lon": 13.9754032, "tags": {"information": "guidepost", "tourism": "information"}}, {"type": "node", "id": 7850246046, "lat": 49.0529385, "lon": 13.994016}, {"type": "node", "id": 7850246047, "lat": 49.0529091, "lon": 13.9940167}, {"type": "node", "id": 7850246048, "lat": 49.0529096, "lon": 13.9940739}, {"type": "node", "id": 7850246049, "lat": 49.0529391, "lon": 13.9940732}, {"type": "node", "id": 7858350157, "lat": 48.9947125, "lon": 13.9883986, "tags": {"amenity": "shelter", "leisure": "wildlife_hide", "shelter_type": "wildlife_hide"}}, {"type": "node", "id": 7859241173, "lat": 49.0076118, "lon": 13.9232545, "tags": {"description": "V\u00fdhled na Salad\u00edn a Zv\u011b\u0159enice", "direction": "120-250", "source": "survey", "tourism": "viewpoint"}}, {"type": "node", "id": 7864283422, "lat": 49.0737853, "lon": 13.9365408, "tags": {"amenity": "shelter", "bench": "yes", "bin": "no", "name": "Pristresek", "shelter_type": "weather_shelter"}}, {"type": "node", "id": 7903057805, "lat": 48.9589535, "lon": 13.8656073, "tags": {"tourism": "viewpoint"}}, {"type": "node", "id": 8420245121, "lat": 49.1089775, "lon": 13.8668575}, {"type": "node", "id": 8420245122, "lat": 49.1090058, "lon": 13.8668513}, {"type": "node", "id": 8420245123, "lat": 49.109012, "lon": 13.8669164}, {"type": "node", "id": 8420245124, "lat": 49.1089837, "lon": 13.8669226}, {"type": "node", "id": 8420263717, "lat": 49.1502123, "lon": 13.9060479}, {"type": "node", "id": 8420263718, "lat": 49.1502434, "lon": 13.9060522}, {"type": "node", "id": 8420263719, "lat": 49.1502409, "lon": 13.9060937}, {"type": "node", "id": 8420263720, "lat": 49.1502099, "lon": 13.9060894}, {"type": "node", "id": 8772531616, "lat": 49.0727334, "lon": 13.8476809, "tags": {"ele": "918", "name": "Ma\u0159sk\u00fd vrch", "natural": "peak"}}, {"type": "node", "id": 8895867928, "lat": 49.0838799, "lon": 13.845642, "tags": {"amenity": "shelter", "shelter_type": "picnic_shelter"}}, {"type": "node", "id": 8895867929, "lat": 49.0838328, "lon": 13.845538, "tags": {"board_type": "history", "information": "board", "name": "Bo\u0161ice", "tourism": "information"}}, {"type": "node", "id": 8899043136, "lat": 49.1260883, "lon": 13.8822007, "tags": {"amenity": "shelter", "bench": "yes", "shelter_type": "public_transport"}}, {"type": "node", "id": 8899043146, "lat": 49.1436129, "lon": 13.9066245, "tags": {"amenity": "shelter", "shelter_type": "picnic_shelter"}}, {"type": "node", "id": 9009816558, "lat": 49.097632, "lon": 13.8142533, "tags": {"board_type": "history", "information": "board", "name": "Bohumilice", "tourism": "information"}}, {"type": "node", "id": 9009816559, "lat": 49.0976136, "lon": 13.8142111, "tags": {"amenity": "shelter", "shelter_type": "picnic_shelter"}}, {"type": "node", "id": 9009816565, "lat": 49.0931275, "lon": 13.8222305, "tags": {"amenity": "shelter", "shelter_type": "picnic_shelter"}}, {"type": "node", "id": 9009816566, "lat": 49.0930946, "lon": 13.8223064, "tags": {"board_type": "history", "information": "board", "name": "Bohumilice", "tourism": "information"}}, {"type": "node", "id": 9009816571, "lat": 49.0933453, "lon": 13.8226932, "tags": {"board_type": "nature", "information": "board", "name": "Zaj\u00edc poln\u00ed", "tourism": "information"}}, {"type": "node", "id": 9009816572, "lat": 49.0933581, "lon": 13.8227224, "tags": {"board_type": "nature", "information": "board", "name": "Li\u0161ka obecn\u00e1", "tourism": "information"}}, {"type": "node", "id": 9009816573, "lat": 49.0933713, "lon": 13.8227508, "tags": {"board_type": "nature", "information": "board", "name": "Ko\u010dka divok\u00e1", "tourism": "information"}}, {"type": "node", "id": 9009816574, "lat": 49.0933837, "lon": 13.8227777, "tags": {"board_type": "nature", "information": "board", "name": "Kuna skaln\u00ed", "tourism": "information"}}, {"type": "node", "id": 9009816575, "lat": 49.0933948, "lon": 13.8228017, "tags": {"board_type": "nature", "information": "board", "name": "Skokan zelen\u00fd", "tourism": "information"}}, {"type": "node", "id": 9009816576, "lat": 49.0943826, "lon": 13.825099, "tags": {"board_type": "nature", "information": "board", "name": "Bohumilick\u00e1 alej", "tourism": "information"}}, {"type": "node", "id": 9009816596, "lat": 49.0890679, "lon": 13.8402213, "tags": {"ele": "588", "hiking": "yes", "information": "guidepost", "name": "Bo\u0161ice", "operator": "cz:K\u010cT", "tourism": "information"}}, {"type": "node", "id": 9009816597, "lat": 49.0842503, "lon": 13.8439352, "tags": {"board_type": "nature", "information": "board", "name": "Stezka je\u0159\u00e1bka Bo\u0161\u00edka", "tourism": "information"}}, {"type": "node", "id": 9009816598, "lat": 49.0842081, "lon": 13.843852, "tags": {"amenity": "shelter", "shelter_type": "picnic_shelter"}}, {"type": "node", "id": 9009816599, "lat": 49.0841951, "lon": 13.8438585, "tags": {"board_type": "nature", "information": "board", "name": "Je\u0159\u00e1bek lesn\u00ed", "tourism": "information"}}, {"type": "node", "id": 9009816600, "lat": 49.0842172, "lon": 13.843895, "tags": {"board_type": "history", "information": "board", "name": "Bo\u0161ice", "tourism": "information"}}, {"type": "node", "id": 9009841803, "lat": 49.0877477, "lon": 13.8579933, "tags": {"board_type": "history", "information": "board", "name": "Hradi\u0161t\u011b V\u011bnec", "tourism": "information"}}, {"type": "node", "id": 9009841807, "lat": 49.0934338, "lon": 13.878509, "tags": {"information": "map", "name": "Zlat\u00e1 stezka", "tourism": "information"}}, {"type": "node", "id": 9010254277, "lat": 49.1112658, "lon": 13.9152343, "tags": {"board_type": "history", "information": "board", "name": "Osada Beneda", "ref": "6", "tourism": "information"}}, {"type": "node", "id": 9010254282, "lat": 49.1178228, "lon": 13.9339395, "tags": {"board_type": "history", "information": "board", "name": "Tvrz \u017delibo\u0159ice", "ref": "4", "tourism": "information"}}, {"type": "node", "id": 9010254283, "lat": 49.1191467, "lon": 13.9351164, "tags": {"board_type": "information", "information": "board", "name": "Sol\u00e1rn\u00ed elektr\u00e1rna v Bu\u0161anovic\u00edch", "ref": "3", "tourism": "information"}}, {"type": "node", "id": 9010254285, "lat": 49.1157747, "lon": 13.9520703, "tags": {"board_type": "history", "information": "board", "name": "K\u0159\u00ed\u017eky v krajin\u011b okolo Bu\u0161anovic", "ref": "2", "tourism": "information"}}, {"type": "node", "id": 9010254287, "lat": 49.1138206, "lon": 13.964399, "tags": {"board_type": "information", "information": "board", "name": "V\u00edt\u00e1me v\u00e1s na stezceokolo Bu\u0161anovic", "ref": "1", "tourism": "information"}}, {"type": "node", "id": 9024697097, "lat": 48.9951309, "lon": 13.9887939, "tags": {"amenity": "shelter", "shelter_type": "weather_shelter"}}, {"type": "node", "id": 9595852190, "lat": 49.1304689, "lon": 13.862416, "tags": {"amenity": "shelter", "shelter_type": "public_transport"}}, {"type": "node", "id": 9595886829, "lat": 49.0985732, "lon": 13.802325, "tags": {"amenity": "shelter", "shelter_type": "public_transport"}}, {"type": "node", "id": 9893935621, "lat": 49.0150954, "lon": 13.9997956, "tags": {"board_type": "history", "information": "board", "name": "Skalka", "ref": "1", "tourism": "information"}}, {"type": "node", "id": 9955652926, "lat": 49.0839242, "lon": 13.8444047, "tags": {"board_type": "nature", "information": "board", "name": "Bezles\u00ed", "tourism": "information"}}, {"type": "node", "id": 9955652927, "lat": 49.0836379, "lon": 13.844297, "tags": {"board_type": "nature", "information": "board", "name": "Mrtv\u00e9 a tlej\u00edc\u00ed d\u0159evo", "tourism": "information"}}, {"type": "node", "id": 9955652928, "lat": 49.0831197, "lon": 13.8436208, "tags": {"board_type": "nature", "information": "board", "name": "Rekultivace skl\u00e1dky", "tourism": "information"}}, {"type": "node", "id": 9955652930, "lat": 49.0835863, "lon": 13.8432715, "tags": {"board_type": "nature", "information": "board", "name": "Pt\u00e1ci", "tourism": "information"}}, {"type": "node", "id": 9955652938, "lat": 49.1017318, "lon": 13.8916312, "tags": {"board_type": "information", "information": "board", "name": "Kovan\u00ednsk\u00e1 zv\u00ed\u0159\u00e1tka", "tourism": "information"}}, {"type": "node", "id": 10080597500, "lat": 48.9994374, "lon": 13.9994928, "tags": {"board_type": "information", "information": "board", "name": "Pr\u016fse\u010d\u00edk poledn\u00edku a rovnob\u011b\u017eky", "ref": "21", "tourism": "information"}}, {"type": "node", "id": 10080597501, "lat": 48.9995479, "lon": 13.9989363, "tags": {"board_type": "history", "information": "board", "name": "Kaple sv. Mark\u00e9ty", "ref": "5", "tourism": "information"}}, {"type": "node", "id": 10080597503, "lat": 49.0035137, "lon": 13.9928226, "tags": {"information": "map", "name": "Singltrek Prachatice", "tourism": "information"}}, {"type": "node", "id": 10080597505, "lat": 49.0013664, "lon": 13.9894507, "tags": {"information": "map", "name": "Singltrek Prachatice - Kapli\u010dka", "tourism": "information"}}, {"type": "node", "id": 10080597507, "lat": 49.0054709, "lon": 13.9858065, "tags": {"information": "map", "name": "Singltrek Prachatice", "tourism": "information"}}, {"type": "node", "id": 10080597509, "lat": 49.0132148, "lon": 13.9841125, "tags": {"information": "map", "name": "Singltrek Prachatice - K\u0159\u00ed\u017eek", "tourism": "information"}}, {"type": "node", "id": 10080597511, "lat": 49.0244848, "lon": 13.9869851, "tags": {"information": "map", "name": "Singltrek Prachatice", "tourism": "information"}}, {"type": "node", "id": 10080597512, "lat": 49.0165294, "lon": 13.9802475, "tags": {"information": "map", "name": "Singltrek Prachatice - Dubov\u00fd vrch", "tourism": "information"}}, {"type": "node", "id": 10080597513, "lat": 49.0073067, "lon": 13.9877448, "tags": {"information": "map", "name": "Singltrek Prachatice", "tourism": "information"}}, {"type": "node", "id": 10080597514, "lat": 49.007266, "lon": 13.9879165, "tags": {"board_type": "information", "information": "board", "name": "D\u0159\u00edpatka", "ref": "8", "tourism": "information"}}, {"type": "node", "id": 10080597515, "lat": 48.9968226, "lon": 13.9893056, "tags": {"board_type": "nature", "information": "board", "name": "Vltav\u00edny", "tourism": "information"}}, {"type": "node", "id": 10080597516, "lat": 48.9967803, "lon": 13.9892914, "tags": {"board_type": "nature", "information": "board", "name": "Usazen\u00e9 horniny", "tourism": "information"}}, {"type": "node", "id": 10080632817, "lat": 48.9967283, "lon": 13.989271, "tags": {"board_type": "nature", "information": "board", "name": "P\u0159em\u011bn\u011bn\u00e9 horniny 2", "tourism": "information"}}, {"type": "node", "id": 10080632818, "lat": 48.9966636, "lon": 13.9892477, "tags": {"board_type": "nature", "information": "board", "name": "P\u0159em\u011bn\u011bn\u00e9 horniny 1", "tourism": "information"}}, {"type": "node", "id": 10080632819, "lat": 48.9965663, "lon": 13.9892101, "tags": {"board_type": "nature", "information": "board", "name": "Vyv\u0159el\u00e9 horniny 2", "tourism": "information"}}, {"type": "node", "id": 10080632820, "lat": 48.9964743, "lon": 13.9891796, "tags": {"board_type": "nature", "information": "board", "name": "Vyv\u0159el\u00e9 horniny 1", "tourism": "information"}}, {"type": "node", "id": 10080632822, "lat": 48.9963697, "lon": 13.9891553, "tags": {"ele": "650", "hiking": "yes", "information": "guidepost", "name": "Na Zlat\u00e9 stezce", "operator": "cz:K\u010cT", "tourism": "information"}}, {"type": "node", "id": 10080632823, "lat": 48.9951982, "lon": 13.9886818, "tags": {"information": "map", "name": "Zlat\u00e1 stezka", "tourism": "information"}}, {"type": "node", "id": 10080632824, "lat": 48.994803, "lon": 13.9884375, "tags": {"information": "map", "name": "Z\u00e1\u017eitkov\u00e1 stezka v\u00edly Majolenky", "ref": "1", "tourism": "information"}}, {"type": "node", "id": 10080632825, "lat": 48.991355, "lon": 13.9869413, "tags": {"board_type": "nature", "information": "board", "name": "Jez\u00edrko s odpo\u010d\u00edvadlem", "ref": "3", "tourism": "information"}}, {"type": "node", "id": 10080632833, "lat": 48.9904458, "lon": 13.9869997, "tags": {"board_type": "nature", "information": "board", "name": "V\u010dely a jejich \u017eivot", "ref": "4", "tourism": "information"}}, {"type": "node", "id": 10080632834, "lat": 48.9896901, "lon": 13.9870664, "tags": {"board_type": "nature", "information": "board", "name": "Jak se v\u010dely domluv\u00ed", "ref": "5", "tourism": "information"}}, {"type": "node", "id": 10080632835, "lat": 48.9888453, "lon": 13.9868877, "tags": {"board_type": "nature", "information": "board", "name": "Kdy\u017e v\u010dely nav\u0161t\u011bvuj\u00ed kv\u011bty", "ref": "6", "tourism": "information"}}, {"type": "node", "id": 10080632836, "lat": 48.9877175, "lon": 13.9866822, "tags": {"board_type": "nature", "information": "board", "name": "Jak v\u010dely d\u011blaj\u00ed med", "ref": "7", "tourism": "information"}}, {"type": "node", "id": 10080632837, "lat": 48.986534, "lon": 13.9862607, "tags": {"board_type": "nature", "information": "board", "name": "Jsou v\u010dely ohro\u017eeny?", "ref": "8", "tourism": "information"}}, {"type": "node", "id": 10080632838, "lat": 48.9847835, "lon": 13.9858636, "tags": {"board_type": "nature", "information": "board", "name": "Jak v\u010dely p\u0159e\u010dk\u00e1vaj\u00ed zimu", "ref": "9", "tourism": "information"}}, {"type": "node", "id": 10080632839, "lat": 48.9840974, "lon": 13.9855804, "tags": {"board_type": "nature", "information": "board", "name": "Historie M\u011bstsk\u00fdch les\u016f Prachatice", "ref": "10", "tourism": "information"}}, {"type": "node", "id": 10080632845, "lat": 48.9833552, "lon": 13.9852997, "tags": {"information": "map", "name": "Zlat\u00e1 stezka", "tourism": "information"}}, {"type": "node", "id": 10081528927, "lat": 48.981993, "lon": 13.9822338, "tags": {"board_type": "history", "information": "board", "name": "Obrana Lib\u00ednsk\u00e9ho sedla v roce 1938", "ref": "3", "tourism": "information"}}, {"type": "node", "id": 10081579882, "lat": 48.9801669, "lon": 13.9801917, "tags": {"board_type": "history", "information": "board", "name": "\u0160umava v n\u011bmeck\u00fdch \u00fato\u010dn\u00fdch pl\u00e1nech", "ref": "5", "tourism": "information"}}, {"type": "node", "id": 10081579883, "lat": 48.9792591, "lon": 13.9789647, "tags": {"board_type": "history", "information": "board", "name": "N\u011bmeck\u00e1 okupace a ni\u010den\u00ed opevn\u011bn\u00ed", "ref": "6", "tourism": "information"}}, {"type": "node", "id": 10081579884, "lat": 48.9785505, "lon": 13.9765326, "tags": {"board_type": "history", "information": "board", "name": "Opevn\u011bn\u00ed v obdob\u00ed studen\u00e9 v\u00e1lky", "ref": "7", "tourism": "information"}}, {"type": "node", "id": 10081579885, "lat": 48.9782632, "lon": 13.9754228, "tags": {"board_type": "history", "information": "board", "name": "Pov\u00e1le\u010dn\u00e9 \u00fapravy lehk\u00e9ho opevn\u011bn\u00ed", "ref": "8", "tourism": "information"}}, {"type": "node", "id": 10081579886, "lat": 48.9760225, "lon": 13.9696219, "tags": {"hiking": "yes", "information": "guidepost", "operator": "cz:K\u010cT", "ref": "586", "tourism": "information"}}, {"type": "node", "id": 10081579887, "lat": 48.9761741, "lon": 13.9686753, "tags": {"board_type": "history", "information": "board", "name": "Historie", "ref": "1", "tourism": "information"}}, {"type": "node", "id": 10081579888, "lat": 48.9763067, "lon": 13.9683377, "tags": {"board_type": "history", "information": "board", "name": "\u0160achta", "ref": "2", "tourism": "information"}}, {"type": "node", "id": 10081579889, "lat": 48.9761756, "lon": 13.9674954, "tags": {"amenity": "shelter", "shelter_type": "picnic_shelter"}}, {"type": "node", "id": 10081579890, "lat": 48.97606, "lon": 13.9674777, "tags": {"board_type": "history", "information": "board", "name": "\u0160tola", "ref": "3", "tourism": "information"}}, {"type": "node", "id": 10081579892, "lat": 48.9741127, "lon": 13.9676573, "tags": {"board_type": "nature", "information": "board", "name": "P\u0159\u00edroda", "tourism": "information"}}, {"type": "node", "id": 10082435597, "lat": 48.9682183, "lon": 13.9370091, "tags": {"amenity": "shelter", "shelter_type": "picnic_shelter"}}, {"type": "node", "id": 10082435721, "lat": 48.9982568, "lon": 13.931759, "tags": {"board_type": "nature", "information": "board", "name": "P\u0159\u00edrodn\u00ed rezervace Na soutoku", "tourism": "information"}}, {"type": "node", "id": 10082435722, "lat": 48.9982753, "lon": 13.9317026, "tags": {"board_type": "nature", "information": "board", "name": "P\u0159\u00edrodou okolo Z\u00e1blat\u00ed", "tourism": "information"}}, {"type": "node", "id": 10084868768, "lat": 48.9777269, "lon": 13.8138599, "tags": {"board_type": "nature", "information": "board", "name": "Kr\u00e1l smrk\u016f", "tourism": "information"}}, {"type": "node", "id": 10087598439, "lat": 48.9804998, "lon": 13.9844269, "tags": {"board_type": "history", "information": "board", "name": "V\u00fdstavba objekt\u016f lehk\u00e9ho opevn\u011bn\u00ed", "ref": "2", "tourism": "information"}}, {"type": "node", "id": 10087598440, "lat": 48.9949097, "lon": 13.9885055, "tags": {"board_type": "nature", "information": "board", "name": "V\u011b\u017e pozn\u00e1n\u00ed", "tourism": "information"}}, {"type": "node", "id": 10087598442, "lat": 49.0002055, "lon": 13.99464, "tags": {"board_type": "nature", "information": "board", "name": "Americk\u00e1 zat\u00e1\u010dka", "ref": "19", "tourism": "information"}}, {"type": "node", "id": 10087598443, "lat": 49.0011798, "lon": 13.9928249, "tags": {"board_type": "nature", "information": "board", "name": "Stezka pta\u010d\u00edch budek Bohuslava Nau\u0161e", "tourism": "information"}}, {"type": "node", "id": 10087598460, "lat": 49.0001614, "lon": 13.995767, "tags": {"board_type": "nature", "information": "board", "name": "L\u00e1zn\u011b sv. Mark\u00e9ty a lesn\u00ed promen\u00e1da", "ref": "20", "tourism": "information"}}, {"type": "node", "id": 10087622461, "lat": 48.9921497, "lon": 13.9886991, "tags": {"board_type": "nature", "information": "board", "name": "Fiedlerova \u0161tola", "ref": "17", "tourism": "information"}}, {"type": "node", "id": 10087622462, "lat": 48.991546, "lon": 13.9889334, "tags": {"board_type": "nature", "information": "board", "name": "Les - stromy", "ref": "16", "tourism": "information"}}, {"type": "node", "id": 10087622463, "lat": 48.989133, "lon": 13.9897117, "tags": {"board_type": "nature", "information": "board", "name": "Les - sp\u00e1rkat\u00e1 zv\u011b\u0159", "ref": "15", "tourism": "information"}}, {"type": "node", "id": 10087622467, "lat": 48.9873406, "lon": 13.9901177, "tags": {"board_type": "nature", "information": "board", "name": "Les - \u0161elmy", "ref": "14", "tourism": "information"}}, {"type": "node", "id": 10087622468, "lat": 48.9847071, "lon": 13.9874701, "tags": {"board_type": "nature", "information": "board", "name": "Les a myslivost", "ref": "13", "tourism": "information"}}, {"type": "node", "id": 10087622469, "lat": 48.9837756, "lon": 13.986772, "tags": {"board_type": "nature", "information": "board", "name": "Ochrana p\u0159\u00edrody", "ref": "12", "tourism": "information"}}, {"type": "node", "id": 10087622470, "lat": 48.9839557, "lon": 13.9859718, "tags": {"board_type": "nature", "information": "board", "name": "Pastevectv\u00ed na \u0160umav\u011b", "ref": "11", "tourism": "information"}}, {"type": "node", "id": 10087637957, "lat": 48.9824761, "lon": 13.9807987, "tags": {"board_type": "history", "information": "board", "name": "Maskov\u00e1n\u00ed objekt\u016f lehk\u00e9ho opevn\u011bn\u00ed", "ref": "4", "tourism": "information"}}, {"type": "node", "id": 10087637958, "lat": 48.983154, "lon": 13.982161, "tags": {"board_type": "information", "information": "board", "name": "Objekt lehk\u00e9ho opevn\u011bn\u00ed H-33/18/B2-80N \u0161ikm\u00fd vlevo", "tourism": "information"}}, {"type": "node", "id": 10087637959, "lat": 48.9825524, "lon": 13.9804002, "tags": {"board_type": "information", "information": "board", "name": "Objekt lehk\u00e9ho opevn\u011bn\u00ed H-33/19/EN", "tourism": "information"}}, {"type": "node", "id": 10087637968, "lat": 48.9801453, "lon": 13.9735033, "tags": {"board_type": "information", "information": "board", "name": "Objekt lehk\u00e9ho opevn\u011bn\u00ed H-33/21a/D2Z", "tourism": "information"}}, {"type": "node", "id": 10087637969, "lat": 48.9780084, "lon": 13.9751043, "tags": {"board_type": "information", "information": "board", "name": "Objekt lehk\u00e9ho opevn\u011bn\u00ed H-33/22/A-220N", "tourism": "information"}}, {"type": "node", "id": 10087637970, "lat": 48.9765736, "lon": 13.9682012, "tags": {"board_type": "nature", "information": "board", "name": "Rudn\u00ed \u017e\u00edly", "ref": "4", "tourism": "information"}}, {"type": "node", "id": 10087637971, "lat": 48.9769754, "lon": 13.9685904, "tags": {"board_type": "history", "information": "board", "name": "\u00dapravna", "ref": "5", "tourism": "information"}}, {"type": "node", "id": 10087663188, "lat": 48.9761667, "lon": 13.9895915, "tags": {"board_type": "history", "information": "board", "name": "\u00davodn\u00ed panel", "ref": "1", "tourism": "information"}}, {"type": "node", "id": 10087663189, "lat": 48.9761863, "lon": 13.9896664, "tags": {"information": "map", "name": "Prachaticko", "tourism": "information"}}, {"type": "node", "id": 10115125409, "lat": 49.0877903, "lon": 13.8584494, "tags": {"board_type": "nature", "information": "board", "name": "Kovan\u00ednsk\u00e1 zv\u00ed\u0159\u00e1tka", "tourism": "information"}}, {"type": "node", "id": 10115135021, "lat": 49.1444905, "lon": 13.961514, "tags": {"amenity": "shelter", "shelter_type": "picnic_shelter"}}, {"type": "node", "id": 10138404279, "lat": 49.0304111, "lon": 13.8022038, "tags": {"board_type": "information", "information": "board", "name": "Nau\u010dn\u00e1 lesnick\u00e1 stezka Boub\u00ednem", "tourism": "information"}}, {"type": "node", "id": 10138404280, "lat": 49.0304259, "lon": 13.8023751, "tags": {"information": "map", "name": "Nau\u010dn\u00e1 lesnick\u00e1 stezka Boub\u00ednem", "tourism": "information"}}, {"type": "node", "id": 10138404281, "lat": 49.0296027, "lon": 13.8017282, "tags": {"board_type": "nature", "information": "board", "ref": "2", "tourism": "information"}}, {"type": "node", "id": 10138406222, "lat": 49.0059672, "lon": 13.8115244, "tags": {"board_type": "nature", "information": "board", "name": "Chata Roblovka", "ref": "14", "tourism": "information"}}, {"type": "node", "id": 10138406257, "lat": 49.0405905, "lon": 13.8030173, "tags": {"board_type": "nature", "information": "board", "name": "Prav\u011bt\u00ednsk\u00fd okruh - vyhl\u00eddka pod Prav\u011bt\u00ednem", "tourism": "information"}}, {"type": "node", "id": 10155224267, "lat": 49.0141873, "lon": 13.9972881, "tags": {"board_type": "history", "information": "board", "name": "D\u011blost\u0159electvo", "ref": "5", "tourism": "information"}}, {"type": "node", "id": 10155224268, "lat": 49.0134557, "lon": 13.9956746, "tags": {"board_type": "history", "information": "board", "name": "Dva p\u00e1sy opevn\u011bn\u00ed Prachatic", "ref": "4", "tourism": "information"}}, {"type": "node", "id": 10155224269, "lat": 49.0135769, "lon": 13.9997756, "tags": {"board_type": "history", "information": "board", "name": "Doln\u00ed br\u00e1na", "ref": "1", "tourism": "information"}}, {"type": "node", "id": 10155224270, "lat": 49.0126681, "lon": 14.0003195, "tags": {"board_type": "history", "information": "board", "name": "Ba\u0161ta Helv\u00edt", "ref": "2", "tourism": "information"}}, {"type": "node", "id": 10155364546, "lat": 49.0112886, "lon": 13.9968125, "tags": {"board_type": "history", "information": "board", "name": "Horn\u00ed Br\u00e1na", "ref": "3", "tourism": "information"}}, {"type": "node", "id": 10215078747, "lat": 49.0153127, "lon": 13.9997045, "tags": {"tourism": "viewpoint"}}, {"type": "node", "id": 10601168399, "lat": 48.9818884, "lon": 13.9821861, "tags": {"bicycle": "yes", "hiking": "yes", "information": "map", "map_size": "region", "map_type": "topo", "name": "Mapa tras v okol\u00ed Prachatic", "ski": "yes", "tourism": "information"}}, {"type": "node", "id": 10898934144, "lat": 49.0311239, "lon": 13.8030969, "tags": {"information": "board", "name": "Zp\u016fsoby hospoda\u0159en\u00ed v les\u00edch", "tourism": "information"}}, {"type": "node", "id": 11039315601, "lat": 49.0125928, "lon": 13.9973575, "tags": {"board_type": "history", "information": "board", "name": "Star\u00e1 radnice", "tourism": "information"}}, {"type": "node", "id": 11039510188, "lat": 48.9628817, "lon": 13.8977802, "tags": {"bus": "yes", "highway": "bus_stop", "name": "Volary, Mlyn\u00e1\u0159ovice", "official_name": "Volary,Mlyn\u00e1\u0159ovice", "public_transport": "platform", "ref:CIS_JR": "49064"}}, {"type": "node", "id": 11039513571, "lat": 49.0129244, "lon": 13.9975292, "tags": {"board_type": "history", "information": "board", "name": "Nov\u00e1 radnice", "tourism": "information"}}, {"type": "node", "id": 11039519797, "lat": 49.0126764, "lon": 13.9974044, "tags": {"board_type": "notice", "information": "board", "name": "Obecn\u00ed d\u016fm", "tourism": "information"}}, {"type": "node", "id": 11039520555, "lat": 49.0121486, "lon": 13.9994097, "tags": {"information": "board", "name": "Hus\u016fv d\u016fm", "tourism": "information"}}, {"type": "node", "id": 11039527185, "lat": 49.0121942, "lon": 13.9980761, "tags": {"information": "board", "name": "D\u016fm u dvou pali\u010dek", "tourism": "information"}}, {"type": "node", "id": 11039545128, "lat": 49.0123425, "lon": 13.9976511, "tags": {"board_type": "history", "information": "board", "name": "Bozkovsk\u00e9ho d\u016fm", "tourism": "information"}}, {"type": "node", "id": 11039547715, "lat": 49.0136781, "lon": 13.9960733, "tags": {"information": "board", "name": "Park sv. Jana Nepomuka Neumanna", "tourism": "information"}}, {"type": "node", "id": 11039574925, "lat": 49.0142172, "lon": 13.9976017, "tags": {"information": "board", "name": "nordic walking Prachatice", "tourism": "information"}}, {"type": "node", "id": 11042346362, "lat": 48.9928619, "lon": 13.9867217, "tags": {"information": "board", "name": "T\u011b\u017eba st\u0159\u00edbra", "tourism": "information"}}, {"type": "node", "id": 11046564798, "lat": 49.0090164, "lon": 13.9983444, "tags": {"information": "board", "name": "Nau\u010dn\u00e1 stezka o t\u0159\u00edd\u011bn\u00ed odpadu", "tourism": "information"}}, {"type": "node", "id": 11046663542, "lat": 49.0089742, "lon": 13.9983645, "tags": {"information": "board", "name": "Co je odpad?", "tourism": "information"}}, {"type": "node", "id": 11046687944, "lat": 49.0086213, "lon": 13.9985412, "tags": {"information": "board", "name": "Sklo", "tourism": "information"}}, {"type": "node", "id": 11046687945, "lat": 49.0086826, "lon": 13.9985096, "tags": {"information": "board", "name": "Textil", "tourism": "information"}}, {"type": "node", "id": 11046687946, "lat": 49.0087675, "lon": 13.9984781, "tags": {"information": "board", "name": "Plasty a n\u00e1pojov\u00e9 kartony", "tourism": "information"}}, {"type": "node", "id": 11046687947, "lat": 49.0088236, "lon": 13.9984538, "tags": {"information": "board", "name": "Pap\u00edr", "tourism": "information"}}, {"type": "node", "id": 11046687948, "lat": 49.0088684, "lon": 13.998431, "tags": {"information": "board", "name": "Kolob\u011bh odpadu", "tourism": "information"}}, {"type": "node", "id": 11046687949, "lat": 49.0089247, "lon": 13.9983962, "tags": {"information": "board", "name": "Z\u00e1kladn\u00ed za\u0159\u00edzen\u00ed k nakl\u00e1d\u00e1n\u00ed z odpady", "tourism": "information"}}, {"type": "node", "id": 11046703970, "lat": 49.0084815, "lon": 13.9986027, "tags": {"information": "board", "name": "Olej", "tourism": "information"}}, {"type": "node", "id": 11046703971, "lat": 49.0085633, "lon": 13.9985558, "tags": {"information": "board", "name": "Baterie a elektroza\u0159\u00edzen\u00ed", "tourism": "information"}}, {"type": "node", "id": 11050979369, "lat": 49.0076461, "lon": 13.9939983, "tags": {"information": "board", "name": "Stezkou kolem stezky 3", "ref": "3", "tourism": "information"}}, {"type": "node", "id": 11051002758, "lat": 49.0077352, "lon": 13.9947746, "tags": {"information": "board", "name": "Stezkou kolem stezky", "tourism": "information"}}, {"type": "node", "id": 11051010047, "lat": 49.0084317, "lon": 13.9938317, "tags": {"information": "board", "name": "Stezkou kolem stezky 7", "ref": "7", "tourism": "information"}}, {"type": "node", "id": 11051018625, "lat": 49.0084089, "lon": 13.9939031, "tags": {"information": "board", "name": "Vegeta\u010dn\u00ed st\u0159echa", "tourism": "information"}}, {"type": "node", "id": 11051022587, "lat": 49.0077728, "lon": 13.9947972, "tags": {"information": "board", "name": "Stezkou kolem stezky 1", "ref": "1", "tourism": "information"}}, {"type": "node", "id": 11051038770, "lat": 49.0077419, "lon": 13.9930731, "tags": {"information": "board", "name": "Stezkou kolem stezky 5", "ref": "5", "tourism": "information"}}, {"type": "node", "id": 11051046516, "lat": 49.0077336, "lon": 13.9935919, "tags": {"information": "board", "name": "Stezkou kolem stezky 4", "ref": "4", "tourism": "information"}}, {"type": "node", "id": 11051047495, "lat": 49.0085436, "lon": 13.9938831, "tags": {"information": "board", "name": "Stezkou kolem stezky 8", "ref": "8", "tourism": "information"}}, {"type": "node", "id": 11051060911, "lat": 49.00837, "lon": 13.9932431, "tags": {"information": "board", "name": "Stezkou kolem stezky 6", "ref": "6", "tourism": "information"}}, {"type": "node", "id": 11052587182, "lat": 49.0083439, "lon": 13.9940706, "tags": {"information": "board", "name": "De\u0161\u0165ov\u00e1 voda v zahrad\u011b", "tourism": "information"}}, {"type": "node", "id": 11052587183, "lat": 49.0084775, "lon": 13.9941525, "tags": {"information": "board", "name": "Rostliny v um\u011bn\u00ed, Rostlinn\u00e1 symbolika", "tourism": "information"}}, {"type": "node", "id": 11052590183, "lat": 49.0083033, "lon": 13.9939058, "tags": {"information": "board", "name": "Plody a semena", "tourism": "information"}}, {"type": "node", "id": 11052601619, "lat": 49.0084653, "lon": 13.9942517, "tags": {"information": "board", "name": "L\u00e9\u010div\u00e9 rostliny", "tourism": "information"}}, {"type": "node", "id": 11054310565, "lat": 48.9761794, "lon": 13.9896396, "tags": {"information": "board", "name": "Rozhledna Lib\u00edn", "tourism": "information"}}, {"type": "node", "id": 11054311592, "lat": 48.976174, "lon": 13.9896179, "tags": {"information": "board", "name": "nordic walking", "tourism": "information"}}, {"type": "node", "id": 11054316683, "lat": 48.9775531, "lon": 13.9883714, "tags": {"information": "board", "name": "Fili\u00e1ln\u00ed kostel sv. Anny", "tourism": "information"}}, {"type": "node", "id": 11054800410, "lat": 49.0231761, "lon": 13.9982047, "tags": {"information": "board", "name": "Interaktivn\u00ed h\u0159i\u0161t\u011b", "tourism": "information"}}, {"type": "node", "id": 11054803966, "lat": 49.0200657, "lon": 13.9871674, "tags": {"information": "map", "name": "Singetrek Prachatice", "tourism": "information"}}, {"type": "node", "id": 11054816378, "lat": 48.9720056, "lon": 13.9671542, "tags": {"information": "board", "name": "Albrechtovice", "tourism": "information"}}, {"type": "node", "id": 11054828233, "lat": 49.0260161, "lon": 13.9942479, "tags": {"information": "board", "name": "\u0160ibeni\u010dn\u00ed vrch", "tourism": "information"}}, {"type": "node", "id": 11054837396, "lat": 49.0137306, "lon": 13.9995503, "tags": {"information": "board", "name": "Doln\u00ed br\u00e1na (P\u00edseck\u00e1 br\u00e1na)", "tourism": "information"}}, {"type": "node", "id": 11054851561, "lat": 49.0131992, "lon": 13.9982519, "tags": {"information": "board", "name": "Sitr\u016fv d\u016fm", "tourism": "information"}}, {"type": "node", "id": 11054852584, "lat": 49.0133011, "lon": 13.9991228, "tags": {"information": "board", "name": "Heydl\u016fv d\u016fm", "tourism": "information"}}, {"type": "node", "id": 11054865021, "lat": 49.0130322, "lon": 13.9989383, "tags": {"information": "board", "name": "D\u011bkansk\u00fd kostel sv. Jakuba star\u0161\u00edho", "tourism": "information"}}, {"type": "node", "id": 11054879810, "lat": 49.0132056, "lon": 13.9978272, "tags": {"information": "board", "name": "N\u00e1rodn\u00ed d\u016fm", "tourism": "information"}}, {"type": "node", "id": 11054880781, "lat": 49.0131492, "lon": 13.9993992, "tags": {"information": "board", "name": "Rektorsk\u00fd d\u016fm", "tourism": "information"}}, {"type": "node", "id": 11054889165, "lat": 49.0127375, "lon": 13.9981008, "tags": {"information": "board", "name": "Rump\u00e1l\u016fv d\u016fm", "tourism": "information"}}, {"type": "node", "id": 11064688243, "lat": 49.0435575, "lon": 13.98849, "tags": {"description": "Husineck\u00e1 nau\u010dn\u00e1 stezka", "information": "board", "name": "Sirkovna", "ref": "5", "tourism": "information"}}, {"type": "node", "id": 11064688275, "lat": 49.0524281, "lon": 13.9882861, "tags": {"information": "map", "name": "Husineck\u00e1 nau\u010dn\u00e1 stezka", "tourism": "information"}}, {"type": "node", "id": 11064695584, "lat": 49.0385806, "lon": 13.9922828, "tags": {"information": "board", "name": "\u010cesk\u00fd ryb\u00e1\u0159sk\u00fd svaz", "tourism": "information"}}, {"type": "node", "id": 11064701221, "lat": 49.0542733, "lon": 13.9886778, "tags": {"information": "board", "name": "Jak spr\u00e1vn\u011b t\u0159\u00eddit odpady", "tourism": "information"}}, {"type": "node", "id": 11118261769, "lat": 49.007473, "lon": 13.9943385, "tags": {"information": "board", "name": "Stezkou kolem stezky 2", "ref": "2", "tourism": "information"}}, {"type": "node", "id": 11163492952, "lat": 49.0841251, "lon": 13.9142265, "tags": {"amenity": "shelter", "shelter_type": "picnic_shelter"}}, {"type": "node", "id": 11163492972, "lat": 49.0727049, "lon": 13.8346835, "tags": {"amenity": "shelter", "shelter_type": "picnic_shelter"}}, {"type": "node", "id": 11244199426, "lat": 48.9899668, "lon": 13.9117174, "tags": {"board_type": "nature", "description": "Nau\u010dn\u00e1 stezka Na soutoku", "information": "board", "name": "P\u0159\u00edrodn\u00ed rezervace Ka\u0148on Blanice", "tourism": "information"}}, {"type": "node", "id": 11244199427, "lat": 48.9890087, "lon": 13.9122833, "tags": {"board_type": "nature", "description": "Nau\u010dn\u00e1 stezka Na soutoku", "information": "board", "name": "Divok\u00fd tok", "tourism": "information"}}, {"type": "node", "id": 11244199428, "lat": 48.9879586, "lon": 13.9127048, "tags": {"board_type": "nature", "description": "Nau\u010dn\u00e1 stezka Na soutoku", "information": "board", "name": "Nov\u00e9 lesy", "tourism": "information"}}, {"type": "node", "id": 11244199429, "lat": 48.987251, "lon": 13.9131657, "tags": {"board_type": "nature", "description": "Nau\u010dn\u00e1 stezka Na soutoku", "information": "board", "name": "Star\u00e9 \u0159e\u010di\u0161t\u011b", "tourism": "information"}}, {"type": "node", "id": 11244199431, "lat": 48.9805357, "lon": 13.9157337, "tags": {"board_type": "nature", "description": "Nau\u010dn\u00e1 stezka Na soutoku", "information": "board", "name": "P\u0159\u00edrodn\u00ed lesy", "tourism": "information"}}, {"type": "node", "id": 11244199432, "lat": 48.9787027, "lon": 13.9129094, "tags": {"board_type": "nature", "description": "Nau\u010dn\u00e1 stezka Na soutoku", "information": "board", "name": "Blanice", "tourism": "information"}}, {"type": "node", "id": 11244199434, "lat": 48.9782239, "lon": 13.912762, "tags": {"board_type": "nature", "description": "Nau\u010dn\u00e1 stezka Na soutoku", "information": "board", "name": "P\u0159\u00edrodn\u00ed rezervace Ka\u0148on Blanice", "tourism": "information"}}, {"type": "node", "id": 11254681823, "lat": 49.1469175, "lon": 13.8856971, "tags": {"amenity": "shelter", "shelter_type": "picnic_shelter"}}, {"type": "node", "id": 11255637928, "lat": 49.1246701, "lon": 13.8828884, "tags": {"amenity": "shelter", "shelter_type": "picnic_shelter"}}, {"type": "node", "id": 11255760608, "lat": 49.098739, "lon": 13.8697924, "tags": {"amenity": "shelter", "shelter_type": "rock_shelter"}}, {"type": "node", "id": 11272547903, "lat": 49.0584432, "lon": 13.9437225, "tags": {"board_type": "information", "information": "board", "name": "Geopunkturn\u00ed instalace", "tourism": "information"}}, {"type": "node", "id": 11465175138, "lat": 48.9736053, "lon": 13.9674844, "tags": {"information": "board", "tourism": "information"}}, {"type": "node", "id": 11634966618, "lat": 49.0923404, "lon": 13.9432781, "tags": {"board_type": "history", "information": "board", "name": "Stezka okolo Bu\u0161anovic", "ref": "11", "tourism": "information"}}, {"type": "node", "id": 11914044245, "lat": 48.9629023, "lon": 13.8977436}, {"type": "node", "id": 11914044246, "lat": 48.9628606, "lon": 13.8977525}, {"type": "node", "id": 11914044247, "lat": 48.9628813, "lon": 13.8977159}, {"type": "node", "id": 12205601386, "lat": 48.9959475, "lon": 13.9159098}, {"type": "node", "id": 12205601387, "lat": 48.9959176, "lon": 13.9159109}, {"type": "node", "id": 12205601388, "lat": 48.9959181, "lon": 13.9159438}, {"type": "node", "id": 12205601389, "lat": 48.995948, "lon": 13.9159427}, {"type": "node", "id": 12205706505, "lat": 48.9528639, "lon": 13.8425158}, {"type": "node", "id": 12205706506, "lat": 48.9528625, "lon": 13.842489}, {"type": "node", "id": 12205706507, "lat": 48.9528575, "lon": 13.8424777}, {"type": "node", "id": 12205706508, "lat": 48.9528138, "lon": 13.8424931}, {"type": "node", "id": 12205706509, "lat": 48.9528125, "lon": 13.8425055}, {"type": "node", "id": 12205706510, "lat": 48.9528139, "lon": 13.842518}, {"type": "node", "id": 12205706511, "lat": 48.9528178, "lon": 13.8425292}, {"type": "node", "id": 12205706512, "lat": 48.9528647, "lon": 13.8425022}, {"type": "node", "id": 12205706513, "lat": 48.9528503, "lon": 13.8424696}, {"type": "node", "id": 12205706514, "lat": 48.9528417, "lon": 13.8424657}, {"type": "node", "id": 12205706515, "lat": 48.9528328, "lon": 13.8424665}, {"type": "node", "id": 12205706516, "lat": 48.9528245, "lon": 13.8424718}, {"type": "node", "id": 12205706517, "lat": 48.9528179, "lon": 13.842481}, {"type": "node", "id": 12205706518, "lat": 48.9528237, "lon": 13.8425379}, {"type": "node", "id": 12205706519, "lat": 48.9528312, "lon": 13.8425434}, {"type": "node", "id": 12205706520, "lat": 48.9528394, "lon": 13.842545}, {"type": "node", "id": 12205706521, "lat": 48.9528476, "lon": 13.8425427}, {"type": "node", "id": 12205706522, "lat": 48.9528548, "lon": 13.8425366}, {"type": "node", "id": 12205706523, "lat": 48.9528604, "lon": 13.8425273}, {"type": "node", "id": 12251001459, "lat": 48.9520814, "lon": 13.9165219, "tags": {"ele": "835", "natural": "peak", "source": "\u010c\u00daZK"}}, {"type": "node", "id": 12324540884, "lat": 48.9951177, "lon": 13.9249958, "tags": {"amenity": "shelter", "bench": "yes", "lit": "no", "material": "wood", "shelter_type": "picnic_shelter"}}, {"type": "node", "id": 12324559262, "lat": 48.9854576, "lon": 13.9564769, "tags": {"amenity": "shelter", "shelter_type": "picnic_shelter"}}, {"type": "node", "id": 12484935366, "lat": 48.9775754, "lon": 13.9945132, "tags": {"information": "map", "map_type": "scheme", "name": "Mapa lz\u017earsk\u00fdch tras v okol\u00ed Prachatic", "tourism": "information"}}, {"type": "node", "id": 12744423409, "lat": 49.0153282, "lon": 13.8498142, "tags": {"board_type": "tourism", "information": "board", "name": "Rozhledna Boub\u00edn", "tourism": "information"}}, {"type": "node", "id": 12868354801, "lat": 49.0200393, "lon": 13.9871589, "tags": {"board_type": "sport", "information": "board", "name": "Nordic walking Tankovka", "tourism": "information"}}, {"type": "node", "id": 12869154386, "lat": 49.0163627, "lon": 13.9846475, "tags": {"tourism": "viewpoint"}}, {"type": "node", "id": 12983382490, "lat": 49.1334526, "lon": 13.8746267}, {"type": "node", "id": 12983382491, "lat": 49.1333297, "lon": 13.874553}, {"type": "node", "id": 12983382492, "lat": 49.1333113, "lon": 13.874616}, {"type": "node", "id": 12983382493, "lat": 49.1334368, "lon": 13.8746898}, {"type": "node", "id": 12983382497, "lat": 49.1294382, "lon": 13.8791317}, {"type": "node", "id": 12983382498, "lat": 49.1294057, "lon": 13.8792012}, {"type": "node", "id": 12983382499, "lat": 49.1293955, "lon": 13.8791962}, {"type": "node", "id": 12983382500, "lat": 49.1294413, "lon": 13.879146}, {"type": "node", "id": 12983388301, "lat": 49.1294413, "lon": 13.879161}, {"type": "node", "id": 12983388302, "lat": 49.1294383, "lon": 13.8791752}, {"type": "node", "id": 12983388303, "lat": 49.1294326, "lon": 13.8791874}, {"type": "node", "id": 12983388304, "lat": 49.1294247, "lon": 13.8791963}, {"type": "node", "id": 12983388305, "lat": 49.1294155, "lon": 13.8792011}, {"type": "node", "id": 12983388306, "lat": 49.129387, "lon": 13.8791862}, {"type": "node", "id": 12983388307, "lat": 49.1293812, "lon": 13.8791725}, {"type": "node", "id": 12983388308, "lat": 49.1293788, "lon": 13.8791565}, {"type": "node", "id": 12983388309, "lat": 49.1293799, "lon": 13.8791403}, {"type": "node", "id": 12983388310, "lat": 49.1293846, "lon": 13.8791256}, {"type": "node", "id": 12983388311, "lat": 49.1293922, "lon": 13.8791141}, {"type": "node", "id": 12983388312, "lat": 49.1294019, "lon": 13.8791072}, {"type": "node", "id": 12983388313, "lat": 49.1294126, "lon": 13.8791056}, {"type": "node", "id": 12983388314, "lat": 49.1294229, "lon": 13.8791096}, {"type": "node", "id": 12983388315, "lat": 49.1294318, "lon": 13.8791187}, {"type": "node", "id": 13067651597, "lat": 48.9893072, "lon": 13.8889029}, {"type": "node", "id": 13067651598, "lat": 48.9893059, "lon": 13.8888866}, {"type": "node", "id": 13067651599, "lat": 48.989301, "lon": 13.8888719}, {"type": "node", "id": 13067651600, "lat": 48.9892439, "lon": 13.8889105}, {"type": "node", "id": 13067651601, "lat": 48.9892476, "lon": 13.8889251}, {"type": "node", "id": 13067651602, "lat": 48.989254, "lon": 13.8889372}, {"type": "node", "id": 13067651603, "lat": 48.9892627, "lon": 13.8889456}, {"type": "node", "id": 13067651604, "lat": 48.9892933, "lon": 13.8888605}, {"type": "node", "id": 13067651605, "lat": 48.9892835, "lon": 13.8888537}, {"type": "node", "id": 13067651606, "lat": 48.9892727, "lon": 13.8888522}, {"type": "node", "id": 13067651607, "lat": 48.9892623, "lon": 13.8888562}, {"type": "node", "id": 13067651608, "lat": 48.9892533, "lon": 13.8888653}, {"type": "node", "id": 13067651609, "lat": 48.9892468, "lon": 13.8888784}, {"type": "node", "id": 13067651610, "lat": 48.9892436, "lon": 13.8888941}, {"type": "node", "id": 13067651611, "lat": 48.9892726, "lon": 13.8889493}, {"type": "node", "id": 13067651612, "lat": 48.9892829, "lon": 13.8889481}, {"type": "node", "id": 13067651613, "lat": 48.9892923, "lon": 13.888942}, {"type": "node", "id": 13067651614, "lat": 48.9893, "lon": 13.8889317}, {"type": "node", "id": 13067651615, "lat": 48.9893051, "lon": 13.8889182}, {"type": "node", "id": 13071004958, "lat": 48.9856577, "lon": 13.8847251, "tags": {"information": "guidepost", "name": "Mile\u0161ice 830m", "tourism": "information"}}, {"type": "node", "id": 13098918400, "lat": 48.9950399, "lon": 13.9900261, "tags": {"information": "route_marker", "tourism": "information"}}, {"type": "node", "id": 13098918401, "lat": 48.9949371, "lon": 13.9897227, "tags": {"information": "route_marker", "tourism": "information"}}, {"type": "node", "id": 13145165247, "lat": 49.0667019, "lon": 13.9474184, "tags": {"board_type": "history", "information": "board", "name": "Zlat\u00e1 stezka - Chlumany", "tourism": "information"}}, {"type": "node", "id": 13145165276, "lat": 49.0657626, "lon": 13.9450711, "tags": {"amenity": "shelter", "shelter_type": "picnic_shelter"}}, {"type": "node", "id": 13145165277, "lat": 49.0647483, "lon": 13.942908, "tags": {"amenity": "shelter", "shelter_type": "picnic_shelter"}}, {"type": "node", "id": 13145165297, "lat": 49.0918251, "lon": 13.8705312, "tags": {"board_type": "history", "information": "board", "name": "Kr\u00e1lov\u00e1ck\u00fd k\u00e1men", "tourism": "information"}}, {"type": "node", "id": 13145165305, "lat": 49.0966169, "lon": 13.8848422, "tags": {"amenity": "shelter", "shelter_type": "picnic_shelter"}}, {"type": "way", "id": 371337649, "nodes": [3749117961, 3749117960, 3749117962, 3749117963, 3749117961], "tags": {"amenity": "shelter", "shelter_type": "public_transport"}}, {"type": "way", "id": 392790651, "nodes": [3959794032, 3959793979, 3959793996, 3963061451, 3959794032], "tags": {"building": "yes", "building:levels": "3", "ele": "907", "man_made": "tower", "name": "Rozhledna Ma\u0159sk\u00fd vrch", "tourism": "viewpoint", "tower:type": "observation", "wikidata": "Q12036226", "wikipedia": "cs:Ma\u0159sk\u00fd vrch"}}, {"type": "way", "id": 464309863, "nodes": [4594362615, 4594362616, 4594362617, 4594362618, 4594362615], "tags": {"building": "yes", "fee": "yes", "height": "21", "man_made": "tower", "material": "wood", "name": "rozhledna Boub\u00edn", "note": "Aussichtsturm -Panoramablick in die Alpen", "payment:credit_cards": "yes", "payment:debit_cards": "yes", "payment:sms": "yes", "surveillance": "yes", "surveillance:type": "camera", "tourism": "viewpoint", "tower:type": "observation", "wikidata": "Q11236252", "wikipedia": "cs:Boub\u00edn (rozhledna)"}}, {"type": "way", "id": 504827674, "nodes": [4949337898, 4949337899, 4949337900, 4949337901, 4949337903, 4949337904, 4949337905, 4949337906, 4949337898], "tags": {"amenity": "shelter"}}, {"type": "way", "id": 505048294, "nodes": [4950859398, 4950859399, 4950859400, 4950859401, 4950859402, 4950859403, 4950859385, 4950859386, 4950859387, 4950859388, 4950859394, 4950859395, 4950859396, 4950859397, 4950859389, 4950859390, 4950859391, 4950859392, 4950859393, 4950859398], "tags": {"amenity": "shelter"}}, {"type": "way", "id": 712073284, "nodes": [6695275085, 6695275082, 6695275083, 6695275084, 6695275085], "tags": {"amenity": "shelter", "building": "roof", "shelter_type": "picnic_shelter"}}, {"type": "way", "id": 841365127, "nodes": [7850246046, 7850246047, 7850246048, 7850246049, 7850246046], "tags": {"amenity": "shelter", "bench": "yes", "building": "yes"}}, {"type": "way", "id": 906787025, "nodes": [8420245121, 8420245122, 8420245123, 8420245124, 8420245121], "tags": {"amenity": "shelter", "building": "yes", "shelter_type": "public_transport"}}, {"type": "way", "id": 906787970, "nodes": [8420263717, 8420263718, 8420263719, 8420263720, 8420263717], "tags": {"amenity": "shelter", "building": "yes", "shelter_type": "public_transport"}}, {"type": "way", "id": 1284221568, "nodes": [11914044245, 11039510188, 11914044246, 11914044247, 11914044245], "tags": {"amenity": "shelter", "building": "yes"}}, {"type": "way", "id": 1318852979, "nodes": [12205601386, 12205601387, 12205601388, 12205601389, 12205601386], "tags": {"amenity": "shelter", "building": "yes", "shelter_type": "public_transport"}}, {"type": "way", "id": 1318861755, "nodes": [12205706518, 12205706519, 12205706520, 12205706521, 12205706522, 12205706523, 12205706505, 12205706512, 12205706506, 12205706507, 12205706513, 12205706514, 12205706515, 12205706516, 12205706517, 12205706508, 12205706509, 12205706510, 12205706511, 12205706518], "tags": {"amenity": "shelter", "building": "yes"}}, {"type": "way", "id": 1412807856, "nodes": [12983382490, 12983382491, 12983382492, 12983382493, 12983382490], "tags": {"amenity": "shelter", "building": "yes"}}, {"type": "way", "id": 1412807857, "nodes": [12983388306, 12983388307, 12983388308, 12983388309, 12983388310, 12983388311, 12983388312, 12983388313, 12983388314, 12983388315, 12983382497, 12983382500, 12983388301, 12983388302, 12983388303, 12983388304, 12983388305, 12983382498, 12983382499, 12983388306], "tags": {"amenity": "shelter", "building": "yes"}}, {"type": "way", "id": 1421908021, "nodes": [13067651611, 13067651612, 13067651613, 13067651614, 13067651615, 13067651597, 13067651598, 13067651599, 13067651604, 13067651605, 13067651606, 13067651607, 13067651608, 13067651609, 13067651610, 13067651600, 13067651601, 13067651602, 13067651603, 13067651611], "tags": {"amenity": "shelter", "building": "yes", "shelter_type": "lean_to"}}]}