{"version": 0.6, "generator": "Overpass API 0.7.62.8 e802775f", "osm3s": {"timestamp_osm_base": "2026-01-04T12:13:26Z", "copyright": "The data included in this document is from www.openstreetmap.org. The data is made available under ODbL."}, "elements": [{"type": "node", "id": 60679974, "lat": 49.3369248, "lon": 13.9566279, "tags": {"name": "Velk\u00e1 Turn\u00e1", "railway": "halt", "wikidata": "Q66888394"}}, {"type": "node", "id": 60679990, "lat": 49.3483348, "lon": 13.9502814, "tags": {"name": "Rojice", "railway": "halt", "wikidata": "Q66888395"}}, {"type": "node", "id": 60680662, "lat": 49.3845745, "lon": 13.9367159, "tags": {"name": "Sedlice", "public_transport": "station", "railway": "station", "wikidata": "Q66888398"}}, {"type": "node", "id": 60740011, "lat": 49.4389048, "lon": 13.8095632, "tags": {"name": "Tcho\u0159ovice", "operator": "cz:S\u017dDC", "railway": "halt", "railway:ref": "747121", "wikidata": "Q66888399"}}, {"type": "node", "id": 274787316, "lat": 49.4457688, "lon": 14.0818827, "tags": {"name": "Smetanova Lhota", "name:de": "Smetana Lhota", "railway": "halt", "wikidata": "Q25412041"}}, {"type": "node", "id": 283793706, "lat": 49.6323853, "lon": 14.0216907, "tags": {"name": "Mil\u00edn", "railway": "station", "wikidata": "Q19400973"}}, {"type": "node", "id": 283818426, "lat": 49.5043476, "lon": 13.8862843, "tags": {"name": "B\u011bl\u010dice", "public_transport": "station", "railway": "station", "wikidata": "Q66827991"}}, {"type": "node", "id": 283839694, "lat": 49.5230634, "lon": 13.8951061, "tags": {"name": "Slav\u011bt\u00edn u B\u0159eznice", "railway": "halt", "wikidata": "Q66888199"}}, {"type": "node", "id": 287608163, "lat": 49.5887671, "lon": 13.9878401, "tags": {"name": "Tochovice", "railway": "station", "wikidata": "Q19401527"}}, {"type": "node", "id": 290328449, "lat": 49.5295638, "lon": 14.0239304, "tags": {"name": "Mysl\u00edn", "railway": "halt", "wikidata": "Q19401008"}}, {"type": "node", "id": 290328578, "lat": 49.6153115, "lon": 14.0088659, "tags": {"name": "Ostrov u Tochovic", "railway": "halt", "wikidata": "Q19366338"}}, {"type": "node", "id": 290329431, "lat": 49.5276753, "lon": 13.9285229, "tags": {"name": "Hud\u010dice", "railway": "halt", "wikidata": "Q66888216"}}, {"type": "node", "id": 290329921, "lat": 49.5967923, "lon": 13.9263153, "tags": {"name": "Osl\u00ed", "railway": "halt", "wikidata": "Q66888218"}}, {"type": "node", "id": 301480754, "lat": 49.3918806, "lon": 14.1247512, "tags": {"name": "Vr\u00e1\u017e u P\u00edsku", "public_transport": "station", "railway": "station", "wikidata": "Q66827922"}}, {"type": "node", "id": 301480811, "lat": 49.3536106, "lon": 14.097821, "tags": {"name": "\u010c\u00ed\u017eov\u00e1", "public_transport": "station", "railway": "station", "wikidata": "Q66829167"}}, {"type": "node", "id": 301481538, "lat": 49.4979511, "lon": 14.0565645, "tags": {"name": "Horn\u00ed Nerestce", "railway": "halt", "wikidata": "Q25412008"}}, {"type": "node", "id": 301481660, "lat": 49.5583048, "lon": 13.9641282, "tags": {"name": "B\u0159eznice", "name:de": "Bresnitz", "public_transport": "station", "railway": "station", "wikidata": "Q18180149", "wikipedia": "cs:B\u0159eznice (n\u00e1dra\u017e\u00ed)"}}, {"type": "node", "id": 302098027, "lat": 49.6905313, "lon": 14.0028348}, {"type": "node", "id": 306693789, "lat": 49.3929, "lon": 14.3253478, "tags": {"name": "Stehlovice", "railway": "halt", "wikidata": "Q18747878"}}, {"type": "node", "id": 306693809, "lat": 49.3821151, "lon": 14.2912545, "tags": {"name": "Jet\u011btice", "railway": "halt", "wikidata": "Q19400742"}}, {"type": "node", "id": 306693916, "lat": 49.3717062, "lon": 14.273165, "tags": {"name": "\u010cerven\u00e1 nad Vltavou", "public_transport": "station", "railway": "station", "wikidata": "Q16621016"}}, {"type": "node", "id": 306695448, "lat": 49.3692222, "lon": 14.2232877, "tags": {"name": "Vlastec", "public_transport": "station", "railway": "station", "wikidata": "Q15887130"}}, {"type": "node", "id": 306695501, "lat": 49.3432861, "lon": 14.2036317, "tags": {"name": "Z\u00e1ho\u0159\u00ed", "public_transport": "station", "railway": "station", "wikidata": "Q15887177"}}, {"type": "node", "id": 354908048, "lat": 49.3402358, "lon": 14.1710144, "tags": {"name": "Vrcovice", "railway": "halt", "wikidata": "Q66888446"}}, {"type": "node", "id": 443518215, "lat": 49.3458701, "lon": 13.7006042, "tags": {"name": "Velk\u00fd Bor", "operator": "cz:S\u017dDC", "railway": "halt", "railway:ref": "738757", "wikidata": "Q16613294"}}, {"type": "node", "id": 706326304, "lat": 49.4437151, "lon": 13.7900937, "tags": {"name": "Ln\u00e1\u0159e", "operator": "cz:S\u017dDC", "public_transport": "station", "railway": "station", "railway:ref": "747022", "wikidata": "Q66888452"}}, {"type": "node", "id": 706333639, "lat": 49.4497572, "lon": 13.7733206, "tags": {"name": "Hradi\u0161t\u011b u Blatn\u00e9", "operator": "cz:S\u017d", "railway": "halt", "railway:ref": "746925", "wikidata": "Q66888454"}}, {"type": "node", "id": 706340158, "lat": 49.4569092, "lon": 13.7442156, "tags": {"name": "Kasejovice", "name:de": "Kassejowitz", "operator": "cz:S\u017dDC", "railway": "station", "railway:ref": "746834", "wikidata": "Q18180310"}}, {"type": "node", "id": 923885851, "lat": 49.4139294, "lon": 14.1129298, "tags": {"name": "Doln\u00ed Ostrovec", "railway": "halt", "wikidata": "Q66888456"}}, {"type": "node", "id": 923885868, "lat": 49.4703198, "lon": 14.0766433, "tags": {"name": "\u010cimelice", "railway": "station", "wikidata": "Q25412014"}}, {"type": "node", "id": 939214305, "lat": 49.605561, "lon": 14.1777576, "tags": {"amenity": "ferry_terminal", "ferry": "yes", "name": "P\u0159ehrada Orl\u00edk", "public_transport": "station"}}, {"type": "node", "id": 977979443, "lat": 49.4449898, "lon": 13.8758135, "tags": {"name": "Bezd\u011bdovice", "railway": "halt", "wikidata": "Q66827994"}}, {"type": "node", "id": 977987867, "lat": 49.3781609, "lon": 13.9448027, "tags": {"name": "Sedlice m\u011bsto", "railway": "halt", "wikidata": "Q66888462"}}, {"type": "node", "id": 977987887, "lat": 49.4014143, "lon": 13.8861871, "tags": {"name": "Ma\u010dkov", "railway": "halt", "wikidata": "Q66888463"}}, {"type": "node", "id": 987066584, "lat": 49.6020938, "lon": 13.8820548, "tags": {"name": "Ro\u017emit\u00e1l pod T\u0159em\u0161\u00ednem", "old_name:de": "Rosenthal", "public_transport": "station", "railway": "station", "train": "yes", "wikidata": "Q18180498"}}, {"type": "node", "id": 987066588, "lat": 49.5851996, "lon": 13.9404041, "tags": {"name": "Zadn\u00ed Po\u0159\u00ed\u010d\u00ed", "railway": "halt", "wikidata": "Q66888310"}}, {"type": "node", "id": 987066590, "lat": 49.5975661, "lon": 13.9048293, "tags": {"name": "Skuhrov pod T\u0159em\u0161\u00ednem", "railway": "halt", "wikidata": "Q66888311"}}, {"type": "node", "id": 1601695431, "lat": 49.6837081, "lon": 13.9873241, "tags": {"name": "\u0160ev\u010d\u00ednsk\u00fd d\u016fl", "operator": "Hornick\u00e9 muzeum P\u0159\u00edbram", "public_transport": "station", "railway": "station", "train": "yes"}}, {"type": "node", "id": 1627850438, "lat": 49.5128084, "lon": 14.1669911, "tags": {"amenity": "ferry_terminal", "ferry": "yes", "name": "Orl\u00edk z\u00e1mek", "public_transport": "station"}}, {"type": "node", "id": 1711843556, "lat": 49.604668, "lon": 13.864526}, {"type": "node", "id": 1743313620, "lat": 49.5806905, "lon": 14.1688226, "tags": {"amenity": "ferry_terminal", "ferry": "yes", "name": "Trhovky", "public_transport": "station"}}, {"type": "node", "id": 1781029426, "lat": 49.6905747, "lon": 14.0029518}, {"type": "node", "id": 1781029428, "lat": 49.6906143, "lon": 14.0029141}, {"type": "node", "id": 1781029431, "lat": 49.6906647, "lon": 14.0030618}, {"type": "node", "id": 1947960227, "lat": 49.5585013, "lon": 13.9470856}, {"type": "node", "id": 1947960231, "lat": 49.5586503, "lon": 13.9472236}, {"type": "node", "id": 1947960232, "lat": 49.5586129, "lon": 13.94629}, {"type": "node", "id": 1947960233, "lat": 49.5588034, "lon": 13.9471512}, {"type": "node", "id": 1977217456, "lat": 49.6047646, "lon": 13.8654999}, {"type": "node", "id": 1977217460, "lat": 49.60482, "lon": 13.8655126}, {"type": "node", "id": 1994269174, "lat": 49.6845686, "lon": 13.9891099, "tags": {"name": "\u0160ev\u010d\u00ednsk\u00e1 \u0161tola", "operator": "Hornick\u00e9 muzeum P\u0159\u00edbram", "public_transport": "station", "railway": "station", "train": "yes"}}, {"type": "node", "id": 2039917777, "lat": 49.5561385, "lon": 13.9994096, "tags": {"name": "Dobr\u00e1 Voda u B\u0159eznice", "railway": "halt", "wikidata": "Q19400565"}}, {"type": "node", "id": 2086191103, "lat": 49.6663821, "lon": 14.2525181, "tags": {"amenity": "ferry_terminal", "ferry": "yes", "public_transport": "station"}}, {"type": "node", "id": 2119908464, "lat": 49.6904601, "lon": 14.0032466}, {"type": "node", "id": 2135848649, "lat": 49.604537, "lon": 13.8645691}, {"type": "node", "id": 3857866809, "lat": 49.5314294, "lon": 14.1721028, "tags": {"amenity": "ferry_terminal", "ferry": "yes", "name": "Radava", "public_transport": "station"}}, {"type": "node", "id": 4418448387, "lat": 49.6046769, "lon": 13.8646012}, {"type": "node", "id": 5646192129, "lat": 49.3314518, "lon": 13.7389665, "tags": {"name": "Hora\u017e\u010fovice p\u0159edm\u011bst\u00ed", "operator": "cz:S\u017dDC", "public_transport": "station", "railway": "station", "railway:ref": "738658", "wikidata": "Q16558417"}}, {"type": "node", "id": 5668567954, "lat": 49.4309045, "lon": 13.8725786, "tags": {"name": "Blatn\u00e1", "name:cs": "Blatn\u00e1", "name:de": "Blatna", "operator": "cz:S\u017dDC", "public_transport": "station", "railway": "station", "railway:ref": "747220", "wikidata": "Q18180138"}}, {"type": "node", "id": 5668574752, "lat": 49.50989, "lon": 14.0343755, "tags": {"name": "Mirovice", "operator": "cz:S\u017dDC", "public_transport": "station", "railway": "station", "railway:ref": "730226", "wikidata": "Q18180410"}}, {"type": "node", "id": 5985057963, "lat": 49.6125917, "lon": 14.1895642, "tags": {"amenity": "ferry_terminal", "ferry": "yes", "name": "Solenice", "public_transport": "station"}}, {"type": "node", "id": 5985150010, "lat": 49.5249346, "lon": 14.1645058, "tags": {"amenity": "ferry_terminal", "ferry": "yes", "name": "Velk\u00fd v\u00edr", "public_transport": "station"}}, {"type": "node", "id": 6727290854, "lat": 49.6048641, "lon": 13.8647536}, {"type": "node", "id": 6727290855, "lat": 49.6048405, "lon": 13.864555}, {"type": "node", "id": 7474447682, "lat": 49.674062, "lon": 14.0010699, "tags": {"name": "P\u0159\u00edbram s\u00eddli\u0161t\u011b", "railway": "halt", "start_date": "2020", "train": "yes", "wikidata": "Q106712975"}}, {"type": "node", "id": 8132644320, "lat": 49.5981625, "lon": 13.9944657, "tags": {"name": "Tochovice zast\u00e1vka", "railway": "halt", "train": "yes"}}, {"type": "node", "id": 8191338649, "lat": 49.6903551, "lon": 14.0031518}, {"type": "node", "id": 8191338652, "lat": 49.689871, "lon": 14.003471}, {"type": "node", "id": 8191338654, "lat": 49.6899074, "lon": 14.0035622}, {"type": "node", "id": 8191349453, "lat": 49.6048642, "lon": 13.8647769}, {"type": "node", "id": 8191349454, "lat": 49.6048129, "lon": 13.8647944}, {"type": "node", "id": 8191349455, "lat": 49.6049676, "lon": 13.8655206}, {"type": "node", "id": 8191349456, "lat": 49.6045952, "lon": 13.8654676}, {"type": "node", "id": 8191349457, "lat": 49.6044723, "lon": 13.8648742}, {"type": "node", "id": 8191349458, "lat": 49.6044414, "lon": 13.8646643}, {"type": "node", "id": 8191349463, "lat": 49.6048343, "lon": 13.864895, "tags": {"bus": "yes", "highway": "bus_stop", "local_ref": "2", "name": "Ro\u017emit\u00e1l pod T\u0159em\u0161\u00ednem, autobusov\u00e9 stanovi\u0161t\u011b", "official_name": "Ro\u017emit\u00e1l p. T\u0159., aut. st.", "public_transport": "platform", "ref:PID": "U7899Z2", "wheelchair": "no"}}, {"type": "node", "id": 8990644986, "lat": 49.5418049, "lon": 14.1728888, "tags": {"amenity": "ferry_terminal", "ferry": "yes", "name": "Podskal\u00ed", "public_transport": "station"}}, {"type": "node", "id": 9392061042, "lat": 49.6047842, "lon": 13.8655044}, {"type": "node", "id": 9811794873, "lat": 49.5588893, "lon": 13.9462993}, {"type": "node", "id": 9811794874, "lat": 49.5588966, "lon": 13.9466245}, {"type": "node", "id": 9811794875, "lat": 49.5587844, "lon": 13.9471918}, {"type": "node", "id": 9811794876, "lat": 49.5587562, "lon": 13.9472213}, {"type": "node", "id": 9811794877, "lat": 49.5587135, "lon": 13.9472394}, {"type": "node", "id": 12106265627, "lat": 49.6888174, "lon": 14.0033387, "tags": {"name": "P\u0159\u00edbram", "operator": "Spr\u00e1va \u017eeleznic", "public_transport": "station", "railway": "station", "train": "yes", "wikidata": "Q17750059"}}, {"type": "node", "id": 12628322246, "lat": 49.6904499, "lon": 14.0032194}, {"type": "node", "id": 12628322247, "lat": 49.6903996, "lon": 14.0032681}, {"type": "node", "id": 12628429542, "lat": 49.6905624, "lon": 14.0031542, "tags": {"entrance": "yes"}}, {"type": "node", "id": 12960834633, "lat": 49.4804733, "lon": 13.8702721, "tags": {"name": "Z\u00e1vi\u0161\u00edn", "railway": "halt"}}, {"type": "way", "id": 184332028, "nodes": [9811794873, 9811794874, 1947960233, 9811794875, 9811794876, 9811794877, 1947960231, 1947960227, 1947960232, 9811794873], "tags": {"amenity": "bus_station", "bus": "yes", "public_transport": "station"}}, {"type": "way", "id": 880692212, "nodes": [8191338654, 8191338652, 302098027, 1781029426, 1781029428, 1781029431, 12628429542, 2119908464, 12628322246, 12628322247, 8191338649, 8191338654], "tags": {"amenity": "bus_station", "bus": "yes", "name": "P\u0159\u00edbram, autobusov\u00e9 n\u00e1dra\u017e\u00ed", "official_name": "P\u0159\u00edbram, aut. n\u00e1dr.", "public_transport": "station"}}, {"type": "way", "id": 880692527, "nodes": [8191349458, 8191349457, 8191349456, 1977217456, 9392061042, 1977217460, 8191349455, 8191349463, 8191349454, 8191349453, 6727290854, 6727290855, 4418448387, 1711843556, 2135848649, 8191349458], "tags": {"amenity": "bus_station", "bus": "yes", "name": "Ro\u017emit\u00e1l pod T\u0159em\u0161\u00ednem, autobusov\u00e9 stanovi\u0161t\u011b", "official_name": "Ro\u017emit\u00e1l p. T\u0159., aut. st.", "public_transport": "station"}}]}