{"version": 0.6, "generator": "Overpass API 0.7.62.8 e802775f", "osm3s": {"timestamp_osm_base": "2026-01-05T16:22:02Z", "copyright": "The data included in this document is from www.openstreetmap.org. The data is made available under ODbL."}, "elements": [{"type": "node", "id": 502868218, "lat": 49.8153829, "lon": 13.6034583, "tags": {"ele": "485", "hiking": "yes", "information": "guidepost", "name": "B\u0159ezina (rozcest\u00ed)", "official_name": "B\u0159ezina (rozc.)", "operator": "cz:K\u010cT", "ref": "RO123", "source": "survey", "tourism": "information"}}, {"type": "node", "id": 502868247, "lat": 49.8126341, "lon": 13.6053304, "tags": {"ele": "516", "hiking": "yes", "information": "guidepost", "name": "B\u0159ezina (park)", "operator": "cz:K\u010cT", "ref": "RO122", "source": "survey", "tourism": "information"}}, {"type": "node", "id": 502868280, "lat": 49.8089813, "lon": 13.6050998, "tags": {"description": "P\u016fvod. hrad B\u0159ezina, postaven\u00fd kolem roku 1389 Jind\u0159ichem z Elstenberka, po\u010d. 19. stol. z\u0159\u00edcenina upravena na alt\u00e1n - salon", "hiking": "yes", "information": "guidepost", "name": "Salon", "operator": "cz:K\u010cT", "ref": "RO122", "tourism": "information"}}, {"type": "node", "id": 680611126, "lat": 49.8923987, "lon": 13.7210433, "tags": {"board_type": "nature", "information": "board", "map_size": "region", "map_type": "scheme", "name": "Mikroregion Zbiro\u017esko", "operator": "M\u011b\u00da Zbiroh", "tourism": "information"}}, {"type": "node", "id": 897146178, "lat": 49.9385008, "lon": 13.655771, "tags": {"name": "Na Plazu", "tourism": "viewpoint", "wheelchair": "no"}}, {"type": "node", "id": 901474091, "lat": 49.9319664, "lon": 13.6345618, "tags": {"ele": "260", "hiking": "yes", "information": "guidepost", "name": "Ryb\u00e1rna u H\u0159e\u0161ihlav", "operator": "cz:K\u010cT", "ref": "RO102", "tourism": "information"}}, {"type": "node", "id": 901474149, "lat": 49.9291273, "lon": 13.6180633, "tags": {"ele": "390", "hiking": "yes", "information": "guidepost", "name": "H\u0159e\u0161ihlavy", "operator": "cz:K\u010cT", "ref": "RO101", "tourism": "information"}}, {"type": "node", "id": 901474158, "lat": 49.9360221, "lon": 13.6597401, "tags": {"description": "Kaple z\u00a01. poloviny 19. stolet\u00ed, barokn\u00ed s\u00fdpka, rouben\u00fd d\u016fm \u010d\u00edslo 31", "ele": "425", "hiking": "yes", "information": "guidepost", "name": "Chlum", "operator": "cz:K\u010cT", "ref": "RO104", "tourism": "information"}}, {"type": "node", "id": 956226318, "lat": 49.757561, "lon": 13.6180715}, {"type": "node", "id": 956226975, "lat": 49.7576096, "lon": 13.6179337}, {"type": "node", "id": 956227047, "lat": 49.7576238, "lon": 13.6180538}, {"type": "node", "id": 956227631, "lat": 49.7575469, "lon": 13.6179515}, {"type": "node", "id": 1035732517, "lat": 49.7738955, "lon": 13.6173237, "tags": {"ele": "398", "hiking": "yes", "information": "guidepost", "name": "Volduchy (rozc.)", "operator": "cz:K\u010cT", "ref": "RO115", "tourism": "information"}}, {"type": "node", "id": 1035922586, "lat": 49.7760078, "lon": 13.622868, "tags": {"ele": "493", "hiking": "yes", "information": "guidepost", "name": "Volduchy", "operator": "cz:K\u010cT", "ref": "RO116", "tourism": "information"}}, {"type": "node", "id": 1107564756, "lat": 49.9486884, "lon": 13.7571985, "tags": {"ele": "489", "name": "Dubinky", "natural": "peak"}}, {"type": "node", "id": 1107564760, "lat": 49.9426068, "lon": 13.7679397, "tags": {"ele": "490", "name": "Roub\u00edk", "natural": "peak"}}, {"type": "node", "id": 1107564762, "lat": 49.943199, "lon": 13.7856059, "tags": {"ele": "529.8", "name": "Bludn\u00fd", "natural": "peak"}}, {"type": "node", "id": 1107618292, "lat": 49.9385491, "lon": 13.7831091, "tags": {"ele": "534", "name": "\u010cerven\u00fd vrch", "natural": "peak"}}, {"type": "node", "id": 1107618295, "lat": 49.9351641, "lon": 13.7824426, "tags": {"ele": "580", "name": "Velk\u00fd vrch", "natural": "peak"}}, {"type": "node", "id": 1139311122, "lat": 49.7899454, "lon": 13.623479, "tags": {"ele": "492", "hiking": "yes", "information": "guidepost", "name": "Pod Plech\u00e1\u010dem", "operator": "cz:K\u010cT", "ref": "RO118", "tourism": "information"}}, {"type": "node", "id": 1139311152, "lat": 49.811267, "lon": 13.6177838, "tags": {"name": "Hradi\u0161t\u011b", "tourism": "viewpoint"}}, {"type": "node", "id": 1163584637, "lat": 49.8064557, "lon": 13.6225166, "tags": {"ele": "560", "hiking": "yes", "information": "guidepost", "name": "Poles\u00ed Hradi\u0161t\u011b", "operator": "cz:K\u010cT", "ref": "RO119", "tourism": "information"}}, {"type": "node", "id": 1163584658, "lat": 49.809791, "lon": 13.6166356, "tags": {"ele": "588", "hiking": "yes", "information": "guidepost", "name": "Hradi\u0161t\u011b (odbo\u010dka k\u00a0vrcholu)", "official_name": "Hradi\u0161t\u011b (odb. k\u00a0vrcholu)", "operator": "cz:K\u010cT", "ref": "RO120", "tourism": "information"}}, {"type": "node", "id": 1163584663, "lat": 49.8386376, "lon": 13.6210812, "tags": {"ele": "457", "hiking": "yes", "information": "guidepost", "name": "Na Kram\u00e1\u0159sk\u00e9", "operator": "cz:K\u010cT", "ref": "RO126", "tourism": "information"}}, {"type": "node", "id": 1163584667, "lat": 49.8573182, "lon": 13.609252, "tags": {"ele": "375", "hiking": "yes", "information": "guidepost", "name": "Radnice", "operator": "cz:K\u010cT", "ref": "RO128", "tourism": "information"}}, {"type": "node", "id": 1163584684, "lat": 49.8344768, "lon": 13.6115809, "tags": {"ele": "462", "hiking": "yes", "information": "guidepost", "name": "P\u0159\u00edv\u011btice", "operator": "cz:K\u010cT", "ref": "RO125", "tourism": "information"}}, {"type": "node", "id": 1278760694, "lat": 49.8226313, "lon": 13.6707703, "tags": {"ele": "718", "name": "Brno", "name:lt": "Brno", "natural": "peak", "wikidata": "Q11342427", "wikipedia": "cs:Brno (K\u0159ivokl\u00e1tsk\u00e1 vrchovina)"}}, {"type": "node", "id": 1278760711, "lat": 49.8215667, "lon": 13.650564, "tags": {"access": "yes", "alt_name": "Vyhl\u00eddkov\u00e9 m\u00edsto B\u00edl\u00e1 sk\u00e1la", "climbing": "no", "direction": "180", "ele": "650", "hiking": "yes", "name": "B\u00edl\u00e1 sk\u00e1la", "tourism": "viewpoint"}}, {"type": "node", "id": 1364140228, "lat": 49.773448, "lon": 13.6951103, "tags": {"ele": "420", "hiking": "yes", "information": "guidepost", "name": "Holoubkov (odbo\u010dka k\u00a0vlaku)", "official_name": "Holoubkov (odb. k\u00a0\u017dST)", "operator": "cz:K\u010cT", "ref": "RO146", "tourism": "information"}}, {"type": "node", "id": 1364140552, "lat": 49.7757129, "lon": 13.6923067, "tags": {"ele": "432", "hiking": "yes", "information": "guidepost", "name": "Holoubkov (hotel)", "operator": "cz:K\u010cT", "ref": "RO147", "tourism": "information"}}, {"type": "node", "id": 1397561943, "lat": 49.8555254, "lon": 13.7618193, "tags": {"ele": "500", "hiking": "yes", "information": "guidepost", "name": "U z\u00e1meck\u00e9 br\u00e1ny", "operator": "cz:K\u010cT", "ref": "RO161", "source": "survey", "tourism": "information"}}, {"type": "node", "id": 1397561945, "lat": 49.8586201, "lon": 13.7690671, "tags": {"information": "board", "name": "M\u011bsto Zbiroh", "tourism": "information"}}, {"type": "node", "id": 1398204634, "lat": 49.860898, "lon": 13.7747013, "tags": {"bicycle": "yes", "hiking": "yes", "information": "map", "map_size": "region", "map_type": "topo", "name": "Chr\u00e1n\u011bn\u00e1 krajinn\u00e1 oblast K\u0159ivokl\u00e1tsko", "source": "survey", "tourism": "information"}}, {"type": "node", "id": 1398204637, "lat": 49.859444, "lon": 13.770978}, {"type": "node", "id": 1398204648, "lat": 49.8611148, "lon": 13.7758565, "tags": {"ele": "415", "hiking": "yes", "information": "guidepost", "name": "Zbiroh (Z\u00e1most\u00ed)", "operator": "cz:K\u010cT", "ref": "RO166", "source": "survey", "tourism": "information"}}, {"type": "node", "id": 1398204658, "lat": 49.8589758, "lon": 13.7696426, "tags": {"ele": "440", "hiking": "yes", "information": "guidepost", "name": "Zbiroh (n\u00e1m\u011bst\u00ed)", "official_name": "Zbiroh (n\u00e1m.)", "operator": "cz:K\u010cT", "ref": "RO164", "source": "survey", "tourism": "information"}}, {"type": "node", "id": 1497705640, "lat": 49.9395381, "lon": 13.7953037, "tags": {"ele": "472", "hiking": "yes", "information": "guidepost", "name": "Pod Mal\u00fdm Vlastcem", "operator": "cz:K\u010cT", "ref": "RA047", "tourism": "information"}}, {"type": "node", "id": 1574628155, "lat": 49.7738419, "lon": 13.7448666, "tags": {"ele": "484", "hiking": "yes", "information": "guidepost", "name": "Pod lesem u M\u00fdta", "operator": "cz:K\u010cT", "ref": "RO180", "tourism": "information"}}, {"type": "node", "id": 1574650654, "lat": 49.7839122, "lon": 13.7401264, "tags": {"ele": "442", "hiking": "yes", "information": "guidepost", "name": "M\u00fdto (vlak)", "official_name": "M\u00fdto (\u017dST)", "operator": "cz:K\u010cT", "ref": "RO179", "source": "survey", "tourism": "information"}}, {"type": "node", "id": 1575985407, "lat": 49.7939389, "lon": 13.7516766, "tags": {"ele": "471", "hiking": "yes", "information": "guidepost", "name": "Svat\u00fd \u0160t\u011bp\u00e1n", "operator": "cz:K\u010cT", "ref": "RO175", "source": "survey", "tourism": "information"}}, {"type": "node", "id": 1576032241, "lat": 49.801411, "lon": 13.7692649, "tags": {"ele": "462", "hiking": "yes", "information": "guidepost", "name": "Ka\u0159\u00edzek (vlak)", "official_name": "Ka\u0159\u00edzek (\u017dST)", "operator": "cz:K\u010cT", "ref": "RO174", "source": "survey", "tourism": "information"}}, {"type": "node", "id": 1671311585, "lat": 49.8112323, "lon": 13.6177783, "tags": {"amenity": "shelter"}}, {"type": "node", "id": 1671311588, "lat": 49.8111599, "lon": 13.6179127, "tags": {"board_type": "history", "information": "board", "name": "Hradi\u0161t\u011b", "tourism": "information"}}, {"type": "node", "id": 1671312531, "lat": 49.824007, "lon": 13.6876672, "tags": {"tourism": "viewpoint"}}, {"type": "node", "id": 1671315199, "lat": 49.8619997, "lon": 13.7400259, "tags": {"tourism": "viewpoint"}}, {"type": "node", "id": 1671318386, "lat": 49.8617129, "lon": 13.745377, "tags": {"tourism": "viewpoint"}}, {"type": "node", "id": 1731111214, "lat": 49.8837164, "lon": 13.7580963, "tags": {"ele": "406", "hiking": "yes", "information": "guidepost", "name": "Jable\u010dno", "operator": "cz:K\u010cT", "ref": "RO205", "tourism": "information"}}, {"type": "node", "id": 1731111220, "lat": 49.8889632, "lon": 13.7518912, "tags": {"ele": "448", "hiking": "yes", "information": "guidepost", "name": "Pod Jableckou h\u00e1jovnou", "operator": "cz:K\u010cT", "ref": "RO208", "tourism": "information"}}, {"type": "node", "id": 1731121723, "lat": 49.859365, "lon": 13.770964}, {"type": "node", "id": 1731121730, "lat": 49.859368, "lon": 13.77094}, {"type": "node", "id": 1731121752, "lat": 49.859395, "lon": 13.771019}, {"type": "node", "id": 1731121764, "lat": 49.859403, "lon": 13.770896}, {"type": "node", "id": 1731121774, "lat": 49.859409, "lon": 13.771021}, {"type": "node", "id": 1731121789, "lat": 49.859418, "lon": 13.770898}, {"type": "node", "id": 1731121845, "lat": 49.859448, "lon": 13.770954}, {"type": "node", "id": 1731148343, "lat": 49.8946733, "lon": 13.7343214, "tags": {"ele": "352", "hiking": "yes", "information": "guidepost", "name": "S\u00fdkor\u016fv ml\u00fdn", "operator": "cz:K\u010cT", "ref": "RO210", "tourism": "information"}}, {"type": "node", "id": 1764253733, "lat": 49.9352586, "lon": 13.7977139, "tags": {"amenity": "shelter", "shelter_type": "picnic_shelter"}}, {"type": "node", "id": 2083406419, "lat": 49.837684, "lon": 13.7825596, "tags": {"ele": "434", "hiking": "yes", "information": "guidepost", "inscription": "Postaveno pro vyslou\u017eil\u00e9 vesnick\u00e9 zam\u011bstnance. \u017dil zde i ze\u0165 B. Smetany", "name": "P\u011btidom\u00ed", "operator": "cz:K\u010cT", "ref": "RO199", "tourism": "information"}}, {"type": "node", "id": 2083940047, "lat": 49.9093208, "lon": 13.7784772, "tags": {"ele": "521", "hiking": "yes", "information": "guidepost", "name": "Pod T\u00fd\u010dsk\u00fdm vrchem", "operator": "cz:K\u010cT", "ref": "RO260", "tourism": "information"}}, {"type": "node", "id": 2085623606, "lat": 49.8202482, "lon": 13.7843553, "tags": {"board_type": "history", "description": "Pam\u011btn\u00ed deska o pobytu Heyrovsk\u00e9ho", "information": "board", "tourism": "information"}}, {"type": "node", "id": 2085625063, "lat": 49.8237944, "lon": 13.780946, "tags": {"ele": "446", "hiking": "yes", "information": "guidepost", "name": "Ka\u0159ez", "operator": "cz:K\u010cT", "ref": "RO310", "tourism": "information"}}, {"type": "node", "id": 2085625751, "lat": 49.8245033, "lon": 13.7831635}, {"type": "node", "id": 2085625765, "lat": 49.8245178, "lon": 13.7832059}, {"type": "node", "id": 2085625767, "lat": 49.8245239, "lon": 13.7831465}, {"type": "node", "id": 2085625784, "lat": 49.8245385, "lon": 13.7831889}, {"type": "node", "id": 2085625803, "lat": 49.8245847, "lon": 13.7827083}, {"type": "node", "id": 2085625807, "lat": 49.8246055, "lon": 13.7827746}, {"type": "node", "id": 2085625810, "lat": 49.8246029, "lon": 13.7826946}, {"type": "node", "id": 2085625824, "lat": 49.8246237, "lon": 13.7827609}, {"type": "node", "id": 2085626617, "lat": 49.8336651, "lon": 13.7876258, "tags": {"ele": "440", "hiking": "yes", "information": "guidepost", "name": "Ka\u0159ez \u2013 Borek", "old_name": "Zbiroh (\u017dST)", "operator": "cz:K\u010cT", "ref": "RO198", "tourism": "information"}}, {"type": "node", "id": 2159888616, "lat": 49.9361796, "lon": 13.7752281, "tags": {"ele": "549", "name": "Pjuvin vrch", "natural": "peak"}}, {"type": "node", "id": 2159888619, "lat": 49.9390027, "lon": 13.7609112, "tags": {"ele": "524", "name": "Sirsk\u00e1 hora", "natural": "peak"}}, {"type": "node", "id": 2159905434, "lat": 49.9299398, "lon": 13.7721438, "tags": {"ele": "515.6", "name": "Str\u00e1\u017eov", "natural": "peak"}}, {"type": "node", "id": 2159918661, "lat": 49.9165517, "lon": 13.7437167, "tags": {"ele": "524", "name": "Br\u00e1h", "natural": "peak"}}, {"type": "node", "id": 2159918662, "lat": 49.9174533, "lon": 13.7852359, "tags": {"ele": "539", "name": "Mal\u00fd vr\u0161ek", "natural": "peak"}}, {"type": "node", "id": 2159918663, "lat": 49.9162623, "lon": 13.768487, "tags": {"ele": "584", "name": "Radost", "natural": "peak"}}, {"type": "node", "id": 2159918664, "lat": 49.917324, "lon": 13.7948603, "tags": {"ele": "617", "name": "T\u011bchov\u00edn", "natural": "peak", "wikidata": "Q12060201"}}, {"type": "node", "id": 2159918668, "lat": 49.9200355, "lon": 13.7671748, "tags": {"ele": "573", "name": "Vr\u00e1na", "natural": "peak"}}, {"type": "node", "id": 2377100887, "lat": 49.7556689, "lon": 13.701879, "tags": {"hiking": "yes", "information": "guidepost", "name": "Trho\u0148", "operator": "cz:K\u010cT", "ref": "RO144", "tourism": "information"}}, {"type": "node", "id": 2380472542, "lat": 49.7755257, "lon": 13.6663093, "tags": {"ele": "416", "hiking": "yes", "information": "guidepost", "name": "U Chejlavy", "operator": "cz:K\u010cT", "ref": "RO245", "tourism": "information"}}, {"type": "node", "id": 2380932195, "lat": 49.7853395, "lon": 13.6390657, "tags": {"ele": "440", "hiking": "yes", "information": "guidepost", "name": "Habr (osada)", "operator": "cz:K\u010cT", "ref": "RO190", "tourism": "information"}}, {"type": "node", "id": 2380932204, "lat": 49.7883309, "lon": 13.6476492, "tags": {"ele": "440", "hiking": "yes", "information": "guidepost", "name": "Habr (rybn\u00edk)", "operator": "cz:K\u010cT", "ref": "RO013", "tourism": "information"}}, {"type": "node", "id": 2384604052, "lat": 49.8685021, "lon": 13.7424566, "tags": {"source": "gps;survey;uhul:ortofoto", "tourism": "viewpoint"}}, {"type": "node", "id": 2392112295, "lat": 49.7889876, "lon": 13.6450914, "tags": {"ele": "438", "hiking": "yes", "information": "guidepost", "name": "Habr (u t\u00e1bo\u0159i\u0161t\u011b)", "operator": "cz:K\u010cT", "ref": "RO191", "tourism": "information"}}, {"type": "node", "id": 2584368666, "lat": 49.7706518, "lon": 13.6655599, "tags": {"ele": "513", "man_made": "survey_point", "name": "Vyd\u0159iduch", "natural": "peak", "source": "mavit Garmin Edge 705"}}, {"type": "node", "id": 2590595955, "lat": 49.7548118, "lon": 13.7306008, "tags": {"amenity": "shelter", "name": "Les\u00e1ck\u00e1 bouda", "source": "mavit Garmin Edge 705"}}, {"type": "node", "id": 2590595959, "lat": 49.7614675, "lon": 13.754319, "tags": {"ele": "619", "name": "Osi\u010dina", "natural": "peak", "source": "mavit Garmin Edge 705"}}, {"type": "node", "id": 2590595963, "lat": 49.7580178, "lon": 13.7591704, "tags": {"amenity": "shelter", "name": "Sen\u00edk", "source": "mavit Garmin Edge 705"}}, {"type": "node", "id": 2590595968, "lat": 49.7588511, "lon": 13.7040464, "tags": {"ele": "624", "name": "Trho\u0148", "natural": "peak", "wikidata": "Q23810458"}}, {"type": "node", "id": 2592096578, "lat": 49.7971703, "lon": 13.7159301, "tags": {"ele": "538", "name": "M\u00fdtsk\u00fd vrch", "natural": "peak", "source": "mavit GPS"}}, {"type": "node", "id": 2592096697, "lat": 49.8098124, "lon": 13.7262264, "tags": {"ele": "537", "hiking": "yes", "information": "guidepost", "name": "Pod Sirskou horou", "operator": "cz:K\u010cT", "ref": "RO224", "source": "mavit GPS", "tourism": "information"}}, {"type": "node", "id": 2592105780, "lat": 49.8142511, "lon": 13.7279511, "tags": {"ele": "593", "man_made": "survey_point", "name": "Sirsk\u00e1 hora", "natural": "peak", "source": "mavit GPS", "wikidata": "Q12054321"}}, {"type": "node", "id": 2592136590, "lat": 49.8468582, "lon": 13.7238912, "tags": {"destination": "Libil\u00edn;Lib\u0161tejn;Radnice;Zbiroh", "ele": "424", "hiking": "yes", "information": "guidepost", "name": "U Z\u00e1me\u010dku", "operator": "cz:K\u010cT", "ref": "RO155", "source": "mavit GPS", "tourism": "information"}}, {"type": "node", "id": 2592136591, "lat": 49.8471722, "lon": 13.7166063, "tags": {"ele": "446", "hiking": "yes", "information": "guidepost", "name": "Rovn\u00fd", "operator": "cz:K\u010cT", "ref": "RO272", "source": "mavit GPS", "tourism": "information"}}, {"type": "node", "id": 2592143973, "lat": 49.8103341, "lon": 13.6394273, "tags": {"ele": "638.6", "name": "Rump\u00e1l", "natural": "peak", "source": "cuzk:km"}}, {"type": "node", "id": 2595669084, "lat": 49.7743346, "lon": 13.6995227, "tags": {"ele": "425", "hiking": "yes", "information": "guidepost", "name": "Holoubkov (vlak)", "official_name": "Holoubkov (\u017dST)", "operator": "cz:K\u010cT", "ref": "RO246", "tourism": "information"}}, {"type": "node", "id": 2595669085, "lat": 49.7737266, "lon": 13.7195955, "tags": {"destination": "Rokycany;Holoubkov;Pod lesem u M\u00fdta", "ele": "450", "hiking": "yes", "information": "guidepost", "name": "Medov\u00fd \u00dajezd", "operator": "cz:K\u010cT", "ref": "RO247", "tourism": "information"}}, {"type": "node", "id": 2595669136, "lat": 49.7770133, "lon": 13.6865577, "tags": {"check_date": "2021-09-22", "information": "map", "tourism": "information"}}, {"type": "node", "id": 2595669137, "lat": 49.7770237, "lon": 13.686629, "tags": {"amenity": "shelter", "shelter_type": "picnic_shelter"}}, {"type": "node", "id": 2595686987, "lat": 49.7587113, "lon": 13.6462566, "tags": {"ele": "392", "hiking": "yes", "information": "guidepost", "name": "Svojkovice", "operator": "cz:K\u010cT", "ref": "RO243", "tourism": "information"}}, {"type": "node", "id": 2595722755, "lat": 49.8209342, "lon": 13.694481, "tags": {"ele": "654", "name": "\u010cih\u00e1tko", "natural": "peak", "source": "mavit Garmin Edge 705"}}, {"type": "node", "id": 2597506868, "lat": 49.8592747, "lon": 13.6672645, "tags": {"ele": "534", "hiking": "yes", "information": "guidepost", "name": "Babsk\u00e1 sk\u00e1la (odbo\u010dka)", "official_name": "Babsk\u00e1 sk\u00e1la (odb.)", "operator": "cz:K\u010cT", "ref": "RO015", "tourism": "information"}}, {"type": "node", "id": 2597506869, "lat": 49.8578158, "lon": 13.6666027, "tags": {"ele": "564", "hiking": "yes", "information": "guidepost", "name": "Babsk\u00e1 sk\u00e1la", "operator": "cz:K\u010cT", "ref": "RO016", "tourism": "information"}}, {"type": "node", "id": 2597506870, "lat": 49.8580435, "lon": 13.66665, "tags": {"board_type": "nature", "description": "Okol\u00edm Vejvanova - Babsk\u00e1 sk\u00e1la", "information": "board", "name": "Babsk\u00e1 sk\u00e1la", "ref": "4", "tourism": "information"}}, {"type": "node", "id": 2597506872, "lat": 49.8653334, "lon": 13.6643242, "tags": {"board_type": "history", "description": "Okol\u00edm Vejvanova - Babsk\u00e1 sk\u00e1la", "information": "board", "name": "Kul\u00e1dova vyhl\u00eddka", "ref": "6", "tourism": "information"}}, {"type": "node", "id": 2597506873, "lat": 49.8525387, "lon": 13.6676987, "tags": {"ele": "503", "hiking": "yes", "information": "guidepost", "name": "Pod Babskou sk\u00e1lou", "operator": "cz:K\u010cT", "ref": "RO270", "tourism": "information"}}, {"type": "node", "id": 2597506874, "lat": 49.8526956, "lon": 13.6678761, "tags": {"amenity": "shelter", "name": "Sn\u011b\u017en\u00e1 j\u00e1ma"}}, {"type": "node", "id": 2597506875, "lat": 49.8527229, "lon": 13.6679871, "tags": {"board_type": "plants", "description": "Okol\u00edm Vejvanova - Babsk\u00e1 sk\u00e1la", "information": "board", "name": "Sn\u011b\u017en\u00e1 j\u00e1ma", "ref": "2", "tourism": "information"}}, {"type": "node", "id": 2597506878, "lat": 49.8653617, "lon": 13.6643365, "tags": {"ele": "495", "hiking": "yes", "information": "guidepost", "name": "U Vejvanova", "operator": "cz:K\u010cT", "ref": "RO017", "tourism": "information"}}, {"type": "node", "id": 2597506886, "lat": 49.8463747, "lon": 13.6897552, "tags": {"ele": "526", "hiking": "yes", "information": "guidepost", "name": "Ko\u017eelu\u017eka", "operator": "cz:K\u010cT", "ref": "RO271", "tourism": "information"}}, {"type": "node", "id": 2597506966, "lat": 49.8653809, "lon": 13.6642774, "tags": {"amenity": "shelter", "shelter_type": "picnic_shelter"}}, {"type": "node", "id": 2597514650, "lat": 49.8695981, "lon": 13.6053657, "tags": {"ele": "500", "name": "Hr\u00e1dek", "natural": "peak"}}, {"type": "node", "id": 2597514688, "lat": 49.8753544, "lon": 13.6012611, "tags": {"ele": "468", "tourism": "viewpoint"}}, {"type": "node", "id": 2817620883, "lat": 49.896565, "lon": 13.6997943}, {"type": "node", "id": 2817620888, "lat": 49.8965943, "lon": 13.6999438}, {"type": "node", "id": 2817620889, "lat": 49.896595, "lon": 13.699779}, {"type": "node", "id": 2817620892, "lat": 49.896601, "lon": 13.699809}, {"type": "node", "id": 2817620896, "lat": 49.896629, "lon": 13.699795}, {"type": "node", "id": 2817620902, "lat": 49.896655, "lon": 13.699913}, {"type": "node", "id": 3215650063, "lat": 49.9487416, "lon": 13.7674322, "tags": {"information": "board", "name": "V Pasek\u00e1ch", "source": "survey;uhul:ortofoto", "tourism": "information"}}, {"type": "node", "id": 3233153779, "lat": 49.8214976, "lon": 13.7784195, "tags": {"amenity": "shelter", "shelter_type": "public_transport"}}, {"type": "node", "id": 3233153780, "lat": 49.8215651, "lon": 13.7786835, "tags": {"amenity": "shelter", "shelter_type": "public_transport"}}, {"type": "node", "id": 3233153793, "lat": 49.8226814, "lon": 13.7788014, "tags": {"amenity": "shelter", "shelter_type": "public_transport"}}, {"type": "node", "id": 3257148398, "lat": 49.8292531, "lon": 13.7972122, "tags": {"hiking": "yes", "information": "guidepost", "name": "T\u0159i Sudy", "operator": "cz:K\u010cT", "ref": "BE145;1017/33", "tourism": "information"}}, {"type": "node", "id": 3461248583, "lat": 49.8228722, "lon": 13.6659728, "tags": {"ele": "721", "name": "Rade\u010d", "natural": "peak", "wikidata": "Q12048525", "wikipedia": "cs:Rade\u010d (K\u0159ivokl\u00e1tsk\u00e1 vrchovina)"}}, {"type": "node", "id": 3732370934, "lat": 49.8014326, "lon": 13.6961882, "tags": {"hiking": "yes", "information": "guidepost", "name": "T\u011b\u0161kov", "operator": "cz:K\u010cT", "ref": "RO149", "tourism": "information"}}, {"type": "node", "id": 3732374857, "lat": 49.8268263, "lon": 13.7105142, "tags": {"ele": "490", "hiking": "yes", "information": "guidepost", "name": "Lhota pod Rad\u010dem", "operator": "cz:K\u010cT", "ref": "RO154", "tourism": "information"}}, {"type": "node", "id": 3732377408, "lat": 49.8413608, "lon": 13.7782028, "tags": {"ele": "430", "hiking": "yes", "information": "guidepost", "inscription": "U ml\u00fdna vila, kter\u00e1 pat\u0159ila J. V. Sl\u00e1dkovi", "name": "V \u010c\u00e1pu", "operator": "cz:K\u010cT", "ref": "RO200", "tourism": "information"}}, {"type": "node", "id": 3871089227, "lat": 49.7817626, "lon": 13.6522869, "tags": {"ele": "561", "name": "Chlum", "natural": "peak", "wikidata": "Q23821050"}}, {"type": "node", "id": 3904026279, "lat": 49.9135813, "lon": 13.7928284, "tags": {"natural": "peak"}}, {"type": "node", "id": 3904026319, "lat": 49.9102507, "lon": 13.7849128, "tags": {"name": "T\u00fd\u010dsk\u00fd vrch", "natural": "peak"}}, {"type": "node", "id": 3904037958, "lat": 49.9084088, "lon": 13.7706462, "tags": {"ele": "596", "name": "Kohoutov", "natural": "peak"}}, {"type": "node", "id": 3905957074, "lat": 49.9070378, "lon": 13.7501015, "tags": {"natural": "peak"}}, {"type": "node", "id": 3905957075, "lat": 49.9067073, "lon": 13.7521686, "tags": {"ele": "524", "name": "Buzov\u00e1", "natural": "peak"}}, {"type": "node", "id": 3905980944, "lat": 49.9110624, "lon": 13.7200601, "tags": {"tourism": "information"}}, {"type": "node", "id": 4052387684, "lat": 49.9514288, "lon": 13.7315302, "tags": {"natural": "peak"}}, {"type": "node", "id": 4052387686, "lat": 49.9506774, "lon": 13.7296138, "tags": {"ele": "468.3", "name": "\u010cern\u00e1 Skalka", "natural": "peak"}}, {"type": "node", "id": 4052387691, "lat": 49.9466667, "lon": 13.7147254, "tags": {"ele": "436", "natural": "peak"}}, {"type": "node", "id": 4072081970, "lat": 49.9512103, "lon": 13.73076, "tags": {"natural": "peak"}}, {"type": "node", "id": 4072081971, "lat": 49.9506847, "lon": 13.7296804, "tags": {"ele": "468", "name": "\u010cern\u00e1 skalka", "natural": "peak"}}, {"type": "node", "id": 4160825939, "lat": 49.8707762, "lon": 13.7739389, "tags": {"ele": "488", "hiking": "yes", "information": "guidepost", "name": "Na Star\u00e9m Zbiroze", "operator": "cz:K\u010cT", "ref": "RO305", "tourism": "information"}}, {"type": "node", "id": 4161848090, "lat": 49.8869057, "lon": 13.7700513, "tags": {"ele": "455", "hiking": "yes", "information": "guidepost", "name": "Na Ohrad\u011b", "operator": "cz:K\u010cT", "ref": "RO056", "tourism": "information"}}, {"type": "node", "id": 4161859426, "lat": 49.8649801, "lon": 13.7724648, "tags": {"ele": "408", "hiking": "yes", "information": "guidepost", "name": "Podzbiro\u017esk\u00fd rybn\u00edk", "operator": "cz:K\u010cT", "ref": "RO202", "tourism": "information"}}, {"type": "node", "id": 4161913607, "lat": 49.8634525, "lon": 13.7541182, "tags": {"ele": "460", "hiking": "yes", "information": "guidepost", "name": "Nad Franti\u0161kovem", "operator": "cz:K\u010cT", "ref": "RO020", "tourism": "information"}}, {"type": "node", "id": 4166007417, "lat": 49.8773977, "lon": 13.7251674, "tags": {"ele": "415", "hiking": "yes", "information": "guidepost", "name": "Draho\u0148\u016fv \u00dajezd", "operator": "cz:K\u010cT", "ref": "RO300", "tourism": "information"}}, {"type": "node", "id": 4166007418, "lat": 49.8666885, "lon": 13.7395443, "tags": {"ele": "495", "hiking": "yes", "information": "guidepost", "name": "Sv\u011btovina (rozcest\u00ed)", "official_name": "Sv\u011btovina (rozc.)", "operator": "cz:K\u010cT", "ref": "RO301", "tourism": "information"}}, {"type": "node", "id": 4166007419, "lat": 49.8919855, "lon": 13.7848915, "tags": {"ele": "500", "hiking": "yes", "information": "guidepost", "name": "U Svat\u00e9ho Petra", "operator": "cz:K\u010cT", "ref": "RO261", "short_name": "U Sv. Petra", "tourism": "information"}}, {"type": "node", "id": 4166959211, "lat": 49.8696744, "lon": 13.7607525, "tags": {"ele": "400", "hiking": "yes", "information": "guidepost", "name": "Franti\u0161kov", "operator": "cz:K\u010cT", "ref": "RO204", "tourism": "information"}}, {"type": "node", "id": 4166959212, "lat": 49.926815, "lon": 13.7390009, "tags": {"ele": "307", "hiking": "yes", "information": "guidepost", "name": "Jankovsk\u00fd ml\u00fdn", "operator": "cz:K\u010cT", "ref": "RO215", "tourism": "information"}}, {"type": "node", "id": 4166959214, "lat": 49.9433092, "lon": 13.7043173, "tags": {"ele": "392", "hiking": "yes", "information": "guidepost", "name": "Podmokly", "operator": "cz:K\u010cT", "ref": "RO259", "tourism": "information"}}, {"type": "node", "id": 4166959217, "lat": 49.8686674, "lon": 13.7939326, "tags": {"ele": "476", "hiking": "yes", "information": "guidepost", "name": "T\u00fd\u010dek", "operator": "cz:K\u010cT", "ref": "RO167", "tourism": "information"}}, {"type": "node", "id": 4167763990, "lat": 49.7893425, "lon": 13.6048194, "tags": {"hiking": "yes", "information": "guidepost", "name": "Pod \u010cihadlem", "operator": "cz:K\u010cT", "ref": "RO317", "tourism": "information"}}, {"type": "node", "id": 4188065059, "lat": 49.8368876, "lon": 13.7788893}, {"type": "node", "id": 4188065060, "lat": 49.8369029, "lon": 13.7789139}, {"type": "node", "id": 4188065061, "lat": 49.836932, "lon": 13.7788705}, {"type": "node", "id": 4188065062, "lat": 49.8369167, "lon": 13.7788459}, {"type": "node", "id": 4296854744, "lat": 49.8446429, "lon": 13.7912441, "tags": {"ele": "520", "name": "Borek", "natural": "peak"}}, {"type": "node", "id": 4296854934, "lat": 49.816728, "lon": 13.8004532, "tags": {"ele": "567", "name": "Ka\u0159\u00edzsk\u00e1 hora", "natural": "peak"}}, {"type": "node", "id": 4510199607, "lat": 49.7540526, "lon": 13.7669155, "tags": {"ele": "641", "name": "Ostr\u00fd vrch", "natural": "peak"}}, {"type": "node", "id": 4517226744, "lat": 49.8111403, "lon": 13.6194279, "tags": {"ele": "618.8", "name": "Hradi\u0161t\u011b", "natural": "peak"}}, {"type": "node", "id": 4517235001, "lat": 49.816235, "lon": 13.6375976, "tags": {"name": "\u010cern\u00e1 sk\u00e1la", "tourism": "viewpoint"}}, {"type": "node", "id": 4612312132, "lat": 49.8414587, "lon": 13.7537638, "tags": {"ele": "572", "name": "Bukov", "natural": "peak"}}, {"type": "node", "id": 4678508269, "lat": 49.8616797, "lon": 13.7450533, "tags": {"ele": "550", "hiking": "yes", "information": "guidepost", "name": "\u010certova sk\u00e1la", "operator": "cz:K\u010cT", "ref": "RO159", "tourism": "information"}}, {"type": "node", "id": 4678508270, "lat": 49.8623285, "lon": 13.7403361, "tags": {"ele": "500", "hiking": "yes", "information": "guidepost", "name": "\u010certova sk\u00e1la (rozcest\u00ed)", "official_name": "\u010certova sk\u00e1la (rozc.)", "operator": "cz:K\u010cT", "ref": "RO158", "tourism": "information"}}, {"type": "node", "id": 4687437875, "lat": 49.8923875, "lon": 13.7186979}, {"type": "node", "id": 4687437876, "lat": 49.892398, "lon": 13.7187573}, {"type": "node", "id": 4687437877, "lat": 49.8923756, "lon": 13.7187668}, {"type": "node", "id": 4687437878, "lat": 49.8923651, "lon": 13.7187075}, {"type": "node", "id": 4688895057, "lat": 49.8825594, "lon": 13.750262, "tags": {"ele": "372", "hiking": "yes", "information": "guidepost", "name": "P\u0159\u00edsednice", "operator": "cz:K\u010cT", "ref": "RO206", "tourism": "information"}}, {"type": "node", "id": 4688901815, "lat": 49.882324, "lon": 13.7498042, "tags": {"board_type": "nature", "information": "board", "map_size": "region", "map_type": "scheme", "name": "P\u0159\u00edsednice", "operator": "M\u011b\u00da Zbiroh", "tourism": "information"}}, {"type": "node", "id": 4707037907, "lat": 49.8132782, "lon": 13.8000219, "tags": {"ele": "506", "hiking": "yes", "information": "guidepost", "name": "Ka\u0159\u00edzek", "operator": "cz:K\u010cT", "ref": "RO172", "tourism": "information"}}, {"type": "node", "id": 4740656521, "lat": 49.8564869, "lon": 13.7269445, "tags": {"ele": "395", "hiking": "yes", "information": "guidepost", "name": "Chot\u011bt\u00edn", "operator": "cz:K\u010cT", "ref": "RO156", "tourism": "information"}}, {"type": "node", "id": 4830935344, "lat": 49.9472133, "lon": 13.7493474, "tags": {"description": "Skaln\u00ed pr\u016frva Zbiro\u017esk\u00e9ho potoka. Sou\u010d\u00e1st CHPV Skryjsk\u00e9 kambrium.", "ele": "270", "hiking": "yes", "information": "guidepost", "name": "Skryjsk\u00e9 jez\u00edrko", "operator": "cz:K\u010cT", "ref": "RO218", "tourism": "information"}}, {"type": "node", "id": 4830935357, "lat": 49.9470353, "lon": 13.7494082, "tags": {"natural": "peak"}}, {"type": "node", "id": 4831102846, "lat": 49.909128, "lon": 13.7128357, "tags": {"ele": "403", "hiking": "yes", "information": "guidepost", "name": "U pomn\u00ed\u010dku", "operator": "cz:K\u010cT", "ref": "RO294", "tourism": "information"}}, {"type": "node", "id": 4831102847, "lat": 49.9180996, "lon": 13.6963903, "tags": {"ele": "398", "hiking": "yes", "information": "guidepost", "name": "Mle\u010dice", "operator": "cz:K\u010cT", "ref": "RO293", "tourism": "information"}}, {"type": "node", "id": 4840745994, "lat": 49.7891818, "lon": 13.7351132, "tags": {"information": "yes", "tourism": "information"}}, {"type": "node", "id": 4852624218, "lat": 49.7837613, "lon": 13.7403772, "tags": {"tourism": "information"}}, {"type": "node", "id": 4975473582, "lat": 49.8984141, "lon": 13.7119001, "tags": {"ele": "489", "name": "Chlumec", "natural": "peak", "source": "cuzk:km"}}, {"type": "node", "id": 4975473584, "lat": 49.9013505, "lon": 13.7197257, "tags": {"ele": "491.6", "man_made": "survey_point", "natural": "peak", "source": "cuzk:km"}}, {"type": "node", "id": 4975473589, "lat": 49.8875766, "lon": 13.7361258, "tags": {"ele": "471", "natural": "peak", "source": "cuzk:km"}}, {"type": "node", "id": 4975473594, "lat": 49.8851364, "lon": 13.7140673, "tags": {"ele": "491", "natural": "peak", "source": "cuzk:km"}}, {"type": "node", "id": 4975473597, "lat": 49.88786, "lon": 13.7161916, "tags": {"ele": "485", "name": "H\u016frka", "natural": "peak", "source": "cuzk:km"}}, {"type": "node", "id": 4975502569, "lat": 49.8854704, "lon": 13.6904514, "tags": {"ele": "488", "name": "Kram\u00e1\u0159ka", "natural": "peak", "source": "cuzk:km"}}, {"type": "node", "id": 4975504132, "lat": 49.8870016, "lon": 13.7018804, "tags": {"ele": "492", "name": "Radlice", "natural": "peak", "source": "cuzk:km"}}, {"type": "node", "id": 4975504151, "lat": 49.8847777, "lon": 13.7079672, "tags": {"ele": "503", "natural": "peak", "source": "cuzk:km"}}, {"type": "node", "id": 4975522435, "lat": 49.872237, "lon": 13.6965494, "tags": {"ele": "497", "name": "Na H\u016frk\u00e1ch", "natural": "peak", "source": "cuzk:km"}}, {"type": "node", "id": 4975522440, "lat": 49.876368, "lon": 13.7485168, "tags": {"ele": "481", "name": "Hole\u010dek", "natural": "peak", "source": "cuzk:km"}}, {"type": "node", "id": 4975542937, "lat": 49.9026518, "lon": 13.6917245, "tags": {"ele": "467", "name": "\u010cih\u00e1tko", "natural": "peak"}}, {"type": "node", "id": 4977294533, "lat": 49.8870086, "lon": 13.74302, "tags": {"ele": "487", "name": "Mat\u010dina hora", "natural": "peak"}}, {"type": "node", "id": 4977294534, "lat": 49.89351, "lon": 13.7491924, "tags": {"ele": "512", "natural": "peak", "source": "cuzk:km"}}, {"type": "node", "id": 4977294536, "lat": 49.8947974, "lon": 13.7461405, "tags": {"ele": "511", "natural": "peak", "source": "cuzk:km"}}, {"type": "node", "id": 4977294537, "lat": 49.8974161, "lon": 13.7464931, "tags": {"ele": "529.6", "name": "U\u0161\u00e1k", "name:cs": "U\u0161\u00e1k", "natural": "peak", "source": "cuzk:km"}}, {"type": "node", "id": 4977294542, "lat": 49.8813454, "lon": 13.7663525, "tags": {"ele": "532", "name": "Bab\u00ed sk\u00e1la", "natural": "peak", "source": "cuzk:km"}}, {"type": "node", "id": 5042728139, "lat": 49.8590947, "lon": 13.7690579}, {"type": "node", "id": 5042728140, "lat": 49.8585361, "lon": 13.769334}, {"type": "node", "id": 5052002354, "lat": 49.869317, "lon": 13.6202318, "tags": {"ele": "502", "name": "Rovni\u010dka", "natural": "peak"}}, {"type": "node", "id": 5054497373, "lat": 49.7979513, "lon": 13.6063122, "tags": {"ele": "578.8", "name": "U Ro\u017enova lomu", "natural": "peak"}}, {"type": "node", "id": 5054502087, "lat": 49.7662452, "lon": 13.6300056, "tags": {"ele": "425.1", "name": "Na Vr\u0161\u00edch", "natural": "peak"}}, {"type": "node", "id": 5054512483, "lat": 49.7608381, "lon": 13.6012071, "tags": {"ele": "405", "natural": "peak"}}, {"type": "node", "id": 5169757564, "lat": 49.9013683, "lon": 13.719245, "tags": {"ele": "492", "hiking": "yes", "information": "guidepost", "inscription": "Lesn\u00ed kaple z\u00a0roku 1738, nov\u011b opravena.", "name": "Svat\u00fd Vojt\u011bch", "operator": "cz:K\u010cT", "ref": "RO297", "tourism": "information"}}, {"type": "node", "id": 5171683607, "lat": 49.9071895, "lon": 13.728729, "tags": {"board_type": "nature", "information": "board", "map_size": "region", "map_type": "scheme", "name": "Ostrovec-Lhotka", "operator": "M\u011b\u00da Zbiroh", "tourism": "information"}}, {"type": "node", "id": 5181240048, "lat": 49.858789, "lon": 13.7603056}, {"type": "node", "id": 5181240049, "lat": 49.8588045, "lon": 13.7603178}, {"type": "node", "id": 5181240050, "lat": 49.8588216, "lon": 13.7603107}, {"type": "node", "id": 5181240051, "lat": 49.8588292, "lon": 13.7602872}, {"type": "node", "id": 5181240052, "lat": 49.8588228, "lon": 13.7602596}, {"type": "node", "id": 5181240053, "lat": 49.8588068, "lon": 13.7602494}, {"type": "node", "id": 5181240054, "lat": 49.8587908, "lon": 13.7602585}, {"type": "node", "id": 5181240055, "lat": 49.8587842, "lon": 13.7602787}, {"type": "node", "id": 5214237618, "lat": 49.8683103, "lon": 13.7423236, "tags": {"ele": "560", "hiking": "yes", "information": "guidepost", "name": "Sv\u011btovina", "operator": "cz:K\u010cT", "ref": "RO302", "tourism": "information"}}, {"type": "node", "id": 5214271578, "lat": 49.8617218, "lon": 13.7453316, "tags": {"ele": "566", "name": "\u010certova sk\u00e1la", "natural": "peak"}}, {"type": "node", "id": 5214271602, "lat": 49.8692338, "lon": 13.6923763, "tags": {"ele": "452", "hiking": "yes", "information": "guidepost", "name": "Sebe\u010dice", "operator": "cz:K\u010cT", "ref": "RO019", "tourism": "information"}}, {"type": "node", "id": 5214277210, "lat": 49.8682611, "lon": 13.7423266, "tags": {"ele": "560", "name": "Sv\u011btovina", "natural": "peak", "source": "knowledge;uhul:ortofoto", "tourism": "viewpoint", "wikidata": "Q18250997", "wikipedia": "cs:Sv\u011btovina"}}, {"type": "node", "id": 5226089727, "lat": 49.82346, "lon": 13.6880131, "tags": {"ele": "670", "hiking": "yes", "information": "guidepost", "name": "Hrad (odbo\u010dka)", "official_name": "Hrad (odb.)", "operator": "cz:K\u010cT", "ref": "RO152", "tourism": "information"}}, {"type": "node", "id": 5226089728, "lat": 49.822051, "lon": 13.6818919, "tags": {"ele": "654", "hiking": "yes", "information": "guidepost", "name": "Rade\u010d (v\u00fdchod)", "operator": "cz:K\u010cT", "ref": "RO151", "tourism": "information"}}, {"type": "node", "id": 5226374929, "lat": 49.8239389, "lon": 13.687731, "tags": {"description": "T\u00e9\u017e Mitervald. Zalo\u017een roku 1343 Old\u0159ichem z\u00a0Litic. Zpustl za\u010d\u00e1tkem 15. stolet\u00ed.", "ele": "680", "hiking": "yes", "information": "guidepost", "name": "Hrad (vyhl.)", "operator": "cz:K\u010cT", "ref": "RO153", "tourism": "information"}}, {"type": "node", "id": 5300525810, "lat": 49.8271666, "lon": 13.7108079}, {"type": "node", "id": 5300525811, "lat": 49.8271471, "lon": 13.7108521}, {"type": "node", "id": 5300525812, "lat": 49.8271753, "lon": 13.7108819}, {"type": "node", "id": 5300525813, "lat": 49.8271949, "lon": 13.7108377}, {"type": "node", "id": 5311248128, "lat": 49.7962003, "lon": 13.7277551, "tags": {"ele": "516", "hiking": "yes", "information": "guidepost", "name": "Svat\u00fd Vojt\u011bch", "operator": "cz:K\u010cT", "ref": "RO223", "tourism": "information"}}, {"type": "node", "id": 5311617639, "lat": 49.8219921, "lon": 13.7387949, "tags": {"ele": "496", "hiking": "yes", "information": "guidepost", "name": "Sir\u00e1", "operator": "cz:K\u010cT", "ref": "RO226", "tourism": "information"}}, {"type": "node", "id": 5311653093, "lat": 49.8215145, "lon": 13.65062, "tags": {"ele": "610", "hiking": "yes", "information": "guidepost", "name": "B\u00edl\u00e1 sk\u00e1la (vyhl.)", "operator": "cz:K\u010cT", "ref": "RO506", "tourism": "information"}}, {"type": "node", "id": 5311680079, "lat": 49.8111537, "lon": 13.617798, "tags": {"hiking": "yes", "information": "guidepost", "name": "Hradi\u0161t\u011b (vyhl\u00eddka)", "official_name": "Hradi\u0161t\u011b (vyhl.)", "operator": "cz:K\u010cT", "ref": "RO121", "tourism": "information"}}, {"type": "node", "id": 5352679574, "lat": 49.905193, "lon": 13.6908542, "tags": {"board_type": "nature", "information": "board", "name": "P\u0159\u00edrodn\u00ed rezervace V\u00a0Hor\u00e1ch", "source": "survey", "tourism": "information"}}, {"type": "node", "id": 5352739890, "lat": 49.9068788, "lon": 13.7106833, "tags": {"hiking": "yes", "information": "guidepost", "name": "Pod \u010c\u00e1povou horou", "operator": "cz:K\u010cT", "source": "survey", "tourism": "information"}}, {"type": "node", "id": 5357292552, "lat": 49.8590007, "lon": 13.7688073}, {"type": "node", "id": 5357292553, "lat": 49.8590064, "lon": 13.7688294}, {"type": "node", "id": 5357292554, "lat": 49.8589637, "lon": 13.7688562}, {"type": "node", "id": 5357292555, "lat": 49.8589579, "lon": 13.7688342}, {"type": "node", "id": 5357292556, "lat": 49.859082, "lon": 13.7690678}, {"type": "node", "id": 5357292557, "lat": 49.8591047, "lon": 13.7691379}, {"type": "node", "id": 5357292558, "lat": 49.8591174, "lon": 13.769128}, {"type": "node", "id": 5357292559, "lat": 49.8585403, "lon": 13.7693556}, {"type": "node", "id": 5357292560, "lat": 49.858503, "lon": 13.769373}, {"type": "node", "id": 5357292561, "lat": 49.8584988, "lon": 13.7693514}, {"type": "node", "id": 5390169288, "lat": 49.85254, "lon": 13.7525651}, {"type": "node", "id": 5390169289, "lat": 49.8525491, "lon": 13.7526216}, {"type": "node", "id": 5390169290, "lat": 49.8525194, "lon": 13.7526331}, {"type": "node", "id": 5390169291, "lat": 49.8525103, "lon": 13.7525766}, {"type": "node", "id": 5646334696, "lat": 49.9029527, "lon": 13.7382005, "tags": {"ele": "333", "hiking": "yes", "information": "guidepost", "name": "N\u011bmc\u016fv (Koz\u016fv) ml\u00fdn", "operator": "cz:K\u010cT", "ref": "RO211", "source": "survey", "tourism": "information"}}, {"type": "node", "id": 5646344426, "lat": 49.9107075, "lon": 13.7385937, "tags": {"ele": "320", "hiking": "yes", "information": "guidepost", "name": "Terez\u00edn", "operator": "cz:K\u010cT", "ref": "RO212", "source": "survey", "tourism": "information"}}, {"type": "node", "id": 5646622855, "lat": 49.8199036, "lon": 13.6358856, "tags": {"ele": "523", "hiking": "yes", "information": "guidepost", "name": "Sklen\u00e1 Hu\u0165", "operator": "cz:K\u010cT", "ref": "RO254", "tourism": "information"}}, {"type": "node", "id": 5647417034, "lat": 49.9428696, "lon": 13.7434936, "tags": {"ele": "280", "hiking": "yes", "information": "guidepost", "name": "Slap (h\u00e1jovna)", "official_name": "Slap (h\u00e1j.)", "operator": "cz:K\u010cT", "ref": "RO217", "tourism": "information"}}, {"type": "node", "id": 5796158882, "lat": 49.792214, "lon": 13.6574351, "tags": {"ele": "485", "hiking": "yes", "information": "guidepost", "name": "Sloupek", "operator": "cz:K\u010cT", "ref": "RO194", "tourism": "information"}}, {"type": "node", "id": 6021744320, "lat": 49.8224817, "lon": 13.670743, "tags": {"ele": "718", "hiking": "yes", "information": "guidepost", "name": "Brno (vrchol)", "name:lt": "Brno", "operator": "cz:K\u010cT", "ref": "RO256", "tourism": "information"}}, {"type": "node", "id": 6205177312, "lat": 49.8222115, "lon": 13.7790303}, {"type": "node", "id": 6205177313, "lat": 49.8222167, "lon": 13.7790061}, {"type": "node", "id": 6205177314, "lat": 49.8221006, "lon": 13.7789467}, {"type": "node", "id": 6205177315, "lat": 49.8220955, "lon": 13.7789709}, {"type": "node", "id": 6205177316, "lat": 49.8221515, "lon": 13.7787671}, {"type": "node", "id": 6205177317, "lat": 49.8221567, "lon": 13.7787429}, {"type": "node", "id": 6205177318, "lat": 49.8220406, "lon": 13.7786835}, {"type": "node", "id": 6205177319, "lat": 49.8220354, "lon": 13.7787077}, {"type": "node", "id": 6205190439, "lat": 49.7550242, "lon": 13.6560317}, {"type": "node", "id": 6205190440, "lat": 49.7550096, "lon": 13.6558985}, {"type": "node", "id": 6205190441, "lat": 49.7549897, "lon": 13.6559038}, {"type": "node", "id": 6205190442, "lat": 49.7550043, "lon": 13.656037}, {"type": "node", "id": 6205190443, "lat": 49.75517, "lon": 13.6559909}, {"type": "node", "id": 6205190444, "lat": 49.7551554, "lon": 13.6558577}, {"type": "node", "id": 6205190445, "lat": 49.7551355, "lon": 13.6558629}, {"type": "node", "id": 6205190446, "lat": 49.7551501, "lon": 13.6559961}, {"type": "node", "id": 6273786180, "lat": 49.8255083, "lon": 13.6531936, "tags": {"ele": "660", "hiking": "yes", "information": "guidepost", "name": "Rade\u010d (z\u00e1pad)", "operator": "cz:K\u010cT", "ref": "RO225", "tourism": "information"}}, {"type": "node", "id": 6273786181, "lat": 49.8228715, "lon": 13.6523734, "tags": {"ele": "610", "hiking": "yes", "information": "guidepost", "name": "B\u00edl\u00e1 sk\u00e1la (odbo\u010dka)", "official_name": "B\u00edl\u00e1 sk\u00e1la (odb.)", "operator": "cz:K\u010cT", "ref": "RO401", "tourism": "information"}}, {"type": "node", "id": 6384904923, "lat": 49.9135405, "lon": 13.6615795, "tags": {"ele": "448", "hiking": "yes", "information": "guidepost", "name": "Pra\u0161n\u00fd \u00dajezd", "operator": "cz:K\u010cT", "ref": "RO292", "tourism": "information"}}, {"type": "node", "id": 6384959049, "lat": 49.9476369, "lon": 13.646763, "tags": {"ele": "280", "hiking": "yes", "information": "guidepost", "name": "Kostel Petra a Pavla odbo\u010dka", "operator": "cz:K\u010cT", "ref": "PS386", "tourism": "information"}}, {"type": "node", "id": 6384959050, "lat": 49.9485759, "lon": 13.6241734, "tags": {"ele": "332", "hiking": "yes", "information": "guidepost", "name": "Hlince", "operator": "cz:K\u010cT", "ref": "PS385", "tourism": "information"}}, {"type": "node", "id": 6384959059, "lat": 49.9383918, "lon": 13.6558717, "tags": {"hiking": "yes", "information": "guidepost", "name": "vyhl\u00eddka na plazu", "operator": "cz:K\u010cT", "ref": "RO502", "tourism": "information"}}, {"type": "node", "id": 6724854448, "lat": 49.822244, "lon": 13.7824417, "tags": {"board_type": "notice", "information": "board", "tourism": "information"}}, {"type": "node", "id": 6876172240, "lat": 49.8011111, "lon": 13.7690149, "tags": {"information": "board", "tourism": "information"}}, {"type": "node", "id": 7292415885, "lat": 49.9194644, "lon": 13.7346643, "tags": {"ele": "314", "hiking": "yes", "information": "guidepost", "name": "Ostroveck\u00fd ml\u00fdn", "operator": "cz:K\u010cT", "ref": "RO213", "tourism": "information"}}, {"type": "node", "id": 7292415886, "lat": 49.9240993, "lon": 13.7353885, "tags": {"hiking": "yes", "information": "guidepost", "name": "Pod Ostrovcem", "operator": "cz:K\u010cT", "tourism": "information"}}, {"type": "node", "id": 7293734784, "lat": 49.8922901, "lon": 13.7206197, "tags": {"ele": "406", "hiking": "yes", "information": "guidepost", "name": "T\u0159ebnu\u0161ka", "operator": "cz:K\u010cT", "ref": "RO298", "tourism": "information"}}, {"type": "node", "id": 7293790764, "lat": 49.8428882, "lon": 13.7375128, "tags": {"ele": "480", "hiking": "yes", "information": "guidepost", "name": "Pl\u00edskov", "operator": "cz:K\u010cT", "ref": "RO274", "tourism": "information"}}, {"type": "node", "id": 7293790766, "lat": 49.8619459, "lon": 13.7400877, "tags": {"hiking": "yes", "information": "guidepost", "name": "vyhl\u00eddka ve skal\u00e1ch", "operator": "cz:K\u010cT", "ref": "RO503", "tourism": "information"}}, {"type": "node", "id": 7297620143, "lat": 49.8229158, "lon": 13.7789999, "tags": {"hiking": "yes", "information": "guidepost", "name": "Ka\u0159ez - \u017est", "operator": "cz:K\u010cT", "ref": "RO310", "tourism": "information"}}, {"type": "node", "id": 7301377685, "lat": 49.7914502, "lon": 13.6513817, "tags": {"ele": "446", "hiking": "yes", "information": "guidepost", "name": "Habr ATC", "operator": "cz:K\u010cT", "ref": "RO266", "tourism": "information"}}, {"type": "node", "id": 7301377686, "lat": 49.7816312, "lon": 13.6523098, "tags": {"ele": "561", "hiking": "yes", "information": "guidepost", "name": "Chlum", "operator": "cz:K\u010cT", "ref": "RO002", "tourism": "information"}}, {"type": "node", "id": 7301441575, "lat": 49.7554324, "lon": 13.6571351, "tags": {"ele": "396", "hiking": "yes", "information": "guidepost", "name": "Svojkovice \u017est", "operator": "cz:K\u010cT", "ref": "RO328", "tourism": "information"}}, {"type": "node", "id": 7342731634, "lat": 49.8269718, "lon": 13.7105458, "tags": {"board_type": "nature", "information": "board", "name": "P\u0159\u00edrodn\u00ed Park Radec", "tourism": "information"}}, {"type": "node", "id": 7516831785, "lat": 49.8157644, "lon": 13.7572489, "tags": {"board_type": "history", "information": "board", "name": "Rokycansk\u00e9 kuli\u010dky", "tourism": "information"}}, {"type": "node", "id": 7516831786, "lat": 49.8182111, "lon": 13.7616921, "tags": {"board_type": "nature", "information": "board", "name": "Cekovsk\u00fd rybn\u00edk", "tourism": "information"}}, {"type": "node", "id": 7538686827, "lat": 49.7897928, "lon": 13.7369007, "tags": {"ele": "440", "hiking": "yes", "information": "guidepost", "name": "M\u00fdto", "operator": "cz:K\u010cT", "ref": "RO177", "tourism": "information"}}, {"type": "node", "id": 7538686868, "lat": 49.8214829, "lon": 13.6506374, "tags": {"ele": "612", "name": "B\u00edl\u00e1 sk\u00e1la", "natural": "peak"}}, {"type": "node", "id": 7618727350, "lat": 49.9434621, "lon": 13.7044419, "tags": {"information": "map", "map_size": "region", "map_type": "topo", "tourism": "information"}}, {"type": "node", "id": 7618727357, "lat": 49.8939692, "lon": 13.6733477, "tags": {"information": "map", "map_size": "region", "map_type": "topo", "tourism": "information"}}, {"type": "node", "id": 7618727366, "lat": 49.8757252, "lon": 13.6306362, "tags": {"information": "map", "map_size": "region", "map_type": "topo", "tourism": "information"}}, {"type": "node", "id": 7618727374, "lat": 49.8204823, "lon": 13.6331561, "tags": {"information": "map", "map_size": "region", "map_type": "topo", "tourism": "information"}}, {"type": "node", "id": 7620908586, "lat": 49.8951337, "lon": 13.6199489, "tags": {"information": "map", "map_size": "region", "map_type": "topo", "tourism": "information"}}, {"type": "node", "id": 7620908598, "lat": 49.9131018, "lon": 13.6317681, "tags": {"information": "map", "map_size": "region", "map_type": "topo", "tourism": "information"}}, {"type": "node", "id": 7620908605, "lat": 49.9280924, "lon": 13.6191764, "tags": {"information": "map", "map_size": "region", "map_type": "topo", "tourism": "information"}}, {"type": "node", "id": 7661156452, "lat": 49.7575974, "lon": 13.6180613}, {"type": "node", "id": 7661156453, "lat": 49.7575831, "lon": 13.6179412}, {"type": "node", "id": 7747144293, "lat": 49.8019198, "lon": 13.7812433, "tags": {"board_type": "nature", "information": "board", "tourism": "information"}}, {"type": "node", "id": 7747144305, "lat": 49.8227609, "lon": 13.7613642, "tags": {"amenity": "shelter", "bench": "yes", "shelter_type": "picnic_shelter"}}, {"type": "node", "id": 7747144341, "lat": 49.821156, "lon": 13.7685701, "tags": {"board_type": "technology", "information": "board", "name": "L\u00e1vka D5", "operator": "Obec Cekov", "tourism": "information"}}, {"type": "node", "id": 7747568626, "lat": 49.8217258, "lon": 13.7676148, "tags": {"ele": "481", "name": "Na Pr\u016fhon\u011b", "natural": "peak"}}, {"type": "node", "id": 7775841702, "lat": 49.8208208, "lon": 13.7843344, "tags": {"direction": "160", "information": "board", "tourism": "information"}}, {"type": "node", "id": 7778154969, "lat": 49.866015, "lon": 13.601317, "tags": {"tourism": "viewpoint"}}, {"type": "node", "id": 7792688278, "lat": 49.8761966, "lon": 13.6300568}, {"type": "node", "id": 7792688279, "lat": 49.8761896, "lon": 13.630092}, {"type": "node", "id": 7792688280, "lat": 49.8762233, "lon": 13.6301084}, {"type": "node", "id": 7792688281, "lat": 49.8762304, "lon": 13.6300731}, {"type": "node", "id": 7793844854, "lat": 49.9426409, "lon": 13.7469235, "tags": {"board_type": "nature", "description": "PR Jez\u00edrka", "information": "board", "name": "Skryjsk\u00e9 p\u0159\u00edrodn\u00ed vodop\u00e1dy", "tourism": "information"}}, {"type": "node", "id": 7793844861, "lat": 49.822669, "lon": 13.6706985, "tags": {"board_type": "history", "information": "board", "name": "Trigonometri\u010dk\u00fd bod \u010cesk\u00e9 st\u00e1tn\u00ed trigonometrick\u00e9 s\u00edt\u011b", "tourism": "information"}}, {"type": "node", "id": 7793844862, "lat": 49.8234733, "lon": 13.6878443, "tags": {"board_type": "history", "information": "board", "name": "Hrad Na Rad\u010di", "tourism": "information"}}, {"type": "node", "id": 7796589617, "lat": 49.8143234, "lon": 13.7815494, "tags": {"information": "board", "tourism": "information"}}, {"type": "node", "id": 7823087101, "lat": 49.9401295, "lon": 13.6639386, "tags": {"amenity": "shelter"}}, {"type": "node", "id": 7823630849, "lat": 49.8361912, "lon": 13.7849415, "tags": {"tourism": "attraction"}}, {"type": "node", "id": 7829904968, "lat": 49.858654, "lon": 13.7619259, "tags": {"tourism": "viewpoint"}}, {"type": "node", "id": 7969380869, "lat": 49.8246164, "lon": 13.7827664}, {"type": "node", "id": 7969550312, "lat": 49.822717, "lon": 13.7788151}, {"type": "node", "id": 8008710105, "lat": 49.858039, "lon": 13.6103018, "tags": {"board_type": "nature", "information": "board", "name": "Fauna a flora radnick\u00fdch rybn\u00edk\u016f", "tourism": "information"}}, {"type": "node", "id": 8045121956, "lat": 49.8425933, "lon": 13.7489507, "tags": {"ele": "508", "fixme": "position somewhere near this crossing, its existence guessed from info on other guideposts", "hiking": "yes", "information": "guidepost", "name": "Pod Bukovem", "operator": "cz:K\u010cT", "ref": "RO227", "tourism": "information"}}, {"type": "node", "id": 8045122146, "lat": 49.8483036, "lon": 13.6089353, "tags": {"access": "yes", "fee": "no", "tourism": "viewpoint"}}, {"type": "node", "id": 8251516005, "lat": 49.8968545, "lon": 13.7467054, "tags": {"ele": "520.7", "natural": "peak"}}, {"type": "node", "id": 8267034452, "lat": 49.7961595, "lon": 13.7279241, "tags": {"information": "map", "name": "Mikroregion Horn\u00ed Berounka", "tourism": "information"}}, {"type": "node", "id": 8267034456, "lat": 49.7838689, "lon": 13.7401307, "tags": {"information": "map", "tourism": "information"}}, {"type": "node", "id": 8354879615, "lat": 49.8215396, "lon": 13.782712, "tags": {"information": "map", "tourism": "information"}}, {"type": "node", "id": 8372578526, "lat": 49.8011086, "lon": 13.7677647, "tags": {"hiking": "yes", "information": "guidepost", "operator": "cz:K\u010cT", "ref": "RO505", "tourism": "information"}}, {"type": "node", "id": 8592433809, "lat": 49.7900176, "lon": 13.7668694, "tags": {"board_type": "welcome_sign", "information": "board", "name": "Svat\u00fd \u0160t\u011bp\u00e1n", "tourism": "information"}}, {"type": "node", "id": 8592433813, "lat": 49.8133757, "lon": 13.8001931, "tags": {"information": "map", "tourism": "information"}}, {"type": "node", "id": 8592501017, "lat": 49.8131739, "lon": 13.7993813, "tags": {"information": "board", "tourism": "information"}}, {"type": "node", "id": 8906834880, "lat": 49.8227379, "lon": 13.7785924, "tags": {"information": "board", "name": "Mikroregion Zbiro\u017esko", "ref": "none", "tourism": "information"}}, {"type": "node", "id": 9095190826, "lat": 49.8725988, "lon": 13.6761332, "tags": {"amenity": "shelter"}}, {"type": "node", "id": 9201921167, "lat": 49.9498514, "lon": 13.7504777, "tags": {"information": "board", "name": "Skryjsk\u00e9 p\u0159\u00edrodn\u00ed vodop\u00e1dy", "tourism": "information"}}, {"type": "node", "id": 9201924851, "lat": 49.9428434, "lon": 13.7434434, "tags": {"information": "map", "name": "Nau\u010dn\u00e9 stezky K\u0159ivokl\u00e1tska", "tourism": "information"}}, {"type": "node", "id": 9201924852, "lat": 49.9428175, "lon": 13.743379, "tags": {"information": "board", "name": "Lesnick\u00fd park K\u0159ivokl\u00e1tsko \u010d. 16: Podmokelsk\u00fd ml\u00fdn", "tourism": "information"}}, {"type": "node", "id": 9201953424, "lat": 49.9453666, "lon": 13.7653821, "tags": {"information": "board", "name": "Lesnick\u00fd park K\u0159ivokl\u00e1tsko \u010d. 9: U Ru\u010di\u010dek", "tourism": "information"}}, {"type": "node", "id": 9232434269, "lat": 49.9051713, "lon": 13.7239291, "tags": {"tourism": "viewpoint"}}, {"type": "node", "id": 9284697835, "lat": 49.8571453, "lon": 13.6067064, "tags": {"amenity": "shelter", "shelter_type": "public_transport"}}, {"type": "node", "id": 9573159219, "lat": 49.8200523, "lon": 13.7868567, "tags": {"board_type": "information", "direction": "110", "information": "board", "tourism": "information"}}, {"type": "node", "id": 9586497897, "lat": 49.9352018, "lon": 13.7363324, "tags": {"ele": "503.5", "name": "L\u00edpa", "natural": "peak"}}, {"type": "node", "id": 9586497898, "lat": 49.9511724, "lon": 13.7928138, "tags": {"ele": "524.1", "natural": "peak"}}, {"type": "node", "id": 10017545406, "lat": 49.9420108, "lon": 13.6486542, "tags": {"information": "map", "name": "Cyklotrasy mikroregionu Kralovicko", "tourism": "information"}}, {"type": "node", "id": 10017564540, "lat": 49.9475253, "lon": 13.6554856, "tags": {"information": "board", "name": "Kostel sv. Petra a Pavla", "tourism": "information"}}, {"type": "node", "id": 10304628267, "lat": 49.8485723, "lon": 13.6081511, "tags": {"access": "yes", "fee": "no", "tourism": "viewpoint"}}, {"type": "node", "id": 10767922888, "lat": 49.8638742, "lon": 13.6086384, "tags": {"information": "map", "name": "Cykloresort Radnicko", "tourism": "information"}}, {"type": "node", "id": 10804371403, "lat": 49.842897, "lon": 13.7276553, "tags": {"ele": "499", "name": "Hol\u00fd vrch", "natural": "peak"}}, {"type": "node", "id": 10804377860, "lat": 49.8366648, "lon": 13.7375897, "tags": {"ele": "530", "name": "Pe\u010di\u0161t\u011b", "natural": "peak"}}, {"type": "node", "id": 10804382901, "lat": 49.8354242, "lon": 13.7455344, "tags": {"ele": "554", "name": "Ba\u010dinec", "natural": "peak"}}, {"type": "node", "id": 10804510978, "lat": 49.8528427, "lon": 13.6801027, "tags": {"ele": "604", "name": "Bechlov", "natural": "peak"}}, {"type": "node", "id": 10961642827, "lat": 49.7764413, "lon": 13.609031, "tags": {"amenity": "shelter", "shelter_type": "picnic_shelter"}}, {"type": "node", "id": 11007094548, "lat": 49.8594564, "lon": 13.6118436, "tags": {"board_type": "history", "information": "board", "name": "Nau\u010dn\u00e1 stezka Hyl\u00e1k\u016fv okruh", "tourism": "information"}}, {"type": "node", "id": 11007096244, "lat": 49.8580237, "lon": 13.6102688, "tags": {"information": "map", "name": "Cykloresort Radnicko", "tourism": "information"}}, {"type": "node", "id": 11017932294, "lat": 49.7940914, "lon": 13.7525267, "tags": {"bicycle": "yes", "hiking": "yes", "information": "map", "map_size": "region", "map_type": "hiking", "name": "Mikroregion Horn\u00ed Berounka, povod\u00ed Klabavy\u2013M\u00fdto", "tourism": "information"}}, {"type": "node", "id": 11186544495, "lat": 49.7737857, "lon": 13.6960705, "tags": {"amenity": "shelter", "shelter_type": "picnic_shelter"}}, {"type": "node", "id": 11186561841, "lat": 49.8131946, "lon": 13.7993472, "tags": {"amenity": "shelter", "shelter_type": "picnic_shelter"}}, {"type": "node", "id": 11186561845, "lat": 49.8557747, "lon": 13.7613476, "tags": {"information": "map", "tourism": "information"}}, {"type": "node", "id": 11186561860, "lat": 49.8580288, "lon": 13.7622251, "tags": {"board_type": "nature", "information": "board", "name": "Tis \u010derven\u00fd", "ref": "7", "tourism": "information"}}, {"type": "node", "id": 11186561861, "lat": 49.8580561, "lon": 13.7619786, "tags": {"board_type": "nature", "information": "board", "name": "Borovice \u010dern\u00e1", "ref": "8", "tourism": "information"}}, {"type": "node", "id": 11186561862, "lat": 49.8578727, "lon": 13.7634201, "tags": {"board_type": "nature", "information": "board", "name": "J\u00edrovec mad\u00e1l", "ref": "6", "tourism": "information"}}, {"type": "node", "id": 11186561863, "lat": 49.8578572, "lon": 13.7640999, "tags": {"board_type": "nature", "information": "board", "name": "Topol b\u00edl\u00fd", "ref": "5", "tourism": "information"}}, {"type": "node", "id": 11186561869, "lat": 49.859094, "lon": 13.7601003, "tags": {"board_type": "nature", "information": "board", "tourism": "information"}}, {"type": "node", "id": 11186596846, "lat": 49.8707533, "lon": 13.6516596, "tags": {"board_type": "history", "information": "board", "name": "D\u016fl Pistorius", "ref": "9", "tourism": "information"}}, {"type": "node", "id": 11186618253, "lat": 49.8711917, "lon": 13.6538944, "tags": {"board_type": "history", "information": "board", "name": "D\u011bdi\u010dn\u00e1 \u0161tola Vejvanov", "ref": "8", "tourism": "information"}}, {"type": "node", "id": 11186618255, "lat": 49.8629278, "lon": 13.6545612, "tags": {"board_type": "history", "information": "board", "name": "D\u016fl Prokop", "ref": "7", "tourism": "information"}}, {"type": "node", "id": 11186618258, "lat": 49.8622631, "lon": 13.6522346, "tags": {"board_type": "history", "information": "board", "name": "C\u00edsa\u0159sk\u00fd d\u016fl", "ref": "6", "tourism": "information"}}, {"type": "node", "id": 11186618259, "lat": 49.8649058, "lon": 13.6491916, "tags": {"board_type": "history", "information": "board", "name": "D\u016fl David", "ref": "5", "tourism": "information"}}, {"type": "node", "id": 11186618260, "lat": 49.8649097, "lon": 13.6491001, "tags": {"amenity": "shelter", "shelter_type": "picnic_shelter"}}, {"type": "node", "id": 11186618261, "lat": 49.8643083, "lon": 13.6444719, "tags": {"board_type": "history", "information": "board", "name": "D\u011bdi\u010dn\u00e1 \u0161tola Vejvanov", "ref": "8", "tourism": "information"}}, {"type": "node", "id": 11186618262, "lat": 49.8625379, "lon": 13.6458711, "tags": {"board_type": "history", "information": "board", "name": "D\u016fl Pokrok", "ref": "4", "tourism": "information"}}, {"type": "node", "id": 11186618263, "lat": 49.8632728, "lon": 13.6370461, "tags": {"board_type": "history", "information": "board", "name": "Zastaven\u00ed 1", "ref": "1", "tourism": "information"}}, {"type": "node", "id": 11186618264, "lat": 49.8632414, "lon": 13.6369958, "tags": {"amenity": "shelter", "shelter_type": "picnic_shelter"}}, {"type": "node", "id": 11186618265, "lat": 49.8649495, "lon": 13.6331853, "tags": {"board_type": "nature", "information": "board", "name": "D\u016fl Ferdinand", "ref": "2", "tourism": "information"}}, {"type": "node", "id": 11188786008, "lat": 49.8639364, "lon": 13.6085952, "tags": {"amenity": "shelter", "shelter_type": "picnic_shelter"}}, {"type": "node", "id": 11188786010, "lat": 49.8699901, "lon": 13.6055808, "tags": {"information": "map", "name": "Cykloresort Radnicko", "tourism": "information"}}, {"type": "node", "id": 11188786011, "lat": 49.8700039, "lon": 13.6056828, "tags": {"amenity": "shelter", "shelter_type": "picnic_shelter"}}, {"type": "node", "id": 11188787357, "lat": 49.8594194, "lon": 13.6118591, "tags": {"amenity": "shelter", "shelter_type": "picnic_shelter"}}, {"type": "node", "id": 11188787360, "lat": 49.8423017, "lon": 13.618949, "tags": {"board_type": "history", "description": "Nau\u010dn\u00e1 stezka Putov\u00e1n\u00ed s Dub\u00edky", "information": "board", "name": "\u0160kared\u00e1", "ref": "5", "tourism": "information"}}, {"type": "node", "id": 11188787384, "lat": 49.8467275, "lon": 13.643644, "tags": {"amenity": "shelter", "shelter_type": "picnic_shelter"}}, {"type": "node", "id": 11188787385, "lat": 49.8467437, "lon": 13.6437064, "tags": {"board_type": "history", "description": "Nau\u010dn\u00e1 stezka Putov\u00e1n\u00ed s Dub\u00edky", "information": "board", "name": "Obec Skomelno", "ref": "1", "tourism": "information"}}, {"type": "node", "id": 11188787386, "lat": 49.8443478, "lon": 13.641175, "tags": {"amenity": "shelter", "shelter_type": "picnic_shelter"}}, {"type": "node", "id": 11188787387, "lat": 49.8444322, "lon": 13.6412012, "tags": {"board_type": "history", "description": "Nau\u010dn\u00e1 stezka Putov\u00e1n\u00ed s Dub\u00edky", "information": "board", "name": "U Dubu", "ref": "2", "tourism": "information"}}, {"type": "node", "id": 11188787388, "lat": 49.8370312, "lon": 13.6401542, "tags": {"board_type": "history", "description": "Nau\u010dn\u00e1 stezka Putov\u00e1n\u00ed s Dub\u00edky", "information": "board", "name": "P\u0159\u00edrodn\u00ed park Rade\u010d", "ref": "3", "tourism": "information"}}, {"type": "node", "id": 11188787389, "lat": 49.8380748, "lon": 13.6224494, "tags": {"board_type": "history", "description": "Nau\u010dn\u00e1 stezka Putov\u00e1n\u00ed s Dub\u00edky", "information": "board", "name": "P\u0159\u00edv\u011btice, Skeln\u00e1 Hu\u0165", "ref": "4", "tourism": "information"}}, {"type": "node", "id": 11188807892, "lat": 49.8353345, "lon": 13.6125461, "tags": {"board_type": "nature", "information": "board", "name": "Rade\u010d", "tourism": "information"}}, {"type": "node", "id": 11188807894, "lat": 49.8089297, "lon": 13.6082091, "tags": {"amenity": "shelter", "shelter_type": "picnic_shelter"}}, {"type": "node", "id": 11188807898, "lat": 49.7772323, "lon": 13.6005165, "tags": {"amenity": "shelter", "shelter_type": "picnic_shelter"}}, {"type": "node", "id": 11238331707, "lat": 49.8758694, "lon": 13.7329062, "tags": {"information": "map", "map_size": "region", "tourism": "information"}}, {"type": "node", "id": 11251130712, "lat": 49.8259685, "lon": 13.6974678, "tags": {"information": "map", "map_size": "region", "name": "Mikroregion Zbiro\u017esko", "tourism": "information"}}, {"type": "node", "id": 11251130720, "lat": 49.8261215, "lon": 13.7091003, "tags": {"amenity": "shelter"}}, {"type": "node", "id": 11265893403, "lat": 49.8555333, "lon": 13.761955, "tags": {"information": "board", "name": "Mikroregion Zbiro\u017esko", "tourism": "information"}}, {"type": "node", "id": 11265911764, "lat": 49.8614247, "lon": 13.7456003, "tags": {"board_type": "nature", "description": "Nau\u010dn\u00e1 stezka Zbiro\u017esk\u00e9 vyhl\u00eddky", "information": "board", "name": "\u010certova sk\u00e1la", "tourism": "information"}}, {"type": "node", "id": 11265934228, "lat": 49.8555064, "lon": 13.7616614, "tags": {"description": "Nau\u010dn\u00e1 stezka Zbiro\u017esk\u00e9 vyhl\u00eddky", "information": "board", "name": "Zbiroh v dob\u00e1ch nejstar\u0161\u00edch", "tourism": "information"}}, {"type": "node", "id": 11265941759, "lat": 49.8570169, "lon": 13.7472145, "tags": {"description": "Nau\u010dn\u00e1 stezka Zbiro\u017esk\u00e9 vyhl\u00eddky", "information": "board", "name": "\u0160vab\u00edn", "tourism": "information"}}, {"type": "node", "id": 11292521977, "lat": 49.8173908, "lon": 13.6062758, "tags": {"hiking": "yes", "information": "guidepost", "name": "B\u0159ezina (u statku)", "operator": "cz:K\u010cT", "ref": "RO340", "tourism": "information"}}, {"type": "node", "id": 11292596511, "lat": 49.8089639, "lon": 13.6050537, "tags": {"board_type": "history", "information": "board", "tourism": "information"}}, {"type": "node", "id": 11395000627, "lat": 49.7525355, "lon": 13.7070365, "tags": {"amenity": "shelter", "backcountry": "yes", "building": "forestry", "camp_site": "basic", "group_only": "no", "name": "Sen\u00edk pod \u0160pi\u010dat\u00fdm vrchem", "scout": "no", "shelter_type": "basic_hut", "tourism": "wilderness_hut"}}, {"type": "node", "id": 11481146265, "lat": 49.9395781, "lon": 13.7953433, "tags": {"board_type": "nature", "description": "Lesnick\u00fd park K\u0159ivokl\u00e1tsko", "information": "board", "name": "Lipov\u00e1 alej", "ref": "8", "tourism": "information"}}, {"type": "node", "id": 12176732821, "lat": 49.8136861, "lon": 13.6050431, "tags": {"board_type": "history", "information": "board", "name": "Z\u00e1mek B\u0159ezina", "tourism": "information"}}, {"type": "node", "id": 12222076800, "lat": 49.8684815, "lon": 13.6524809, "tags": {"information": "map", "name": "Mikroregion Radnicko", "tourism": "information"}}, {"type": "node", "id": 12222147450, "lat": 49.8654692, "lon": 13.6613423, "tags": {"information": "map", "name": "Okol\u00edm Vejvanova - Babsk\u00e1 Sk\u00e1la", "tourism": "information"}}, {"type": "node", "id": 12222159219, "lat": 49.8598606, "lon": 13.6549437, "tags": {"information": "map", "name": "Mikroregion Radnicko", "tourism": "information"}}, {"type": "node", "id": 12222164697, "lat": 49.8582076, "lon": 13.6677892, "tags": {"board_type": "nature", "information": "board", "name": "Pod Babskou Sk\u00e1lou", "tourism": "information"}}, {"type": "node", "id": 12222175990, "lat": 49.8664594, "lon": 13.6382949, "tags": {"board_type": "history", "information": "board", "name": "Nau\u010dn\u00e1 stezka", "tourism": "information"}}, {"type": "node", "id": 12222176415, "lat": 49.8547179, "lon": 13.6570985, "tags": {"board_type": "history", "information": "board", "name": "Nad Pajzovem", "tourism": "information"}}, {"type": "node", "id": 12270943673, "lat": 49.8474025, "lon": 13.6425403, "tags": {"hiking": "yes", "information": "map", "map_size": "region", "map_type": "topo", "name": "Mikroregion Radnicko - dobrovoln\u00fd svazek obc\u00ed - Skomelno", "tourism": "information"}}, {"type": "node", "id": 12323328932, "lat": 49.8756818, "lon": 13.7700394, "tags": {"board_type": "history", "information": "board", "name": "NS Toulky Star\u00fdm Zbirohem - Star\u00fd Zbiroh a pov\u011bsti", "tourism": "information"}}, {"type": "node", "id": 12323331673, "lat": 49.8714115, "lon": 13.7610472, "tags": {"board_type": "history", "information": "board", "name": "NS Toulky Star\u00fdm Zbirohem - Frant\u00ed\u0161kov", "tourism": "information"}}, {"type": "node", "id": 12323348849, "lat": 49.8746758, "lon": 13.6812029, "tags": {"information": "map", "map_type": "topo", "name": "Mikroregion Radnicko", "tourism": "information"}}, {"type": "node", "id": 12324090425, "lat": 49.8649169, "lon": 13.7725888, "tags": {"board_type": "history", "information": "board", "name": "NS Toulky Star\u00fdm Zbirohem", "tourism": "information"}}, {"type": "node", "id": 12324090707, "lat": 49.8746975, "lon": 13.6812556, "tags": {"board_type": "information", "information": "board", "name": "Jak spravn\u011b t\u0159\u00eddit odpady", "tourism": "information"}}, {"type": "node", "id": 12324104228, "lat": 49.859016, "lon": 13.7697006, "tags": {"information": "map", "map_type": "topo", "name": "Zbiro\u017esko", "tourism": "information"}}, {"type": "node", "id": 12331405872, "lat": 49.8590544, "lon": 13.7698075, "tags": {"information": "map", "map_size": "yes", "map_type": "citymap", "operator": "Zbiroh", "tourism": "information"}}, {"type": "node", "id": 12331431946, "lat": 49.8588005, "lon": 13.7606964, "tags": {"information": "map", "map_type": "yes", "operator": "Chateau Zbiroh", "tourism": "information"}}, {"type": "node", "id": 12331435236, "lat": 49.8707909, "lon": 13.7739724, "tags": {"board_type": "history", "information": "board", "name": "NS Toulky Star\u00fdm Zbirohem", "tourism": "information"}}, {"type": "node", "id": 12331445967, "lat": 49.8567452, "lon": 13.7682902, "tags": {"board_type": "information", "information": "board", "name": "Z\u00e1kladn\u00ed \u0161kola Zbiroh", "tourism": "information"}}, {"type": "node", "id": 12331447304, "lat": 49.8611468, "lon": 13.7758656, "tags": {"board_type": "history", "information": "board", "name": "NS Toulky Star\u00fdm Zbirohem", "tourism": "information"}}, {"type": "node", "id": 12331451416, "lat": 49.8587541, "lon": 13.7634157, "tags": {"board_type": "plants", "information": "board", "name": "NS Z\u00e1mek Zbiroh", "tourism": "information"}}, {"type": "node", "id": 12331455358, "lat": 49.8581559, "lon": 13.761341, "tags": {"board_type": "plants", "information": "board", "name": "NS Z\u00e1mek Zbiroh - Jalovec obecn\u00fd", "tourism": "information"}}, {"type": "node", "id": 12331467016, "lat": 49.8611311, "lon": 13.7758616, "tags": {"information": "map", "map_type": "yes", "name": "Mikroregion Zbiro\u017esko", "tourism": "information"}}, {"type": "node", "id": 12331467534, "lat": 49.8665925, "lon": 13.7396782, "tags": {"board_type": "history", "information": "board", "name": "NS Zbiro\u017esk\u00e9 vyhl\u00eddky - Sv\u011btovina", "tourism": "information"}}, {"type": "node", "id": 12331497435, "lat": 49.8600928, "lon": 13.7656736, "tags": {"board_type": "history", "information": "board", "name": "NS Zbiro\u017esk\u00e9 vyhl\u00eddky", "tourism": "information"}}, {"type": "node", "id": 12331509826, "lat": 49.8589277, "lon": 13.7621034, "tags": {"board_type": "plants", "information": "board", "name": "NS Z\u00e1mek Zbiroh - Buk lesn\u00ed", "tourism": "information"}}, {"type": "node", "id": 12331525733, "lat": 49.858041, "lon": 13.7622922, "tags": {"information": "map", "map_type": "scheme", "name": "Chateau Zbiroh", "tourism": "information"}}, {"type": "node", "id": 12331527875, "lat": 49.8589849, "lon": 13.7608611, "tags": {"board_type": "plants", "information": "board", "name": "NS Z\u00e1mek Zbiroh - Jedle b\u011blokor\u00e1", "tourism": "information"}}, {"type": "node", "id": 12331541360, "lat": 49.8584658, "lon": 13.7615132, "tags": {"board_type": "history", "information": "board", "name": "Zbiroh - z\u00e1mek t\u0159\u00ed c\u00edsa\u0159\u016f", "tourism": "information"}}, {"type": "node", "id": 12331548803, "lat": 49.8585495, "lon": 13.7615535, "tags": {"board_type": "history", "information": "board", "name": "Zbiroh - z\u00e1mek t\u0159\u00ed c\u00edsa\u0159\u016f", "tourism": "information"}}, {"type": "node", "id": 12334716379, "lat": 49.8585823, "lon": 13.7613475, "tags": {"board_type": "history", "information": "board", "name": "Zbiroh z\u00e1mek t\u0159\u00ed c\u00edsa\u0159\u016f", "tourism": "information"}}, {"type": "node", "id": 12334722224, "lat": 49.858587, "lon": 13.7613136, "tags": {"board_type": "history", "information": "board", "name": "Zbiroh z\u00e1mek t\u0159\u00ed c\u00edsa\u0159\u016f - Dr\u017e\u00edtel\u00e9 z\u00e1mku", "tourism": "information"}}, {"type": "node", "id": 12334768954, "lat": 49.8587514, "lon": 13.7609268, "tags": {"board_type": "welcome_sign", "information": "board", "tourism": "information"}}, {"type": "node", "id": 12560194983, "lat": 49.7833768, "lon": 13.7396469}, {"type": "node", "id": 12560194984, "lat": 49.7833611, "lon": 13.7396585}, {"type": "node", "id": 12560194985, "lat": 49.7834084, "lon": 13.7398111}, {"type": "node", "id": 12560194986, "lat": 49.783424, "lon": 13.7397995}, {"type": "node", "id": 12560194987, "lat": 49.7833409, "lon": 13.7400383}, {"type": "node", "id": 12560194988, "lat": 49.783327, "lon": 13.7400487}, {"type": "node", "id": 12560194989, "lat": 49.7833748, "lon": 13.7402021}, {"type": "node", "id": 12560194990, "lat": 49.7833887, "lon": 13.7401917}, {"type": "node", "id": 12787063148, "lat": 49.8245323, "lon": 13.783194}, {"type": "node", "id": 12956794553, "lat": 49.9317354, "lon": 13.6680404, "tags": {"tourism": "viewpoint"}}, {"type": "node", "id": 12956794554, "lat": 49.931683, "lon": 13.6682315, "tags": {"amenity": "shelter", "shelter_type": "picnic_shelter"}}, {"type": "node", "id": 12956794559, "lat": 49.9318933, "lon": 13.6578071, "tags": {"information": "board", "tourism": "information"}}, {"type": "node", "id": 12996157239, "lat": 49.9456157, "lon": 13.7088486, "tags": {"tourism": "viewpoint"}}, {"type": "node", "id": 12996157240, "lat": 49.9422578, "lon": 13.7110361, "tags": {"information": "guidepost", "tourism": "information"}}, {"type": "node", "id": 13107789544, "lat": 49.753115, "lon": 13.7912728, "tags": {"bicycle": "yes", "information": "guidepost", "name": "T\u011bn\u011b (rozc.)", "tourism": "information"}}, {"type": "node", "id": 13107789564, "lat": 49.7791316, "lon": 13.7850584, "tags": {"bicycle": "yes", "information": "guidepost", "tourism": "information"}}, {"type": "node", "id": 13107789567, "lat": 49.8130674, "lon": 13.7973865, "tags": {"bicycle": "yes", "information": "guidepost", "name": "Ka\u0159\u00edzek (rozc.)", "tourism": "information"}}, {"type": "node", "id": 13116975164, "lat": 49.7992213, "lon": 13.8001106, "tags": {"ele": "566", "name": "H\u0159ebeny", "natural": "peak"}}, {"type": "node", "id": 13123770721, "lat": 49.774213, "lon": 13.7827989, "tags": {"amenity": "shelter", "shelter_type": "sun_shelter"}}, {"type": "node", "id": 13123770731, "lat": 49.7834544, "lon": 13.7405414, "tags": {"bicycle": "yes", "information": "guidepost", "tourism": "information"}}, {"type": "node", "id": 13123770733, "lat": 49.7857743, "lon": 13.7381105, "tags": {"bicycle": "yes", "information": "guidepost", "name": "M\u00fdto (rozc.)", "tourism": "information"}}, {"type": "node", "id": 13130682910, "lat": 49.7758144, "lon": 13.7939035, "tags": {"ele": "524", "name": "Na H\u016frce", "natural": "peak"}}, {"type": "node", "id": 13174985694, "lat": 49.8496219, "lon": 13.6076133, "tags": {"access": "yes", "alt_name": "Flori\u00e1n", "ele": "459", "fee": "no", "name": "Na Flori\u00e1nu", "natural": "peak", "summit:cross": "no"}}, {"type": "node", "id": 13193488706, "lat": 49.8227109, "lon": 13.7788368}, {"type": "node", "id": 13193488710, "lat": 49.8226477, "lon": 13.7787937}, {"type": "node", "id": 13195313560, "lat": 49.8226538, "lon": 13.778772}, {"type": "node", "id": 13296191135, "lat": 49.9070134, "lon": 13.6632585}, {"type": "node", "id": 13296191136, "lat": 49.9069856, "lon": 13.6632227}, {"type": "node", "id": 13296191137, "lat": 49.9070012, "lon": 13.6631935}, {"type": "node", "id": 13296191138, "lat": 49.907029, "lon": 13.6632293}, {"type": "node", "id": 13346852435, "lat": 49.755416, "lon": 13.7007434, "tags": {"ele": "621", "name": "\u0160pi\u010dat\u00fd vrch", "natural": "peak"}}, {"type": "node", "id": 13346852436, "lat": 49.7726315, "lon": 13.7267867, "tags": {"ele": "509", "name": "Ve Vrchu", "natural": "peak"}}, {"type": "node", "id": 13346852437, "lat": 49.7800043, "lon": 13.7908299, "tags": {"ele": "511", "name": "Na Vart\u011b", "natural": "peak"}}, {"type": "way", "id": 82116318, "nodes": [956227047, 7661156452, 956226318, 956227631, 7661156453, 956226975, 956227047], "tags": {"amenity": "shelter", "building": "yes", "source": "cuzk:km"}}, {"type": "way", "id": 161120793, "nodes": [1398204637, 1731121774, 1731121752, 1731121723, 1731121730, 1731121764, 1731121789, 1731121845, 1398204637], "tags": {"building": "civic", "information": "office", "name": "Informa\u010dn\u00ed centrum mikroregionu Zbiro\u017esko", "source": "cuzk:km;survey", "tourism": "information"}}, {"type": "way", "id": 198434782, "nodes": [2085625767, 2085625751, 2085625765, 12787063148, 2085625784, 2085625767], "tags": {"amenity": "shelter", "building": "yes", "shelter_type": "public_transport"}}, {"type": "way", "id": 198434802, "nodes": [2085625803, 2085625810, 2085625824, 7969380869, 2085625807, 2085625803], "tags": {"amenity": "shelter", "bench": "yes", "building": "yes", "shelter_type": "public_transport"}}, {"type": "way", "id": 277234582, "nodes": [2817620902, 2817620888, 2817620883, 2817620889, 2817620892, 2817620896, 2817620902], "tags": {"amenity": "shelter", "building": "transportation", "shelter_type": "public_transport", "source": "cuzk:km"}}, {"type": "way", "id": 418374142, "nodes": [4188065059, 4188065060, 4188065061, 4188065062, 4188065059], "tags": {"amenity": "shelter", "bin": "yes", "building": "transportation", "building:levels": "1", "roof:levels": "0", "shelter_type": "public_transport"}}, {"type": "way", "id": 474882292, "nodes": [4687437875, 4687437876, 4687437877, 4687437878, 4687437875], "tags": {"amenity": "shelter", "building": "transportation", "shelter_type": "public_transport"}}, {"type": "way", "id": 534196621, "nodes": [5181240055, 5181240054, 5181240053, 5181240052, 5181240051, 5181240050, 5181240049, 5181240048, 5181240055], "tags": {"amenity": "shelter", "building": "yes", "building:ruian:type": "19", "ref:ruian:building": "43002218", "source": "cuzk:ruian"}}, {"type": "way", "id": 548681476, "nodes": [5300525813, 5300525812, 5300525811, 5300525810, 5300525813], "tags": {"amenity": "shelter", "building:ruian:type": "5", "ref:ruian:building": "47106077", "shelter_type": "public_transport", "source": "cuzk:ruian"}}, {"type": "way", "id": 555245532, "nodes": [5357292552, 5357292553, 5357292554, 5357292555, 5357292552], "tags": {"amenity": "shelter", "building": "roof", "shelter_type": "public_transport"}}, {"type": "way", "id": 555245534, "nodes": [5042728139, 5357292556, 5357292557, 5357292558, 5042728139], "tags": {"amenity": "shelter", "bench": "yes", "building": "roof", "shelter_type": "public_transport"}}, {"type": "way", "id": 555245536, "nodes": [5042728140, 5357292559, 5357292560, 5357292561, 5042728140], "tags": {"amenity": "shelter", "building": "transportation", "shelter_type": "public_transport"}}, {"type": "way", "id": 558846344, "nodes": [5390169288, 5390169289, 5390169290, 5390169291, 5390169288], "tags": {"amenity": "shelter", "building": "transportation", "shelter_type": "public_transport"}}, {"type": "way", "id": 662852236, "nodes": [6205177315, 6205177314, 6205177313, 6205177312, 6205177315], "tags": {"amenity": "shelter", "shelter_type": "public_transport"}}, {"type": "way", "id": 662852237, "nodes": [6205177319, 6205177318, 6205177317, 6205177316, 6205177319], "tags": {"amenity": "shelter", "shelter_type": "public_transport"}}, {"type": "way", "id": 662852274, "nodes": [6205190442, 6205190441, 6205190440, 6205190439, 6205190442], "tags": {"amenity": "shelter", "building": "transportation", "shelter_type": "public_transport"}}, {"type": "way", "id": 662852275, "nodes": [6205190446, 6205190445, 6205190444, 6205190443, 6205190446], "tags": {"amenity": "shelter", "building": "transportation", "shelter_type": "public_transport"}}, {"type": "way", "id": 834823994, "nodes": [7792688281, 7792688280, 7792688279, 7792688278, 7792688281], "tags": {"amenity": "shelter", "bench": "yes", "shelter_type": "public_transport"}}, {"type": "way", "id": 1357071403, "nodes": [12560194983, 12560194984, 12560194985, 12560194986, 12560194983], "tags": {"amenity": "shelter", "building": "yes", "shelter_type": "public_transport"}}, {"type": "way", "id": 1357071404, "nodes": [12560194987, 12560194988, 12560194989, 12560194990, 12560194987], "tags": {"amenity": "shelter", "building": "yes", "shelter_type": "public_transport"}}, {"type": "way", "id": 1435605315, "nodes": [13193488706, 13193488710, 13195313560, 7969550312, 13193488706], "tags": {"amenity": "shelter", "building": "yes", "lockable": "no", "shelter_type": "public_transport"}}, {"type": "way", "id": 1449600176, "nodes": [13296191138, 13296191135, 13296191136, 13296191137, 13296191138], "tags": {"amenity": "shelter", "shelter_type": "public_transport"}}]}