{"version": 0.6, "generator": "Overpass API 0.7.62.8 e802775f", "osm3s": {"timestamp_osm_base": "2026-01-05T15:45:15Z", "copyright": "The data included in this document is from www.openstreetmap.org. The data is made available under ODbL."}, "elements": [{"type": "node", "id": 413278516, "lat": 50.0780379, "lon": 12.8449982, "tags": {"ele": "632", "name": "\u0160ibeni\u010dn\u00ed vrch", "name:de": "Galgenberg", "natural": "peak", "source": "\u010c\u00daZK", "wikidata": "Q91327050"}}, {"type": "node", "id": 874398505, "lat": 50.0882554, "lon": 12.8387128, "tags": {"tourism": "viewpoint"}}, {"type": "node", "id": 1761594257, "lat": 49.9617122, "lon": 12.966431, "tags": {"tourism": "viewpoint"}}, {"type": "node", "id": 2992743253, "lat": 49.9885253, "lon": 12.9643564}, {"type": "node", "id": 2992743254, "lat": 49.9885264, "lon": 12.9644389}, {"type": "node", "id": 2992743255, "lat": 49.9884535, "lon": 12.9644412}, {"type": "node", "id": 2992743256, "lat": 49.9884524, "lon": 12.9643587}, {"type": "node", "id": 3515643348, "lat": 49.9664386, "lon": 12.8762408, "tags": {"bicycle": "yes", "information": "guidepost", "note": "362;2233;306;352;361", "tourism": "information"}}, {"type": "node", "id": 3739860621, "lat": 50.0509407, "lon": 12.9923995, "tags": {"ele": "613", "hiking": "yes", "information": "guidepost", "name": "Tou\u017eim (vlak)", "official_name": "Tou\u017eim (\u017dST)", "operator": "cz:K\u010cT", "ref": "KV117", "tourism": "information"}}, {"type": "node", "id": 4349338211, "lat": 50.0733963, "lon": 12.9792203, "tags": {"ele": "585", "hiking": "yes", "information": "guidepost", "name": "Na soutoku", "operator": "cz:K\u010cT", "ref": "KV115", "tourism": "information"}}, {"type": "node", "id": 4349338212, "lat": 50.0597673, "lon": 12.9850085, "tags": {"ele": "597", "hiking": "yes", "information": "guidepost", "name": "Tou\u017eim bus", "operator": "cz:K\u010cT", "ref": "KV116", "tourism": "information"}}, {"type": "node", "id": 4358275493, "lat": 50.1033089, "lon": 12.9119124, "tags": {"ele": "697", "hiking": "yes", "information": "guidepost", "name": "Nov\u00fd rybn\u00edk", "operator": "cz:K\u010cT", "ref": "KV158", "tourism": "information"}}, {"type": "node", "id": 4373249101, "lat": 50.0870629, "lon": 12.9820034, "tags": {"ele": "575", "hiking": "yes", "information": "guidepost", "name": "Chylick\u00fd ml\u00fdn", "operator": "cz:K\u010cT", "ref": "1448/22,5", "tourism": "information"}}, {"type": "node", "id": 4373249105, "lat": 50.1003453, "lon": 12.9823692, "tags": {"ele": "606", "hiking": "yes", "information": "guidepost", "name": "Svinov", "operator": "cz:K\u010cT", "ref": "KV113", "tourism": "information"}}, {"type": "node", "id": 4840700737, "lat": 49.9898645, "lon": 12.9951434, "tags": {"ele": "586", "hiking": "yes", "information": "guidepost", "name": "Bezd\u011bkovsk\u00fd potok", "operator": "cz:K\u010cT", "ref": "PS701", "tourism": "information"}}, {"type": "node", "id": 4840700738, "lat": 50.0064255, "lon": 12.9770838, "tags": {"description": "obec pod T\u0159ebou\u0148sk\u00fdm vrchem", "ele": "677", "hiking": "yes", "information": "guidepost", "name": "Bezd\u011bkov", "operator": "cz:K\u010cT", "ref": "PS702", "tourism": "information"}}, {"type": "node", "id": 5058603078, "lat": 49.9565631, "lon": 12.943867, "tags": {"ele": "726.7", "name": "\u0160pi\u010d\u00e1k", "name:de": "Spitz-Berg", "natural": "peak"}}, {"type": "node", "id": 5058609524, "lat": 49.9632932, "lon": 12.9629851, "tags": {"ele": "762", "name": "St\u011bnsk\u00fd vrch", "natural": "peak", "wikidata": "Q23824329"}}, {"type": "node", "id": 5271441317, "lat": 49.9738162, "lon": 12.8636169, "tags": {"ele": "652", "hiking": "yes", "information": "guidepost", "name": "Tepl\u00e1 (vlak)", "official_name": "Tepl\u00e1 (\u017dST)", "operator": "cz:K\u010cT", "ref": "KV209", "tourism": "information"}}, {"type": "node", "id": 5271441318, "lat": 49.9657631, "lon": 12.8759497, "tags": {"ele": "666", "hiking": "yes", "information": "guidepost", "name": "Kl\u00e1\u0161ter Tepl\u00e1", "operator": "cz:K\u010cT", "ref": "KV066", "tourism": "information"}}, {"type": "node", "id": 5279342297, "lat": 50.0836543, "lon": 12.8314197, "tags": {"ele": "509", "hiking": "yes", "information": "guidepost", "name": "Be\u010dov nad teplou \u017est", "operator": "cz:K\u010cT", "ref": "KV161", "tourism": "information"}}, {"type": "node", "id": 5279342298, "lat": 50.0816165, "lon": 12.8442836, "tags": {"ele": "530", "hiking": "yes", "information": "guidepost", "name": "Plze\u0148sk\u00e1 silnice", "operator": "cz:K\u010cT", "ref": "KV160", "tourism": "information"}}, {"type": "node", "id": 5279342307, "lat": 50.0878364, "lon": 12.8790986, "tags": {"ele": "640", "hiking": "yes", "information": "guidepost", "name": "Be\u010dovsk\u00e9 rybn\u00edky", "operator": "cz:K\u010cT", "ref": "KV159", "tourism": "information"}}, {"type": "node", "id": 5566850347, "lat": 49.9779211, "lon": 12.8661935}, {"type": "node", "id": 5566850348, "lat": 49.977907, "lon": 12.86625}, {"type": "node", "id": 5566850349, "lat": 49.9779341, "lon": 12.8662955}, {"type": "node", "id": 5566850350, "lat": 49.977971, "lon": 12.8662803}, {"type": "node", "id": 5566850351, "lat": 49.9779813, "lon": 12.8662281}, {"type": "node", "id": 5566850352, "lat": 49.9779552, "lon": 12.86618}, {"type": "node", "id": 5566853948, "lat": 49.9819367, "lon": 12.8629228}, {"type": "node", "id": 5566853949, "lat": 49.9819426, "lon": 12.8629213}, {"type": "node", "id": 5566853950, "lat": 49.9819447, "lon": 12.862941}, {"type": "node", "id": 5566853951, "lat": 49.9819383, "lon": 12.8629427}, {"type": "node", "id": 5566853952, "lat": 49.9819409, "lon": 12.8629675}, {"type": "node", "id": 5566853953, "lat": 49.9819222, "lon": 12.8629724}, {"type": "node", "id": 5566853954, "lat": 49.9819146, "lon": 12.8629023}, {"type": "node", "id": 5566853955, "lat": 49.9819339, "lon": 12.8628972}, {"type": "node", "id": 5574822633, "lat": 49.9823617, "lon": 12.8634973, "tags": {"email": "kultura@tepla.cz", "information": "office", "name": "Infocentrum Tepl\u00e1", "opening_hours": "Mo-Su 09:00-12:00,12:30-17:00; PH off", "phone": "+420 353 176 224", "tourism": "information", "website": "https://www.tepla.cz/infocentrum/"}}, {"type": "node", "id": 6749917162, "lat": 50.082533, "lon": 12.8369263, "tags": {"information": "board", "tourism": "information"}}, {"type": "node", "id": 6749917314, "lat": 50.0849565, "lon": 12.8396014, "tags": {"information": "office", "tourism": "information"}}, {"type": "node", "id": 6749917321, "lat": 50.084995, "lon": 12.8395284, "tags": {"check_date": "2024-10-29", "information": "map", "tourism": "information"}}, {"type": "node", "id": 6935109367, "lat": 50.0883928, "lon": 12.874952, "tags": {"ele": "540", "hiking": "yes", "information": "guidepost", "name": "Be\u010dovsk\u00e9 rybn\u00edky", "operator": "cz:K\u010cT", "tourism": "information"}}, {"type": "node", "id": 7277615489, "lat": 50.0881918, "lon": 12.840668, "tags": {"amenity": "shelter", "shelter_type": "public_transport"}}, {"type": "node", "id": 7277615490, "lat": 50.0884422, "lon": 12.8403541, "tags": {"amenity": "shelter", "shelter_type": "public_transport"}}, {"type": "node", "id": 7277615514, "lat": 50.0855242, "lon": 12.8352841, "tags": {"tourism": "viewpoint"}}, {"type": "node", "id": 7302551059, "lat": 50.0788679, "lon": 12.8076817, "tags": {"ele": "665", "name": "Zelen\u00e1 hora", "natural": "peak", "source": "\u010c\u00daZK"}}, {"type": "node", "id": 7930382021, "lat": 50.0883447, "lon": 12.8387205, "tags": {"amenity": "shelter", "bench": "yes", "shelter_type": "gazebo"}}, {"type": "node", "id": 7930383833, "lat": 50.0855847, "lon": 12.8351546, "tags": {"amenity": "shelter", "bench": "yes", "shelter_type": "gazebo"}}, {"type": "node", "id": 8996369683, "lat": 50.0766403, "lon": 12.9802267, "tags": {"board_type": "history", "information": "board", "name": "Skalka", "tourism": "information"}}, {"type": "node", "id": 9277853128, "lat": 50.0835178, "lon": 12.8305853, "tags": {"board_type": "history", "direction": "90", "information": "board", "language:descriptions:cs": "only", "name": "\u017didovsk\u00fd h\u0159bitov", "tourism": "information"}}, {"type": "node", "id": 9863529732, "lat": 49.9597552, "lon": 12.8041309, "tags": {"ele": "692", "hiking": "yes", "information": "guidepost", "name": "Podhora, vodn\u00ed n\u00e1dr\u017e", "operator": "cz:K\u010cT", "ref": "CH237", "tourism": "information"}}, {"type": "node", "id": 9863529733, "lat": 49.9610355, "lon": 12.831299, "tags": {"ele": "677", "hiking": "yes", "information": "guidepost", "name": "Mr\u00e1zov", "operator": "cz:K\u010cT", "ref": "CH238", "tourism": "information"}}, {"type": "node", "id": 9863529734, "lat": 49.9549855, "lon": 12.84931, "tags": {"ele": "678", "hiking": "yes", "information": "guidepost", "name": "Betl\u00e9m rybn\u00edk", "operator": "cz:K\u010cT", "ref": "CH239", "tourism": "information"}}, {"type": "node", "id": 10297172213, "lat": 49.9752848, "lon": 12.9990015, "tags": {"amenity": "shelter"}}, {"type": "node", "id": 11006944482, "lat": 50.0724564, "lon": 12.9209825, "tags": {"information": "board", "name": "M\u011bsto Kr\u00e1sn\u00e9 \u00dadol\u00ed", "tourism": "information"}}, {"type": "node", "id": 11006954716, "lat": 50.0718981, "lon": 12.9201692, "tags": {"information": "board", "name": "Kostel svat\u00e9ho Vav\u0159ince", "tourism": "information"}}, {"type": "node", "id": 11068933830, "lat": 49.9664803, "lon": 12.8764606, "tags": {"board_type": "history", "information": "board", "name": "Kl\u00e1\u0161ter sv\u011bdek a \u010dinitel", "tourism": "information"}}, {"type": "node", "id": 11073999314, "lat": 50.0808015, "lon": 12.8406009, "tags": {"source": "survey,gps,bing", "tourism": "viewpoint"}}, {"type": "node", "id": 11074669225, "lat": 50.079289, "lon": 12.8439175, "tags": {"board_type": "history", "information": "board", "name": "\u0160ibeni\u010dn\u00ed vrch", "source": "survey,gps", "tourism": "information"}}, {"type": "node", "id": 11234447606, "lat": 50.0019834, "lon": 12.9956917, "tags": {"ele": "813", "name": "Brani\u0161ovsk\u00fd vrch", "natural": "peak", "wikidata": "Q11245763"}}, {"type": "node", "id": 11328876267, "lat": 50.084432, "lon": 12.8395349, "tags": {"ele": "520", "hiking": "yes", "information": "guidepost", "name": "Be\u010dov n. Teplou (radnice)", "operator": "cz:K\u010cT", "ref": "9293/0", "tourism": "information"}}, {"type": "node", "id": 12207062779, "lat": 50.0866861, "lon": 12.8534689, "tags": {"ele": "708", "name": "Ps\u00ed sk\u00e1la", "natural": "peak", "source": "\u010c\u00daZK"}}, {"type": "node", "id": 12207062781, "lat": 50.0806138, "lon": 12.8410868, "tags": {"ele": "604", "name": "Zlat\u00fd vrch", "natural": "peak", "source": "\u010c\u00daZK"}}, {"type": "node", "id": 12207062782, "lat": 50.0738694, "lon": 12.8344254, "tags": {"ele": "644", "name": "Petrova hora", "natural": "peak", "source": "\u010c\u00daZK"}}, {"type": "node", "id": 12207062783, "lat": 50.0720015, "lon": 12.848985, "tags": {"ele": "697", "name": "Homolka", "natural": "peak", "source": "\u010c\u00daZK"}}, {"type": "node", "id": 12207062784, "lat": 50.0628764, "lon": 12.8392717, "tags": {"ele": "695", "name": "Nad trat\u00ed", "natural": "peak", "source": "\u010c\u00daZK"}}, {"type": "node", "id": 12207062785, "lat": 50.0675755, "lon": 12.8614224, "tags": {"ele": "713", "name": "U h\u00e1jenky", "natural": "peak"}}, {"type": "node", "id": 12207062786, "lat": 50.0370159, "lon": 12.8472358, "tags": {"ele": "740", "name": "Tisovsk\u00fd vrch", "natural": "peak", "source": "\u010c\u00daZK"}}, {"type": "node", "id": 12207062796, "lat": 50.0477458, "lon": 12.8405955, "tags": {"ele": "714", "name": "Lys\u00fd vrch", "natural": "peak"}}, {"type": "node", "id": 12207062797, "lat": 50.0390171, "lon": 12.8333223, "tags": {"ele": "692", "name": "Nad zast\u00e1vkou", "natural": "peak", "source": "\u010c\u00daZK"}}, {"type": "node", "id": 12207062798, "lat": 50.033338, "lon": 12.8584938, "tags": {"ele": "712", "name": "Li\u0161\u010d\u00ed vrch", "natural": "peak"}}, {"type": "node", "id": 12207062799, "lat": 50.0238654, "lon": 12.8317678, "tags": {"ele": "736", "name": "Sp\u00e1len\u00fd", "natural": "peak", "source": "\u010c\u00daZK"}}, {"type": "node", "id": 12207062800, "lat": 50.0235801, "lon": 12.8541216, "tags": {"ele": "703", "name": "U \u017eidovsk\u00e9ho h\u0159bitova", "natural": "peak", "source": "\u010c\u00daZK"}}, {"type": "node", "id": 12207078801, "lat": 50.0194558, "lon": 12.8782988, "tags": {"ele": "696", "name": "Hol\u00fd kopec", "natural": "peak", "source": "\u010c\u00daZK"}}, {"type": "node", "id": 12207078802, "lat": 50.0509847, "lon": 12.8586951, "tags": {"ele": "691", "name": "U chaty", "natural": "peak", "source": "\u010c\u00daZK"}}, {"type": "node", "id": 12207078803, "lat": 50.0596152, "lon": 12.8806708, "tags": {"ele": "684", "name": "Nad rokl\u00ed", "natural": "peak", "source": "\u010c\u00daZK"}}, {"type": "node", "id": 12207078804, "lat": 50.0718648, "lon": 12.8961712, "tags": {"ele": "701", "name": "U Be\u010dova", "natural": "peak", "source": "\u010c\u00daZK"}}, {"type": "node", "id": 12207078806, "lat": 50.07882, "lon": 12.8837683, "tags": {"ele": "703", "name": "U Vitriolky", "natural": "peak", "source": "\u010c\u00daZK"}}, {"type": "node", "id": 12207078807, "lat": 50.0846766, "lon": 12.8976905, "tags": {"ele": "739", "name": "U odolenovick\u00fdch hranic", "natural": "peak", "source": "\u010c\u00daZK"}}, {"type": "node", "id": 12207078808, "lat": 50.0820874, "lon": 12.9163515, "tags": {"ele": "684", "name": "Nad chalupou", "natural": "peak", "source": "\u010c\u00daZK"}}, {"type": "node", "id": 12207078809, "lat": 50.0809637, "lon": 12.9563395, "tags": {"ele": "660", "name": "Nad ov\u010d\u00ednem", "natural": "peak", "source": "\u010c\u00daZK"}}, {"type": "node", "id": 12207078830, "lat": 50.1043608, "lon": 12.8699378, "tags": {"ele": "713", "name": "Bes\u00eddka", "natural": "peak", "source": "\u010c\u00daZK"}}, {"type": "node", "id": 12207078831, "lat": 50.10161, "lon": 12.8742193, "tags": {"ele": "707", "name": "Paseka", "natural": "peak", "source": "\u010c\u00daZK"}}, {"type": "node", "id": 12207078835, "lat": 50.1026948, "lon": 12.95049, "tags": {"ele": "659", "name": "Chylick\u00fd les", "natural": "peak", "source": "\u010c\u00daZK"}}, {"type": "node", "id": 12207078836, "lat": 50.0977534, "lon": 12.9485982, "tags": {"ele": "653", "name": "Je\u0161\u00e1tk\u016fv kopec", "natural": "peak", "source": "\u010c\u00daZK"}}, {"type": "node", "id": 12784047900, "lat": 50.059548, "lon": 12.9846847, "tags": {"information": "map", "map_size": "region", "map_type": "topo", "name": "Tou\u017eim, n\u00e1m\u011bst\u00ed", "tourism": "information"}}, {"type": "node", "id": 12784136525, "lat": 50.0836483, "lon": 12.8313046, "tags": {"information": "map", "map_size": "region", "map_type": "topo", "name": "Be\u010dov, \u017est", "tourism": "information"}}, {"type": "node", "id": 12784169049, "lat": 50.0694269, "lon": 12.9556815, "tags": {"information": "map", "map_size": "region", "map_type": "topo", "name": "\u00datvina", "tourism": "information"}}, {"type": "node", "id": 12956309495, "lat": 49.9585447, "lon": 12.8539747, "tags": {"information": "map", "map_type": "topo", "name": "Z\u00e1pado\u010desk\u00e9 l\u00e1zn\u011b", "tourism": "information"}}, {"type": "node", "id": 13394524695, "lat": 50.087032, "lon": 12.9823283, "tags": {"board_type": "history", "information": "board", "tourism": "information"}}, {"type": "way", "id": 295544636, "nodes": [2992743253, 2992743254, 2992743255, 2992743256, 2992743253], "tags": {"amenity": "shelter", "tourism": "picnic_site"}}, {"type": "way", "id": 581936773, "nodes": [5566850352, 5566850351, 5566850350, 5566850349, 5566850348, 5566850347, 5566850352], "tags": {"amenity": "shelter"}}, {"type": "way", "id": 581937881, "nodes": [5566853955, 5566853954, 5566853953, 5566853952, 5566853951, 5566853950, 5566853949, 5566853948, 5566853955], "tags": {"amenity": "shelter", "building": "transportation", "shelter_type": "public_transport"}}]}