{"version": 0.6, "generator": "Overpass API 0.7.62.8 e802775f", "osm3s": {"timestamp_osm_base": "2026-01-05T16:22:02Z", "copyright": "The data included in this document is from www.openstreetmap.org. The data is made available under ODbL."}, "elements": [{"type": "node", "id": 444695634, "lat": 49.7166931, "lon": 13.6873193, "tags": {"barrier": "bollard", "bollard": "fixed", "source": "survey"}}, {"type": "node", "id": 444695636, "lat": 49.716579, "lon": 13.6874526}, {"type": "node", "id": 444695639, "lat": 49.7193302, "lon": 13.6919138, "tags": {"ele": "420", "hiking": "yes", "information": "guidepost", "name": "Dob\u0159\u00edv (hamr)", "operator": "cz:K\u010cT", "ref": "RO235", "tourism": "information"}}, {"type": "node", "id": 444695742, "lat": 49.7151887, "lon": 13.6847398, "tags": {"ele": "415", "hiking": "yes", "information": "guidepost", "name": "Dob\u0159\u00edv", "operator": "cz:K\u010cT", "ref": "RO234", "tourism": "information"}}, {"type": "node", "id": 444716432, "lat": 49.7243477, "lon": 13.6237209, "tags": {"description": "Obec v\u00a0\u00fadol\u00ed Padr\u0165sk\u00e9ho potoka mezi vrchy Kotlem (575\u00a0m) a \u017d\u010f\u00e1rem (630\u00a0m)", "ele": "374", "hiking": "yes", "information": "guidepost", "name": "Kamenn\u00fd \u00dajezd", "operator": "cz:K\u010cT", "ref": "3636/4", "tourism": "information"}}, {"type": "node", "id": 444716433, "lat": 49.7382318, "lon": 13.6580303, "tags": {"ele": "629.5", "name": "\u017d\u010f\u00e1r", "natural": "peak", "wikidata": "Q10296608", "wikipedia": "cs:\u017d\u010f\u00e1r (Brdy)"}}, {"type": "node", "id": 941960860, "lat": 49.7188787, "lon": 13.7678129, "tags": {"ele": "500", "hiking": "yes", "information": "guidepost", "name": "Padr\u0165sk\u00fd potok", "operator": "cz:K\u010cT", "ref": "RO011", "tourism": "information"}}, {"type": "node", "id": 955175921, "lat": 49.7427864, "lon": 13.6014901}, {"type": "node", "id": 955180777, "lat": 49.7425919, "lon": 13.6015537}, {"type": "node", "id": 955185910, "lat": 49.7426184, "lon": 13.60145}, {"type": "node", "id": 955194801, "lat": 49.7425547, "lon": 13.6016943}, {"type": "node", "id": 955196719, "lat": 49.7427431, "lon": 13.6018168}, {"type": "node", "id": 955202002, "lat": 49.7427275, "lon": 13.6014585}, {"type": "node", "id": 955211961, "lat": 49.7427158, "lon": 13.6015162}, {"type": "node", "id": 955214656, "lat": 49.7425835, "lon": 13.6015856}, {"type": "node", "id": 1013766185, "lat": 49.6943248, "lon": 13.6296838, "tags": {"ele": "442", "hiking": "yes", "information": "guidepost", "name": "Holub\u00ed kout", "operator": "cz:K\u010cT", "ref": "RO325", "tourism": "information"}}, {"type": "node", "id": 1013766195, "lat": 49.6078722, "lon": 13.7150757, "tags": {"ele": "608", "hiking": "yes", "information": "guidepost", "name": "K\u0159t\u00ed", "operator": "cz:K\u010cT", "ref": "PJ660", "tourism": "information"}}, {"type": "node", "id": 1013766197, "lat": 49.6203935, "lon": 13.6896713, "tags": {"ele": "576", "hiking": "yes", "information": "guidepost", "inscription": "Prvn\u00ed p\u00edsemn\u00e1 zm\u00ednka o obci z r.1379", "name": "Borovno (bus)", "operator": "cz:K\u010cT", "ref": "PJ738", "tourism": "information"}}, {"type": "node", "id": 1013766224, "lat": 49.6083574, "lon": 13.647059, "tags": {"ele": "455", "hiking": "yes", "information": "guidepost", "name": "Ho\u0159ehledy", "operator": "cz:K\u010cT", "ref": "PJ658", "tourism": "information"}}, {"type": "node", "id": 1013766227, "lat": 49.7066652, "lon": 13.6119948, "tags": {"ele": "450", "hiking": "yes", "information": "guidepost", "name": "Nad Peklem", "operator": "cz:K\u010cT", "ref": "RO323", "tourism": "information"}}, {"type": "node", "id": 1013766238, "lat": 49.6143575, "lon": 13.6041494, "tags": {"ele": "418", "hiking": "yes", "information": "guidepost", "name": "Sp\u00e1len\u00e9 Po\u0159\u00ed\u010d\u00ed (n\u00e1m.)", "operator": "cz:K\u010cT", "ref": "PJ656", "tourism": "information"}}, {"type": "node", "id": 1013766243, "lat": 49.6049172, "lon": 13.6919232, "tags": {"ele": "604", "hiking": "yes", "information": "guidepost", "name": "Planiny", "operator": "cz:K\u010cT", "ref": "PJ659", "tourism": "information"}}, {"type": "node", "id": 1013766247, "lat": 49.6149428, "lon": 13.6219928, "tags": {"ele": "432", "hiking": "yes", "information": "guidepost", "name": "Hv\u00ed\u017e\u010falka (rybn\u00edk)", "operator": "cz:K\u010cT", "ref": "PJ657", "short_name": "Hv\u00ed\u017e\u010falka (ryb.)", "tourism": "information"}}, {"type": "node", "id": 1035732355, "lat": 49.6781152, "lon": 13.6315145, "tags": {"ele": "532", "hiking": "yes", "information": "guidepost", "name": "Kam\u00ednky", "operator": "cz:K\u010cT", "ref": "PJ645;RO042", "tourism": "information"}}, {"type": "node", "id": 1035732734, "lat": 49.7266186, "lon": 13.6770634, "tags": {"ele": "498", "hiking": "yes", "information": "guidepost", "name": "H\u016freck\u00e1 cesta", "operator": "cz:K\u010cT", "ref": "RO279", "tourism": "information"}}, {"type": "node", "id": 1035732826, "lat": 49.7366212, "lon": 13.6683893, "tags": {"ele": "565", "hiking": "yes", "information": "guidepost", "name": "\u017d\u010f\u00e1r (u b\u00fdv. star\u00e9 chaty)", "operator": "cz:K\u010cT", "ref": "RO141", "tourism": "information"}}, {"type": "node", "id": 1035922796, "lat": 49.6883509, "lon": 13.659159, "tags": {"ele": "455", "hiking": "yes", "information": "guidepost", "name": "Miro\u0161ov (n\u00e1m.)", "operator": "cz:K\u010cT", "ref": "RO230", "tourism": "information"}}, {"type": "node", "id": 1035922808, "lat": 49.7391441, "lon": 13.6541399, "tags": {"ele": "596", "fixme": "position not sure, probably more to east", "fixme:cs": "pozice nen\u00ed jist\u00e1, mo\u017en\u00e1 trochu v\u00edc na v\u00fdchod", "hiking": "yes", "information": "guidepost", "name": "\u017d\u010f\u00e1r (u olt\u00e1\u0159\u016f)", "operator": "cz:K\u010cT", "ref": "RO139", "tourism": "information"}}, {"type": "node", "id": 1035922882, "lat": 49.70481, "lon": 13.6630436, "tags": {"ele": "450", "hiking": "yes", "information": "guidepost", "name": "Janov", "operator": "cz:K\u010cT", "ref": "RO232", "tourism": "information"}}, {"type": "node", "id": 1534711876, "lat": 49.6535146, "lon": 13.777184}, {"type": "node", "id": 1534711879, "lat": 49.653535, "lon": 13.7772799}, {"type": "node", "id": 1534711881, "lat": 49.6535819, "lon": 13.7771498}, {"type": "node", "id": 1534711882, "lat": 49.6536023, "lon": 13.7772457}, {"type": "node", "id": 1574538486, "lat": 49.7360286, "lon": 13.7566773, "tags": {"ele": "505", "hiking": "yes", "information": "guidepost", "name": "Stra\u0161ice (rozc.)", "operator": "cz:K\u010cT", "ref": "RO012", "source": "survey", "tourism": "information"}}, {"type": "node", "id": 1574538494, "lat": 49.7385214, "lon": 13.7551428, "tags": {"ele": "417", "hiking": "yes", "information": "guidepost", "name": "Stra\u0161ice", "operator": "cz:K\u010cT", "ref": "RO182", "source": "survey", "tourism": "information"}}, {"type": "node", "id": 1574571992, "lat": 49.746659, "lon": 13.7515799, "tags": {"leisure": "picnic_table", "material": "wood", "source": "survey", "tourism": "viewpoint"}}, {"type": "node", "id": 1589965177, "lat": 49.6333167, "lon": 13.6306328, "tags": {"name": "T\u011bnovick\u00e1 sk\u00e1la", "natural": "peak", "source": "mavit: Garmin Edge 705"}}, {"type": "node", "id": 1816045558, "lat": 49.5911755, "lon": 13.7739533}, {"type": "node", "id": 1816045563, "lat": 49.5912137, "lon": 13.7739016}, {"type": "node", "id": 1816045567, "lat": 49.5912201, "lon": 13.7740316}, {"type": "node", "id": 1816045573, "lat": 49.5912583, "lon": 13.77398}, {"type": "node", "id": 1817546252, "lat": 49.62864, "lon": 13.7981798, "tags": {"ele": "731", "name": "Jahodov\u00e1 hora", "natural": "peak", "source": "\u010c\u00daZK"}}, {"type": "node", "id": 1895202574, "lat": 49.5654093, "lon": 13.7780039, "tags": {"hiking": "yes", "information": "guidepost", "name": "T\u0159em\u0161\u00edn", "operator": "cz:K\u010cT", "ref": "0060/9;1060/32;3089/7", "tourism": "information"}}, {"type": "node", "id": 1921855639, "lat": 49.681533, "lon": 13.7871837, "tags": {"ele": "789", "name": "Ko\u010dka", "natural": "peak", "wikidata": "Q12031296", "wikipedia": "cs:Ko\u010dka (Brdsk\u00e1 vrchovina)"}}, {"type": "node", "id": 1924107628, "lat": 49.7060922, "lon": 13.7045864, "tags": {"ele": "607", "name": "P\u0159ev\u00e1\u017een\u00ed", "natural": "peak", "source": "gps"}}, {"type": "node", "id": 1924107635, "lat": 49.6942854, "lon": 13.6909981, "tags": {"ele": "571", "name": "Z\u00e1bor\u010d\u00ed", "natural": "peak", "source": "\u010c\u00daZK"}}, {"type": "node", "id": 2030990462, "lat": 49.5651016, "lon": 13.7782012, "tags": {"amenity": "shelter", "check_date": "2025-03-04", "shelter_type": "picnic_shelter"}}, {"type": "node", "id": 2077224900, "lat": 49.7079397, "lon": 13.6510358, "tags": {"amenity": "shelter", "shelter_type": "public_transport", "source": "cuzk:km"}}, {"type": "node", "id": 2077224901, "lat": 49.687036, "lon": 13.6603307, "tags": {"amenity": "shelter", "shelter_type": "public_transport", "source": "extrapolation"}}, {"type": "node", "id": 2077224902, "lat": 49.6871523, "lon": 13.6605829, "tags": {"amenity": "shelter", "shelter_type": "public_transport", "source": "extrapolation"}}, {"type": "node", "id": 2077224903, "lat": 49.7052941, "lon": 13.6564409, "tags": {"amenity": "shelter", "note": "p\u0159\u00edst\u0159e\u0161ek zna\u010dn\u011b po\u0161kozen", "shelter_type": "public_transport", "source": "cuzk:km;survey"}}, {"type": "node", "id": 2077224905, "lat": 49.6927921, "lon": 13.6560372, "tags": {"amenity": "shelter", "shelter_type": "public_transport", "source": "uhul:ortofoto"}}, {"type": "node", "id": 2077224906, "lat": 49.6877069, "lon": 13.6675377, "tags": {"amenity": "shelter", "bench": "yes", "shelter_type": "public_transport", "source": "survey"}}, {"type": "node", "id": 2107690062, "lat": 49.6730387, "lon": 13.6073994, "tags": {"board_type": "history", "information": "board", "name": "Tvrzi\u0161t\u011b Mydln\u00e1", "ref": "10", "source": "mavit GPS", "tourism": "information"}}, {"type": "node", "id": 2121766721, "lat": 49.5928041, "lon": 13.729296, "tags": {"ele": "801", "hiking": "yes", "information": "guidepost", "name": "Nad Mar\u00e1skem", "operator": "cz:K\u010cT", "ref": "PJ051", "tourism": "information"}}, {"type": "node", "id": 2121766722, "lat": 49.5944358, "lon": 13.7169365, "tags": {"amenity": "shelter", "name": "sen\u00edk", "source": "mavit: Garmin Edge 705"}}, {"type": "node", "id": 2121766745, "lat": 49.5928246, "lon": 13.7283918, "tags": {"ele": "805", "name": "Nad Marastkem", "natural": "peak", "old_name": "Nad Mar\u00e1skem", "source": "\u010c\u00daZK", "tourism": "viewpoint", "wikidata": "Q23814811"}}, {"type": "node", "id": 2137825914, "lat": 49.7170275, "lon": 13.6377125}, {"type": "node", "id": 2137825978, "lat": 49.7170543, "lon": 13.6375224}, {"type": "node", "id": 2137826077, "lat": 49.7170916, "lon": 13.6377332}, {"type": "node", "id": 2140754285, "lat": 49.5597263, "lon": 13.715446, "tags": {"ele": "677", "hiking": "yes", "information": "guidepost", "name": "Chyn\u00edn", "operator": "cz:K\u010cT", "ref": "PJ572", "tourism": "information"}}, {"type": "node", "id": 2140754286, "lat": 49.5795052, "lon": 13.6836982, "tags": {"ele": "560", "hiking": "yes", "information": "guidepost", "name": "Nov\u00e9 Mitrovice", "operator": "cz:K\u010cT", "ref": "PJ570", "source": "mavit GPS", "tourism": "information"}}, {"type": "node", "id": 2140754287, "lat": 49.5750706, "lon": 13.6721923, "tags": {"ele": "606", "hiking": "yes", "information": "guidepost", "name": "Pod Kor\u00e1lkou", "operator": "cz:K\u010cT", "ref": "PJ789", "source": "mavit GPS", "tourism": "information"}}, {"type": "node", "id": 2140754288, "lat": 49.5721192, "lon": 13.7087357, "tags": {"amenity": "shelter", "name": "Rybn\u00ed\u010dek"}}, {"type": "node", "id": 2149306835, "lat": 49.7312411, "lon": 13.7256968, "tags": {"ele": "465", "hiking": "yes", "information": "guidepost", "name": "Vimberk (odbo\u010dka)", "official_name": "Vimberk (odb.)", "operator": "cz:K\u010cT", "ref": "RO238", "tourism": "information"}}, {"type": "node", "id": 2149306836, "lat": 49.7309048, "lon": 13.7254897, "tags": {"ele": "465", "hiking": "yes", "information": "guidepost", "name": "Vimberk (z\u0159\u00edcenina)", "official_name": "Vimberk (z\u0159\u00edc.)", "operator": "cz:K\u010cT", "ref": "RO239", "tourism": "information"}}, {"type": "node", "id": 2160201036, "lat": 49.6513663, "lon": 13.6283898, "tags": {"name": "V\u00fdhled na M\u011b\u0161no", "source": "mavit GPS", "tourism": "viewpoint"}}, {"type": "node", "id": 2160201139, "lat": 49.6569033, "lon": 13.6061686}, {"type": "node", "id": 2160201140, "lat": 49.6569064, "lon": 13.6061171}, {"type": "node", "id": 2160201142, "lat": 49.6569486, "lon": 13.6061752}, {"type": "node", "id": 2160201143, "lat": 49.6569517, "lon": 13.6061237}, {"type": "node", "id": 2172385594, "lat": 49.5807843, "lon": 13.7268316, "tags": {"board_type": "nature", "information": "board", "name": "Fajmanovy sk\u00e1ly a Klenky", "source": "mavit GPS", "tourism": "information"}}, {"type": "node", "id": 2320338770, "lat": 49.567567, "lon": 13.7582067, "tags": {"hiking": "yes", "information": "guidepost", "name": "Dlouh\u00e1 (rozc.)", "operator": "cz:K\u010cT", "ref": "PB338;6010/15", "tourism": "information"}}, {"type": "node", "id": 2320338773, "lat": 49.5589049, "lon": 13.7742507, "tags": {"information": "guidepost", "name": "Pod T\u0159em\u0161\u00ednem - ji\u017en\u00ed rozc.", "tourism": "information"}}, {"type": "node", "id": 2320338774, "lat": 49.5627265, "lon": 13.7773027, "tags": {"hiking": "yes", "information": "guidepost", "name": "Pod T\u0159em\u0161\u00ednem - severn\u00ed rozc.", "operator": "cz:K\u010cT", "ref": "PB311", "tourism": "information"}}, {"type": "node", "id": 2357916006, "lat": 49.5672762, "lon": 13.7775292, "tags": {"ele": "827", "name": "T\u0159em\u0161\u00edn", "natural": "peak"}}, {"type": "node", "id": 2377100888, "lat": 49.7440251, "lon": 13.6746151, "tags": {"ele": "437", "hiking": "yes", "information": "guidepost", "name": "Z\u00e1padn\u011b H\u016frek", "operator": "cz:K\u010cT", "ref": "RO142", "tourism": "information"}}, {"type": "node", "id": 2377100890, "lat": 49.7300282, "lon": 13.6467719, "tags": {"ele": "463", "hiking": "yes", "information": "guidepost", "name": "\u017d\u010f\u00e1r \u2013 Bouchalka", "operator": "cz:K\u010cT", "ref": "RO278", "tourism": "information"}}, {"type": "node", "id": 2380472541, "lat": 49.7501103, "lon": 13.6205525, "tags": {"ele": "374", "hiking": "yes", "information": "guidepost", "name": "Borek", "operator": "cz:K\u010cT", "ref": "RO241", "tourism": "information"}}, {"type": "node", "id": 2380617976, "lat": 49.5653818, "lon": 13.7780071, "tags": {"information": "board", "tourism": "information"}}, {"type": "node", "id": 2380621307, "lat": 49.5661325, "lon": 13.7775565, "tags": {"amenity": "shelter", "shelter_type": "picnic_shelter"}}, {"type": "node", "id": 2420724252, "lat": 49.6687771, "lon": 13.7412983, "tags": {"ele": "725", "name": "Palc\u00ed\u0159", "natural": "peak", "source": "gps", "wikidata": "Q12043539", "wikipedia": "cs:Palc\u00ed\u0159"}}, {"type": "node", "id": 2451283372, "lat": 49.7019477, "lon": 13.6680598, "tags": {"amenity": "shelter", "note": "zast\u00e1vka zru\u0161ena, bouda z\u016fstala", "shelter_type": "public_transport", "source": "survey;uhul:ortofoto"}}, {"type": "node", "id": 2451699815, "lat": 49.7141585, "lon": 13.6402098, "tags": {"amenity": "shelter", "shelter_type": "public_transport", "source": "cuzk:km"}}, {"type": "node", "id": 2452158306, "lat": 49.7018829, "lon": 13.6472617, "tags": {"ele": "514", "name": "Svat\u00fd Vojt\u011bch", "natural": "peak", "source": "\u010c\u00daZK"}}, {"type": "node", "id": 2460137705, "lat": 49.7180173, "lon": 13.6661477, "tags": {"amenity": "shelter", "shelter_type": "public_transport", "source": "uhul:ortofoto"}}, {"type": "node", "id": 2460137707, "lat": 49.686556, "lon": 13.6502665, "tags": {"amenity": "shelter", "shelter_type": "public_transport", "source": "uhul:ortofoto"}}, {"type": "node", "id": 2460137709, "lat": 49.6701394, "lon": 13.6653801, "tags": {"amenity": "shelter", "shelter_type": "public_transport", "source": "uhul:ortofoto"}}, {"type": "node", "id": 2460137711, "lat": 49.6625023, "lon": 13.6545459, "tags": {"amenity": "shelter", "shelter_type": "public_transport", "source": "cuzk:km"}}, {"type": "node", "id": 2460137712, "lat": 49.6530353, "lon": 13.6971282, "tags": {"amenity": "shelter", "shelter_type": "public_transport", "source": "survey"}}, {"type": "node", "id": 2460200845, "lat": 49.6847235, "lon": 13.6396204, "tags": {"amenity": "shelter", "shelter_type": "public_transport", "source": "uhul:ortofoto"}}, {"type": "node", "id": 2463275230, "lat": 49.6963321, "lon": 13.6021021}, {"type": "node", "id": 2463275231, "lat": 49.6963526, "lon": 13.6021509}, {"type": "node", "id": 2463275233, "lat": 49.6963759, "lon": 13.6020579}, {"type": "node", "id": 2463275234, "lat": 49.6963965, "lon": 13.6021066}, {"type": "node", "id": 2590595937, "lat": 49.7338335, "lon": 13.7067863, "tags": {"ele": "608", "name": "B\u00e1bovka", "natural": "peak", "note": "p\u011bkn\u00fd v\u00fdhled, dv\u011b vrcholov\u00e9 mohyly", "source": "mavit Garmin Edge 705"}}, {"type": "node", "id": 2590595944, "lat": 49.7349397, "lon": 13.7059717, "tags": {"ele": "565", "hiking": "yes", "information": "guidepost", "name": "B\u00e1bovka", "operator": "cz:K\u010cT", "ref": "RO281", "source": "mavit Garmin Edge 705", "tourism": "information"}}, {"type": "node", "id": 2590595949, "lat": 49.7503208, "lon": 13.7428968, "tags": {"ele": "659", "name": "Bambule", "natural": "peak"}}, {"type": "node", "id": 2594069386, "lat": 49.6706256, "lon": 13.6695068, "tags": {"ele": "558", "name": "Velk\u00fd P\u0159ecek", "natural": "peak", "source": "\u010c\u00daZK"}}, {"type": "node", "id": 2594069387, "lat": 49.664706, "lon": 13.6441788, "tags": {"name": "P\u0159\u00edkosick\u00e1 vyhl\u00eddka", "source": "mavit Garmin Edge 705", "tourism": "viewpoint"}}, {"type": "node", "id": 2594069388, "lat": 49.6688306, "lon": 13.6406745, "tags": {"ele": "568", "name": "Ve sk\u00e1l\u00e1ch", "natural": "peak", "source": "\u010c\u00daZK"}}, {"type": "node", "id": 2600583123, "lat": 49.6821681, "lon": 13.6210842, "tags": {"ele": "541", "name": "U habru", "natural": "peak", "source": "\u010c\u00daZK"}}, {"type": "node", "id": 2600587493, "lat": 49.695548, "lon": 13.6539904, "tags": {"board_type": "history", "description": "Nau\u010dn\u00e1 stezka Za \u010dern\u00fdm diamantem, zastaven\u00ed \u010d. 6", "information": "board", "name": "Na Dolin\u00e1ch", "ref": "6", "source": "survey", "tourism": "information"}}, {"type": "node", "id": 2600589164, "lat": 49.7005114, "lon": 13.6522096, "tags": {"board_type": "history", "description": "Nau\u010dn\u00e1 stezka Za \u010dern\u00fdm diamantem, zastaven\u00ed \u010d. 5", "information": "board", "name": "\u010ctrn\u00e1ctka", "ref": "5", "source": "mavit GPS", "tourism": "information"}}, {"type": "node", "id": 2600606591, "lat": 49.7246142, "lon": 13.6565472, "tags": {"ele": "549.3", "name": "Hr\u00e1deck\u00fd vrch", "natural": "peak"}}, {"type": "node", "id": 2600606592, "lat": 49.7235535, "lon": 13.6598182, "tags": {"name": "Vyhl\u00eddka na Pavlovsko", "tourism": "viewpoint"}}, {"type": "node", "id": 2600611627, "lat": 49.7269281, "lon": 13.686648, "tags": {"ele": "590", "name": "Kones\u016fv vrch", "natural": "peak", "source": "mavit GPS"}}, {"type": "node", "id": 2600611630, "lat": 49.7290619, "lon": 13.6891324, "tags": {"name": "Vyhl\u00eddka na \u017d\u010f\u00e1r", "tourism": "viewpoint"}}, {"type": "node", "id": 2600663009, "lat": 49.7226555, "lon": 13.7265805, "tags": {"name": "Skaln\u00ed vyhl\u00eddka z Vl\u010de na Stra\u0161ice", "tourism": "viewpoint"}}, {"type": "node", "id": 2600663010, "lat": 49.7226404, "lon": 13.7266508, "tags": {"ele": "601", "name": "Vl\u010d", "natural": "peak"}}, {"type": "node", "id": 2603592018, "lat": 49.6920305, "lon": 13.7189709, "tags": {"ele": "634", "name": "Dubina", "natural": "peak", "source": "mavit: Garmin Edge 705", "wikidata": "Q50360378"}}, {"type": "node", "id": 2603592041, "lat": 49.6902763, "lon": 13.7260256}, {"type": "node", "id": 2603592042, "lat": 49.6902902, "lon": 13.7261247}, {"type": "node", "id": 2603592043, "lat": 49.6903084, "lon": 13.7260148}, {"type": "node", "id": 2603592044, "lat": 49.6903223, "lon": 13.726114}, {"type": "node", "id": 2603592069, "lat": 49.6942173, "lon": 13.7031765, "tags": {"amenity": "shelter", "source": "mavit: Garmin Edge 705"}}, {"type": "node", "id": 2655846299, "lat": 49.6480665, "lon": 13.7553145}, {"type": "node", "id": 2655846300, "lat": 49.6481148, "lon": 13.7554235}, {"type": "node", "id": 2655846301, "lat": 49.648144, "lon": 13.7552326}, {"type": "node", "id": 2655846302, "lat": 49.6481571, "lon": 13.7553788}, {"type": "node", "id": 2659161720, "lat": 49.7109674, "lon": 13.6430284}, {"type": "node", "id": 2659161721, "lat": 49.7109824, "lon": 13.6430668}, {"type": "node", "id": 2659161723, "lat": 49.7110058, "lon": 13.6429926}, {"type": "node", "id": 2659161724, "lat": 49.7110208, "lon": 13.6430309}, {"type": "node", "id": 2694658752, "lat": 49.7026443, "lon": 13.6613498, "tags": {"board_type": "history", "description": "Nau\u010dn\u00e1 stezka Za \u010dern\u00fdm diamantem, zastaven\u00ed \u010d. 3", "information": "board", "name": "Odval dolu Anton\u00edn", "ref": "3", "source": "survey", "tourism": "information"}}, {"type": "node", "id": 2694658753, "lat": 49.7027484, "lon": 13.6498966, "tags": {"board_type": "history", "description": "Nau\u010dn\u00e1 stezka Za \u010dern\u00fdm diamantem, zastaven\u00ed \u010d. 4", "information": "board", "name": "Miro\u0161ov \u2013 Na Pou\u0161ti, pod sv. Vojt\u011bchem", "ref": "4", "source": "survey", "tourism": "information"}}, {"type": "node", "id": 2828325687, "lat": 49.6551079, "lon": 13.6230455}, {"type": "node", "id": 2828325689, "lat": 49.6551163, "lon": 13.6229968}, {"type": "node", "id": 2828325701, "lat": 49.6551792, "lon": 13.6230731}, {"type": "node", "id": 2828325705, "lat": 49.6551874, "lon": 13.6230245}, {"type": "node", "id": 3032948812, "lat": 49.5613486, "lon": 13.6673774, "tags": {"height": "40", "man_made": "tower", "name": "Na Sk\u00e1le", "tourism": "viewpoint", "tower:type": "bts", "website": "https://www.obec-cizkov.cz/cs/obec-cizkov/rozhledna/R19-A0/"}}, {"type": "node", "id": 3032948828, "lat": 49.560942, "lon": 13.6669153, "tags": {"amenity": "shelter", "fireplace": "yes", "shelter_type": "picnic_shelter"}}, {"type": "node", "id": 3032950238, "lat": 49.5603894, "lon": 13.6729461, "tags": {"ele": "630", "hiking": "yes", "information": "guidepost", "name": "\u017delezn\u00fd \u00dajezd (odb.)", "operator": "cz:K\u010cT", "ref": "PJ790", "tourism": "information"}}, {"type": "node", "id": 3039895395, "lat": 49.7172333, "lon": 13.6874383, "tags": {"information": "board", "name": "Doln\u00ed hamr", "tourism": "information"}}, {"type": "node", "id": 3039897649, "lat": 49.6225711, "lon": 13.7565939, "tags": {"ele": "705", "hiking": "yes", "information": "guidepost", "name": "Tesl\u00edny", "operator": "cz:K\u010cT", "ref": "PB346", "tourism": "information"}}, {"type": "node", "id": 3039897755, "lat": 49.6151925, "lon": 13.6014913, "tags": {"board_type": "history", "information": "board", "name": "Cesta otev\u0159en\u00e1", "tourism": "information"}}, {"type": "node", "id": 3336698136, "lat": 49.6552226, "lon": 13.6149458, "tags": {"ele": "503", "name": "Chlumek", "natural": "peak", "source": "\u010c\u00daZK"}}, {"type": "node", "id": 3336729636, "lat": 49.6365802, "lon": 13.6733784, "tags": {"ele": "575", "name": "H\u00e1jek", "natural": "peak", "source": "mavit Garmin Edge 705"}}, {"type": "node", "id": 3336739248, "lat": 49.6538571, "lon": 13.6722928, "tags": {"ele": "595", "name": "Homberk", "natural": "peak", "source": "\u010c\u00daZK"}}, {"type": "node", "id": 3336739260, "lat": 49.6600411, "lon": 13.6616196, "tags": {"bicycle": "yes", "hiking": "yes", "information": "map", "map_size": "region", "map_type": "topo", "name": "Mikroregion Horn\u00ed Berounka, povod\u00ed Klabavy", "tourism": "information"}}, {"type": "node", "id": 3336739261, "lat": 49.6600542, "lon": 13.6616001, "tags": {"amenity": "shelter", "shelter_type": "picnic_shelter"}}, {"type": "node", "id": 3386008116, "lat": 49.7046304, "lon": 13.6620444, "tags": {"board_type": "history", "description": "Nau\u010dn\u00e1 stezka Za \u010dern\u00fdm diamantem, zastaven\u00ed \u010d. 2", "information": "board", "name": "Historick\u00e9 lomy Nad Planinou", "ref": "2", "source": "survey", "tourism": "information"}}, {"type": "node", "id": 3386008117, "lat": 49.7031627, "lon": 13.6670242, "tags": {"board_type": "history", "description": "Nau\u010dn\u00e1 stezka Za \u010dern\u00fdm diamantem, zastaven\u00ed \u010d. 1", "information": "board", "name": "Miro\u0161ov \u2013 Zast\u00e1vka", "ref": "1", "source": "survey", "tourism": "information"}}, {"type": "node", "id": 3386008118, "lat": 49.6878013, "lon": 13.6565413, "tags": {"board_type": "history", "description": "Nau\u010dn\u00e1 stezka Za \u010dern\u00fdm diamantem, zastaven\u00ed \u010d. 7", "information": "board", "name": "N\u00e1m\u011bst\u00ed M\u00edru", "ref": "7", "source": "survey", "tourism": "information"}}, {"type": "node", "id": 3394750113, "lat": 49.5754557, "lon": 13.7821562, "tags": {"check_date": "2025-03-04", "ele": "726", "hiking": "yes", "information": "guidepost", "name": "Kobyl\u00ed hlava (rozc.)", "operator": "cz:K\u010cT", "ref": "0060/7;6201/8;PB306;1060/31", "ski": "yes", "tourism": "information"}}, {"type": "node", "id": 3394750116, "lat": 49.5689028, "lon": 13.7805481, "tags": {"ele": "777", "hiking": "yes", "information": "guidepost", "name": "T\u0159em\u0161\u00ednsk\u00e1 bouda", "operator": "cz:K\u010cT", "ref": "PB307", "ski": "yes", "tourism": "information"}}, {"type": "node", "id": 3713948107, "lat": 49.5791333, "lon": 13.7235813, "tags": {"natural": "peak", "note": "v\u00fdhled zm\u011br Z-JZ"}}, {"type": "node", "id": 3741141418, "lat": 49.6814591, "lon": 13.7872816, "tags": {"tourism": "viewpoint"}}, {"type": "node", "id": 3778059062, "lat": 49.6147908, "lon": 13.6050378, "tags": {"addr:city": "Sp\u00e1len\u00e9 Po\u0159\u00ed\u010d\u00ed", "addr:conscriptionnumber": "138", "addr:country": "CZ", "addr:housenumber": "138", "addr:place": "Sp\u00e1len\u00e9 Po\u0159\u00ed\u010d\u00ed", "addr:postcode": "33561", "addr:street": "N\u00e1m\u011bst\u00ed Svobody", "information": "office", "name": "Sp\u00e1len\u00e9 Po\u0159\u00ed\u010d\u00ed", "opening_hours": "May-Sep Mo-Sa 09:00-12:00,12:45-17:00; Oct-Apr Mo,We 07:30-11:30,12:00-18:00; Oct-Apr Tu,Th 07:30-11:30,12:00-14:30; Oct-Apr Fr 07:30-11:30,12:00-15:00; Oct-Apr Sa off", "phone": "+420 605 368 410", "source:addr": "cuzk:ruian", "tourism": "information", "website": "http://www.spaleneporici.cz/"}}, {"type": "node", "id": 3791838461, "lat": 49.6228686, "lon": 13.7249876, "tags": {"ele": "648", "hiking": "yes", "information": "guidepost", "name": "M\u00ed\u0161ov (bus)", "operator": "cz:K\u010cT", "ref": "PJ661", "tourism": "information"}}, {"type": "node", "id": 3791838463, "lat": 49.6025411, "lon": 13.7286196, "tags": {"ele": "668", "hiking": "yes", "information": "guidepost", "name": "U D\u00edv\u010d\u00ed stud\u00e1nky", "operator": "cz:K\u010cT", "ref": "PJ052", "tourism": "information"}}, {"type": "node", "id": 3791838490, "lat": 49.6065353, "lon": 13.7202108, "tags": {"amenity": "shelter", "source": "mavit GPS"}}, {"type": "node", "id": 3791838493, "lat": 49.6081845, "lon": 13.7153748}, {"type": "node", "id": 3791838494, "lat": 49.6081897, "lon": 13.7153631}, {"type": "node", "id": 3791838495, "lat": 49.6081897, "lon": 13.7153803}, {"type": "node", "id": 3791838496, "lat": 49.6081949, "lon": 13.7153686}, {"type": "node", "id": 3851889201, "lat": 49.725837, "lon": 13.6743214, "tags": {"ele": "531.9", "name": "Kouklova hora", "natural": "peak"}}, {"type": "node", "id": 3851905357, "lat": 49.7383079, "lon": 13.6581905, "tags": {"tourism": "viewpoint"}}, {"type": "node", "id": 3851906347, "lat": 49.7389913, "lon": 13.6524245, "tags": {"tourism": "viewpoint"}}, {"type": "node", "id": 3870411126, "lat": 49.7335059, "lon": 13.6460153, "tags": {"amenity": "shelter", "shelter_type": "picnic_shelter"}}, {"type": "node", "id": 3921306543, "lat": 49.7106944, "lon": 13.6489964}, {"type": "node", "id": 3921306544, "lat": 49.7107084, "lon": 13.6490137}, {"type": "node", "id": 3921306545, "lat": 49.7107145, "lon": 13.6489527}, {"type": "node", "id": 3921306546, "lat": 49.7107294, "lon": 13.6489664}, {"type": "node", "id": 4127513889, "lat": 49.7363339, "lon": 13.6361183, "tags": {"ele": "435", "hiking": "yes", "information": "guidepost", "name": "Poles\u00ed \u017dd\u00e1r", "operator": "cz:K\u010cT", "ref": "RO138", "tourism": "information"}}, {"type": "node", "id": 4143041627, "lat": 49.7221227, "lon": 13.6175124, "tags": {"ele": "358", "hiking": "yes", "information": "guidepost", "name": "Kamenn\u00fd \u00dajezd \u017est.", "operator": "cz:K\u010cT", "ref": "RO054", "tourism": "information"}}, {"type": "node", "id": 4143041630, "lat": 49.7163747, "lon": 13.6147774, "tags": {"ele": "422", "hiking": "yes", "information": "guidepost", "name": "Pod Kotl\u00edkem", "operator": "cz:K\u010cT", "ref": "RO053", "tourism": "information"}}, {"type": "node", "id": 4159793676, "lat": 49.6746884, "lon": 13.6033842, "tags": {"ele": "486", "hiking": "yes", "information": "guidepost", "name": "U kostel\u00edka", "operator": "cz:K\u010cT", "ref": "PJ026", "tourism": "information"}}, {"type": "node", "id": 4166963367, "lat": 49.7384359, "lon": 13.6579552, "tags": {"ele": "629", "hiking": "yes", "information": "guidepost", "name": "\u017d\u010f\u00e1r (vrchol)", "operator": "cz:K\u010cT", "ref": "RO140", "tourism": "information"}}, {"type": "node", "id": 4167763991, "lat": 49.7515028, "lon": 13.7937327, "tags": {"ele": "532", "hiking": "yes", "information": "guidepost", "name": "T\u011bn\u011b", "operator": "cz:K\u010cT", "ref": "RO283", "tourism": "information"}}, {"type": "node", "id": 4167763992, "lat": 49.7450988, "lon": 13.7947328, "tags": {"ele": "520", "hiking": "yes", "information": "guidepost", "name": "U Brodu", "operator": "cz:K\u010cT", "ref": "RO010", "tourism": "information"}}, {"type": "node", "id": 4271277811, "lat": 49.581695, "lon": 13.6379902, "tags": {"ele": "592", "hiking": "yes", "information": "guidepost", "name": "Nechanice", "operator": "cz:K\u010cT", "ref": "PJ569", "tourism": "information"}}, {"type": "node", "id": 4309438888, "lat": 49.6478944, "lon": 13.7555879, "tags": {"amenity": "shelter", "fireplace": "yes", "shelter_type": "picnic_shelter"}}, {"type": "node", "id": 4309440489, "lat": 49.647928, "lon": 13.7556657, "tags": {"information": "board", "source": "survey", "tourism": "information"}}, {"type": "node", "id": 4341018795, "lat": 49.6478569, "lon": 13.7556168, "tags": {"bicycle": "yes", "ele": "638", "hiking": "yes", "information": "guidepost", "name": "Ho\u0159ej\u0161\u00ed padr\u0165sk\u00fd rybn\u00edk", "operator": "cz:K\u010cT", "ref": "PJ046", "tourism": "information"}}, {"type": "node", "id": 4341056690, "lat": 49.6377142, "lon": 13.7438939, "tags": {"ele": "707", "hiking": "yes", "information": "guidepost", "name": "B\u0159\u00edzkovec", "operator": "cz:K\u010cT", "ref": "PJ047", "tourism": "information"}}, {"type": "node", "id": 4341713004, "lat": 49.6351569, "lon": 13.7483873, "tags": {"ele": "719", "natural": "peak", "source": "\u010c\u00daZK"}}, {"type": "node", "id": 4359747857, "lat": 49.715402, "lon": 13.7862512, "tags": {"ele": "651.2", "name": "Lipovsko", "natural": "peak"}}, {"type": "node", "id": 4379681888, "lat": 49.6085242, "lon": 13.676242, "tags": {"amenity": "shelter", "shelter_type": "picnic_shelter"}}, {"type": "node", "id": 4379681889, "lat": 49.6085294, "lon": 13.6764297, "tags": {"board_type": "nature", "information": "board", "name": "P\u0159\u00edrodn\u00ed Rezervace Kok\u0161\u00edn", "tourism": "information"}}, {"type": "node", "id": 4384431698, "lat": 49.6342616, "lon": 13.7139162, "tags": {"ele": "665", "name": "Star\u00e1 hora", "natural": "peak", "source": "mavit Garmin edge 705"}}, {"type": "node", "id": 4424117627, "lat": 49.5604242, "lon": 13.6679456, "tags": {"bicycle": "yes", "hiking": "yes", "information": "map", "name": "Mikroregion Radyn\u011b", "tourism": "information"}}, {"type": "node", "id": 4424957569, "lat": 49.6100623, "lon": 13.648755, "tags": {"addr:city": "Sp\u00e1len\u00e9 Po\u0159\u00ed\u010d\u00ed", "addr:conscriptionnumber": "35", "addr:country": "CZ", "addr:housenumber": "35", "addr:place": "Ho\u0159ehledy", "addr:postcode": "33561", "information": "office", "internet_access": "yes", "name": "Informa\u010dn\u00ed Centrum Brdy", "operator": "\u010cesk\u00e1 Golfov\u00e1 Asociace s.r.o.", "phone": "+420 606 793 476", "source:addr": "cuzk:ruian", "tourism": "information", "website": "https://www.icbrdy.cz/"}}, {"type": "node", "id": 4492525991, "lat": 49.5672549, "lon": 13.7774075, "tags": {"ele": "827", "hiking": "yes", "information": "guidepost", "name": "T\u0159em\u0161\u00edn", "operator": "cz:K\u010cT", "ref": "PB308", "tourism": "information"}}, {"type": "node", "id": 4493930642, "lat": 49.6089166, "lon": 13.7947182, "tags": {"hiking": "yes", "information": "guidepost", "name": "Chynsk\u00e1 h\u00e1jovna", "operator": "cz:K\u010cT", "ref": "PB341", "tourism": "information"}}, {"type": "node", "id": 4493973213, "lat": 49.5869058, "lon": 13.7781908, "tags": {"ele": "757", "hiking": "yes", "information": "guidepost", "name": "Hengst", "operator": "cz:K\u010cT", "ref": "PB344", "tourism": "information"}}, {"type": "node", "id": 4493973214, "lat": 49.5910528, "lon": 13.7737536, "tags": {"hiking": "yes", "information": "guidepost", "name": "Roubenka", "operator": "cz:K\u010cT", "ref": "6010/7", "tourism": "information"}}, {"type": "node", "id": 4493973215, "lat": 49.6096205, "lon": 13.7704392, "tags": {"hiking": "yes", "information": "guidepost", "name": "Sp\u00e1len\u00e1 bouda", "operator": "cz:K\u010cT", "ref": "PB342", "tourism": "information"}}, {"type": "node", "id": 4494050228, "lat": 49.5738524, "lon": 13.7526367, "tags": {"hiking": "yes", "information": "guidepost", "name": "Moricka", "operator": "cz:K\u010cT", "ref": "6010/16;PB288", "tourism": "information"}}, {"type": "node", "id": 4494050229, "lat": 49.5721255, "lon": 13.7088023, "tags": {"ele": "620", "hiking": "yes", "information": "guidepost", "name": "Rybn\u00ed\u010dek", "operator": "cz:K\u010cT", "ref": "PJ571", "tourism": "information"}}, {"type": "node", "id": 4496325019, "lat": 49.6158104, "lon": 13.7944476, "tags": {"hiking": "yes", "information": "guidepost", "name": "Brdy RS", "operator": "cz:K\u010cT", "ref": "PB340", "tourism": "information"}}, {"type": "node", "id": 4496325020, "lat": 49.6191018, "lon": 13.7910144, "tags": {"hiking": "yes", "information": "guidepost", "name": "Brdy bus", "operator": "cz:K\u010cT", "ref": "PB339", "tourism": "information"}}, {"type": "node", "id": 4498873009, "lat": 49.6648468, "lon": 13.6566868, "tags": {"amenity": "shelter", "covered": "yes", "shelter_type": "picnic_shelter", "source": "mavit Garmin Edge 705"}}, {"type": "node", "id": 4511136259, "lat": 49.7186613, "lon": 13.7961772, "tags": {"ele": "620", "hiking": "yes", "information": "guidepost", "name": "Lipovsko (odbo\u010dka)", "official_name": "Lipovsko (odb.)", "operator": "cz:K\u010cT", "ref": "RO061", "tourism": "information"}}, {"type": "node", "id": 4511136260, "lat": 49.7148886, "lon": 13.786381, "tags": {"description": "Zbytky hradu Ro\u017emberk\u016f. Hrad vyp\u00e1len a zbo\u0159en vojsky Karla IV roku 1352.", "ele": "640", "hiking": "yes", "information": "guidepost", "name": "Lipovsko", "operator": "cz:K\u010cT", "ref": "RO062", "tourism": "information"}}, {"type": "node", "id": 4511136261, "lat": 49.7322482, "lon": 13.7896368, "tags": {"ele": "545", "hiking": "yes", "information": "guidepost", "name": "Kolensk\u00e1 cesta", "operator": "cz:K\u010cT", "ref": "RO060", "source": "gps", "tourism": "information"}}, {"type": "node", "id": 4511136263, "lat": 49.7344052, "lon": 13.79115, "tags": {"ele": "550", "hiking": "yes", "information": "guidepost", "name": "Na Dlouh\u00e9", "operator": "cz:K\u010cT", "ref": "RO047", "source": "gps", "tourism": "information"}}, {"type": "node", "id": 4511136264, "lat": 49.7085079, "lon": 13.7865752, "tags": {"ele": "535", "hiking": "yes", "information": "guidepost", "name": "U Zl\u00e1man\u00e9 l\u00e1vky", "operator": "cz:K\u010cT", "ref": "RO001", "source": "mavit Garmin Edge 705", "tourism": "information"}}, {"type": "node", "id": 4880835289, "lat": 49.6310122, "lon": 13.7993981, "tags": {"ele": "705", "hiking": "yes", "information": "guidepost", "name": "Jahodov\u00e1 hora (rozc.)", "operator": "cz:K\u010cT", "ref": "PB403", "tourism": "information"}}, {"type": "node", "id": 4880893538, "lat": 49.6015917, "lon": 13.7342105, "tags": {"ele": "687", "hiking": "yes", "information": "guidepost", "mtb": "yes", "name": "Pod Mar\u00e1skem", "operator": "cz:K\u010cT", "ref": "PB106", "tourism": "information"}}, {"type": "node", "id": 4986139782, "lat": 49.7296652, "lon": 13.6364311, "tags": {"bicycle": "yes", "check_date": "2025-06-30", "hiking": "yes", "information": "map", "map_size": "site", "map_type": "topo", "mtb": "yes", "name": "\u017d\u010f\u00e1rsk\u00e9 stud\u00e1nky", "tourism": "information"}}, {"type": "node", "id": 5019460927, "lat": 49.717732, "lon": 13.6946135, "tags": {"amenity": "shelter", "shelter_type": "public_transport"}}, {"type": "node", "id": 5019460929, "lat": 49.7154153, "lon": 13.6847774, "tags": {"amenity": "shelter", "shelter_type": "public_transport", "source": "cuzk:km;survey"}}, {"type": "node", "id": 5019460931, "lat": 49.7178604, "lon": 13.6369957, "tags": {"amenity": "shelter", "shelter_type": "public_transport", "source": "survey"}}, {"type": "node", "id": 5019460933, "lat": 49.7105822, "lon": 13.6431258, "tags": {"amenity": "shelter", "shelter_type": "public_transport", "source": "survey"}}, {"type": "node", "id": 5019460941, "lat": 49.7003608, "lon": 13.6521342, "tags": {"amenity": "shelter", "shelter_type": "public_transport"}}, {"type": "node", "id": 5019460957, "lat": 49.711086, "lon": 13.6479904, "tags": {"information": "map", "map_size": "city", "map_type": "street", "name": "Hr\u00e1dek", "source": "survey", "tourism": "information"}}, {"type": "node", "id": 5019948314, "lat": 49.7425715, "lon": 13.6028926, "tags": {"amenity": "shelter", "shelter_type": "public_transport"}}, {"type": "node", "id": 5019948319, "lat": 49.7423578, "lon": 13.6019416, "tags": {"amenity": "shelter", "shelter_type": "public_transport"}}, {"type": "node", "id": 5019948521, "lat": 49.6681982, "lon": 13.6629776, "tags": {"amenity": "shelter", "shelter_type": "public_transport"}}, {"type": "node", "id": 5020193763, "lat": 49.6512588, "lon": 13.6843382, "tags": {"amenity": "shelter", "shelter_type": "public_transport"}}, {"type": "node", "id": 5022994498, "lat": 49.733935, "lon": 13.7610068, "tags": {"facebook": "https://www.facebook.com/muzeumstrednichbrd/", "information": "office", "name": "Informa\u010dn\u00ed centrum Stra\u0161ice", "phone": "+420 371 595 959;+ 420 602 366 945", "tourism": "information"}}, {"type": "node", "id": 5038518521, "lat": 49.7246905, "lon": 13.6157381, "tags": {"amenity": "shelter", "fireplace": "no", "shelter_type": "public_transport", "source": "survey"}}, {"type": "node", "id": 5043658195, "lat": 49.5644354, "lon": 13.7802567, "tags": {"ele": "790", "hiking": "yes", "information": "guidepost", "name": "T\u0159em\u0161\u00edn - Kaple (rozc.)", "operator": "cz:K\u010cT", "ref": "PB310;6010/12;1060/33", "tourism": "information"}}, {"type": "node", "id": 5054566377, "lat": 49.5998368, "lon": 13.6778085, "tags": {"ele": "684", "name": "Kok\u0161\u00edn", "natural": "peak", "note": "There are two peaks, this one has the geodetic marks so I moved it here.", "source": "survey", "wikidata": "Q30617570"}}, {"type": "node", "id": 5060154834, "lat": 49.621111, "lon": 13.7024964, "tags": {"ele": "628", "name": "Z\u00edv\u00e1n\u00ed", "natural": "peak"}}, {"type": "node", "id": 5060962395, "lat": 49.5659302, "lon": 13.6716659, "tags": {"amenity": "shelter", "name": "Na \u010c\u00edh\u00e1tku", "shelter_type": "picnic_shelter"}}, {"type": "node", "id": 5094292555, "lat": 49.6132954, "lon": 13.7977142, "tags": {"ele": "641", "name": "Kalovic vr\u0161ek", "natural": "peak", "old_name": "V\u00fdrovna", "source": "\u010c\u00daZK"}}, {"type": "node", "id": 5094298393, "lat": 49.6057616, "lon": 13.7707987, "tags": {"ele": "746", "name": "Na sk\u00e1l\u00e1ch", "natural": "peak", "source": "\u010c\u00daZK"}}, {"type": "node", "id": 5226365447, "lat": 49.6341987, "lon": 13.779586, "tags": {"ele": "555", "hiking": "yes", "information": "guidepost", "name": "V\u00e1clavka", "operator": "cz:K\u010cT", "ref": "PB405", "tourism": "information"}}, {"type": "node", "id": 5226367864, "lat": 49.6472668, "lon": 13.7689863, "tags": {"ele": "640", "hiking": "yes", "information": "guidepost", "name": "U Padr\u0165sk\u00fdch rybn\u00edk\u016f", "operator": "cz:K\u010cT", "ref": "PB406", "tourism": "information"}}, {"type": "node", "id": 5265435510, "lat": 49.7052701, "lon": 13.6522132, "tags": {"ele": "496", "natural": "peak"}}, {"type": "node", "id": 5295493348, "lat": 49.6302989, "lon": 13.6837983}, {"type": "node", "id": 5295493349, "lat": 49.6303154, "lon": 13.6837864}, {"type": "node", "id": 5295493350, "lat": 49.6303039, "lon": 13.6837487}, {"type": "node", "id": 5295493351, "lat": 49.6302875, "lon": 13.6837606}, {"type": "node", "id": 5406092108, "lat": 49.6131509, "lon": 13.6219357, "tags": {"amenity": "shelter", "source": "mavit Garmin Edge 705"}}, {"type": "node", "id": 5406092242, "lat": 49.6686894, "lon": 13.6025955, "tags": {"amenity": "shelter", "covered": "yes", "shelter_type": "picnic_shelter", "source": "mavit Garmin Edge 705"}}, {"type": "node", "id": 5485179549, "lat": 49.7282209, "lon": 13.7367591, "tags": {"direction": "0-180", "ele": "547", "name": "Velk\u00fd k\u00e1men", "source": "GPX;survey;Bing aerial (shifted)", "tourism": "viewpoint"}}, {"type": "node", "id": 5493889986, "lat": 49.6704517, "lon": 13.6657027}, {"type": "node", "id": 5493889987, "lat": 49.670472, "lon": 13.6657416}, {"type": "node", "id": 5493889988, "lat": 49.6705288, "lon": 13.6656727}, {"type": "node", "id": 5493889989, "lat": 49.6705085, "lon": 13.6656336}, {"type": "node", "id": 5629222158, "lat": 49.7376061, "lon": 13.6731658, "tags": {"ele": "530", "hiking": "yes", "information": "guidepost", "name": "Nad Jezev\u010dinami", "operator": "cz:K\u010cT", "ref": "RO070", "tourism": "information"}}, {"type": "node", "id": 5629222159, "lat": 49.7264326, "lon": 13.6492202, "tags": {"ele": "470", "hiking": "yes", "information": "guidepost", "name": "Nad Haldou (stud\u00e1nka)", "official_name": "Nad Haldou (stud.)", "operator": "cz:K\u010cT", "ref": "RO065", "tourism": "information"}}, {"type": "node", "id": 5629222163, "lat": 49.7272543, "lon": 13.6527239, "tags": {"hiking": "yes", "information": "guidepost", "operator": "cz:K\u010cT", "ref": "RO278", "tourism": "information"}}, {"type": "node", "id": 5629222165, "lat": 49.7266681, "lon": 13.6531388, "tags": {"ele": "503", "hiking": "yes", "information": "guidepost", "name": "Hr\u00e1deck\u00fd vrch (stud\u00e1nka)", "official_name": "Hr\u00e1deck\u00fd vrch (stud.)", "operator": "cz:K\u010cT", "ref": "RO064", "tourism": "information"}}, {"type": "node", "id": 5629222167, "lat": 49.730921, "lon": 13.6553711, "tags": {"ele": "463", "hiking": "yes", "information": "guidepost", "name": "Hr\u00e1deck\u00e1 stud\u00e1nka odbo\u010dka", "operator": "cz:K\u010cT", "ref": "RO278", "tourism": "information"}}, {"type": "node", "id": 5629222168, "lat": 49.7309215, "lon": 13.6576607, "tags": {"ele": "482", "fixme": "Poloha je odhadem z vedlej\u0161\u00edho rzcestn\u00edku.", "hiking": "yes", "information": "guidepost", "name": "V\u00a0Z\u00e1dol\u00ed (odbo\u010dka)", "official_name": "V\u00a0Z\u00e1dol\u00ed (odb.)", "operator": "cz:K\u010cT", "ref": "RO066", "tourism": "information"}}, {"type": "node", "id": 5757014955, "lat": 49.7056331, "lon": 13.6881971, "tags": {"information": "board", "tourism": "information"}}, {"type": "node", "id": 5760621029, "lat": 49.6680012, "lon": 13.7652366, "tags": {"board_type": "nature", "description": "P\u0159edm\u011bt ochrany: rak kamen\u00e1\u010d (Austropotamobius torrentium), Evropsky v\u00fdznamn\u00e1 lokalita Padr\u0165sko.", "information": "board", "name": "Ra\u010d\u00ed stezka - Padr\u0165sk\u00fd potok I.", "tourism": "information"}}, {"type": "node", "id": 5760766940, "lat": 49.703139, "lon": 13.7917952, "tags": {"board_type": "nature", "information": "board", "name": "Ra\u010d\u00ed stezka - Padr\u0165sk\u00fd potok", "tourism": "information"}}, {"type": "node", "id": 5760766941, "lat": 49.7056695, "lon": 13.7904233, "tags": {"ele": "550", "hiking": "yes", "information": "guidepost", "name": "T\u0159i trubky z\u00e1me\u010dek", "operator": "cz:K\u010cT", "ref": "RO031", "tourism": "information"}}, {"type": "node", "id": 5828659561, "lat": 49.7257122, "lon": 13.7004965, "tags": {"board_type": "history", "information": "board", "name": "Mikroregion Horn\u00ed Berounka", "tourism": "information"}}, {"type": "node", "id": 5843727811, "lat": 49.7037628, "lon": 13.7845052, "tags": {"direction": "E", "ele": "605", "name": "T\u0159itrubeck\u00e1 vyhl\u00eddka", "tourism": "viewpoint"}}, {"type": "node", "id": 5859878235, "lat": 49.698789, "lon": 13.7660114, "tags": {"ele": "736", "name": "Kamenn\u00e1", "natural": "peak", "wikidata": "Q23818151"}}, {"type": "node", "id": 5941437604, "lat": 49.7037559, "lon": 13.7844406, "tags": {"ele": "605", "hiking": "yes", "information": "guidepost", "name": "T\u0159itrubeck\u00e1 vyhl\u00eddka", "operator": "cz:K\u010cT", "tourism": "information"}}, {"type": "node", "id": 5941437610, "lat": 49.6829039, "lon": 13.7549474, "tags": {"ele": "635", "hiking": "yes", "information": "guidepost", "name": "Josefka", "ref": "RO077", "tourism": "information"}}, {"type": "node", "id": 5941437650, "lat": 49.7024739, "lon": 13.7858729, "tags": {"ele": "575", "hiking": "yes", "information": "guidepost", "name": "T\u0159itrubeck\u00e1 vyhl\u00eddka (odb.)", "operator": "cz:K\u010cT", "ref": "RO079", "tourism": "information"}}, {"type": "node", "id": 5941437651, "lat": 49.6993828, "lon": 13.7827352, "tags": {"ele": "625", "hiking": "yes", "information": "guidepost", "name": "U Skl\u00e1dan\u00e9 sk\u00e1ly", "operator": "cz:K\u010cT", "ref": "RO078", "tourism": "information"}}, {"type": "node", "id": 6028955846, "lat": 49.6716161, "lon": 13.7757525, "tags": {"ele": "662", "hiking": "yes", "information": "guidepost", "name": "Zadn\u00ed Z\u00e1b\u011bhl\u00e1", "ref": "PJ043", "tourism": "information"}}, {"type": "node", "id": 6045064999, "lat": 49.7285725, "lon": 13.6656896, "tags": {"amenity": "shelter", "shelter_type": "picnic_shelter"}}, {"type": "node", "id": 6479150229, "lat": 49.7337992, "lon": 13.672657, "tags": {"ele": "500", "fixme:cs": "pozice nejist\u00e1, n\u011bkde u t\u00e9to k\u0159i\u017eovatky", "hiking": "yes", "information": "guidepost", "name": "\u017d\u010f\u00e1r v\u00fdchod", "operator": "cz:K\u010cT", "ref": "RO069", "tourism": "information"}}, {"type": "node", "id": 6479150230, "lat": 49.741867, "lon": 13.6536685, "tags": {"ele": "480", "fixme:cs": "pozice nejist\u00e1, n\u011bkde u t\u00e9to k\u0159i\u017eovatky", "hiking": "yes", "information": "guidepost", "name": "Nad Svojkovicemi", "operator": "cz:K\u010cT", "ref": "RO074", "tourism": "information"}}, {"type": "node", "id": 6490006689, "lat": 49.6960821, "lon": 13.7114715, "tags": {"hiking": "yes", "information": "guidepost", "name": "Pod Dubinou", "note": "poloha jen orienta\u010dn\u00ed podle vzd\u00e1lenosti od jin\u00e9ho ukazatele", "operator": "cz:K\u010cT", "tourism": "information"}}, {"type": "node", "id": 6610422737, "lat": 49.734735, "lon": 13.7915005, "tags": {"amenity": "shelter", "name": "P\u0159\u00edst\u0159e\u0161ek na Dlouh\u00e9"}}, {"type": "node", "id": 6767637863, "lat": 49.6744183, "lon": 13.7903653, "tags": {"ele": "759", "hiking": "yes", "information": "guidepost", "name": "Pod Ko\u010dkou", "tourism": "information"}}, {"type": "node", "id": 6773055268, "lat": 49.6878365, "lon": 13.6565441, "tags": {"board_type": "nature", "information": "board", "name": "P\u0159\u00edrodn\u00ed park Kam\u00ednky", "tourism": "information"}}, {"type": "node", "id": 6775343382, "lat": 49.6246656, "lon": 13.6344134, "tags": {"information": "map", "map_type": "panorama", "name": "T\u011bnovick\u00e1 vyhl\u00eddka", "tourism": "information"}}, {"type": "node", "id": 6775343383, "lat": 49.6246604, "lon": 13.6343919, "tags": {"name": "T\u011bnovick\u00e1 vyhl\u00eddka", "tourism": "viewpoint"}}, {"type": "node", "id": 6775358185, "lat": 49.6069726, "lon": 13.6423585, "tags": {"board_type": "history", "information": "board", "name": "Ml\u00fdn Ho\u0159ehledy, \u010d.p. 38", "ref": "5", "tourism": "information"}}, {"type": "node", "id": 6775358186, "lat": 49.6134573, "lon": 13.6347575, "tags": {"board_type": "history", "information": "board", "name": "Labe\u017esk\u00fd \u010di Pousk\u016fv ml\u00fdn", "ref": "4", "tourism": "information"}}, {"type": "node", "id": 6775358187, "lat": 49.6142072, "lon": 13.6340369, "tags": {"board_type": "nature", "information": "board", "name": "\u0160roubk\u016fv hrad", "tourism": "information"}}, {"type": "node", "id": 6775358189, "lat": 49.6149248, "lon": 13.621943, "tags": {"board_type": "nature", "information": "board", "name": "Po \u010dem se proch\u00e1z\u00edme", "tourism": "information"}}, {"type": "node", "id": 6775358190, "lat": 49.614738, "lon": 13.6218064, "tags": {"board_type": "history", "information": "board", "name": "Hv\u00ed\u017e\u010falka - ml\u00fdn a pila", "ref": "3", "tourism": "information"}}, {"type": "node", "id": 6775358191, "lat": 49.6131169, "lon": 13.6219329, "tags": {"board_type": "nature", "information": "board", "name": "Rybn\u00edk Hv\u00ed\u017e\u010falka", "tourism": "information"}}, {"type": "node", "id": 6775358194, "lat": 49.6134671, "lon": 13.6194948, "tags": {"board_type": "nature", "information": "board", "name": "Fauna v okol\u00ed Bradavy", "ref": "4", "tourism": "information"}}, {"type": "node", "id": 6775375710, "lat": 49.6143747, "lon": 13.6136953, "tags": {"board_type": "history", "information": "board", "name": "Rohrschmied\u016fv \u010di Hall\u016fv ml\u00fdn", "ref": "2", "tourism": "information"}}, {"type": "node", "id": 6775375711, "lat": 49.6142152, "lon": 13.6129313, "tags": {"board_type": "nature", "information": "board", "name": "Regulace \u0159\u00ed\u010dky Bradavy", "tourism": "information"}}, {"type": "node", "id": 6775375712, "lat": 49.6140965, "lon": 13.6066096, "tags": {"board_type": "history", "information": "board", "name": "Podhr\u00e1zsk\u00fd ml\u00fdn pod Z\u00e1meck\u00fdm rybn\u00edkem", "ref": "1", "tourism": "information"}}, {"type": "node", "id": 6775436662, "lat": 49.6007668, "lon": 13.6025703, "tags": {"board_type": "information", "information": "board", "name": "U Rybn\u00ed\u010dku", "ref": "4", "tourism": "information"}}, {"type": "node", "id": 6775441419, "lat": 49.6089655, "lon": 13.6561039, "tags": {"board_type": "history", "information": "board", "name": "Ho\u0159ehledy - hamr a pila", "ref": "6", "tourism": "information"}}, {"type": "node", "id": 6775511512, "lat": 49.68606, "lon": 13.6665086, "tags": {"board_type": "history", "information": "board", "name": "Gustavka", "ref": "8", "tourism": "information"}}, {"type": "node", "id": 7179621265, "lat": 49.7147854, "lon": 13.7861788, "tags": {"name": "Chlukov", "tourism": "viewpoint"}}, {"type": "node", "id": 7278160800, "lat": 49.5631835, "lon": 13.6670217, "tags": {"amenity": "shelter", "shelter_type": "picnic_shelter", "source": "mavit GPS"}}, {"type": "node", "id": 7278160801, "lat": 49.5612976, "lon": 13.6673865, "tags": {"amenity": "shelter", "shelter_type": "picnic_shelter", "source": "mavit GPS"}}, {"type": "node", "id": 7278160802, "lat": 49.5649518, "lon": 13.6685747, "tags": {"amenity": "shelter", "bench": "yes", "name": "Na Rozcest\u00ed", "shelter_type": "picnic_shelter", "source": "mavit GPS"}}, {"type": "node", "id": 7299712578, "lat": 49.7396108, "lon": 13.6668527, "tags": {"ele": "493", "hiking": "yes", "information": "guidepost", "name": "Pod \u017d\u010f\u00e1rem", "operator": "cz:K\u010cT", "ref": "RO072", "tourism": "information"}}, {"type": "node", "id": 7377466767, "lat": 49.6393912, "lon": 13.6393937, "tags": {"ele": "561", "name": "Sejcov\u00e1", "natural": "peak", "source": "\u010c\u00daZK"}}, {"type": "node", "id": 7475821369, "lat": 49.6225699, "lon": 13.7568517, "tags": {"information": "board", "name": "Tesl\u00edny", "tourism": "information"}}, {"type": "node", "id": 7608371225, "lat": 49.6900678, "lon": 13.662962, "tags": {"information": "map", "map_size": "city", "map_type": "topo", "name": "Miro\u0161ov - m\u011bsto", "tourism": "information"}}, {"type": "node", "id": 7608371226, "lat": 49.6228133, "lon": 13.7249824, "tags": {"information": "map", "map_size": "region", "map_type": "scheme", "name": "Brdy", "tourism": "information"}}, {"type": "node", "id": 7630128138, "lat": 49.5617125, "lon": 13.6739244, "tags": {"board_type": "history", "information": "board", "name": "NS \u017delezn\u00fd \u00dajezd: U Hasi\u010d\u00e1rny", "tourism": "information"}}, {"type": "node", "id": 7630128140, "lat": 49.5594334, "lon": 13.7126514, "tags": {"information": "map", "map_size": "region", "map_type": "topo", "tourism": "information"}}, {"type": "node", "id": 7630128157, "lat": 49.6033054, "lon": 13.6915787, "tags": {"information": "map", "map_size": "region", "map_type": "topo", "tourism": "information"}}, {"type": "node", "id": 7898280559, "lat": 49.5690233, "lon": 13.7804402}, {"type": "node", "id": 7898280560, "lat": 49.5690241, "lon": 13.7805361}, {"type": "node", "id": 7898280561, "lat": 49.5689852, "lon": 13.7805367}, {"type": "node", "id": 7898280562, "lat": 49.5689852, "lon": 13.7804396}, {"type": "node", "id": 7900508234, "lat": 49.6130559, "lon": 13.6025847, "tags": {"board_type": "information", "information": "board", "name": "U Z\u00e1chrann\u00e9 stanice", "ref": "2", "tourism": "information"}}, {"type": "node", "id": 7900648854, "lat": 49.6644753, "lon": 13.7390883, "tags": {"board_type": "history", "information": "board", "name": "Kolv\u00edn - st\u011bhov\u00e1n\u00ed od \u010derta k \u010f\u00e1blu", "tourism": "information"}}, {"type": "node", "id": 7900648855, "lat": 49.6692629, "lon": 13.7567872, "tags": {"board_type": "nature", "information": "board", "name": "Kapesn\u00ed hory v\u017edy po ruce", "tourism": "information"}}, {"type": "node", "id": 7900648856, "lat": 49.6654723, "lon": 13.7794698, "tags": {"board_type": "nature", "information": "board", "name": "Nen\u00ed les jako les", "tourism": "information"}}, {"type": "node", "id": 7900648857, "lat": 49.6715992, "lon": 13.7756812, "tags": {"board_type": "history", "information": "board", "name": "Z\u00e1b\u011bhl\u00e1 zvan\u00e1 \"Mozolov\"", "tourism": "information"}}, {"type": "node", "id": 7900648858, "lat": 49.6604579, "lon": 13.7776916, "tags": {"board_type": "nature", "information": "board", "name": "V\u010dera nen\u00ed dnes", "tourism": "information"}}, {"type": "node", "id": 7900648859, "lat": 49.6610466, "lon": 13.761325, "tags": {"board_type": "history", "information": "board", "name": "Padr\u0165 - obec, kterou \u017eivilo \u017eelez\u00e1\u0159stv\u00ed", "tourism": "information"}}, {"type": "node", "id": 7900648869, "lat": 49.6482296, "lon": 13.7558542, "tags": {"board_type": "nature", "information": "board", "name": "Okol\u00edm Padr\u0165sk\u00fdch rybn\u00edk\u016f", "tourism": "information"}}, {"type": "node", "id": 7906133047, "lat": 49.6509141, "lon": 13.7489953, "tags": {"bicycle": "yes", "information": "guidepost", "name": "Nad Padr\u0165sk\u00fdmi rybn\u00edky", "operator": "cz:K\u010cT", "ref": "none", "tourism": "information"}}, {"type": "node", "id": 7906133048, "lat": 49.6679475, "lon": 13.764747, "tags": {"bicycle": "yes", "information": "guidepost", "inscription": "(B\u00fdval\u00e1 obec, zanikla r. 1953)", "name": "Padr\u0165", "operator": "cz:K\u010cT", "ref": "none", "tourism": "information"}}, {"type": "node", "id": 7906133049, "lat": 49.6714347, "lon": 13.7757508, "tags": {"bicycle": "yes", "information": "guidepost", "inscription": "(V Bud\u00e1ch)", "name": "Zadn\u00ed Z\u00e1b\u011bhl\u00e1", "operator": "cz:K\u010cT", "ref": "none", "tourism": "information"}}, {"type": "node", "id": 7906133050, "lat": 49.6602298, "lon": 13.7867122, "tags": {"bicycle": "yes", "information": "guidepost", "name": "P\u0159edn\u00ed Z\u00e1b\u011bhl\u00e1", "operator": "cz:K\u010cT", "ref": "none", "tourism": "information"}}, {"type": "node", "id": 7906133051, "lat": 49.6613246, "lon": 13.7615811, "tags": {"bicycle": "yes", "information": "guidepost", "name": "Dolej\u0161\u00ed Padr\u0165sk\u00fd rybn\u00edk", "operator": "cz:K\u010cT", "ref": "none", "tourism": "information"}}, {"type": "node", "id": 7992192827, "lat": 49.6550821, "lon": 13.7562663, "tags": {"information": "board", "name": "NS Okol\u00edm Padr\u0165sk\u00fdch rybn\u00edk\u016f - D\u00edky p\u0159edk\u016fm za aleje", "tourism": "information"}}, {"type": "node", "id": 7992192828, "lat": 49.6610595, "lon": 13.7669963, "tags": {"information": "board", "name": "NS Okol\u00edm Padr\u0165sk\u00fdch rybn\u00edk\u016f - Symbol brdsk\u00e9 p\u0159\u00edrody", "tourism": "information"}}, {"type": "node", "id": 7992192829, "lat": 49.6701409, "lon": 13.7764086, "tags": {"information": "board", "name": "NS Okol\u00edm Padr\u0165sk\u00fdch rybn\u00edk\u016f - Nedot\u010den\u00e1 p\u0159\u00edroda? Kdepak!", "tourism": "information"}}, {"type": "node", "id": 7992192830, "lat": 49.6681668, "lon": 13.7647802, "tags": {"information": "board", "name": "NS Okol\u00edm Padr\u0165sk\u00fdch rybn\u00edk\u016f - Voda - brdsk\u00fd poklad", "tourism": "information"}}, {"type": "node", "id": 7992192831, "lat": 49.6704366, "lon": 13.744445, "tags": {"board_type": "information", "information": "board", "name": "NS Okol\u00edm Padr\u0165sk\u00fdch rybn\u00edk\u016f - Vid\u00edte ten srub?", "tourism": "information"}}, {"type": "node", "id": 7992192832, "lat": 49.6652961, "lon": 13.7446513, "tags": {"information": "board", "name": "NS Okol\u00edm Padr\u0165sk\u00fdch rybn\u00edk\u016f - Kolv\u00edn - st\u011bhov\u00e1n\u00ed od \u010derta k \u010f\u00e1blu", "tourism": "information"}}, {"type": "node", "id": 7992192833, "lat": 49.6612137, "lon": 13.7532116, "tags": {"information": "board", "name": "NS Okol\u00edm Padr\u0165sk\u00fdch rybn\u00edk\u016f - Modr\u00e9 Brdy", "tourism": "information"}}, {"type": "node", "id": 8063986181, "lat": 49.6710267, "lon": 13.7191608}, {"type": "node", "id": 8063986182, "lat": 49.6709738, "lon": 13.7192855}, {"type": "node", "id": 8063986183, "lat": 49.6710085, "lon": 13.7193207}, {"type": "node", "id": 8063986184, "lat": 49.6710615, "lon": 13.719196}, {"type": "node", "id": 8108463369, "lat": 49.6712388, "lon": 13.7179137, "tags": {"board_type": "nature", "information": "board", "name": "P\u0159\u00edroda oblasti Kolv\u00edna - v\u00fdznamn\u00e9 prvky ochrany", "tourism": "information"}}, {"type": "node", "id": 8149068235, "lat": 49.7129917, "lon": 13.6067625, "tags": {"bicycle": "yes", "hiking": "yes", "information": "map", "map_size": "region", "map_type": "topo", "name": "Rozhledna na Kotli", "tourism": "information"}}, {"type": "node", "id": 8387097464, "lat": 49.7110252, "lon": 13.6835969, "tags": {"information": "map", "tourism": "information"}}, {"type": "node", "id": 8712639820, "lat": 49.6208508, "lon": 13.6592426, "tags": {"amenity": "shelter", "shelter_type": "picnic_shelter"}}, {"type": "node", "id": 8712639840, "lat": 49.6316394, "lon": 13.6341459, "tags": {"board_type": "sight", "information": "board", "name": "St\u00fapa osv\u00edcen\u00ed", "tourism": "information"}}, {"type": "node", "id": 8712639841, "lat": 49.6311924, "lon": 13.6331789, "tags": {"board_type": "sight", "information": "board", "name": "Centrum buddhismu Diamantov\u00e9 cesty T\u011bnovice", "tourism": "information"}}, {"type": "node", "id": 8712639865, "lat": 49.6253461, "lon": 13.6331259, "tags": {"board_type": "history", "information": "board", "name": "Pam\u011btn\u00edci z kamene Sp\u00e1len\u00e9 Po\u0159\u00ed\u010d\u00ed (T\u011bnovice)", "tourism": "information"}}, {"type": "node", "id": 8712639875, "lat": 49.6297887, "lon": 13.6842227, "tags": {"board_type": "notice", "information": "board", "tourism": "information"}}, {"type": "node", "id": 8928535438, "lat": 49.612948, "lon": 13.6215242, "tags": {"tourism": "viewpoint"}}, {"type": "node", "id": 8962241804, "lat": 49.622944, "lon": 13.7250298, "tags": {"information": "map", "name": "Brdy-jih", "tourism": "information"}}, {"type": "node", "id": 8962241805, "lat": 49.6228675, "lon": 13.724826, "tags": {"information": "board", "name": "EVL Bradava", "tourism": "information"}}, {"type": "node", "id": 8962286918, "lat": 49.5690651, "lon": 13.7805744, "tags": {"information": "board", "name": "T\u0159em\u0161\u00ednsk\u00e1 bouda", "tourism": "information"}}, {"type": "node", "id": 8962286930, "lat": 49.5792466, "lon": 13.6842549, "tags": {"information": "map", "name": "Brdy-jih", "tourism": "information"}}, {"type": "node", "id": 8962286931, "lat": 49.5790283, "lon": 13.6841228, "tags": {"information": "board", "name": "PP Brdy", "tourism": "information"}}, {"type": "node", "id": 8962286932, "lat": 49.5756234, "lon": 13.683359, "tags": {"information": "board", "name": "Josef Linda", "tourism": "information"}}, {"type": "node", "id": 8962286933, "lat": 49.5612593, "lon": 13.6673865, "tags": {"information": "map", "tourism": "information"}}, {"type": "node", "id": 8962286934, "lat": 49.5613002, "lon": 13.667416, "tags": {"information": "board", "name": "NS \u017delezn\u00fd \u00dajezd: Rozhledna", "tourism": "information"}}, {"type": "node", "id": 8962286935, "lat": 49.5609979, "lon": 13.6668131, "tags": {"information": "board", "name": "P\u0159\u00edrodn\u00ed park Brdy", "tourism": "information"}}, {"type": "node", "id": 8962286936, "lat": 49.5630696, "lon": 13.667127, "tags": {"board_type": "nature;history", "information": "board", "name": "NS \u017delezn\u00fd \u00dajezd: Prameni\u0161t\u011b", "tourism": "information"}}, {"type": "node", "id": 8962286937, "lat": 49.5653728, "lon": 13.6636046, "tags": {"information": "board", "name": "NS \u017delezn\u00fd \u00dajezd: U Pol\u00edvkojc k\u0159\u00ed\u017ee", "tourism": "information"}}, {"type": "node", "id": 8962286938, "lat": 49.5649884, "lon": 13.668513, "tags": {"information": "board", "name": "NS \u017delezn\u00fd \u00dajezd: Na rozcest\u00ed", "tourism": "information"}}, {"type": "node", "id": 8962286939, "lat": 49.5659095, "lon": 13.6717021, "tags": {"information": "board", "name": "NS \u017delezn\u00fd \u00dajezd: Na \u010d\u00edh\u00e1tku", "tourism": "information"}}, {"type": "node", "id": 8962286940, "lat": 49.5628738, "lon": 13.6743964, "tags": {"information": "board", "name": "NS \u017delezn\u00fd \u00dajezd: U hospody", "tourism": "information"}}, {"type": "node", "id": 8962918502, "lat": 49.6225548, "lon": 13.7569065, "tags": {"information": "map", "name": "Brdy-jih", "tourism": "information"}}, {"type": "node", "id": 8971394223, "lat": 49.6600835, "lon": 13.661615, "tags": {"board_type": "notice", "information": "board", "tourism": "information"}}, {"type": "node", "id": 9009266930, "lat": 49.7511322, "lon": 13.7938104, "tags": {"information": "board", "name": "T\u011bn\u011b", "tourism": "information"}}, {"type": "node", "id": 9063076047, "lat": 49.7363595, "lon": 13.6362627, "tags": {"information": "map", "name": "\u017d\u010f\u00e1rsk\u00e9 stud\u00e1nky", "tourism": "information"}}, {"type": "node", "id": 9063076048, "lat": 49.7370717, "lon": 13.659007, "tags": {"board_type": "nature", "information": "board", "name": "P\u0159\u00edrodn\u00ed rezervace \u017d\u010f\u00e1r", "tourism": "information"}}, {"type": "node", "id": 9063076049, "lat": 49.7379754, "lon": 13.6587707, "tags": {"tourism": "viewpoint"}}, {"type": "node", "id": 9063076050, "lat": 49.7392011, "lon": 13.6536816, "tags": {"tourism": "viewpoint"}}, {"type": "node", "id": 9063076053, "lat": 49.7334119, "lon": 13.6459085, "tags": {"information": "map", "name": "\u017d\u010f\u00e1rsk\u00e9 stud\u00e1nky", "tourism": "information"}}, {"type": "node", "id": 9063076054, "lat": 49.7289197, "lon": 13.6598637, "tags": {"amenity": "shelter", "shelter_type": "picnic_shelter"}}, {"type": "node", "id": 9063805238, "lat": 49.7189909, "lon": 13.7670169, "tags": {"information": "map", "map_type": "hiking", "tourism": "information"}}, {"type": "node", "id": 9063805239, "lat": 49.7190567, "lon": 13.7670393, "tags": {"information": "board", "tourism": "information"}}, {"type": "node", "id": 9063807967, "lat": 49.656987, "lon": 13.7781818, "tags": {"tourism": "viewpoint"}}, {"type": "node", "id": 9063807983, "lat": 49.6546863, "lon": 13.7791975, "tags": {"ele": "673", "hiking": "yes", "information": "guidepost", "name": "U Stud\u00e1nky", "operator": "cz:K\u010cT", "ref": "BD043;PB407", "tourism": "information"}}, {"type": "node", "id": 9063814754, "lat": 49.5613002, "lon": 13.6673999, "tags": {"hiking": "yes", "information": "guidepost", "name": "Na sk\u00e1le", "tourism": "information"}}, {"type": "node", "id": 9063814755, "lat": 49.5603793, "lon": 13.6680478, "tags": {"hiking": "yes", "information": "guidepost", "name": "U vod\u00e1rny", "tourism": "information"}}, {"type": "node", "id": 9063814761, "lat": 49.5629425, "lon": 13.6678103, "tags": {"hiking": "yes", "information": "guidepost", "name": "Prameni\u0161t\u011b II.", "tourism": "information"}}, {"type": "node", "id": 9063814763, "lat": 49.5631487, "lon": 13.6670767, "tags": {"hiking": "yes", "information": "guidepost", "name": "Prameni\u0161t\u011b I.", "tourism": "information"}}, {"type": "node", "id": 9063814764, "lat": 49.5654195, "lon": 13.6635487, "tags": {"hiking": "yes", "information": "guidepost", "name": "U Pol\u00edvkojc k\u0159\u00ed\u017ee", "tourism": "information"}}, {"type": "node", "id": 9063814778, "lat": 49.565014, "lon": 13.6686397, "tags": {"hiking": "yes", "information": "guidepost", "name": "Na rozcest\u00ed", "tourism": "information"}}, {"type": "node", "id": 9063814784, "lat": 49.5642642, "lon": 13.6748403, "tags": {"hiking": "yes", "information": "guidepost", "name": "U k\u0159\u00ed\u017eku", "tourism": "information"}}, {"type": "node", "id": 9063814791, "lat": 49.564316, "lon": 13.6749597, "tags": {"board_type": "nature", "information": "board", "name": "MS \u201eH\u00e1j\u201c \u017delezn\u00fd \u00dajezd", "tourism": "information"}}, {"type": "node", "id": 9063814792, "lat": 49.5629599, "lon": 13.67443, "tags": {"hiking": "yes", "information": "guidepost", "name": "U hospody", "tourism": "information"}}, {"type": "node", "id": 9063925764, "lat": 49.6551284, "lon": 13.756261, "tags": {"ele": "637", "hiking": "yes", "information": "guidepost", "name": "V Aleji", "operator": "cz:K\u010cT", "ref": "PJ045", "tourism": "information"}}, {"type": "node", "id": 9066448694, "lat": 49.7501608, "lon": 13.6204575, "tags": {"information": "board", "tourism": "information"}}, {"type": "node", "id": 9067705904, "lat": 49.6851055, "lon": 13.7459007, "tags": {"bicycle": "yes", "information": "guidepost", "name": "Z\u00e1boreck\u00e9 rozcest\u00ed", "operator": "cz:K\u010cT", "tourism": "information"}}, {"type": "node", "id": 9067716082, "lat": 49.7091075, "lon": 13.7842874, "tags": {"bicycle": "yes", "information": "guidepost", "name": "U Zl\u00e1man\u00e9 l\u00e1vky", "operator": "cz:K\u010cT", "ref": "none", "tourism": "information"}}, {"type": "node", "id": 9067754675, "lat": 49.6714925, "lon": 13.7257047, "tags": {"bicycle": "yes", "information": "guidepost", "name": "Kolv\u00edn", "operator": "cz:K\u010cT", "tourism": "information"}}, {"type": "node", "id": 9070082745, "lat": 49.7187887, "lon": 13.7674944, "tags": {"bicycle": "yes", "information": "guidepost", "name": "H\u00e1jk\u016fv most", "operator": "cz:K\u010cT", "ref": "none", "tourism": "information"}}, {"type": "node", "id": 9070082746, "lat": 49.7033509, "lon": 13.7920981, "tags": {"bicycle": "yes", "information": "guidepost", "name": "T\u0159i trubky (z\u00e1me\u010dek)", "operator": "cz:K\u010cT", "ref": "none", "tourism": "information"}}, {"type": "node", "id": 9070082748, "lat": 49.6590424, "lon": 13.7892689, "tags": {"bicycle": "yes", "information": "guidepost", "operator": "cz:K\u010cT", "ref": "none", "tourism": "information"}}, {"type": "node", "id": 9074677879, "lat": 49.6169669, "lon": 13.6122326, "tags": {"board_type": "information", "information": "board", "name": "Rozhledna \u0160\u0165astn\u00e1 v\u011b\u017e", "tourism": "information"}}, {"type": "node", "id": 9074677880, "lat": 49.6203463, "lon": 13.6115293, "tags": {"board_type": "history", "information": "board", "name": "Drobn\u00e9 kamenn\u00e9 pam\u00e1tky", "ref": "5", "tourism": "information"}}, {"type": "node", "id": 9074677882, "lat": 49.6236212, "lon": 13.6102303, "tags": {"board_type": "history", "information": "board", "name": "Sp\u00e1len\u00e9 Po\u0159\u00ed\u010d\u00ed - k\u0159i\u017eovatka v\u00edry", "ref": "4", "tourism": "information"}}, {"type": "node", "id": 9074677883, "lat": 49.6249832, "lon": 13.6085638, "tags": {"board_type": "history", "information": "board", "name": "Na vyhl\u00eddce", "ref": "3", "tourism": "information"}}, {"type": "node", "id": 9074677884, "lat": 49.6250175, "lon": 13.608636, "tags": {"tourism": "viewpoint"}}, {"type": "node", "id": 9074677885, "lat": 49.6203269, "lon": 13.6055687, "tags": {"board_type": "history", "information": "board", "name": "Zem\u011bd\u011blsk\u00e9 l\u00e1ny", "ref": "2", "tourism": "information"}}, {"type": "node", "id": 9074677886, "lat": 49.6177805, "lon": 13.605462, "tags": {"board_type": "history", "information": "board", "name": "U h\u0159bitova", "ref": "1", "tourism": "information"}}, {"type": "node", "id": 9105657215, "lat": 49.6424522, "lon": 13.7161373, "tags": {"ele": "706", "name": "Trokaveck\u00e1 sk\u00e1la", "natural": "peak", "wikidata": "Q50360307"}}, {"type": "node", "id": 9147487874, "lat": 49.5915209, "lon": 13.7723648, "tags": {"information": "board", "name": "Vl\u010dava - Skalice", "tourism": "information"}}, {"type": "node", "id": 9171259969, "lat": 49.6151157, "lon": 13.6045568}, {"type": "node", "id": 9171259970, "lat": 49.6150703, "lon": 13.6045675}, {"type": "node", "id": 9171259971, "lat": 49.6150628, "lon": 13.6044917}, {"type": "node", "id": 9171259972, "lat": 49.6151081, "lon": 13.6044809}, {"type": "node", "id": 9173969712, "lat": 49.6301892, "lon": 13.6908195}, {"type": "node", "id": 9173969713, "lat": 49.6301437, "lon": 13.6908641}, {"type": "node", "id": 9173969714, "lat": 49.6301244, "lon": 13.690817}, {"type": "node", "id": 9173969715, "lat": 49.6301699, "lon": 13.6907724}, {"type": "node", "id": 9230652188, "lat": 49.6353426, "lon": 13.7044586, "tags": {"amenity": "shelter", "colour": "brown", "material": "wood", "shelter_type": "picnic_shelter"}}, {"type": "node", "id": 9263082438, "lat": 49.6512688, "lon": 13.6844665, "tags": {"board_type": "nature", "information": "board", "name": "Evropsky v\u00fdznamn\u00e1 lokalita Me\u0161ensk\u00fd potok", "tourism": "information"}}, {"type": "node", "id": 9290821599, "lat": 49.6678075, "lon": 13.7084001, "tags": {"board_type": "history", "information": "board", "name": "Z\u0159\u00edcenina hradu Dr\u0161tka", "operator": "Vojensk\u00e9 lesy a statky \u010cR, s.p.", "tourism": "information"}}, {"type": "node", "id": 9312376065, "lat": 49.7305914, "lon": 13.6422669, "tags": {"amenity": "shelter", "fireplace": "no", "shelter_type": "picnic_shelter"}}, {"type": "node", "id": 9312389737, "lat": 49.730607, "lon": 13.6423105, "tags": {"board_type": "nature", "information": "board", "name": "Lesn\u00ed arboretum \u017d\u010f\u00e1r", "operator": "Lesy m\u011bsta Rokycan s.r.o.", "tourism": "information"}}, {"type": "node", "id": 9534459630, "lat": 49.6988254, "lon": 13.7377193, "tags": {"ele": "617", "name": "B\u00edl\u00e1 sk\u00e1la", "natural": "peak"}}, {"type": "node", "id": 9550322138, "lat": 49.5795989, "lon": 13.7767381, "tags": {"ele": "788", "name": "H\u0159ebence", "natural": "peak", "source": "\u010c\u00daZK"}}, {"type": "node", "id": 9550322139, "lat": 49.5870952, "lon": 13.777683, "tags": {"ele": "761", "name": "Kobyl\u00ed hlava", "natural": "peak", "source": "\u010c\u00daZK"}}, {"type": "node", "id": 9550322141, "lat": 49.562946, "lon": 13.7670599, "tags": {"ele": "750", "name": "Naho\u0159ov", "natural": "peak", "source": "\u010c\u00daZK"}}, {"type": "node", "id": 9584927793, "lat": 49.6341006, "lon": 13.6895911, "tags": {"bicycle": "yes", "information": "guidepost", "name": "\u010c\u00ed\u010dov (rozc.)", "operator": "cz:K\u010cT", "ref": "none", "tourism": "information"}}, {"type": "node", "id": 9592766925, "lat": 49.6037051, "lon": 13.6051531, "tags": {"board_type": "nature", "information": "board", "name": "Les Obecn\u00edk", "ref": "3", "tourism": "information"}}, {"type": "node", "id": 9626166560, "lat": 49.6146855, "lon": 13.605288, "tags": {"bicycle": "yes", "information": "guidepost", "name": "Sp\u00e1len\u00e9 Po\u0159\u00ed\u010d\u00ed", "operator": "cz:K\u010cT", "ref": "none", "tourism": "information"}}, {"type": "node", "id": 9628051436, "lat": 49.6305037, "lon": 13.6834227, "tags": {"bicycle": "yes", "information": "guidepost", "operator": "cz:K\u010cT", "ref": "none", "tourism": "information"}}, {"type": "node", "id": 9629296871, "lat": 49.6292727, "lon": 13.6883694, "tags": {"bicycle": "yes", "information": "guidepost", "operator": "cz:K\u010cT", "ref": "none", "tourism": "information"}}, {"type": "node", "id": 9629296872, "lat": 49.6294091, "lon": 13.6881025, "tags": {"bicycle": "yes", "information": "guidepost", "operator": "cz:K\u010cT", "ref": "none", "tourism": "information"}}, {"type": "node", "id": 9631423367, "lat": 49.6292728, "lon": 13.6880588, "tags": {"bicycle": "yes", "information": "guidepost", "operator": "cz:K\u010cT", "ref": "none", "tourism": "information"}}, {"type": "node", "id": 9633742324, "lat": 49.6285248, "lon": 13.68882, "tags": {"bicycle": "yes", "information": "guidepost", "operator": "cz:K\u010cT", "ref": "none", "tourism": "information"}}, {"type": "node", "id": 9633742325, "lat": 49.622951, "lon": 13.7251881, "tags": {"bicycle": "yes", "information": "guidepost", "name": "M\u00ed\u0161ov", "operator": "cz:K\u010cT", "ref": "none", "tourism": "information"}}, {"type": "node", "id": 9633742326, "lat": 49.6244383, "lon": 13.7223878, "tags": {"bicycle": "yes", "information": "guidepost", "operator": "cz:K\u010cT", "ref": "none", "tourism": "information"}}, {"type": "node", "id": 9633742327, "lat": 49.6322965, "lon": 13.7296969, "tags": {"alt_name": "Ku\u0165kovsk\u00e1 my\u0165", "bicycle": "yes", "information": "guidepost", "name": "Ku\u0159kovsk\u00e1 m\u00fd\u0165", "operator": "cz:K\u010cT", "ref": "none", "tourism": "information"}}, {"type": "node", "id": 9633742328, "lat": 49.6356093, "lon": 13.7043285, "tags": {"bicycle": "yes", "information": "guidepost", "name": "Ho\u0159ice (rozcest\u00ed)", "official_name": "Ho\u0159ice (rozc.)", "operator": "cz:K\u010cT", "ref": "none", "tourism": "information"}}, {"type": "node", "id": 9703596032, "lat": 49.6300571, "lon": 13.6840819, "tags": {"bicycle": "yes", "information": "guidepost", "operator": "cz:K\u010cT", "ref": "none", "tourism": "information"}}, {"type": "node", "id": 9711866995, "lat": 49.6210746, "lon": 13.6912622, "tags": {"amenity": "shelter", "material": "wood", "shelter_type": "picnic_shelter"}}, {"type": "node", "id": 9803206024, "lat": 49.5961297, "lon": 13.6190356, "tags": {"information": "board", "name": "Franti\u0161ek Ferda", "tourism": "information"}}, {"type": "node", "id": 9804155605, "lat": 49.6371701, "lon": 13.6586425, "tags": {"bicycle": "yes", "information": "guidepost", "name": "Lu\u010di\u0161t\u011b (rozcest\u00ed)", "official_name": "Lu\u010di\u0161t\u011b (rozc.)", "operator": "cz:K\u010cT", "ref": "none", "tourism": "information"}}, {"type": "node", "id": 9811553642, "lat": 49.6023303, "lon": 13.7354904, "tags": {"bicycle": "yes", "information": "guidepost", "name": "Pod B\u016frkem", "operator": "cz:K\u010cT", "ref": "none", "tourism": "information"}}, {"type": "node", "id": 9862447918, "lat": 49.6706246, "lon": 13.7921285, "tags": {"name": "Le\u017eat\u00fd mezn\u00edk", "natural": "peak", "place": "locality"}}, {"type": "node", "id": 9874761005, "lat": 49.5959886, "lon": 13.7183306, "tags": {"ele": "735", "name": "Planinsk\u00fd vrch", "natural": "peak", "source": "cuzk:km"}}, {"type": "node", "id": 9874988012, "lat": 49.59715, "lon": 13.6569948, "tags": {"ele": "536", "name": "B\u00edl\u00e1 sk\u00e1la", "natural": "peak", "source": "cuzk:km"}}, {"type": "node", "id": 9875030397, "lat": 49.5932214, "lon": 13.6564986, "tags": {"ele": "520", "natural": "peak"}}, {"type": "node", "id": 9875164125, "lat": 49.6155808, "lon": 13.665549, "tags": {"ele": "544", "name": "Homole", "natural": "peak", "source": "cuzk:km"}}, {"type": "node", "id": 9875817624, "lat": 49.5617886, "lon": 13.6676863, "tags": {"ele": "673", "name": "Na sk\u00e1le", "natural": "peak", "source": "\u010c\u00daZK", "wikidata": "Q1961892"}}, {"type": "node", "id": 9876292965, "lat": 49.6468582, "lon": 13.732234, "tags": {"ele": "707", "name": "Okrouhl\u00edk", "natural": "peak", "wikidata": "Q50360233"}}, {"type": "node", "id": 9876337400, "lat": 49.6322602, "lon": 13.73473}, {"type": "node", "id": 9876337407, "lat": 49.6323298, "lon": 13.7347327}, {"type": "node", "id": 9876337408, "lat": 49.6323311, "lon": 13.7346505}, {"type": "node", "id": 9876345218, "lat": 49.6322615, "lon": 13.7346478}, {"type": "node", "id": 9876579257, "lat": 49.6253808, "lon": 13.6326959, "tags": {"board_type": "history", "information": "board", "name": "T\u011bnovice", "tourism": "information"}}, {"type": "node", "id": 9915290143, "lat": 49.6353648, "lon": 13.7044506, "tags": {"board_type": "sight", "information": "board", "name": "Pod Starou horou", "tourism": "information"}}, {"type": "node", "id": 9923049504, "lat": 49.6592979, "lon": 13.7855056, "tags": {"bicycle": "yes", "information": "guidepost", "operator": "cz:K\u010cT", "ref": "none", "tourism": "information"}}, {"type": "node", "id": 9923049505, "lat": 49.6608926, "lon": 13.7868051, "tags": {"bicycle": "yes", "information": "guidepost", "operator": "cz:K\u010cT", "ref": "none", "tourism": "information"}}, {"type": "node", "id": 9957708061, "lat": 49.6122781, "lon": 13.6475092, "tags": {"bicycle": "yes", "information": "guidepost", "operator": "cz:K\u010cT", "ref": "none", "tourism": "information"}}, {"type": "node", "id": 9957708062, "lat": 49.6126408, "lon": 13.6475354, "tags": {"bicycle": "yes", "information": "guidepost", "operator": "cz:K\u010cT", "ref": "none", "tourism": "information"}}, {"type": "node", "id": 10086711713, "lat": 49.6353926, "lon": 13.704466, "tags": {"direction": "NW", "tourism": "viewpoint"}}, {"type": "node", "id": 10185204330, "lat": 49.6151961, "lon": 13.6053219, "tags": {"board_type": "notice", "information": "board", "tourism": "information"}}, {"type": "node", "id": 11099124201, "lat": 49.7480302, "lon": 13.6779463, "tags": {"ele": "509", "name": "Ohrada", "natural": "peak"}}, {"type": "node", "id": 11221838391, "lat": 49.7233677, "lon": 13.6266645, "tags": {"bicycle": "yes", "information": "map", "map_type": "topo", "tourism": "information"}}, {"type": "node", "id": 11230893428, "lat": 49.6039008, "lon": 13.6367772, "tags": {"amenity": "shelter", "shelter_type": "public_transport"}}, {"type": "node", "id": 11230908843, "lat": 49.6145183, "lon": 13.6039972, "tags": {"information": "guidepost", "tourism": "information"}}, {"type": "node", "id": 11230908852, "lat": 49.6093332, "lon": 13.6472299, "tags": {"board_type": "nature", "information": "board", "name": "P\u0159\u00edrodn\u00ed Park Brdy", "tourism": "information"}}, {"type": "node", "id": 11395000603, "lat": 49.6400459, "lon": 13.7391784, "tags": {"access": "yes", "amenity": "shelter", "backcountry": "yes", "bench": "yes", "camp_site": "basic", "group_only": "no", "name": "U B\u0159\u00edzkovce", "scout": "no", "shelter": "lean_to", "shelter_type": "lean_to", "tourism": "camp_site"}}, {"type": "node", "id": 11395000618, "lat": 49.6493636, "lon": 13.7410182, "tags": {"amenity": "shelter", "backcountry": "yes", "building": "forestry", "camp_site": "basic", "description": "Poloha ur\u010dena pouze orienta\u010dn\u011b", "group_only": "no", "name": "Sen\u00edk U Kamenn\u00e9 hradby", "scout": "no", "shelter_type": "basic_hut", "tourism": "camp_site"}}, {"type": "node", "id": 11395000619, "lat": 49.7050654, "lon": 13.7097517, "tags": {"amenity": "shelter", "backcountry": "yes", "building": "forestry", "camp_site": "basic", "camp_type": "non_designated", "group_only": "no", "impromptu": "yes", "name": "Sen\u00edk pod P\u0159ev\u00e1\u017een\u00edm", "scout": "no", "shelter_type": "lean_to", "tourism": "picnic_site"}}, {"type": "node", "id": 11395000625, "lat": 49.5876232, "lon": 13.7570947, "tags": {"amenity": "shelter", "bench": "yes", "name": "Chata \u010cerven\u00e1", "shelter_type": "basic_hut", "table": "yes", "tourism": "wilderness_hut"}}, {"type": "node", "id": 12069679867, "lat": 49.6714781, "lon": 13.7190964, "tags": {"amenity": "shelter"}}, {"type": "node", "id": 12069697376, "lat": 49.6710475, "lon": 13.7194194, "tags": {"information": "map", "name": "Brdy - sever", "tourism": "information"}}, {"type": "node", "id": 12069702169, "lat": 49.6710269, "lon": 13.7191569, "tags": {"information": "board", "name": "Kolv\u00edn", "tourism": "information"}}, {"type": "node", "id": 12070308058, "lat": 49.6731719, "lon": 13.7295671, "tags": {"board_type": "nature", "description": "P\u0159\u00edrodn\u00ed pam\u00e1tka Louky pod Palc\u00ed\u0159em", "information": "board", "name": "Pch\u00e1\u010dov\u00e9 lou\u010dky ukryt\u00e9 v lese", "tourism": "information"}}, {"type": "node", "id": 12071113823, "lat": 49.6898488, "lon": 13.7723991, "tags": {"board_type": "nature", "information": "board", "name": "Ra\u010d\u00ed stezka - Padr\u0165sk\u00fd potok II.", "tourism": "information"}}, {"type": "node", "id": 12077078548, "lat": 49.6764857, "lon": 13.7702224, "tags": {"ele": "647", "natural": "peak"}}, {"type": "node", "id": 12118739195, "lat": 49.5551802, "lon": 13.6530326, "tags": {"ele": "662", "name": "Ma\u0161t\u00fd\u0159", "natural": "peak"}}, {"type": "node", "id": 12173088585, "lat": 49.6480828, "lon": 13.6998505, "tags": {"board_type": "sight", "information": "board", "name": "Trokavec", "tourism": "information"}}, {"type": "node", "id": 12173110734, "lat": 49.7403542, "lon": 13.7608511, "tags": {"board_type": "sight", "information": "board", "name": "Obec Stra\u0161ice", "tourism": "information"}}, {"type": "node", "id": 12232383846, "lat": 49.6748142, "lon": 13.6613199, "tags": {"ele": "510", "name": "Mal\u00fd P\u0159ecek", "natural": "peak", "source": "\u010c\u00daZK"}}, {"type": "node", "id": 12232383847, "lat": 49.6772732, "lon": 13.6674788, "tags": {"ele": "519", "name": "Zlamnoha", "natural": "peak", "source": "\u010c\u00daZK"}}, {"type": "node", "id": 12277190541, "lat": 49.7059825, "lon": 13.7899244, "tags": {"board_type": "history", "information": "board", "name": "Sv\u011bdek historick\u00fdch okam\u017eik\u016f", "tourism": "information"}}, {"type": "node", "id": 12277190542, "lat": 49.705005, "lon": 13.790805, "tags": {"board_type": "history", "information": "board", "name": "V\u00edtejte ve T\u0159ech Trubk\u00e1ch", "tourism": "information"}}, {"type": "node", "id": 12277190543, "lat": 49.7046362, "lon": 13.7916419, "tags": {"board_type": "history", "information": "board", "name": "Elekt\u0159ina nejen pro z\u00e1me\u010dek", "tourism": "information"}}, {"type": "node", "id": 12305203476, "lat": 49.695992, "lon": 13.7927652, "tags": {"ele": "652", "natural": "peak"}}, {"type": "node", "id": 12466697072, "lat": 49.6067793, "lon": 13.606161, "tags": {"amenity": "shelter", "shelter_type": "gazebo"}}, {"type": "node", "id": 12466806722, "lat": 49.5999028, "lon": 13.6010345, "tags": {"amenity": "shelter"}}, {"type": "node", "id": 12486355520, "lat": 49.6705868, "lon": 13.6067909, "tags": {"board_type": "history", "information": "board", "name": "Rybni\u010dn\u00ed soustava na K\u00e1bovsk\u00e9m potoce", "tourism": "information"}}, {"type": "node", "id": 12546554126, "lat": 49.7322701, "lon": 13.6034754}, {"type": "node", "id": 12546554127, "lat": 49.73227, "lon": 13.6034824}, {"type": "node", "id": 12546554128, "lat": 49.7322699, "lon": 13.6035028}, {"type": "node", "id": 12546554129, "lat": 49.7322108, "lon": 13.6035021}, {"type": "node", "id": 12546554130, "lat": 49.7322108, "lon": 13.6034838}, {"type": "node", "id": 12546554131, "lat": 49.7322109, "lon": 13.6034747}, {"type": "node", "id": 12546600380, "lat": 49.7226216, "lon": 13.6170412}, {"type": "node", "id": 12546600381, "lat": 49.7226439, "lon": 13.6169914}, {"type": "node", "id": 12546600382, "lat": 49.7226501, "lon": 13.6169978}, {"type": "node", "id": 12546600383, "lat": 49.7226285, "lon": 13.6170483}, {"type": "node", "id": 12546600384, "lat": 49.7226099, "lon": 13.6170292}, {"type": "node", "id": 12546600385, "lat": 49.7226315, "lon": 13.6169787}, {"type": "node", "id": 12546691407, "lat": 49.7171181, "lon": 13.6375439}, {"type": "node", "id": 12547018764, "lat": 49.7004595, "lon": 13.6665648}, {"type": "node", "id": 12547018765, "lat": 49.7005266, "lon": 13.6666038}, {"type": "node", "id": 12547018766, "lat": 49.7005337, "lon": 13.6665744}, {"type": "node", "id": 12547018767, "lat": 49.7004667, "lon": 13.6665353}, {"type": "node", "id": 12547053476, "lat": 49.6896668, "lon": 13.662888}, {"type": "node", "id": 12547053477, "lat": 49.6895959, "lon": 13.6628822}, {"type": "node", "id": 12547053478, "lat": 49.6895943, "lon": 13.662912}, {"type": "node", "id": 12547053479, "lat": 49.6896658, "lon": 13.6629189}, {"type": "node", "id": 12744489797, "lat": 49.672241, "lon": 13.6092423, "tags": {"board_type": "nature", "information": "board", "name": "U kostel\u00edka", "tourism": "information"}}, {"type": "node", "id": 12986399673, "lat": 49.5929789, "lon": 13.7906218, "tags": {"board_type": "nature", "description": "Tajupln\u00fdmi lesy arcibiskupstv\u00ed pra\u017esk\u00e9ho ke T\u0159em\u0161\u00ednu", "information": "board", "name": "Nau\u010dn\u00e1 stezka T\u0159em\u0161\u00edn", "tourism": "information"}}, {"type": "node", "id": 12986399674, "lat": 49.5926985, "lon": 13.7824881, "tags": {"board_type": "nature", "description": "Tajupln\u00fdmi lesy arcibiskupstv\u00ed pra\u017esk\u00e9ho ke T\u0159em\u0161\u00ednu", "information": "board", "name": "O \u0159\u00ed\u010dn\u00edch obl\u00e1zc\u00edch", "tourism": "information"}}, {"type": "node", "id": 12986399675, "lat": 49.5911199, "lon": 13.7741328, "tags": {"board_type": "nature", "description": "Tajupln\u00fdmi lesy arcibiskupstv\u00ed pra\u017esk\u00e9ho ke T\u0159em\u0161\u00ednu", "information": "board", "name": "O str\u00e1\u017en\u00edch boud\u00e1ch", "tourism": "information"}}, {"type": "node", "id": 12986399676, "lat": 49.5876069, "lon": 13.7772288, "tags": {"board_type": "nature", "description": "Tajupln\u00fdmi lesy arcibiskupstv\u00ed pra\u017esk\u00e9ho ke T\u0159em\u0161\u00ednu", "information": "board", "name": "O samot\u011b a nez\u00e1vislosti", "tourism": "information"}}, {"type": "node", "id": 12986399679, "lat": 49.5803587, "lon": 13.7787297, "tags": {"board_type": "nature", "description": "Tajupln\u00fdmi lesy arcibiskupstv\u00ed pra\u017esk\u00e9ho ke T\u0159em\u0161\u00ednu", "information": "board", "name": "Kde se dob\u0159e hospoda\u0159\u00ed, tam se dob\u0159e da\u0159\u00ed", "tourism": "information"}}, {"type": "node", "id": 12986399680, "lat": 49.5727527, "lon": 13.7769686, "tags": {"board_type": "nature", "description": "Tajupln\u00fdmi lesy arcibiskupstv\u00ed pra\u017esk\u00e9ho ke T\u0159em\u0161\u00ednu", "information": "board", "name": "O \u017eivot\u011b v kamenn\u00e9m mo\u0159i", "tourism": "information"}}, {"type": "node", "id": 12986399681, "lat": 49.566335, "lon": 13.7774969, "tags": {"board_type": "nature", "description": "Tajupln\u00fdmi lesy arcibiskupstv\u00ed pra\u017esk\u00e9ho ke T\u0159em\u0161\u00ednu", "information": "board", "name": "O T\u0159em\u0161\u00edn\u011b", "tourism": "information"}}, {"type": "node", "id": 12986399690, "lat": 49.5857626, "lon": 13.7795122, "tags": {"board_type": "nature", "description": "Tajupln\u00fdmi lesy arcibiskupstv\u00ed pra\u017esk\u00e9ho ke T\u0159em\u0161\u00ednu", "information": "board", "name": "O uhl\u00edc\u00edch schovan\u00fdch pod list\u00edm", "tourism": "information"}}, {"type": "node", "id": 13107928547, "lat": 49.5719798, "lon": 13.7770584, "tags": {"ele": "790", "name": "K\u0159emel", "natural": "peak"}}, {"type": "node", "id": 13107928548, "lat": 49.563394, "lon": 13.7975311, "tags": {"ele": "712", "name": "Jilm\u00fd", "natural": "peak"}}, {"type": "node", "id": 13107928551, "lat": 49.5619711, "lon": 13.7145721, "tags": {"ele": "688", "name": "Pod Kamenem", "natural": "peak"}}, {"type": "node", "id": 13107928552, "lat": 49.6184322, "lon": 13.7787508, "tags": {"ele": "702", "name": "Na Skl\u00e1\u0159i", "natural": "peak"}}, {"type": "node", "id": 13110946810, "lat": 49.751016, "lon": 13.7940653, "tags": {"bicycle": "yes", "information": "guidepost", "tourism": "information"}}, {"type": "node", "id": 13110946890, "lat": 49.7433623, "lon": 13.7731187, "tags": {"bicycle": "yes", "information": "guidepost", "name": "Tankovka", "tourism": "information"}}, {"type": "node", "id": 13130682909, "lat": 49.7405538, "lon": 13.7716259, "tags": {"ele": "543", "name": "Na Vr\u0161\u00edch", "natural": "peak"}}, {"type": "node", "id": 13299560717, "lat": 49.6718784, "lon": 13.7199541, "tags": {"amenity": "shelter", "shelter_type": "weather_shelter"}}, {"type": "node", "id": 13305547062, "lat": 49.6481553, "lon": 13.755258}, {"type": "node", "id": 13305547063, "lat": 49.648181, "lon": 13.7552308}, {"type": "node", "id": 13305547064, "lat": 49.6481743, "lon": 13.7554176}, {"type": "node", "id": 13305547065, "lat": 49.6482352, "lon": 13.7553531}, {"type": "node", "id": 13346852458, "lat": 49.6785854, "lon": 13.7149834, "tags": {"ele": "595", "name": "H\u0159\u00edmavka", "natural": "peak"}}, {"type": "node", "id": 13346852459, "lat": 49.7068738, "lon": 13.7029507, "tags": {"ele": "600", "name": "Jezev\u010d\u00ed sk\u00e1la", "natural": "peak"}}, {"type": "way", "id": 37894284, "nodes": [444695636, 444695634], "tags": {"bridge": "yes", "description": "Barokn\u00ed kamenn\u00fd most z konce 17. stolet\u00ed", "highway": "footway", "historic": "bridge", "layer": "1", "name": "\u0160v\u00e9dsk\u00fd most", "opening_hours": "24/7", "source": "cuzk:km", "start_date": "late C17", "surface": "sett", "tourism": "attraction", "wheelchair": "limited", "wikidata": "Q37173519", "wikipedia": "cs:\u0160v\u00e9dsk\u00fd most"}}, {"type": "way", "id": 81990919, "nodes": [955185910, 955211961, 955202002, 955175921, 955196719, 955194801, 955214656, 955180777, 955185910], "tags": {"building": "house", "building:flats": "1", "building:levels": "1", "building:ruian:type": "7", "name": "z\u00e1jezdn\u00ed hostinec Na \u017delezn\u00e9", "ref:ruian:building": "20535171", "source": "cuzk:ruian", "tourism": "attraction", "wheelchair": "yes", "wikidata": "Q38091599", "wikipedia": "cs:Z\u00e1jezdn\u00ed hostinec Na \u017delezn\u00e9"}}, {"type": "way", "id": 140064052, "nodes": [1534711876, 1534711881, 1534711882, 1534711879, 1534711876], "tags": {"amenity": "shelter", "backcountry": "yes", "building": "forestry", "camp_site": "basic", "camp_type": "non_designated", "drinking_water": "yes", "group_only": "no", "name": "Sen\u00edk U Stud\u00e1nky", "scout": "no", "shelter_type": "lean_to", "tourism": "camp_site"}}, {"type": "way", "id": 170471342, "nodes": [1816045563, 1816045558, 1816045567, 1816045573, 1816045563], "tags": {"amenity": "shelter", "backcountry": "yes", "bench": "yes", "building": "residential", "camp_site": "basic", "fireplace": "yes", "group_only": "no", "name": "Roubenka", "scout": "no", "shelter_type": "basic_hut", "tourism": "wilderness_hut"}}, {"type": "way", "id": 203787027, "nodes": [2137826077, 2137825914, 2137825978, 12546691407, 2137826077], "tags": {"amenity": "shelter", "building": "yes", "shelter_type": "public_transport", "source": "cuzk:km"}}, {"type": "way", "id": 206018190, "nodes": [2160201139, 2160201140, 2160201143, 2160201142, 2160201139], "tags": {"amenity": "shelter", "building": "yes", "name": "Chata U Sedmi veve\u0159ic", "shelter_type": "basic_hut", "tourism": "wilderness_hut"}}, {"type": "way", "id": 242009944, "nodes": [2463275230, 2463275233, 2463275234, 2463275231, 2463275230], "tags": {"amenity": "shelter", "building": "yes", "shelter_type": "public_transport", "source": "cuzk:km"}}, {"type": "way", "id": 254561962, "nodes": [2603592043, 2603592041, 2603592042, 2603592044, 2603592043], "tags": {"amenity": "shelter", "backcountry": "yes", "building": "yes", "camp_site": "basic", "camp_type": "non_designated", "description": "Bouda U V\u00e1clava u obce Sko\u0159ice.", "group_only": "no", "name": "U V\u00e1clava", "scout": "no", "shelter": "yes", "shelter_type": "basic_hut", "tourism": "wilderness_hut"}}, {"type": "way", "id": 260097038, "nodes": [2655846300, 2655846299, 2655846301, 13305547062, 13305547063, 13305547065, 13305547064, 2655846302, 2655846300], "tags": {"amenity": "shelter", "backcountry": "yes", "building": "yes", "camp_site": "basic", "group_only": "no", "name": "U pilouna", "ruian_id": "48010651", "scout": "no", "shelter": "basic_hut", "shelter_type": "basic_hut", "source": "cuzk:ruian", "tourism": "wilderness_hut"}}, {"type": "way", "id": 260427118, "nodes": [2659161724, 2659161721, 2659161720, 2659161723, 2659161724], "tags": {"amenity": "shelter", "building": "civic", "building:ruian:type": "5", "ref:ruian:building": "50434055", "shelter_type": "public_transport", "source": "cuzk:ruian"}}, {"type": "way", "id": 278467305, "nodes": [2828325689, 2828325705, 2828325701, 2828325687, 2828325689], "tags": {"amenity": "shelter", "building": "transportation", "building:ruian:type": "17", "ref:ruian:building": "40688321", "shelter_type": "public_transport", "source": "cuzk:ruian"}}, {"type": "way", "id": 375842275, "nodes": [3791838494, 3791838493, 3791838495, 3791838496, 3791838494], "tags": {"amenity": "shelter", "building": "yes", "name": "Sen\u00edk"}}, {"type": "way", "id": 388958651, "nodes": [3921306544, 3921306543, 3921306545, 3921306546, 3921306544], "tags": {"amenity": "shelter", "building": "civic", "building:ruian:type": "5", "ref:ruian:building": "43338399", "shelter_type": "public_transport", "source": "cuzk:ruian"}}, {"type": "way", "id": 548114906, "nodes": [5295493351, 5295493350, 5295493349, 5295493348, 5295493351], "tags": {"amenity": "shelter", "building": "civic", "building:levels": "1", "building:ruian:type": "5", "ref:ruian:building": "39976581", "roof:levels": "0", "roof:shape": "flat", "shelter_type": "public_transport", "source": "cuzk:km"}}, {"type": "way", "id": 571704201, "nodes": [5493889989, 5493889988, 5493889987, 5493889986, 5493889989], "tags": {"amenity": "shelter", "building": "transportation", "building:levels": "1", "building:ruian:type": "17", "ref:ruian:building": "89109651", "roof:levels": "0", "roof:shape": "flat", "shelter_type": "public_transport", "source": "cuzk:ruian"}}, {"type": "way", "id": 846553806, "nodes": [7898280559, 7898280560, 7898280561, 7898280562, 7898280559], "tags": {"access": "yes", "amenity": "shelter", "backcountry": "yes", "bench": "yes", "building": "chapel", "camp_site": "basic", "camp_type": "non_designated", "fireplace": "no", "group_only": "no", "name": "T\u0159em\u0161\u00ednsk\u00e1 kaple", "religion": "christian", "scout": "no", "shelter": "yes", "shelter_type": "basic_hut", "tourism": "wilderness_hut"}}, {"type": "way", "id": 865170840, "nodes": [8063986184, 8063986183, 8063986182, 8063986181, 8063986184], "tags": {"amenity": "shelter", "building": "roof", "fireplace": "no", "shelter_type": "lean_to", "source": "survey;Maxar Premium"}}, {"type": "way", "id": 992652536, "nodes": [9171259972, 9171259971, 9171259970, 9171259969, 9171259972], "tags": {"amenity": "shelter", "fireplace": "no", "shelter_type": "weather_shelter"}}, {"type": "way", "id": 993001443, "nodes": [9173969715, 9173969714, 9173969713, 9173969712, 9173969715], "tags": {"amenity": "shelter", "shelter_type": "weather_shelter"}}, {"type": "way", "id": 1077109080, "nodes": [9876345218, 9876337408, 9876337407, 9876337400, 9876345218], "tags": {"amenity": "shelter", "backcountry": "yes", "building": "forestry", "camp_site": "basic", "camp_type": "non_designated", "group_only": "no", "name": "Sen\u00edk na Ku\u0159kovsk\u00e9 m\u00fdti", "roof:shape": "gabled", "scout": "no", "shelter_type": "lean_to", "tourism": "camp_site"}}, {"type": "way", "id": 1355683001, "nodes": [12546554126, 12546554127, 12546554128, 12546554129, 12546554130, 12546554131, 12546554126], "tags": {"amenity": "shelter", "building": "yes", "shelter_type": "public_transport"}}, {"type": "way", "id": 1355687308, "nodes": [12546600381, 12546600382, 12546600383, 12546600380, 12546600384, 12546600385, 12546600381], "tags": {"amenity": "shelter", "building": "yes", "shelter_type": "public_transport"}}, {"type": "way", "id": 1355727744, "nodes": [12547018764, 12547018765, 12547018766, 12547018767, 12547018764], "tags": {"amenity": "shelter", "building": "yes", "shelter_type": "public_transport"}}, {"type": "way", "id": 1355731707, "nodes": [12547053476, 12547053477, 12547053478, 12547053479, 12547053476], "tags": {"amenity": "shelter", "building": "yes", "shelter_type": "public_transport"}}]}