{"version": 0.6, "generator": "Overpass API 0.7.62.8 e802775f", "osm3s": {"timestamp_osm_base": "2026-01-05T16:07:45Z", "copyright": "The data included in this document is from www.openstreetmap.org. The data is made available under ODbL."}, "elements": [{"type": "node", "id": 28306548, "lat": 49.0191482, "lon": 13.5794868, "tags": {"bicycle": "yes", "ele": "1085", "hiking": "yes", "information": "guidepost", "name": "Kvilda", "name:cs": "Kvilda", "name:de": "Au\u00dfergefild", "operator": "cz:K\u010cT", "ref": "VO092", "ski": "yes", "source": "survey", "survey:date": "2014-03-22", "tourism": "information", "wikimedia_commons": "File:2014-03-22_08.01.27_osm_092.jpg"}}, {"type": "node", "id": 265160527, "lat": 48.9734878, "lon": 13.4040553, "tags": {"amenity": "shelter", "description": "Unterstand, seitlich offen", "name": "Schutzh\u00fctte Rachelsee", "shelter_type": "weather_shelter"}}, {"type": "node", "id": 265160611, "lat": 48.955622, "lon": 13.4300252, "tags": {"hiking": "yes", "information": "guidepost", "tourism": "information"}}, {"type": "node", "id": 265160619, "lat": 48.9549826, "lon": 13.4285658, "tags": {"information": "guidepost", "tourism": "information"}}, {"type": "node", "id": 265161618, "lat": 48.9645703, "lon": 13.4186399, "tags": {"tourism": "viewpoint"}}, {"type": "node", "id": 265161624, "lat": 48.9650017, "lon": 13.4184372, "tags": {"access": "yes", "amenity": "shelter", "bench": "yes", "description": "Sch\u00fctzh\u00fctte mit umlaufender Bank und einer einer teilweise offenen Seite. W\u00e4re zum \u00dcbernachten mit Isomatte geeignet, dies ist aber im Nationalpark verboten!", "lockable": "no", "locked": "no", "name": "Schutzh\u00fctte Felsenkanzel", "picnic_table": "no", "shelter_type": "weather_shelter", "sleeping": "no", "surface": "dirt", "table": "no"}}, {"type": "node", "id": 283595849, "lat": 49.0397519, "lon": 13.5754283, "tags": {"man_made": "tower", "name": "Jezern\u00ed sla\u0165", "note": "vyhl\u00eddkov\u00e1 v\u011b\u017e", "tourism": "viewpoint", "tower:type": "observation"}}, {"type": "node", "id": 283595862, "lat": 49.0403371, "lon": 13.5744778, "tags": {"tourism": "viewpoint"}}, {"type": "node", "id": 283607334, "lat": 48.9792832, "lon": 13.5509669, "tags": {"ele": "1316", "name": "\u010cern\u00e1 hora", "name:de": "Schwarzberg", "natural": "peak", "source": "\u010c\u00daZK"}}, {"type": "node", "id": 283610895, "lat": 48.9744237, "lon": 13.5607583, "tags": {"amenity": "shelter", "name": "An der Moldauquelle", "picnic_table": "yes", "shelter_type": "weather_shelter"}}, {"type": "node", "id": 287178870, "lat": 48.9713147, "lon": 13.4822665}, {"type": "node", "id": 287178871, "lat": 48.9711915, "lon": 13.4822509}, {"type": "node", "id": 287178872, "lat": 48.971168, "lon": 13.4829169}, {"type": "node", "id": 287178873, "lat": 48.9712583, "lon": 13.4829304}, {"type": "node", "id": 288512140, "lat": 49.0724266, "lon": 13.5097775, "tags": {"ele": "850", "hiking": "yes", "information": "guidepost", "name": "Klostermann\u016fv most", "operator": "cz:K\u010cT", "ref": "SE016", "tourism": "information"}}, {"type": "node", "id": 288512156, "lat": 49.0822584, "lon": 13.5148183, "tags": {"ele": "800", "hiking": "yes", "information": "guidepost", "name": "Turnerova chata", "name:de": "Turnerh\u00fctte", "operator": "cz:K\u010cT", "ref": "SE024", "tourism": "information"}}, {"type": "node", "id": 288512378, "lat": 49.1282914, "lon": 13.4978467, "tags": {"ele": "591", "hiking": "yes", "information": "guidepost", "name": "\u00dadol\u00ed Otavy", "operator": "cz:K\u010cT", "ref": "SE021", "tourism": "information"}}, {"type": "node", "id": 288522356, "lat": 49.0536229, "lon": 13.4431195, "tags": {"ele": "1227.6", "name": "Obl\u00edk", "name:de": "Steiningberg", "natural": "peak", "wikidata": "Q2012849"}}, {"type": "node", "id": 288538220, "lat": 49.0608225, "lon": 13.5044366, "tags": {"information": "office", "name": "IS Rokyta", "tourism": "information"}}, {"type": "node", "id": 299361346, "lat": 49.1437499, "lon": 13.5554707}, {"type": "node", "id": 299361348, "lat": 49.1437889, "lon": 13.5559002}, {"type": "node", "id": 299361350, "lat": 49.1439424, "lon": 13.5559033}, {"type": "node", "id": 299361354, "lat": 49.1439576, "lon": 13.5554901}, {"type": "node", "id": 299408855, "lat": 49.0772842, "lon": 13.511541, "tags": {"ele": "840", "hiking": "yes", "information": "guidepost", "name": "H\u00e1lkova chata", "operator": "cz:K\u010cT", "ref": "0226/25", "tourism": "information"}}, {"type": "node", "id": 315540195, "lat": 48.9541921, "lon": 13.5772038, "tags": {"hiking": "yes", "information": "guidepost", "tourism": "information"}}, {"type": "node", "id": 315540476, "lat": 48.9631459, "lon": 13.5793199, "tags": {"hiking": "yes", "information": "guidepost", "tourism": "information"}}, {"type": "node", "id": 315540670, "lat": 48.9625841, "lon": 13.5641436, "tags": {"information": "guidepost", "tourism": "information"}}, {"type": "node", "id": 315540674, "lat": 48.9623755, "lon": 13.5631461, "tags": {"information": "guidepost", "tourism": "information"}}, {"type": "node", "id": 324045573, "lat": 49.0075558, "lon": 13.4083936, "tags": {"boundary": "marker", "boundary_name:cs": "\u010cesko-n\u011bmeck\u00e1 st\u00e1tn\u00ed hranice", "description:cs": "historick\u00fd znak 1765", "description:de": "historisches Grenzzeichen 1765", "historic": "boundary_stone", "inscription": "1765", "marker": "stone", "ref": "20/13 / 0/1", "tourism": "attraction", "year": "1765"}}, {"type": "node", "id": 325649889, "lat": 49.0291521, "lon": 13.5166743, "tags": {"information": "guidepost", "source": "survey", "tourism": "information"}}, {"type": "node", "id": 326089868, "lat": 49.0827326, "lon": 13.4360658, "tags": {"name": "Zelenohorsk\u00e1 vyhl\u00eddka", "note": "nev\u00edm, kde p\u0159esn\u011b je, zna\u010d\u00edm podle odbo\u010dky k n\u00ed", "tourism": "viewpoint"}}, {"type": "node", "id": 326152401, "lat": 49.026776, "lon": 13.5785275, "tags": {"information": "guidepost", "name": "U Treml\u016f", "operator": "cz:K\u010cT", "ref": "PT094", "ski": "yes", "source": "survey", "tourism": "information"}}, {"type": "node", "id": 326152538, "lat": 49.0500778, "lon": 13.5739624, "tags": {"ele": "1050", "fixme": "Skute\u010dn\u011b je ten rozcestn\u00edk tady, tj. na \u00fazem\u00ed jin\u00e9 obce ne\u017e \u0159\u00edk\u00e1 UIR-ZSJ?", "hiking": "yes", "information": "guidepost", "name": "Vyd\u0159\u00ed Most", "operator": "cz:K\u010cT", "ref": "PT189", "ref:cobe": "415596", "source": "survey", "tourism": "information"}}, {"type": "node", "id": 326152552, "lat": 49.0511078, "lon": 13.5711569, "tags": {"ele": "1047", "hiking": "yes", "information": "guidepost", "name": "U Daniela", "operator": "cz:K\u010cT", "ref": "PT350", "source": "survey", "tourism": "information"}}, {"type": "node", "id": 338631653, "lat": 48.9542087, "lon": 13.4259249, "tags": {"information": "guidepost", "tourism": "information"}}, {"type": "node", "id": 338631742, "lat": 48.9545975, "lon": 13.4225722, "tags": {"information": "guidepost", "tourism": "information"}}, {"type": "node", "id": 338637467, "lat": 48.9597685, "lon": 13.5641457, "tags": {"information": "guidepost", "tourism": "information"}}, {"type": "node", "id": 340422965, "lat": 48.9608738, "lon": 13.422769, "tags": {"information": "guidepost", "tourism": "information"}}, {"type": "node", "id": 340444628, "lat": 48.9539267, "lon": 13.4170631, "tags": {"hiking": "yes", "information": "guidepost", "tourism": "information"}}, {"type": "node", "id": 357861000, "lat": 49.0540721, "lon": 13.5639573, "tags": {"email": "infohorskakvilda@gmail.com", "information": "office", "name": "IC Horsk\u00e1 Kvilda", "opening_hours": "Su-Fr 09:00-16:00; Sa 09:00-17:00", "phone": "+420 731 530 388", "tourism": "information", "website": "http://www.horskakvilda.eu/informa%C4%8Dn%C3%AD-st%C5%99edisko.aspx", "wheelchair": "yes"}}, {"type": "node", "id": 357913555, "lat": 48.9758532, "lon": 13.5799288, "tags": {"ele": "1308", "name": "Str\u00e1\u017e", "name:cs": "Str\u00e1\u017e", "name:de": "Postberg", "natural": "peak", "source": "\u010c\u00daZK", "wikimedia_commons": "File:2014-03-22 12.30.17 Str\u00e1\u017e.jpg"}}, {"type": "node", "id": 395379416, "lat": 49.0821259, "lon": 13.5152734}, {"type": "node", "id": 395379419, "lat": 49.0820633, "lon": 13.5153021}, {"type": "node", "id": 411879032, "lat": 48.9664806, "lon": 13.5736767, "tags": {"information": "board", "name": "Fichtenhochwald", "tourism": "information"}}, {"type": "node", "id": 411886651, "lat": 48.9553224, "lon": 13.5727766, "tags": {"hiking": "yes", "information": "guidepost", "tourism": "information"}}, {"type": "node", "id": 445764610, "lat": 48.9675326, "lon": 13.48396, "tags": {"information": "board", "tourism": "information"}}, {"type": "node", "id": 482551151, "lat": 48.9664656, "lon": 13.5926195, "tags": {"board_type": "history", "check_date": "2025-08-31", "information": "board", "name": "Bu\u010dina a \"\u017eelezn\u00e1 opona\"", "tourism": "information"}}, {"type": "node", "id": 482551156, "lat": 48.9666654, "lon": 13.5926993, "tags": {"name": "\u017delezn\u00e1 opona", "tourism": "attraction"}}, {"type": "node", "id": 482551160, "lat": 48.966431, "lon": 13.5927254, "tags": {"tourism": "viewpoint"}}, {"type": "node", "id": 482735925, "lat": 49.0764779, "lon": 13.4031682, "tags": {"information": "board", "tourism": "information"}}, {"type": "node", "id": 568307343, "lat": 49.1146562, "lon": 13.4020337, "tags": {"ele": "995", "name": "Slune\u010dn\u00e1", "name:cs": "Slune\u010dn\u00e1", "name:de": "Sonnberg", "natural": "peak", "source": "cuzk:km", "wikidata": "Q109657578"}}, {"type": "node", "id": 568307346, "lat": 49.058183, "lon": 13.4644577, "tags": {"ele": "1006.9", "natural": "peak"}}, {"type": "node", "id": 568307348, "lat": 49.0660428, "lon": 13.467009, "tags": {"ele": "1020.5", "name": "Kosteln\u00ed vrch", "natural": "peak", "source": "tisicovky.cz"}}, {"type": "node", "id": 568307350, "lat": 49.0867346, "lon": 13.4848987, "tags": {"natural": "peak"}}, {"type": "node", "id": 568307351, "lat": 49.0912425, "lon": 13.4684089, "tags": {"ele": "1013", "name": "Sp\u00e1len\u00fd", "natural": "peak", "source": "cuzk:km", "wikidata": "Q71175663", "wikipedia": "cs:Sp\u00e1len\u00fd (\u0160umava)"}}, {"type": "node", "id": 576544425, "lat": 49.0397672, "lon": 13.4821198, "tags": {"ele": "1078", "name": "Adamova hora", "name:de": "Adamsberg", "natural": "peak", "source": "cuzk:km", "source:ele": "tisicovky.cz", "source:name": "tisicovky.cz", "wikidata": "Q23821603"}}, {"type": "node", "id": 576571442, "lat": 48.9642157, "lon": 13.4479409, "tags": {"ele": "1376", "name": "Plattenhausenriegel", "name:cs": "Blatn\u00fd vrch", "name:de": "Plattenhausenriegel", "natural": "peak", "source:ele": "tisicovky.cz", "source:name": "tisicovky.cz", "wikidata": "Q833090", "wikipedia": "de:Plattenhausenriegel"}}, {"type": "node", "id": 576602719, "lat": 49.0332704, "lon": 13.54355, "tags": {"ele": "1194", "name": "B\u0159ezov\u00e1 hora", "natural": "peak", "source": "\u010c\u00daZK"}}, {"type": "node", "id": 576602735, "lat": 49.0479931, "lon": 13.5359635, "tags": {"ele": "1254", "name": "Ant\u00fdgl", "name:de": "Antigl", "natural": "peak", "old_name": "Sokol", "source": "\u010c\u00daZK", "wikidata": "Q12055269"}}, {"type": "node", "id": 576602738, "lat": 49.0748627, "lon": 13.553881, "tags": {"ele": "1157", "name": "B\u0159emeno", "natural": "peak", "source": "\u010c\u00daZK"}}, {"type": "node", "id": 576633912, "lat": 49.0023628, "lon": 13.5343739, "tags": {"ele": "1245", "name": "\u010cert\u016fv vrch", "name:de": "Steink\u00f6pfel (Teufelsh\u00fcgel)", "natural": "peak", "source": "\u010c\u00daZK"}}, {"type": "node", "id": 576633915, "lat": 49.0159124, "lon": 13.5496598, "tags": {"ele": "1260", "name": "Tet\u0159ev", "name:cs": "Tet\u0159ev", "name:de": "Hanifberg", "natural": "peak", "source": "\u010c\u00daZK"}}, {"type": "node", "id": 576647351, "lat": 48.9809253, "lon": 13.5799882, "tags": {"ele": "1294", "name": "Hol\u00fd vrch", "name:cs": "Hol\u00fd vrch", "name:de": "Hochbretterberg", "natural": "peak", "source": "\u010c\u00daZK", "wikimedia_commons": "File:2014-03-22 12.07.06 Hol\u00fd vrch.jpg"}}, {"type": "node", "id": 576699904, "lat": 49.0907, "lon": 13.5512467, "tags": {"ele": "1187", "name": "Hu\u0165sk\u00e1 hora", "name:de": "Knappenberg", "natural": "peak", "source:ele": "tisicovky.cz", "source:name": "tisicovky.cz", "wikidata": "Q23824270", "wikipedia": "cs:Hu\u0165sk\u00e1 hora"}}, {"type": "node", "id": 576699907, "lat": 49.0675709, "lon": 13.5351369, "tags": {"ele": "1126", "name": "Jelen\u00ed kali\u0161t\u011b", "natural": "peak", "source": "tisicovky.cz"}}, {"type": "node", "id": 576705743, "lat": 49.0713956, "lon": 13.4274409, "tags": {"ele": "1266.1", "name": "Jezernice", "name:cs": "Jezernice", "name:de": "Seer\u00fccken", "natural": "peak", "source": "tisicovky.cz", "wikidata": "Q23824271"}}, {"type": "node", "id": 576717518, "lat": 48.9939956, "lon": 13.4270897, "tags": {"ele": "1224", "name": "Medv\u011bd\u00ed hora", "name:de": "B\u00e4rnsteindl", "natural": "peak", "source": "\u010c\u00daZK"}}, {"type": "node", "id": 576717519, "lat": 49.0135135, "lon": 13.4789979, "tags": {"ele": "1157", "name": "Modravsk\u00e1 hora", "name:de": "Blohausberg", "natural": "peak", "source": "GPS"}}, {"type": "node", "id": 576717520, "lat": 48.9736986, "lon": 13.5938325, "tags": {"ele": "1219", "name": "Nad Bu\u010dinou", "name:cs": "Nad Bu\u010dinou", "name:de": "Buchwald", "natural": "peak", "source": "\u010c\u00daZK"}}, {"type": "node", "id": 576717521, "lat": 49.023422, "lon": 13.5706913, "tags": {"ele": "1172", "name": "Lapka", "natural": "peak", "source": "\u010c\u00daZK"}}, {"type": "node", "id": 576717524, "lat": 49.1225031, "lon": 13.4479678, "tags": {"ele": "1125", "name": "K\u0159emeln\u00e1", "name:cs": "K\u0159emeln\u00e1", "name:de": "Kiesleiten", "natural": "peak", "source": "tisicovky.cz", "wikidata": "Q20799366"}}, {"type": "node", "id": 576722561, "lat": 49.0263889, "lon": 13.4041667, "tags": {"ele": "1163", "name": "Nad Latschensee", "natural": "peak", "source": "tisicovky.cz"}}, {"type": "node", "id": 576722562, "lat": 49.0144444, "lon": 13.4416667, "tags": {"ele": "1133", "natural": "peak", "source": "\u010c\u00daZK"}}, {"type": "node", "id": 576722563, "lat": 49.0273881, "lon": 13.592136, "tags": {"ele": "1181", "name": "Orel", "natural": "peak", "source": "\u010c\u00daZK"}}, {"type": "node", "id": 576733425, "lat": 49.0213889, "lon": 13.4552778, "tags": {"ele": "1062", "name": "P\u0159edn\u00ed Mlyn\u00e1\u0159sk\u00e1 sla\u0165", "natural": "peak", "source": "tisicovky.cz"}}, {"type": "node", "id": 577323243, "lat": 48.9791667, "lon": 13.4644444, "tags": {"ele": "1302", "name": "Studen\u00e1 hora", "name:de": "Kaltstaude", "natural": "peak", "source": "\u010c\u00daZK", "wikidata": "Q12056727"}}, {"type": "node", "id": 577323244, "lat": 48.9608914, "lon": 13.4644308, "tags": {"ele": "1351", "name": "\u0160pi\u010dn\u00edk", "name:cs": "\u0160pi\u010dn\u00edk", "name:de": "Gro\u00dfer Spitzberg", "natural": "peak", "source": "tisicovky.cz", "wikidata": "Q10413433"}}, {"type": "node", "id": 577336416, "lat": 48.9546699, "lon": 13.5064049, "tags": {"ele": "1370", "name": "Velk\u00e1 Mokr\u016fvka", "name:cs": "Velk\u00e1 Mokr\u016fvka", "name:de": "Moorberg", "natural": "peak", "source": "\u010c\u00daZK", "wikidata": "Q11878617"}}, {"type": "node", "id": 577336417, "lat": 48.9727165, "lon": 13.4258767, "tags": {"ele": "1276", "name": "V kout\u011b", "natural": "peak", "source": "tisicovky.cz"}}, {"type": "node", "id": 577336423, "lat": 49.0716763, "lon": 13.5856234, "tags": {"ele": "1154", "name": "U t\u0159\u00ed jedl\u00ed", "natural": "peak", "source": "\u010c\u00daZK"}}, {"type": "node", "id": 577336424, "lat": 49.0975, "lon": 13.5925, "tags": {"ele": "1010", "name": "Valy", "natural": "peak", "source": "tisicovky.cz"}}, {"type": "node", "id": 582492593, "lat": 48.9542635, "lon": 13.5727517, "tags": {"hiking": "yes", "information": "guidepost", "tourism": "information"}}, {"type": "node", "id": 582492620, "lat": 48.9573819, "lon": 13.5730702, "tags": {"information": "guidepost", "name": "Wegweiser(Siebensteinfelsen)", "tourism": "information"}}, {"type": "node", "id": 582498694, "lat": 48.9542794, "lon": 13.5764737, "tags": {"information": "board", "name": "Infotafel Schwellgraben", "tourism": "information"}}, {"type": "node", "id": 582505049, "lat": 48.9597176, "lon": 13.5641554, "tags": {"information": "board", "name": "Infotafel (Schwellgraben)", "tourism": "information"}}, {"type": "node", "id": 582505052, "lat": 48.9625461, "lon": 13.563346}, {"type": "node", "id": 582505055, "lat": 48.9626218, "lon": 13.5642328, "tags": {"board_type": "history", "check_date": "2024-10-07", "information": "board", "name": "Infotafel \u00bbReschbachklause\u00ab", "tourism": "information", "wikidata": "Q26710204", "wikimedia_commons": "Category:Reschbachklause"}}, {"type": "node", "id": 582507539, "lat": 48.9553555, "lon": 13.5727443, "tags": {"bicycle": "yes", "designation": "Wanderkarte", "hiking": "yes", "information": "map", "map_size": "site", "map_type": "scheme", "name": "Schwellgraben", "tourism": "information"}}, {"type": "node", "id": 650026524, "lat": 49.0022583, "lon": 13.4022276, "tags": {"information": "board", "name": "Verlorener Schachten", "tourism": "information"}}, {"type": "node", "id": 650026525, "lat": 49.0022863, "lon": 13.4022144, "tags": {"hiking": "yes", "information": "guidepost", "tourism": "information"}}, {"type": "node", "id": 723137868, "lat": 49.1438794, "lon": 13.5553703}, {"type": "node", "id": 723137869, "lat": 49.1439004, "lon": 13.5554863}, {"type": "node", "id": 723137871, "lat": 49.1438284, "lon": 13.5553651}, {"type": "node", "id": 723137872, "lat": 49.1438255, "lon": 13.555456}, {"type": "node", "id": 723137905, "lat": 49.1438814, "lon": 13.5560106}, {"type": "node", "id": 723137906, "lat": 49.143886, "lon": 13.5559009}, {"type": "node", "id": 723137907, "lat": 49.1438916, "lon": 13.5560176}, {"type": "node", "id": 723137910, "lat": 49.1437883, "lon": 13.5560149}, {"type": "node", "id": 723137911, "lat": 49.1438543, "lon": 13.5560546}, {"type": "node", "id": 723137914, "lat": 49.1437353, "lon": 13.5558993}, {"type": "node", "id": 765883314, "lat": 48.9541256, "lon": 13.4709934, "tags": {"information": "guidepost", "name": "Grenzsteig vom 15.7. bid 15.11. begehen gestattet", "note": "Wegweiser nach P\u00fcrstling wurden 2015 entfernt", "source": "bei 28.8 Grenzstein", "tourism": "information"}}, {"type": "node", "id": 803315444, "lat": 48.9771977, "lon": 13.5613682, "tags": {"board_type": "nature", "description": "informa\u010dn\u00ed tabule u nau\u010dn\u00e9 stezky Fenom\u00e9ny horsk\u00e9 p\u0159\u00edrody - Prameny Vltavy", "information": "board", "name": "Nau\u010dn\u00e1 stezka Fenom\u00e9ny horsk\u00e9 p\u0159\u00edrody", "tourism": "information"}}, {"type": "node", "id": 804155031, "lat": 49.0297529, "lon": 13.5782509, "tags": {"ele": "1070", "hiking": "yes", "information": "guidepost", "name": "U Treml\u016f", "operator": "cz:K\u010cT", "ref": "VO094", "ski": "yes", "source": "survey", "tourism": "information"}}, {"type": "node", "id": 823748871, "lat": 48.9520986, "lon": 13.564668, "tags": {"information": "guidepost", "tourism": "information"}}, {"type": "node", "id": 823748885, "lat": 48.952156, "lon": 13.5649728, "tags": {"hiking": "yes", "information": "guidepost", "tourism": "information"}}, {"type": "node", "id": 922885537, "lat": 49.0967511, "lon": 13.5525914, "tags": {"information": "board", "name": "Pomn\u00edk leteck\u00e9 hav\u00e1rie", "source": "survey", "tourism": "information"}}, {"type": "node", "id": 941717367, "lat": 48.9542482, "lon": 13.5766374, "tags": {"hiking": "yes", "information": "guidepost", "tourism": "information"}}, {"type": "node", "id": 942241594, "lat": 48.9664768, "lon": 13.5736087, "tags": {"ele": "1225", "hiking": "yes", "information": "guidepost", "name": "Sedmiskal\u00ed (CZ/D)", "operator": "cz:K\u010cT", "ref": "VO136", "tourism": "information"}}, {"type": "node", "id": 971708088, "lat": 49.1331547, "lon": 13.5502544, "tags": {"ele": "628", "hiking": "yes", "information": "guidepost", "name": "Zlat\u00fd potok (rozc.)", "operator": "cz:K\u010cT", "ref": "SE043", "source": "survey", "tourism": "information"}}, {"type": "node", "id": 974335905, "lat": 49.1433045, "lon": 13.5867808, "tags": {"ele": "962", "name": "Chlum", "natural": "peak"}}, {"type": "node", "id": 1067959069, "lat": 48.9577105, "lon": 13.5875098, "tags": {"amenity": "shelter", "bench": "yes", "name": "Teufelsbachklause", "shelter_type": "weather_shelter"}}, {"type": "node", "id": 1071378599, "lat": 49.0307093, "lon": 13.5186973, "tags": {"information": "guidepost", "ski": "yes", "tourism": "information"}}, {"type": "node", "id": 1071446384, "lat": 49.0545075, "lon": 13.5553435, "tags": {"ele": "1040", "hiking": "yes", "information": "guidepost", "name": "Hamersk\u00fd potok", "operator": "cz:K\u010cT", "ref": "SE106", "tourism": "information"}}, {"type": "node", "id": 1243618491, "lat": 48.9738555, "lon": 13.4035398, "tags": {"board_type": "nature", "check_date": "2025-08-30", "information": "board", "name": "Pflanzen- und Tierwelt", "tourism": "information"}}, {"type": "node", "id": 1248053117, "lat": 48.9602969, "lon": 13.4267851, "tags": {"information": "guidepost", "name": "Markierungspfosten(Buntspecht)", "tourism": "information"}}, {"type": "node", "id": 1248055966, "lat": 48.9686274, "lon": 13.4048899, "tags": {"information": "guidepost", "name": "Gf\u00e4ll-Rachelsee-Racheldiensth\u00fctte", "tourism": "information"}}, {"type": "node", "id": 1270510248, "lat": 49.0074465, "lon": 13.4027836, "tags": {"ele": "1158", "name": "Beerenkopf", "natural": "peak"}}, {"type": "node", "id": 1295132357, "lat": 49.0309187, "lon": 13.4246493, "tags": {"ele": "1111", "name": "Smrkov\u00fd vrch", "name:cs": "Smrkov\u00fd vrch", "name:de": "Sch\u00f6nfichte", "natural": "peak", "source": "\u010c\u00daZK"}}, {"type": "node", "id": 1301888765, "lat": 48.9735174, "lon": 13.4040645, "tags": {"information": "hikingmap", "name": "Rachelssee", "tourism": "information"}}, {"type": "node", "id": 1325404641, "lat": 48.9712562, "lon": 13.4821052, "tags": {"hiking": "yes", "information": "map", "tourism": "information"}}, {"type": "node", "id": 1344275627, "lat": 48.9546642, "lon": 13.4175769, "tags": {"information": "board", "name": "Wegegebot", "tourism": "information"}}, {"type": "node", "id": 1345068019, "lat": 48.9748053, "lon": 13.5607373, "tags": {"information": "board", "name": "Pramen Vltavy", "name:de": "Moldauquelle", "tourism": "information"}}, {"type": "node", "id": 1350021382, "lat": 48.9797702, "lon": 13.4372723, "tags": {"ele": "1226", "natural": "peak", "source": "\u010c\u00daZK"}}, {"type": "node", "id": 1350021383, "lat": 48.9767339, "lon": 13.4534416, "tags": {"ele": "1276", "natural": "peak", "source": "\u010c\u00daZK"}}, {"type": "node", "id": 1350024106, "lat": 48.981338, "lon": 13.5029053, "tags": {"name": "Ztracen\u00fd vrch", "name:de": "Verlorener Berg", "natural": "peak", "source": "\u010c\u00daZK"}}, {"type": "node", "id": 1358344168, "lat": 48.9681568, "lon": 13.5942544, "tags": {"bicycle": "yes", "ele": "1155", "hiking": "yes", "information": "guidepost", "name": "Bu\u010dina", "operator": "cz:K\u010cT", "ref": "VO426", "tourism": "information"}}, {"type": "node", "id": 1359022227, "lat": 49.0514116, "lon": 13.5715484, "tags": {"ele": "1050", "hiking": "yes", "information": "guidepost", "inscription": "St\u00e1val zde statek Daniela Klostermanna, prap\u0159edka spisovatele. Nedaleko jezern\u00ed sla\u0165 o rozloze 120ha.", "name": "U Daniela", "operator": "cz:K\u010cT", "ref": "SE108", "tourism": "information"}}, {"type": "node", "id": 1359022373, "lat": 49.0542079, "lon": 13.5749979, "tags": {"hiking": "yes", "information": "guidepost", "ski": "yes", "source": "survey", "tourism": "information"}}, {"type": "node", "id": 1359022631, "lat": 49.006651, "lon": 13.5852273, "tags": {"bicycle": "yes", "hiking": "yes", "information": "guidepost", "ski": "yes", "source": "survey", "tourism": "information"}}, {"type": "node", "id": 1359022688, "lat": 48.9662305, "lon": 13.5924275, "tags": {"information": "board", "name": "Do Bavor / Do \u010cech", "source": "survey", "tourism": "information"}}, {"type": "node", "id": 1359470652, "lat": 48.9722542, "lon": 13.5682626, "tags": {"ele": "1185", "hiking": "yes", "information": "guidepost", "name": "Na str\u00e1\u017en\u00ed stezce", "name:de": "Wegweiser", "operator": "cz:K\u010cT", "ref": "VO133", "source": "survey", "tourism": "information"}}, {"type": "node", "id": 1359470804, "lat": 48.972073, "lon": 13.4820208, "tags": {"board_type": "nature", "description": "o palivech", "information": "board", "tourism": "information"}}, {"type": "node", "id": 1359470806, "lat": 48.9834129, "lon": 13.4920812, "tags": {"bicycle": "yes", "ele": "1105", "hiking": "yes", "information": "guidepost", "name": "Na Ztracen\u00e9m", "operator": "cz:K\u010cT", "ref": "SE110", "source": "survey", "tourism": "information"}}, {"type": "node", "id": 1359470884, "lat": 48.9738042, "lon": 13.5768867, "tags": {"ele": "1285", "hiking": "yes", "information": "guidepost", "name": "Pod Str\u00e1\u017e\u00ed", "operator": "cz:K\u010cT", "ref": "VO424", "ski": "yes", "source": "survey", "tourism": "information"}}, {"type": "node", "id": 1359495743, "lat": 49.0405307, "lon": 13.4680942, "tags": {"amenity": "shelter", "shelter_type": "weather_shelter", "source": "survey"}}, {"type": "node", "id": 1359495775, "lat": 49.0406935, "lon": 13.4680485, "tags": {"bicycle": "yes", "ele": "1069", "hiking": "yes", "information": "guidepost", "name": "T\u0159\u00edjezern\u00ed sla\u0165", "operator": "cz:K\u010cT", "ref": "SE223;SE307;2117/2,5", "ski": "yes", "tourism": "information"}}, {"type": "node", "id": 1359611335, "lat": 49.0871092, "lon": 13.4802983, "tags": {"bicycle": "yes", "ele": "850", "hiking": "yes", "information": "guidepost", "name": "Srn\u00ed", "operator": "cz:K\u010cT", "ref": "SE112", "source": "survey", "tourism": "information"}}, {"type": "node", "id": 1359611380, "lat": 49.0617794, "lon": 13.5047928, "tags": {"ele": "928", "hiking": "yes", "information": "guidepost", "name": "Rokyta bus", "operator": "cz:K\u010cT", "ref": "SE222", "tourism": "information"}}, {"type": "node", "id": 1359611531, "lat": 49.0397009, "lon": 13.504078, "tags": {"ele": "940", "hiking": "yes", "information": "guidepost", "name": "Hradlov\u00fd most (Rechle)", "operator": "cz:K\u010cT", "ref": "SE255", "source": "survey", "tourism": "information"}}, {"type": "node", "id": 1359611758, "lat": 49.0836408, "lon": 13.4758658, "tags": {"ele": "838", "hiking": "yes", "information": "guidepost", "name": "Star\u00e9 Srn\u00ed", "operator": "cz:K\u010cT", "ref": "SE113", "ski": "yes", "tourism": "information"}}, {"type": "node", "id": 1359611798, "lat": 49.0750671, "lon": 13.4585109, "tags": {"board_type": "history", "information": "board", "name": "Energie z vody", "ref": "5", "source": "survey", "tourism": "information"}}, {"type": "node", "id": 1359611817, "lat": 49.0586456, "lon": 13.505497, "tags": {"bicycle": "yes", "ele": "926", "hiking": "yes", "information": "guidepost", "name": "Sch\u00e4tz\u016fv les", "operator": "cz:K\u010cT", "ref": "SE027", "tourism": "information"}}, {"type": "node", "id": 1398324873, "lat": 48.9746135, "lon": 13.5606986, "tags": {"designation": "Pramen Vltavy", "ele": "1170", "hiking": "yes", "information": "nature", "name": "Pramen Vltavy", "name:de": "Moldauquelle", "tourism": "information"}}, {"type": "node", "id": 1399044972, "lat": 48.9537151, "lon": 13.581193, "tags": {"hiking": "yes", "information": "guidepost", "tourism": "information"}}, {"type": "node", "id": 1399044974, "lat": 48.9536194, "lon": 13.5803619, "tags": {"hiking": "yes", "information": "guidepost", "tourism": "information"}}, {"type": "node", "id": 1399044975, "lat": 48.9574766, "lon": 13.5876978, "tags": {"hiking": "yes", "information": "guidepost", "tourism": "information"}}, {"type": "node", "id": 1410591376, "lat": 49.1097709, "lon": 13.4925228}, {"type": "node", "id": 1410591377, "lat": 49.1097827, "lon": 13.4926485}, {"type": "node", "id": 1410591393, "lat": 49.1098312, "lon": 13.4926403}, {"type": "node", "id": 1410591396, "lat": 49.1098397, "lon": 13.4926899}, {"type": "node", "id": 1410591397, "lat": 49.1098671, "lon": 13.4924836}, {"type": "node", "id": 1410591398, "lat": 49.10989, "lon": 13.492617}, {"type": "node", "id": 1421707148, "lat": 48.9583264, "lon": 13.4619944, "tags": {"ele": "1350", "name": "Gro\u00dfer Spitzberg", "natural": "peak"}}, {"type": "node", "id": 1421794273, "lat": 48.9736814, "lon": 13.4035217, "tags": {"information": "guidepost", "tourism": "information"}}, {"type": "node", "id": 1421794407, "lat": 48.9733035, "lon": 13.4039388, "tags": {"information": "guidepost", "tourism": "information"}}, {"type": "node", "id": 1446459338, "lat": 48.9655757, "lon": 13.5075651, "tags": {"information": "board", "name": "Landesgrenze", "tourism": "information"}}, {"type": "node", "id": 1469910421, "lat": 49.1450046, "lon": 13.4861661, "tags": {"ele": "755", "hiking": "yes", "information": "guidepost", "name": "Mal\u00fd Radkov", "operator": "cz:K\u010cT", "ref": "SE101", "tourism": "information"}}, {"type": "node", "id": 1469910427, "lat": 49.1295559, "lon": 13.5789819, "tags": {"ele": "700", "hiking": "yes", "information": "guidepost", "name": "Ml\u00fdn na rybn\u00edce", "operator": "cz:K\u010cT", "ref": "SE103", "source": "survey", "tourism": "information"}}, {"type": "node", "id": 1469910465, "lat": 49.1413002, "lon": 13.5155342, "tags": {"ele": "571", "hiking": "yes", "information": "guidepost", "name": "Rej\u0161tejn (most)", "operator": "cz:K\u010cT", "ref": "SE020", "source": "survey", "tourism": "information"}}, {"type": "node", "id": 1469910714, "lat": 49.140284, "lon": 13.5150274, "tags": {"bicycle": "yes", "check_date": "2021-08-23", "hiking": "yes", "information": "map", "map_size": "region", "map_type": "topo", "source": "survey", "tourism": "information"}}, {"type": "node", "id": 1479202283, "lat": 48.9677366, "lon": 13.4280398, "tags": {"tourism": "viewpoint"}}, {"type": "node", "id": 1493523487, "lat": 48.9713189, "lon": 13.469533, "tags": {"information": "board", "name": "NP Sumava- Betretungsverbot", "tourism": "information"}}, {"type": "node", "id": 1493564510, "lat": 48.9657702, "lon": 13.4631051, "tags": {"information": "board", "name": "Betretungsverbot", "tourism": "information"}}, {"type": "node", "id": 1508449054, "lat": 48.9976228, "lon": 13.4010415, "tags": {"hiking": "yes", "information": "guidepost", "tourism": "information"}}, {"type": "node", "id": 1596586006, "lat": 48.9740501, "lon": 13.5874044, "tags": {"description": "(Modrava 10,5km,Prameny Vltavy 2km)", "hiking": "yes", "information": "guidepost", "operator": "cz:K\u010cT", "ref": "none", "ski": "yes", "tourism": "information"}}, {"type": "node", "id": 1596589811, "lat": 48.9719401, "lon": 13.5627409, "tags": {"bicycle": "yes", "ele": "1165", "hiking": "yes", "information": "guidepost", "name": "U pramene Vltavy", "operator": "cz:K\u010cT", "ref": "VO422", "ski": "yes", "tourism": "information"}}, {"type": "node", "id": 1596603834, "lat": 48.9656596, "lon": 13.5913353, "tags": {"ele": "1135", "hiking": "yes", "information": "guidepost", "name": "Bu\u010dina", "note": "Wegweiser (Bucina 0,3km)", "operator": "cz:K\u010cT", "ref": "VO104", "ski": "yes", "source": "survey", "tourism": "information"}}, {"type": "node", "id": 1596663293, "lat": 48.9679435, "lon": 13.5940657, "tags": {"board_type": "history", "check_date": "2024-10-07", "information": "board", "name": "Bu\u010dina U Kvildy", "name:de": "Buchwald", "tourism": "information"}}, {"type": "node", "id": 1675117114, "lat": 48.9789025, "lon": 13.4027564, "tags": {"tourism": "viewpoint"}}, {"type": "node", "id": 1675117118, "lat": 48.9789363, "lon": 13.4028353, "tags": {"information": "guidepost", "tourism": "information"}}, {"type": "node", "id": 1752473035, "lat": 48.9675143, "lon": 13.406534, "tags": {"description": "Rachelblick", "tourism": "viewpoint"}}, {"type": "node", "id": 1752492436, "lat": 48.9604846, "lon": 13.4287374, "tags": {"information": "board", "name": "Messtelle", "tourism": "information"}}, {"type": "node", "id": 1752779009, "lat": 48.9661338, "lon": 13.4083365, "tags": {"board_type": "nature", "information": "board", "name": "Eiszeit-Lehrpfad", "tourism": "information"}}, {"type": "node", "id": 1752779011, "lat": 48.9662254, "lon": 13.4081595, "tags": {"board_type": "nature", "information": "board", "name": "Mor\u00e4nenlandschaft", "tourism": "information"}}, {"type": "node", "id": 1758886501, "lat": 49.1043604, "lon": 13.5912901, "tags": {"ele": "1010", "hiking": "yes", "information": "guidepost", "name": "Ob\u0159\u00ed hrad", "operator": "cz:K\u010cT", "ref": "VO026", "tourism": "information"}}, {"type": "node", "id": 1758891098, "lat": 49.1163263, "lon": 13.5680498, "tags": {"ele": "700", "hiking": "yes", "information": "guidepost", "name": "Karlina pila", "operator": "cz:K\u010cT", "ref": "SE044", "tourism": "information"}}, {"type": "node", "id": 1774575122, "lat": 49.1417035, "lon": 13.5522653, "tags": {"ele": "710", "hiking": "yes", "information": "guidepost", "name": "Ka\u0161persk\u00e9 Hory (rozc.)", "operator": "cz:K\u010cT", "ref": "SE042", "tourism": "information"}}, {"type": "node", "id": 1840483163, "lat": 49.1434626, "lon": 13.5124306, "tags": {"ele": "565", "hiking": "yes", "information": "guidepost", "name": "Kl\u00e1\u0161tersk\u00fd Ml\u00fdn", "operator": "cz:K\u010cT", "ref": "SE019", "source": "survey", "tourism": "information"}}, {"type": "node", "id": 1919359394, "lat": 49.1510522, "lon": 13.4243012, "tags": {"alt_name:de": "Guntherberg;Gunthersberg", "ele": "1006", "name": "B\u0159ezn\u00edk", "name:de": "St. G\u00fcnthersberg", "natural": "peak", "wikidata": "Q11706971"}}, {"type": "node", "id": 1941711130, "lat": 49.071801, "lon": 13.4972993, "tags": {"ele": "927", "hiking": "yes", "information": "guidepost", "name": "Horn\u00ed Hr\u00e1dky", "operator": "cz:K\u010cT", "ref": "SE226", "tourism": "information"}}, {"type": "node", "id": 1941711149, "lat": 49.1013676, "lon": 13.480118, "tags": {"direction": "15-120", "ele": "915", "name": "Klostermannova vyhl\u00eddka", "tourism": "viewpoint"}}, {"type": "node", "id": 1941711171, "lat": 49.1020256, "lon": 13.4658994, "tags": {"bicycle": "yes", "ele": "840", "hiking": "yes", "information": "guidepost", "name": "U Sedla", "operator": "cz:K\u010cT", "ref": "SE199", "tourism": "information"}}, {"type": "node", "id": 1941711235, "lat": 49.0735587, "lon": 13.4421779, "tags": {"description": "Na v\u00fdchodn\u00edm svahu Jezern\u00edho h\u0159betu bylo roztrou\u0161eno 50 staven\u00ed, pracovala zde star\u00e1 hu\u0165.", "ele": "1007", "hiking": "yes", "information": "guidepost", "name": "Zelenohorsk\u00e9 chalupy", "operator": "cz:K\u010cT", "ref": "SE228", "tourism": "information"}}, {"type": "node", "id": 1941712192, "lat": 49.1026427, "lon": 13.4799663, "tags": {"hiking": "yes", "information": "guidepost", "name": "Klostermanova vyhl\u00eddka", "operator": "cz:K\u010cT", "ref": "SE114", "tourism": "information"}}, {"type": "node", "id": 1941712324, "lat": 49.1070743, "lon": 13.4939763, "tags": {"check_date": "2025-05-23", "ele": "640", "emergency_telephone_code": "112", "highway": "emergency_access_point", "hiking": "yes", "information": "guidepost", "name": "\u010ce\u0148kova pila", "operator": "cz:K\u010cT", "ref": "SE023", "tourism": "information"}}, {"type": "node", "id": 1944109360, "lat": 48.9545876, "lon": 13.425821, "tags": {"information": "guidepost", "tourism": "information"}}, {"type": "node", "id": 2238491579, "lat": 49.0854818, "lon": 13.4316159, "tags": {"description": "St\u00e1vala zde jedna z prvn\u00edch lesoven Schwarzenbersk\u00e9ho poles\u00ed, b\u00fdvala zde skl\u00e1rna. V roce 1938 obec s 13 domy.", "ele": "1051", "hiking": "yes", "information": "guidepost", "name": "Nov\u00e1 Studnice", "operator": "cz:K\u010cT", "ref": "SE121;6677/18;1458/17", "tourism": "information"}}, {"type": "node", "id": 2238491583, "lat": 49.0627462, "lon": 13.4315024, "tags": {"description": "K\u0159i\u017eovazka cest, v minulosti mezi Srn\u00edm-Modravou-Pr\u00e1\u0161ily a Bavorskem.", "ele": "1153", "hiking": "yes", "information": "guidepost", "name": "Va\u0148kova cesta", "operator": "cz:K\u010cT", "ref": "SE118;1458/14", "tourism": "information"}}, {"type": "node", "id": 2239473037, "lat": 49.0675183, "lon": 13.4328218, "tags": {"ele": "1181", "hiking": "yes", "information": "guidepost", "name": "Bavorsk\u00e1 cesta", "operator": "cz:K\u010cT", "ref": "SE119;1458/14,5;3689/7,5", "source": "survey", "tourism": "information"}}, {"type": "node", "id": 2239473039, "lat": 49.0364438, "lon": 13.4426684, "tags": {"information": "guidepost", "operator": "cz:K\u010cT", "ref": "SE066", "ski": "yes", "tourism": "information"}}, {"type": "node", "id": 2239473040, "lat": 49.0536119, "lon": 13.443085, "tags": {"description": "V\u00fdhled na hrani\u010dn\u00ed h\u0159eben s Roklanem, Luzn\u00fdm, Mokr\u016fvkami a na Boub\u00edn a Sokol", "ele": "1225", "hiking": "yes", "information": "guidepost", "name": "Obl\u00edk (vyhl.)", "operator": "cz:K\u010cT", "ref": "SE165", "tourism": "information"}}, {"type": "node", "id": 2239473041, "lat": 49.0820531, "lon": 13.4363417, "tags": {"ele": "1105", "hiking": "yes", "information": "guidepost", "name": "Pod Jezern\u00edm h\u0159betem", "operator": "cz:K\u010cT", "ref": "SE120", "source": "survey", "tourism": "information"}}, {"type": "node", "id": 2239473045, "lat": 49.0912342, "lon": 13.4021119, "tags": {"ele": "950", "hiking": "yes", "information": "guidepost", "name": "Slune\u010dn\u00e1", "operator": "cz:K\u010cT", "ref": "SE193", "source": "survey", "tourism": "information"}}, {"type": "node", "id": 2239473048, "lat": 49.0386038, "lon": 13.4385415, "tags": {"ele": "1030", "hiking": "yes", "information": "guidepost", "name": "Tmav\u00fd potok", "operator": "cz:K\u010cT", "ref": "SE065", "source": "survey", "tourism": "information"}}, {"type": "node", "id": 2239473055, "lat": 49.0551132, "lon": 13.4343237, "tags": {"description": "M\u00edsto v Novostudnick\u00e9m poles\u00ed v \u00fa\u017elabin\u011b mezi Poledn\u00edkem a Obl\u00edkem.", "ele": "1150", "hiking": "yes", "information": "guidepost", "name": "Za Obl\u00edkem", "operator": "cz:K\u010cT", "ref": "SE117;1458/13", "ski": "yes", "source": "survey", "tourism": "information"}}, {"type": "node", "id": 2239473066, "lat": 49.0536463, "lon": 13.4432034, "tags": {"tourism": "viewpoint"}}, {"type": "node", "id": 2244626541, "lat": 49.0734742, "lon": 13.4419073, "tags": {"information": "guidepost", "ski": "yes", "tourism": "information"}}, {"type": "node", "id": 2244626553, "lat": 49.1004286, "lon": 13.4317002, "tags": {"bicycle": "yes", "information": "map", "tourism": "information"}}, {"type": "node", "id": 2244626560, "lat": 49.1013789, "lon": 13.4310447, "tags": {"bicycle": "yes", "information": "map", "tourism": "information"}}, {"type": "node", "id": 2244626563, "lat": 49.1015165, "lon": 13.4308119, "tags": {"hiking": "yes", "information": "guidepost", "name": "Velk\u00fd Bor", "operator": "cz:K\u010cT", "ref": "SE122", "ski": "yes", "tourism": "information"}}, {"type": "node", "id": 2257650581, "lat": 49.1097996, "lon": 13.4927062}, {"type": "node", "id": 2289120149, "lat": 49.1267541, "lon": 13.4858859, "tags": {"board_type": "history", "information": "board", "name": "P\u0159edn\u00ed Pa\u0161t\u011b - kapli\u010dka u \u0161tol", "tourism": "information"}}, {"type": "node", "id": 2345176154, "lat": 48.9626825, "lon": 13.5962796, "tags": {"board_type": "nature", "information": "board", "name": "Ochrana p\u0159\u00edrody ... na rozcest\u00ed?", "name:de": "Naturschutz ... in der Klemme?", "tourism": "information"}}, {"type": "node", "id": 2345176156, "lat": 48.9652863, "lon": 13.5919649, "tags": {"amenity": "shelter", "shelter_type": "weather_shelter"}}, {"type": "node", "id": 2345189317, "lat": 48.9651196, "lon": 13.5880173, "tags": {"information": "guidepost", "name": "Via Nova", "tourism": "information"}}, {"type": "node", "id": 2345194000, "lat": 48.9640737, "lon": 13.5856667, "tags": {"information": "guidepost", "tourism": "information"}}, {"type": "node", "id": 2345204119, "lat": 48.9651217, "lon": 13.5884097, "tags": {"check_date": "2025-08-31", "hiking": "yes", "information": "map", "tourism": "information"}}, {"type": "node", "id": 2364679335, "lat": 48.9745954, "lon": 13.5606894, "tags": {"board_type": "nature", "information": "hikingmap;board", "name": "Moldauquelle (Sumava+NP)", "tourism": "information"}}, {"type": "node", "id": 2364682440, "lat": 48.9721583, "lon": 13.5682653, "tags": {"information": "nature", "name": "Borkenk\u00e4fer", "name:cs": "K\u016frovec", "tourism": "information"}}, {"type": "node", "id": 2365405015, "lat": 48.9554928, "lon": 13.5722295, "tags": {"name": "Wegweiser", "tourism": "information"}}, {"type": "node", "id": 2365417233, "lat": 48.9576901, "lon": 13.5417946, "tags": {"ele": "1203", "name": "Farrenberg", "natural": "peak", "wikidata": "Q31547366"}}, {"type": "node", "id": 2373547175, "lat": 49.1438256, "lon": 13.5332783, "tags": {"ele": "812", "name": "Vinice", "natural": "peak"}}, {"type": "node", "id": 2373554856, "lat": 49.1424726, "lon": 13.5431914, "tags": {"ele": "805", "name": "\u0160ibeni\u010dn\u00ed vrch", "name:de": "Galgenberg", "natural": "peak"}}, {"type": "node", "id": 2373556244, "lat": 49.1459625, "lon": 13.5420302, "tags": {"board_type": "nature", "information": "board", "name": "Ostatn\u00ed fauna na stezce", "tourism": "information"}}, {"type": "node", "id": 2373558951, "lat": 49.1471557, "lon": 13.5373231, "tags": {"board_type": "nature", "information": "board", "name": "Ostatn\u00ed fauna na stezce", "tourism": "information"}}, {"type": "node", "id": 2373558957, "lat": 49.1465638, "lon": 13.5391491, "tags": {"board_type": "nature", "information": "board", "name": "Ostatn\u00ed fauna na stezce", "tourism": "information"}}, {"type": "node", "id": 2373561203, "lat": 49.1481, "lon": 13.5347595, "tags": {"board_type": "nature", "information": "board", "name": "Ostatn\u00ed fauna na stezce", "tourism": "information"}}, {"type": "node", "id": 2373562466, "lat": 49.144052, "lon": 13.5544759, "tags": {"addr:city": "Ka\u0161persk\u00e9 Hory", "addr:conscriptionnumber": "1", "addr:country": "CZ", "addr:housenumber": "1", "addr:place": "Ka\u0161persk\u00e9 Hory", "addr:postcode": "34192", "addr:street": "N\u00e1m\u011bst\u00ed", "information": "office", "internet_access": "yes", "name": "M\u011bstsk\u00e9 kulturn\u00ed a informa\u010dn\u00ed st\u0159edisko", "phone": "+420 376 503 413", "source:addr": "cuzk:ruian", "tourism": "information", "website": "https://www.kasphory.cz/"}}, {"type": "node", "id": 2373584342, "lat": 49.1438163, "lon": 13.5333833, "tags": {"tourism": "viewpoint"}}, {"type": "node", "id": 2376121877, "lat": 49.1472674, "lon": 13.554967, "tags": {"tourism": "viewpoint"}}, {"type": "node", "id": 2376121904, "lat": 49.1489447, "lon": 13.5544789, "tags": {"tourism": "viewpoint"}}, {"type": "node", "id": 2376121907, "lat": 49.1503219, "lon": 13.5530519, "tags": {"tourism": "viewpoint"}}, {"type": "node", "id": 2376143161, "lat": 49.1477429, "lon": 13.5568312, "tags": {"tourism": "viewpoint"}}, {"type": "node", "id": 2376148630, "lat": 49.1477727, "lon": 13.5568097, "tags": {"information": "map", "map_type": "toposcope", "tourism": "information"}}, {"type": "node", "id": 2383572038, "lat": 48.9653363, "lon": 13.5886026, "tags": {"ele": "1126", "hiking": "yes", "information": "guidepost", "name": "Bu\u010dina - Finsterau (CZ/D)", "operator": "cz:K\u010cT", "ref": "VO425", "tourism": "information"}}, {"type": "node", "id": 2383572039, "lat": 48.9746219, "lon": 13.5607184, "tags": {"ele": "1170", "hiking": "yes", "information": "guidepost", "name": "Pramen Vltavy", "operator": "cz:K\u010cT", "ref": "VO428", "ski": "yes", "source": "survey", "tourism": "information"}}, {"type": "node", "id": 2391975769, "lat": 48.9921501, "lon": 13.5820091, "tags": {"ele": "1138", "hiking": "yes", "information": "guidepost", "name": "Pod Holub\u00ed sk\u00e1lou", "operator": "cz:K\u010cT", "ref": "VO408", "ski": "yes", "tourism": "information"}}, {"type": "node", "id": 2394376568, "lat": 49.1075769, "lon": 13.5459604, "tags": {"board_type": "history", "information": "board", "name": "Flus\u00e1rna", "name:de": "Flusshaus", "tourism": "information"}}, {"type": "node", "id": 2394376569, "lat": 49.1203884, "lon": 13.5293456, "tags": {"ele": "840", "hiking": "yes", "information": "guidepost", "name": "Koz\u00ed h\u0159bet", "operator": "cz:K\u010cT", "ref": "SE171", "tourism": "information"}}, {"type": "node", "id": 2394376573, "lat": 49.0875683, "lon": 13.5556705, "tags": {"ele": "1174", "hiking": "yes", "information": "guidepost", "name": "Hu\u0165sk\u00e1 hora odbo\u010dka", "operator": "cz:K\u010cT", "ref": "SE173", "tourism": "information"}}, {"type": "node", "id": 2394376577, "lat": 49.0884017, "lon": 13.5544143, "tags": {"direction": "222", "tourism": "viewpoint"}}, {"type": "node", "id": 2395129252, "lat": 48.9921572, "lon": 13.5728095, "tags": {"ele": "1160", "hiking": "yes", "information": "guidepost", "name": "Holub\u00ed sk\u00e1la", "operator": "cz:K\u010cT", "ref": "PT135", "source": "survey", "survey:date": "2014-03-22", "tourism": "information"}}, {"type": "node", "id": 2395129253, "lat": 49.0136194, "lon": 13.5277088, "tags": {"ele": "1093", "hiking": "yes", "information": "guidepost", "name": "Lov\u010d\u00ed sk\u00e1la", "operator": "cz:K\u010cT", "ref": "SE234", "tourism": "information"}}, {"type": "node", "id": 2395129254, "lat": 48.9729575, "lon": 13.5507815, "tags": {"tourism": "viewpoint"}}, {"type": "node", "id": 2395129260, "lat": 48.9943753, "lon": 13.5140587, "tags": {"ele": "1110", "hiking": "yes", "information": "guidepost", "name": "\u010cernohorsk\u00e1 n\u00e1dr\u017e", "name:cs": "\u010cernohorsk\u00e1 n\u00e1dr\u017e", "name:de": "H\u00e4uplschwelle", "operator": "cz:K\u010cT", "place": "locality", "ref": "SE069", "source": "survey", "tourism": "information"}}, {"type": "node", "id": 2396434360, "lat": 49.0575727, "lon": 13.5121229, "tags": {"description": "Zpr\u00e1vy po roce 1500. V 2. polovin\u011b 16. stolet\u00ed skl\u00e1\u0159sk\u00e1 hu\u0165 zam\u011bn\u011bna v kralov\u00e1ck\u00fd dvorec, v\u00fdsady zru\u0161eny v roce 1849.", "ele": "900", "hiking": "yes", "information": "guidepost", "name": "Ant\u00fdgl camp", "operator": "cz:K\u010cT", "ref": "SE224", "tourism": "information"}}, {"type": "node", "id": 2396434361, "lat": 49.0599096, "lon": 13.5116807, "tags": {"ele": "898", "hiking": "yes", "information": "guidepost", "name": "Ant\u00fdgl most", "operator": "cz:K\u010cT", "ref": "SE026", "tourism": "information"}}, {"type": "node", "id": 2396434362, "lat": 49.0581498, "lon": 13.5095304, "tags": {"board_type": "history", "description": "Kr\u00e1lovsk\u00fd hvozd", "information": "board", "name": "Ant\u00fdgl", "ref": "2", "tourism": "information"}}, {"type": "node", "id": 2396434363, "lat": 49.0369553, "lon": 13.4424194, "tags": {"description": "Zde st\u00e1vala do roku 1950 h\u00e1jenka ve kter\u00e9 ubytov\u00e1vali a prod\u00e1vali ob\u010derstven\u00ed.", "ele": "1030", "hiking": "yes", "information": "guidepost", "mtb": "yes", "name": "Javo\u0159\u00ed pila", "operator": "cz:K\u010cT", "ref": "SE066;2113/5,5", "tourism": "information"}}, {"type": "node", "id": 2396434364, "lat": 49.0238467, "lon": 13.4949866, "tags": {"bicycle": "yes", "description": "Pom\u011brn\u011b mlad\u00e1 osada u soutoku Modravsk\u00e9ho, Filipohu\u0165sk\u00e9ho a Ml\u00fdnsk\u00e9ho potoka.", "ele": "983", "hiking": "yes", "information": "guidepost", "name": "Modrava", "operator": "cz:K\u010cT", "ref": "SE030;2113/0", "ski": "yes", "source": "survey", "tourism": "information"}}, {"type": "node", "id": 2396434365, "lat": 49.0538645, "lon": 13.5025258, "tags": {"bicycle": "yes", "information": "guidepost", "name": "Plavebn\u00ed kan\u00e1l", "operator": "cz:K\u010cT", "ref": "2114/3,5", "tourism": "information"}}, {"type": "node", "id": 2396434366, "lat": 49.0537818, "lon": 13.5024334, "tags": {"board_type": "history", "check_date": "2025-12-22", "description": "Vchinicko-Tetovsk\u00fd plavebn\u00ed kan\u00e1l", "information": "board", "name": "Plaven\u00ed d\u0159eva", "tourism": "information"}}, {"type": "node", "id": 2396434367, "lat": 49.0426147, "lon": 13.4625562, "tags": {"bicycle": "yes", "ele": "1073", "hiking": "yes", "information": "guidepost", "name": "Pod Obl\u00edkem", "operator": "cz:K\u010cT", "ref": "SE118", "ski": "yes", "source": "survey", "tourism": "information"}}, {"type": "node", "id": 2396434368, "lat": 49.0352069, "lon": 13.4740255, "tags": {"board_type": "nature", "check_date": "2025-12-21", "information": "board", "name": "Roklansk\u00fd potok", "tourism": "information"}}, {"type": "node", "id": 2396434369, "lat": 49.0352919, "lon": 13.4738283, "tags": {"description": "Nedalek\u00e1 budova b\u00fdval\u00e1 lesovna a h\u00e1jovna, dnes je zde rekrea\u010dn\u00ed objekt.", "ele": "1000", "hiking": "yes", "information": "guidepost", "name": "Ryb\u00e1rna", "operator": "cz:K\u010cT", "ref": "SE067", "ski": "yes", "source": "survey", "tourism": "information"}}, {"type": "node", "id": 2396434372, "lat": 49.0617153, "lon": 13.5049249, "tags": {"bicycle": "yes", "hiking": "yes", "information": "guidepost", "ski": "yes", "tourism": "information"}}, {"type": "node", "id": 2396491121, "lat": 48.9671823, "lon": 13.5747971, "tags": {"board_type": "nature", "information": "board", "name": "Wildnis ist subjektiv", "tourism": "information"}}, {"type": "node", "id": 2428674132, "lat": 49.1099445, "lon": 13.4924088, "tags": {"ele": "635", "hiking": "yes", "information": "guidepost", "name": "\u010ce\u0148kova Pila soutok", "name:de": "Vinzenzs\u00e4ge", "operator": "cz:K\u010cT", "ref": "SE259", "tourism": "information", "whitewater": "put_in"}}, {"type": "node", "id": 2514752327, "lat": 49.0375512, "lon": 13.4424415, "tags": {"amenity": "shelter", "shelter_type": "picnic_shelter"}}, {"type": "node", "id": 2520428962, "lat": 48.9680643, "lon": 13.4833746, "tags": {"information": "board", "name": "Radverbot-Kein Eintritt (Zone1)", "tourism": "information"}}, {"type": "node", "id": 2600214804, "lat": 48.9899213, "lon": 13.5115428, "tags": {"bicycle": "yes", "ele": "1137", "hiking": "yes", "information": "guidepost", "name": "Nad Pta\u010d\u00ed n\u00e1dr\u017e\u00ed", "operator": "cz:K\u010cT", "ref": "SE070", "ski": "yes", "tourism": "information"}}, {"type": "node", "id": 2610673144, "lat": 49.1423881, "lon": 13.5433418, "tags": {"tourism": "viewpoint"}}, {"type": "node", "id": 2703892962, "lat": 49.1433167, "lon": 13.5957667, "tags": {"name": "Peklo", "source": "survey", "tourism": "information"}}, {"type": "node", "id": 2703892989, "lat": 49.1502149, "lon": 13.5921321, "tags": {"bicycle": "yes", "information": "guidepost", "source": "survey", "tourism": "information"}}, {"type": "node", "id": 2735639055, "lat": 49.0193419, "lon": 13.5792903, "tags": {"check_date": "2024-10-04", "email": "iskvilda@npsumava.cz", "information": "office", "name": "Informa\u010dn\u00ed st\u0159edisko Kvilda - Spr\u00e1va N\u00e1rodn\u00edho parku \u0160umava", "opening_hours": "Mo-Su 08:30-12:00,12:30-16:00", "phone": "+420 388 435 544", "tourism": "information", "website": "https://www.npsumava.cz"}}, {"type": "node", "id": 2741376528, "lat": 49.0189836, "lon": 13.5789765}, {"type": "node", "id": 2741376530, "lat": 49.0189989, "lon": 13.5789909}, {"type": "node", "id": 2741376532, "lat": 49.018993, "lon": 13.5789532}, {"type": "node", "id": 2741376533, "lat": 49.0190083, "lon": 13.5789676}, {"type": "node", "id": 2741455569, "lat": 49.0393244, "lon": 13.5781152, "tags": {"board_type": "nature", "check_date": "2022-09-12", "information": "board", "name": "Placen\u00e9 parkovi\u0161t\u011b", "source": "survey", "tourism": "information"}}, {"type": "node", "id": 2741455571, "lat": 49.0395667, "lon": 13.5755167, "tags": {"board_type": "nature", "check_date": "2022-09-12", "information": "board", "name": "Jezern\u00ed sla\u0165", "source": "survey", "tourism": "information"}}, {"type": "node", "id": 2748300335, "lat": 48.9655816, "lon": 13.5833205, "tags": {"information": "guidepost", "tourism": "information"}}, {"type": "node", "id": 2751305416, "lat": 48.9544643, "lon": 13.5745742, "tags": {"hiking": "yes", "information": "guidepost", "tourism": "information"}}, {"type": "node", "id": 2751366984, "lat": 48.9575433, "lon": 13.5877009, "tags": {"information": "board", "name": "Teufelsbachklause", "subject:wikidata": "Q25712557", "tourism": "information", "wikimedia_commons": "Category:Teufelsbachklause"}}, {"type": "node", "id": 2753124723, "lat": 48.9552213, "lon": 13.5996957, "tags": {"name": "T\u011b\u017eba tonalitu \u00b7 Tonalithf\u00f6rderung", "name:cs": "T\u011b\u017eba tonalitu", "name:de": "Tonalithf\u00f6rderung", "tourism": "attraction"}}, {"type": "node", "id": 2753124724, "lat": 48.9552909, "lon": 13.5995641, "tags": {"board_type": "history", "information": "board", "name": "T\u011b\u017eba tonalitu", "name:de": "Tonalithf\u00f6rderung", "tourism": "information"}}, {"type": "node", "id": 2808911694, "lat": 49.0248959, "lon": 13.4044253, "tags": {"ele": "1156", "information": "guidepost", "name": "Hochschachten, Latschensee", "source:ele": "barometer_calibrated_gnss", "tourism": "information"}}, {"type": "node", "id": 2820770286, "lat": 49.1437717, "lon": 13.5548437, "tags": {"ele": "745", "hiking": "yes", "information": "guidepost", "name": "Ka\u0161persk\u00e9 Hory", "operator": "cz:K\u010cT", "ref": "SE041", "tourism": "information"}}, {"type": "node", "id": 2820777544, "lat": 49.1437857, "lon": 13.5548561, "tags": {"hiking": "yes", "information": "map", "map_size": "region", "map_type": "topo", "name": "Tipy na v\u00fdlety", "tourism": "information"}}, {"type": "node", "id": 2840190332, "lat": 49.0021931, "lon": 13.4738592, "tags": {"ele": "1090", "hiking": "yes", "information": "guidepost", "name": "Cik\u00e1nsk\u00e1 sla\u0165", "operator": "cz:K\u010cT", "ref": "SE182", "tourism": "information"}}, {"type": "node", "id": 2840190333, "lat": 49.0022327, "lon": 13.4739139, "tags": {"information": "board", "name": "Zona 1", "tourism": "information"}}, {"type": "node", "id": 2840190334, "lat": 49.0027681, "lon": 13.4739518, "tags": {"information": "board", "name": "Revitalizace Cik\u00e1nsk\u00fdch slat\u00ed", "tourism": "information"}}, {"type": "node", "id": 2840207774, "lat": 49.0238225, "lon": 13.4949989, "tags": {"bicycle": "yes", "hiking": "yes", "information": "map", "map_size": "region", "map_type": "topo", "name": "Modrava", "tourism": "information"}}, {"type": "node", "id": 2840327431, "lat": 49.0403727, "lon": 13.5048833, "tags": {"information": "guidepost", "name": "Modrava", "tourism": "information"}}, {"type": "node", "id": 2840327432, "lat": 49.0397222, "lon": 13.504031, "tags": {"board_type": "history", "check_date": "2022-09-11", "information": "board", "name": "Rechle", "tourism": "information"}}, {"type": "node", "id": 2852348547, "lat": 49.1452372, "lon": 13.5503348, "tags": {"email": "iskhory@npsumava.cz", "information": "office", "name": "Informa\u010dn\u00ed st\u0159edisko NP \u0160umava", "phone": "+420 376 582 734", "tourism": "information"}}, {"type": "node", "id": 2883145474, "lat": 48.9837306, "lon": 13.4528701, "tags": {"information": "board", "name": "Zone 1 - Nicht betreten", "tourism": "information"}}, {"type": "node", "id": 2996252119, "lat": 48.9647845, "lon": 13.5750389, "tags": {"ele": "1263", "name": "Siebensteinkopf", "natural": "peak", "wikidata": "Q1353058"}}, {"type": "node", "id": 3066564123, "lat": 49.1205192, "lon": 13.4330826, "tags": {"amenity": "shelter", "shelter_type": "picnic_shelter", "source": "survey"}}, {"type": "node", "id": 3080022078, "lat": 48.9735508, "lon": 13.4040412}, {"type": "node", "id": 3080022079, "lat": 48.9735006, "lon": 13.4040187}, {"type": "node", "id": 3080022080, "lat": 48.973485, "lon": 13.4040993}, {"type": "node", "id": 3080022081, "lat": 48.9735352, "lon": 13.4041218}, {"type": "node", "id": 3086880619, "lat": 49.08691, "lon": 13.4804953}, {"type": "node", "id": 3086880630, "lat": 49.0869801, "lon": 13.4802612}, {"type": "node", "id": 3086884036, "lat": 49.0869969, "lon": 13.4801539}, {"type": "node", "id": 3086884043, "lat": 49.087043, "lon": 13.4802833}, {"type": "node", "id": 3165015577, "lat": 48.9606687, "lon": 13.5889884, "tags": {"information": "guidepost", "tourism": "information"}}, {"type": "node", "id": 3165213806, "lat": 48.9707674, "lon": 13.5800725, "tags": {"name": "Pozor", "tourism": "information"}}, {"type": "node", "id": 3165244904, "lat": 48.9552905, "lon": 13.5995255, "tags": {"board_type": "nature", "ele": "1023", "information": "board", "name": "V lese", "name:de": "Im Wald", "tourism": "information"}}, {"type": "node", "id": 3165258735, "lat": 48.9552891, "lon": 13.5996761, "tags": {"ele": "1047", "hiking": "yes", "information": "guidepost", "name": "Chaloupky", "operator": "cz:K\u010cT", "ref": "VO110", "tourism": "information"}}, {"type": "node", "id": 3187799677, "lat": 48.9554923, "lon": 13.5899296, "tags": {"ele": "988", "hiking": "yes", "information": "guidepost", "name": "\u010certova voda", "operator": "cz:K\u010cT", "ref": "VO112", "tourism": "information"}}, {"type": "node", "id": 3187801950, "lat": 48.9557889, "lon": 13.5891176, "tags": {"information": "guidepost", "tourism": "information"}}, {"type": "node", "id": 3187819613, "lat": 48.9570157, "lon": 13.5901938, "tags": {"name": "Pozor", "tourism": "information"}}, {"type": "node", "id": 3189638165, "lat": 49.023841, "lon": 13.4937282, "tags": {"ele": "986", "hiking": "yes", "information": "guidepost", "name": "Roklansk\u00fd potok (most)", "operator": "cz:K\u010cT", "ref": "SE029", "ski": "yes", "tourism": "information"}}, {"type": "node", "id": 3192726759, "lat": 49.090421, "lon": 13.5543571, "tags": {"name": "Zh\u016f\u0159\u00ed", "source": "survey", "tourism": "information"}}, {"type": "node", "id": 3192781662, "lat": 49.1165127, "lon": 13.5313811, "tags": {"board_type": "history", "information": "board", "name": "Dobron\u00edn", "source": "survey", "tourism": "information"}}, {"type": "node", "id": 3198607493, "lat": 49.1153143, "lon": 13.5365359, "tags": {"ele": "894", "name": "Kozinec", "natural": "peak"}}, {"type": "node", "id": 3198633366, "lat": 49.1214004, "lon": 13.4793106, "tags": {"board_type": "history", "information": "board", "name": "P\u0159edn\u00ed Pa\u0161t\u011b", "source": "survey", "tourism": "information"}}, {"type": "node", "id": 3204023623, "lat": 49.1301992, "lon": 13.5815159, "tags": {"information": "board", "name": "Dolov\u00e1n\u00ed zlata", "ref": "5", "source": "survey", "tourism": "information"}}, {"type": "node", "id": 3207149565, "lat": 49.1210011, "lon": 13.5233356, "tags": {"board_type": "history", "information": "board", "source": "survey", "tourism": "information"}}, {"type": "node", "id": 3207352552, "lat": 49.137082, "lon": 13.4891483, "tags": {"ele": "907.3", "name": "Radkovsk\u00fd vrch", "name:cs": "Radkovsk\u00fd vrch", "name:de": "Rogauer Berg", "natural": "peak"}}, {"type": "node", "id": 3242752334, "lat": 48.9686858, "lon": 13.5150775, "tags": {"ele": "1280", "name": "Markkopf", "natural": "peak"}}, {"type": "node", "id": 3242754647, "lat": 48.9730184, "lon": 13.5221733, "tags": {"ele": "1254", "name": "Mrtv\u00fd vrch", "name:cs": "Mrtv\u00fd vrch", "name:de": "Totenkopf", "natural": "peak", "source": "\u010c\u00daZK"}}, {"type": "node", "id": 3247777762, "lat": 49.0137717, "lon": 13.5256616, "tags": {"ele": "1165", "historic": "wayside_cross", "name": "Lov\u010d\u00ed sk\u00e1la", "natural": "peak", "source": "survey"}}, {"type": "node", "id": 3247844249, "lat": 49.1043517, "lon": 13.5912785, "tags": {"tourism": "viewpoint"}}, {"type": "node", "id": 3247844250, "lat": 49.1037655, "lon": 13.543764, "tags": {"direction": "13", "source": "survey", "tourism": "viewpoint"}}, {"type": "node", "id": 3247844251, "lat": 49.1036727, "lon": 13.5438789, "tags": {"information": "board", "source": "survey", "tourism": "information"}}, {"type": "node", "id": 3412904274, "lat": 49.1008179, "lon": 13.4792864, "tags": {"ele": "926", "name": "Sedelsk\u00fd vrch", "name:cs": "Sedelsk\u00fd vrch", "name:de": "Sattelberg", "natural": "peak"}}, {"type": "node", "id": 3412904275, "lat": 49.110193, "lon": 13.5848484, "tags": {"ele": "928.9", "name": "\u0160af\u00e1\u0159\u016fv vr\u0161ek", "natural": "peak"}}, {"type": "node", "id": 3412904276, "lat": 49.1174291, "lon": 13.5977161, "tags": {"ele": "957.5", "name": "Such\u00fd vrch", "natural": "peak"}}, {"type": "node", "id": 3412904278, "lat": 49.1364241, "lon": 13.5651214, "tags": {"ele": "797.4", "name": "Li\u0161\u010d\u00ed vrch", "natural": "peak"}}, {"type": "node", "id": 3480665605, "lat": 48.9664901, "lon": 13.4405838, "tags": {"ele": "1304", "name": "B\u00e4renlochriegel", "natural": "peak"}}, {"type": "node", "id": 3514354975, "lat": 49.0551972, "lon": 13.4344126, "tags": {"bicycle": "yes", "hiking": "no", "information": "guidepost", "name": "Prasily-Scheureck 15 / Bucina Finsterau 24 (Radweg)", "ref": "none", "tourism": "information"}}, {"type": "node", "id": 3572124807, "lat": 49.1480965, "lon": 13.4885644, "tags": {"name": "Smoln\u00e1 pec (Ofenanlage)", "note": "technick\u00e1 pam\u00e1tka", "tourism": "attraction"}}, {"type": "node", "id": 3638372897, "lat": 49.0874312, "lon": 13.5195057, "tags": {"tourism": "viewpoint"}}, {"type": "node", "id": 3638692782, "lat": 49.1329999, "lon": 13.554848, "tags": {"information": "board", "name": "V\u00fdroba z\u00e1palek", "source": "survey", "tourism": "information"}}, {"type": "node", "id": 3638692789, "lat": 49.1065627, "lon": 13.5824981, "tags": {"information": "board", "name": "Ml\u00fdn Buzo\u0161n\u00e1", "name:de": "Riesenbach", "source": "survey", "tourism": "information"}}, {"type": "node", "id": 3675420656, "lat": 48.9714002, "lon": 13.4818646, "tags": {"amenity": "shelter", "name": "B\u0159ezn\u00edk"}}, {"type": "node", "id": 3675429127, "lat": 48.9674375, "lon": 13.4837096}, {"type": "node", "id": 3675429128, "lat": 48.9674631, "lon": 13.4837521}, {"type": "node", "id": 3675429129, "lat": 48.9674449, "lon": 13.4837775}, {"type": "node", "id": 3675429130, "lat": 48.9674193, "lon": 13.4837351}, {"type": "node", "id": 3678813665, "lat": 49.0238789, "lon": 13.4987296, "tags": {"ele": "983", "hiking": "yes", "information": "guidepost", "name": "Modrava - bus", "operator": "cz:K\u010cT", "ref": "SE181", "source": "survey", "tourism": "information"}}, {"type": "node", "id": 3678813666, "lat": 49.0239002, "lon": 13.4983712}, {"type": "node", "id": 3678813667, "lat": 49.0237735, "lon": 13.4988086, "tags": {"email": "info@modrava.eu", "information": "office", "phone": "+420 376 599 051", "tourism": "information", "website": "https://www.sumavanet.cz/icmodrava/"}}, {"type": "node", "id": 3678813668, "lat": 49.0238176, "lon": 13.498372}, {"type": "node", "id": 3678813670, "lat": 49.0239009, "lon": 13.4984226}, {"type": "node", "id": 3678813671, "lat": 49.0238186, "lon": 13.4984234}, {"type": "node", "id": 3678818829, "lat": 49.0238181, "lon": 13.4983962, "tags": {"amenity": "post_box", "check_date:collection_times": "2022-09-09", "collection_times": "Mo-Fr 08:00", "operator": "\u010cesk\u00e1 po\u0161ta, s.p.", "operator:wikidata": "Q341090", "post_box:type": "wall", "ref": "34200:119"}}, {"type": "node", "id": 3730928499, "lat": 48.9537285, "lon": 13.5896868, "tags": {"information": "guidepost", "name": "Hammerklause / Teufelsbachklause", "tourism": "information"}}, {"type": "node", "id": 3762778573, "lat": 49.0826101, "lon": 13.405608, "tags": {"bicycle": "yes", "ele": "1013", "hiking": "yes", "information": "guidepost", "name": "Li\u0161\u010d\u00ed d\u00edry", "operator": "cz:K\u010cT", "ref": "SE060", "ski": "yes", "tourism": "information"}}, {"type": "node", "id": 3762778574, "lat": 49.0757138, "lon": 13.4015633, "tags": {"ele": "1079", "hiking": "yes", "information": "guidepost", "name": "Pr\u00e1\u0161ilsk\u00e9 jezero", "operator": "cz:K\u010cT", "ref": "SE059", "tourism": "information"}}, {"type": "node", "id": 3844382858, "lat": 49.1168432, "lon": 13.4264436, "tags": {"ele": "770", "hiking": "yes", "information": "guidepost", "name": "U K\u0159emeln\u00e9", "operator": "cz:K\u010cT", "ref": "SE123", "source": "survey", "tourism": "information"}}, {"type": "node", "id": 3914240844, "lat": 48.9560491, "lon": 13.5890907, "tags": {"name": "Buchm\u00fchlkopf", "tourism": "information"}}, {"type": "node", "id": 3914315162, "lat": 48.9536498, "lon": 13.5804038, "tags": {"name": "Holzschuhbrunn (Waldgebiet)", "tourism": "information"}}, {"type": "node", "id": 3933435627, "lat": 49.0939291, "lon": 13.551857, "tags": {"ele": "1138", "hiking": "yes", "information": "guidepost", "name": "Pod Hu\u0165skou horou", "operator": "cz:K\u010cT", "ref": "SE252", "source": "survey", "tourism": "information"}}, {"type": "node", "id": 3933435628, "lat": 49.1074863, "lon": 13.5465219, "tags": {"ele": "950", "hiking": "yes", "information": "guidepost", "name": "Flus\u00e1rna", "operator": "cz:K\u010cT", "ref": "SE172", "tourism": "information"}}, {"type": "node", "id": 3967869664, "lat": 49.0292333, "lon": 13.5862517, "tags": {"tourism": "viewpoint"}}, {"type": "node", "id": 3967869665, "lat": 49.0294144, "lon": 13.5880139, "tags": {"tourism": "viewpoint"}}, {"type": "node", "id": 4103951395, "lat": 49.150295, "lon": 13.4343473, "tags": {"ele": "967", "hiking": "yes", "information": "guidepost", "name": "Pustina", "operator": "cz:K\u010cT", "ref": "SE126", "ski": "yes", "tourism": "information"}}, {"type": "node", "id": 4103951397, "lat": 49.1025135, "lon": 13.4304468, "tags": {"bicycle": "yes", "ele": "878", "hiking": "yes", "information": "guidepost", "inscription": "Po obou stran\u00e1ch silnice st\u00e1lo 28 dom\u016f dnes zanick\u00e9 obce.", "name": "Velk\u00fd Bor", "operator": "cz:K\u010cT", "ref": "1458/19;2118/7,5;SE122", "tourism": "information"}}, {"type": "node", "id": 4112899018, "lat": 49.0268896, "lon": 13.5127809, "tags": {"ele": "1098", "hiking": "yes", "information": "guidepost", "name": "Nad Modravou", "operator": "cz:K\u010cT", "ref": "SE238", "source": "survey", "tourism": "information"}}, {"type": "node", "id": 4112899019, "lat": 49.0435874, "lon": 13.5429977, "tags": {"ele": "1090", "information": "guidepost", "name": "Zlat\u00e1 stezka", "source": "survey", "tourism": "information"}}, {"type": "node", "id": 4112921427, "lat": 48.9677311, "lon": 13.4836593, "tags": {"bicycle": "yes", "ele": "1144", "hiking": "yes", "information": "guidepost", "name": "B\u0159ezn\u00edk", "name:de": "P\u00fcrstling", "operator": "cz:K\u010cT", "ref": "SE111", "tourism": "information"}}, {"type": "node", "id": 4144036446, "lat": 48.9528642, "lon": 13.4259612, "tags": {"information": "guidepost", "name": "Zur Racheldiensth\u00fctte", "tourism": "information"}}, {"type": "node", "id": 4173304193, "lat": 49.0741936, "lon": 13.4907252, "tags": {"board_type": "wildlife", "information": "board", "name": "Rys, ko\u010dka", "tourism": "information"}}, {"type": "node", "id": 4173304194, "lat": 49.0739669, "lon": 13.4915379, "tags": {"board_type": "wildlife", "check_date": "2022-09-11", "information": "board", "name": "Ps\u00edk, m\u00fdval, medv\u011bd", "tourism": "information"}}, {"type": "node", "id": 4173304195, "lat": 49.0745661, "lon": 13.4898669, "tags": {"board_type": "wildlife", "check_date": "2022-09-11", "information": "board", "name": "Lasicovit\u00e9 \u0161elmy", "tourism": "information"}}, {"type": "node", "id": 4173304196, "lat": 49.0745228, "lon": 13.4889314, "tags": {"board_type": "wildlife", "check_date": "2022-09-11", "information": "board", "name": "Stopn\u00ed dr\u00e1hy", "tourism": "information"}}, {"type": "node", "id": 4173304197, "lat": 49.0742964, "lon": 13.4885392, "tags": {"board_type": "wildlife", "check_date": "2022-09-11", "information": "board", "name": "Vlk, pes, li\u0161ka, \u0161akal", "tourism": "information"}}, {"type": "node", "id": 4173304201, "lat": 49.0701298, "lon": 13.4908067, "tags": {"noexit": "yes", "tourism": "viewpoint"}}, {"type": "node", "id": 4173304275, "lat": 49.0750602, "lon": 13.4869812}, {"type": "node", "id": 4173304276, "lat": 49.0751091, "lon": 13.4868472}, {"type": "node", "id": 4173304287, "lat": 49.0752917, "lon": 13.4871773}, {"type": "node", "id": 4173304288, "lat": 49.0753313, "lon": 13.487035}, {"type": "node", "id": 4284000376, "lat": 49.0237699, "lon": 13.4938402, "tags": {"amenity": "shelter"}}, {"type": "node", "id": 4286584638, "lat": 48.9757482, "lon": 13.5441754, "tags": {"ele": "1272", "hiking": "yes", "information": "guidepost", "name": "\u010cern\u00e1 Hora", "operator": "cz:K\u010cT", "ref": "SE071", "tourism": "information"}}, {"type": "node", "id": 4286584662, "lat": 48.9696671, "lon": 13.5484427, "tags": {"hiking": "yes", "information": "board", "name": "Stezka \u017eelezn\u00e9 opony", "tourism": "information"}}, {"type": "node", "id": 4286585108, "lat": 48.9724768, "lon": 13.5819784, "tags": {"tourism": "viewpoint"}}, {"type": "node", "id": 4286585109, "lat": 48.975911, "lon": 13.5799125, "tags": {"tourism": "viewpoint"}}, {"type": "node", "id": 4286630000, "lat": 49.0286001, "lon": 13.5183098, "tags": {"bicycle": "yes", "ele": "1193", "hiking": "yes", "information": "guidepost", "name": "Filipova Hu\u0165", "operator": "cz:K\u010cT", "ref": "SE180", "source": "survey", "tourism": "information"}}, {"type": "node", "id": 4286630022, "lat": 49.0303113, "lon": 13.5213416, "tags": {"ele": "1168", "hiking": "yes", "information": "guidepost", "name": "Filipova hu\u0165", "operator": "cz:K\u010cT", "ref": "SE179", "source": "survey", "tourism": "information"}}, {"type": "node", "id": 4326781260, "lat": 49.0014501, "lon": 13.4018517, "tags": {"information": "route_marker", "name": "Goldsteig", "tourism": "information"}}, {"type": "node", "id": 4344447060, "lat": 48.9768113, "lon": 13.4085747, "tags": {"hiking": "yes", "information": "guidepost", "tourism": "information"}}, {"type": "node", "id": 4344995629, "lat": 48.9645089, "lon": 13.4193683, "tags": {"information": "guidepost", "tourism": "information"}}, {"type": "node", "id": 4344995630, "lat": 48.9646661, "lon": 13.4187677, "tags": {"information": "guidepost", "tourism": "information"}}, {"type": "node", "id": 4344995632, "lat": 48.9790012, "lon": 13.4040909, "tags": {"information": "guidepost", "tourism": "information"}}, {"type": "node", "id": 4344995633, "lat": 48.9794464, "lon": 13.4036592, "tags": {"information": "guidepost", "tourism": "information"}}, {"type": "node", "id": 4344995634, "lat": 48.9729647, "lon": 13.4069616, "tags": {"information": "guidepost", "name": "Rachelsee/Felsenkanzel", "tourism": "information"}}, {"type": "node", "id": 4396309795, "lat": 49.0395943, "lon": 13.5754728, "tags": {"board_type": "nature", "check_date": "2022-09-12", "information": "board", "name": "Jezern\u00ed sla\u0165 1", "source": "survey", "tourism": "information"}}, {"type": "node", "id": 4396309796, "lat": 49.0395993, "lon": 13.5754834, "tags": {"board_type": "nature", "check_date": "2022-09-12", "information": "board", "name": "Jezern\u00ed sla\u0165 2", "source": "survey", "tourism": "information"}}, {"type": "node", "id": 4403850604, "lat": 49.0836736, "lon": 13.4050365, "tags": {"amenity": "shelter", "shelter_type": "picnic_shelter"}}, {"type": "node", "id": 4415602711, "lat": 48.9526282, "lon": 13.5392993, "tags": {"information": "board", "name": "Kerngebiet", "tourism": "information"}}, {"type": "node", "id": 4419708397, "lat": 49.1357802, "lon": 13.5340987, "tags": {"description": "Tato tov\u00e1rna se v prvn\u00ed polovin\u011b 20.stolet\u00ed stala nejv\u011bt\u0161\u00edm pr\u016fmyslov\u00fdm podnikem m\u011bsta Ka\u0161persk\u00fdch Hor a cel\u00e9ho okol\u00ed.", "information": "board", "name": "b\u00fdv. Watzlawickova tov\u00e1rna", "name:de": "Bohemia-Werke", "tourism": "information", "website": "https://www.sumavanet.cz/khory/fr.asp?tab=snet&id=3588&burl="}}, {"type": "node", "id": 4431668122, "lat": 48.9674747, "lon": 13.4500843, "tags": {"ele": "1367", "name": "Blatn\u00fd vrch", "natural": "peak"}}, {"type": "node", "id": 4433694403, "lat": 49.0493113, "lon": 13.4789826, "tags": {"ele": "1027.9", "name": "V\u00fdb\u011b\u017eek", "natural": "peak", "source": "cuzk:km"}}, {"type": "node", "id": 4434171796, "lat": 49.0587452, "lon": 13.4116476, "tags": {"bicycle": "yes", "information": "guidepost", "operator": "cz:K\u010cT", "ref": "none", "tourism": "information"}}, {"type": "node", "id": 4434283255, "lat": 49.0675421, "lon": 13.4328126, "tags": {"bicycle": "yes", "information": "guidepost", "name": "Zelena Hora", "operator": "cz:K\u010cT", "ref": "2113/9;2118/12", "tourism": "information"}}, {"type": "node", "id": 4434283256, "lat": 49.0674958, "lon": 13.4328271, "tags": {"bicycle": "yes", "information": "guidepost", "name": "Radroute -Europaradweg 13", "ref": "none", "tourism": "information"}}, {"type": "node", "id": 4434300016, "lat": 49.0608626, "lon": 13.4041781, "tags": {"information": "guidepost", "name": "Polednik (Richtungsweiser)", "tourism": "information"}}, {"type": "node", "id": 4434305155, "lat": 49.0674539, "lon": 13.4324522, "tags": {"information": "board", "name": "Auf markierten Wegen bleiben !", "name:de": "Auf markierten Wegen bleiben!", "tourism": "information"}}, {"type": "node", "id": 4546908387, "lat": 49.059757, "lon": 13.4080878, "tags": {"bicycle": "yes", "ele": "1234", "hiking": "yes", "information": "guidepost", "name": "P\u0159ed\u011bl", "operator": "cz:K\u010cT", "ref": "SE061;2113/11,5", "ski": "yes", "tourism": "information"}}, {"type": "node", "id": 4547043282, "lat": 49.0806686, "lon": 13.4591409, "tags": {"ele": "850", "hiking": "yes", "information": "guidepost", "name": "Mechov (park.)", "operator": "cz:K\u010cT", "ref": "SE248", "ski": "yes", "source": "survey", "tourism": "information"}}, {"type": "node", "id": 4547043283, "lat": 49.0760186, "lon": 13.4585611, "tags": {"ele": "888", "hiking": "yes", "information": "guidepost", "name": "Plavebn\u00ed kan\u00e1l", "operator": "cz:K\u010cT", "ref": "SE227;6677/15", "ski": "yes", "source": "survey", "tourism": "information"}}, {"type": "node", "id": 4547052866, "lat": 49.0706575, "lon": 13.4695739, "tags": {"ele": "895", "hiking": "yes", "information": "guidepost", "name": "Pod Kosteln\u00edm vrchem", "operator": "cz:K\u010cT", "ref": "SE115", "ski": "yes", "source": "survey", "tourism": "information"}}, {"type": "node", "id": 4547052867, "lat": 49.0705856, "lon": 13.4651491, "tags": {"ele": "894", "hiking": "yes", "information": "guidepost", "name": "Odbo\u010dka ke kapli", "operator": "cz:K\u010cT", "ref": "SE250", "ski": "yes", "source": "survey", "tourism": "information"}}, {"type": "node", "id": 4547054408, "lat": 49.0547782, "lon": 13.4716316, "tags": {"bicycle": "yes", "information": "guidepost", "name": "Hake\u0161ick\u00e1 cesta", "operator": "cz:K\u010cT", "ref": "2114/6,5", "tourism": "information"}}, {"type": "node", "id": 4547054409, "lat": 49.0548355, "lon": 13.4715975, "tags": {"ele": "898", "hiking": "yes", "information": "guidepost", "name": "Hake\u0161ick\u00e1 cesta", "operator": "cz:K\u010cT", "ref": "SE251", "ski": "yes", "source": "survey", "tourism": "information"}}, {"type": "node", "id": 4547440497, "lat": 49.0547182, "lon": 13.50353, "tags": {"ele": "928", "hiking": "yes", "information": "guidepost", "name": "Rokyta", "operator": "cz:K\u010cT", "ref": "SE028;0226/28,5", "ski": "yes", "tourism": "information"}}, {"type": "node", "id": 4559734741, "lat": 49.1396333, "lon": 13.4427381, "tags": {"ele": "960", "hiking": "yes", "information": "guidepost", "name": "U Mal\u00e9ho Babylonu", "operator": "cz:K\u010cT", "ref": "SE125", "tourism": "information"}}, {"type": "node", "id": 4672440484, "lat": 49.0865611, "lon": 13.4789676, "tags": {"information": "terminal", "tourism": "information"}}, {"type": "node", "id": 4676776733, "lat": 49.0982796, "lon": 13.4760998, "tags": {"check_date": "2024-10-08", "information": "board", "tourism": "information"}}, {"type": "node", "id": 4678056204, "lat": 49.1333551, "lon": 13.5637378, "tags": {"fixme": "pozice jen p\u0159ibli\u017en\u00e1, gpska to zabalila", "tourism": "viewpoint"}}, {"type": "node", "id": 4678056214, "lat": 49.1295963, "lon": 13.5766718, "tags": {"board_type": "history", "information": "board", "name": "Seismografick\u00e1 stanice", "tourism": "information"}}, {"type": "node", "id": 4678056216, "lat": 49.1295299, "lon": 13.5790067, "tags": {"board_type": "nature", "information": "board", "name": "P\u0159\u00edrodn\u00ed rezervace Am\u00e1lino \u00fadol\u00ed", "tourism": "information"}}, {"type": "node", "id": 4678056217, "lat": 49.1295077, "lon": 13.5792222, "tags": {"board_type": "history", "information": "board", "name": "Stezka str\u00e1\u017ec\u016f hranice", "name:de": "Der Steig der Grenzw\u00e4chter", "name:en": "The borderguard's path", "ref": "3", "tourism": "information"}}, {"type": "node", "id": 4678056218, "lat": 49.1360927, "lon": 13.5692257, "tags": {"board_type": "history", "information": "board", "name": "Stezka str\u00e1\u017ec\u016f hranice", "ref": "2", "tourism": "information"}}, {"type": "node", "id": 4678056256, "lat": 49.1369245, "lon": 13.5520864, "tags": {"board_type": "history", "information": "board", "name": "Cestou zlatokop\u016f", "ref": "2", "tourism": "information"}}, {"type": "node", "id": 4678056258, "lat": 49.1439773, "lon": 13.5560081, "tags": {"board_type": "history", "information": "board", "tourism": "information"}}, {"type": "node", "id": 4678056259, "lat": 49.1439791, "lon": 13.5558901, "tags": {"board_type": "history", "information": "board", "tourism": "information"}}, {"type": "node", "id": 4678056260, "lat": 49.1439817, "lon": 13.5557573, "tags": {"board_type": "history", "information": "board", "tourism": "information"}}, {"type": "node", "id": 4678056261, "lat": 49.1439852, "lon": 13.5556313, "tags": {"board_type": "history", "information": "board", "tourism": "information"}}, {"type": "node", "id": 4678056267, "lat": 49.1466034, "lon": 13.5574588, "tags": {"hiking": "yes", "information": "map", "map_size": "region", "map_type": "topo", "name": "Ly\u017ea\u0159sk\u00e9 stopy v okol\u00ed Ka\u0161persk\u00fdch Hor", "ski": "yes", "tourism": "information"}}, {"type": "node", "id": 4678056268, "lat": 49.1466718, "lon": 13.5574642, "tags": {"board_type": "nature", "information": "board", "name": "P\u0159\u00edrodn\u00ed park Ka\u0161persk\u00e1 vrchovina", "tourism": "information"}}, {"type": "node", "id": 4678056279, "lat": 49.1437554, "lon": 13.5548077, "tags": {"information": "map", "map_size": "city", "map_type": "scheme", "tourism": "information"}}, {"type": "node", "id": 4678056345, "lat": 49.1437443, "lon": 13.5556713, "tags": {"entrance": "yes"}}, {"type": "node", "id": 4678056346, "lat": 49.1438558, "lon": 13.5553679, "tags": {"entrance": "main"}}, {"type": "node", "id": 4678056347, "lat": 49.1437474, "lon": 13.5555919}, {"type": "node", "id": 4678056348, "lat": 49.1438841, "lon": 13.5559702}, {"type": "node", "id": 4678056349, "lat": 49.1438845, "lon": 13.5559563}, {"type": "node", "id": 4678056350, "lat": 49.1438944, "lon": 13.5559571}, {"type": "node", "id": 4678056351, "lat": 49.143894, "lon": 13.5559706}, {"type": "node", "id": 4678056352, "lat": 49.1438784, "lon": 13.5560231}, {"type": "node", "id": 4678056353, "lat": 49.1438878, "lon": 13.5560303}, {"type": "node", "id": 4678056354, "lat": 49.1438074, "lon": 13.5560498}, {"type": "node", "id": 4678056355, "lat": 49.143803, "lon": 13.5560645}, {"type": "node", "id": 4678056356, "lat": 49.1438167, "lon": 13.5560564}, {"type": "node", "id": 4678056357, "lat": 49.1437852, "lon": 13.5560016}, {"type": "node", "id": 4678056358, "lat": 49.1437752, "lon": 13.5560054}, {"type": "node", "id": 4678056359, "lat": 49.1437774, "lon": 13.5560189}, {"type": "node", "id": 4678056360, "lat": 49.143786, "lon": 13.5559614}, {"type": "node", "id": 4678056361, "lat": 49.1437761, "lon": 13.5559596}, {"type": "node", "id": 4678056362, "lat": 49.1437767, "lon": 13.5559455}, {"type": "node", "id": 4678056363, "lat": 49.143787, "lon": 13.5559464}, {"type": "node", "id": 4678056364, "lat": 49.1438463, "lon": 13.5560591}, {"type": "node", "id": 4678056365, "lat": 49.1438495, "lon": 13.5560741}, {"type": "node", "id": 4678056366, "lat": 49.1438583, "lon": 13.5560694}, {"type": "node", "id": 4678056367, "lat": 49.1438118, "lon": 13.5560698}, {"type": "node", "id": 4678056368, "lat": 49.1438803, "lon": 13.5554632}, {"type": "node", "id": 4678056369, "lat": 49.1439009, "lon": 13.5554624}, {"type": "node", "id": 4678056370, "lat": 49.1437671, "lon": 13.5554725}, {"type": "node", "id": 4678056371, "lat": 49.1437681, "lon": 13.555443}, {"type": "node", "id": 4678056372, "lat": 49.1437919, "lon": 13.5554742}, {"type": "node", "id": 4678056373, "lat": 49.1437927, "lon": 13.5554457}, {"type": "node", "id": 4678056374, "lat": 49.1438043, "lon": 13.5554751}, {"type": "node", "id": 4678056375, "lat": 49.1438057, "lon": 13.555453}, {"type": "node", "id": 4678217324, "lat": 49.0868148, "lon": 13.4806874, "tags": {"hiking": "yes", "information": "map", "map_size": "region", "map_type": "topo", "tourism": "information"}}, {"type": "node", "id": 4678217335, "lat": 49.0834641, "lon": 13.4824599, "tags": {"information": "board", "name": "Mraven\u010d\u00ed stezka, are\u00e1l lesn\u00edch her Srn\u00ed", "tourism": "information"}}, {"type": "node", "id": 4678217339, "lat": 49.0761605, "lon": 13.4869168, "tags": {"board_type": "wildlife", "information": "board", "name": "N\u00e1v\u0161t\u011bvnick\u00e9 centrum Srn\u00ed", "tourism": "information"}}, {"type": "node", "id": 4678217341, "lat": 49.0702378, "lon": 13.4944653, "tags": {"board_type": "history", "information": "board", "name": "\u017divot a smrt horal\u016f", "tourism": "information"}}, {"type": "node", "id": 4678217342, "lat": 49.0682836, "lon": 13.4950846, "tags": {"direction": "240-270", "tourism": "viewpoint"}}, {"type": "node", "id": 4678217345, "lat": 49.0681955, "lon": 13.4955066, "tags": {"board_type": "history", "check_date": "2024-10-08", "information": "board", "name": "Obr\u00e1zky krajiny", "tourism": "information"}}, {"type": "node", "id": 4678217346, "lat": 49.0745273, "lon": 13.4950369, "tags": {"board_type": "history", "check_date": "2021-07-21", "information": "board", "name": "Klostermannovy ko\u0159eny", "tourism": "information"}}, {"type": "node", "id": 4678217349, "lat": 49.0642344, "lon": 13.4989978, "tags": {"board_type": "history", "information": "board", "name": "Divok\u00e1 p\u0159\u00edroda", "tourism": "information"}}, {"type": "node", "id": 4678217350, "lat": 49.0635287, "lon": 13.5012144, "tags": {"board_type": "history", "information": "board", "name": "M\u00edsta Karla Klostermanna", "tourism": "information"}}, {"type": "node", "id": 4683695042, "lat": 49.1014478, "lon": 13.4831355, "tags": {"board_type": "technology", "information": "board", "name": "Elektr\u00e1na Vydra", "tourism": "information"}}, {"type": "node", "id": 4847768944, "lat": 49.0125765, "lon": 13.5779858, "tags": {"ele": "1055", "hiking": "yes", "information": "guidepost", "name": "Kvilda - Hrab\u011bc\u00ed hu\u0165", "operator": "cz:K\u010cT", "ref": "VO404", "source": "survey", "tourism": "information"}}, {"type": "node", "id": 4848986515, "lat": 49.0339748, "lon": 13.5357892, "tags": {"ele": "1166", "hiking": "yes", "information": "guidepost", "name": "Pod B\u0159ezovou horou", "operator": "cz:K\u010cT", "ref": "SE177", "tourism": "information"}}, {"type": "node", "id": 4849027644, "lat": 49.0313405, "lon": 13.5278626, "tags": {"ele": "1125", "hiking": "yes", "information": "guidepost", "name": "Kor\u00fdtko", "operator": "cz:K\u010cT", "ref": "SE178", "tourism": "information"}}, {"type": "node", "id": 4849027645, "lat": 49.0474571, "lon": 13.5504448, "tags": {"ele": "1090", "hiking": "yes", "information": "guidepost", "name": "Zlat\u00e1 stezka", "operator": "cz:K\u010cT", "ref": "SE176", "tourism": "information"}}, {"type": "node", "id": 4849027652, "lat": 49.057735, "lon": 13.5579227, "tags": {"ele": "1075", "hiking": "yes", "information": "guidepost", "name": "Horsk\u00e1 Kvilda", "operator": "cz:K\u010cT", "ref": "SE107;PT351", "tourism": "information"}}, {"type": "node", "id": 4910703332, "lat": 49.1179309, "lon": 13.501199, "tags": {"name": "Draci skaly", "name:cs": "Draci skaly", "tourism": "viewpoint"}}, {"type": "node", "id": 4911357316, "lat": 49.1207182, "lon": 13.4329144, "tags": {"ele": "840", "hiking": "yes", "information": "guidepost", "name": "Stod\u016flky", "name:cs": "Stod\u016flky", "name:de": "Stadln", "operator": "cz:K\u010cT", "ref": "SE124", "tourism": "information"}}, {"type": "node", "id": 4911357317, "lat": 49.1262295, "lon": 13.4895419, "tags": {"information": "guidepost", "tourism": "information"}}, {"type": "node", "id": 4938039811, "lat": 48.9631486, "lon": 13.4545695, "tags": {"board_type": "warning", "information": "board", "inscription": "POZOR St\u00e1tn\u00ed hranice", "tourism": "information"}}, {"type": "node", "id": 4953616146, "lat": 49.0366084, "lon": 13.51909, "tags": {"information": "route_marker", "name:de": "Gelb /Wei\u00df", "tourism": "information"}}, {"type": "node", "id": 4953616147, "lat": 49.0366228, "lon": 13.5191519, "tags": {"information": "route_marker", "name": "Gelb /Wei\u00df", "tourism": "information"}}, {"type": "node", "id": 4953628691, "lat": 49.0319752, "lon": 13.5275818, "tags": {"information": "guidepost", "name": "Langlaufloipe (Orange)", "operator": "cz:K\u010cT", "ref": "SE178", "ski": "yes", "tourism": "information"}}, {"type": "node", "id": 4953628693, "lat": 49.0321965, "lon": 13.5276058, "tags": {"tourism": "viewpoint"}}, {"type": "node", "id": 4953705016, "lat": 49.0390174, "lon": 13.5037101, "tags": {"bicycle": "yes", "information": "guidepost", "operator": "cz:K\u010cT", "ref": "none", "tourism": "information"}}, {"type": "node", "id": 5022152820, "lat": 49.1208412, "lon": 13.4329848, "tags": {"board_type": "history", "information": "board", "name": "Putov\u00e1n\u00ed krajem Karla Klostermanna - Stod\u016flky", "tourism": "information"}}, {"type": "node", "id": 5059541541, "lat": 49.100532, "lon": 13.4313393, "tags": {"information": "guidepost", "name": "Velk\u00fd Bor", "ski": "yes", "tourism": "information"}}, {"type": "node", "id": 5059541545, "lat": 48.9710771, "lon": 13.5973111, "tags": {"direction": "S", "tourism": "viewpoint"}}, {"type": "node", "id": 5158978331, "lat": 49.0405617, "lon": 13.468042, "tags": {"bicycle": "yes", "hiking": "yes", "information": "map", "map_size": "region", "map_type": "topo", "tourism": "information"}}, {"type": "node", "id": 5158978332, "lat": 49.0416096, "lon": 13.468675, "tags": {"board_type": "nature", "information": "board", "tourism": "information"}}, {"type": "node", "id": 5158978333, "lat": 49.0407243, "lon": 13.4680092, "tags": {"board_type": "nature", "information": "board", "name": "\u017divot na ra\u0161elini\u0161t\u00edch", "tourism": "information"}}, {"type": "node", "id": 5158978334, "lat": 49.0407256, "lon": 13.4679769, "tags": {"board_type": "nature", "information": "board", "name": "Kousek seversk\u00e9 divo\u010diny", "tourism": "information"}}, {"type": "node", "id": 5160975392, "lat": 49.0359443, "lon": 13.57768, "tags": {"bicycle": "yes", "information": "route_marker", "operator": "cz:K\u010cT", "ref": "none", "tourism": "information"}}, {"type": "node", "id": 5160975393, "lat": 49.0366828, "lon": 13.5784846, "tags": {"bicycle": "yes", "information": "route_marker", "operator": "cz:K\u010cT", "ref": "none", "tourism": "information"}}, {"type": "node", "id": 5160975394, "lat": 49.0371787, "lon": 13.5782969, "tags": {"bicycle": "yes", "information": "route_marker", "operator": "cz:K\u010cT", "ref": "none", "tourism": "information"}}, {"type": "node", "id": 5160975395, "lat": 49.0394715, "lon": 13.578372, "tags": {"ele": "1075", "hiking": "yes", "information": "guidepost", "name": "Jezern\u00ed sla\u0165", "operator": "cz:K\u010cT", "ref": "PT099", "tourism": "information"}}, {"type": "node", "id": 5160975396, "lat": 49.0395665, "lon": 13.5776854, "tags": {"ele": "1075", "hiking": "yes", "information": "guidepost", "name": "Jezern\u00ed sla\u0165", "operator": "cz:K\u010cT", "ref": "PT099", "ski": "yes", "tourism": "information"}}, {"type": "node", "id": 5160975397, "lat": 49.0483923, "lon": 13.5774332, "tags": {"bicycle": "yes", "information": "route_marker", "operator": "cz:K\u010cT", "ref": "none", "tourism": "information"}}, {"type": "node", "id": 5160975401, "lat": 49.0547347, "lon": 13.5626328, "tags": {"bicycle": "yes", "hiking": "yes", "information": "map", "map_size": "region", "map_type": "topo", "tourism": "information"}}, {"type": "node", "id": 5160975402, "lat": 49.0548015, "lon": 13.5626435, "tags": {"bicycle": "yes", "information": "guidepost", "operator": "cz:K\u010cT", "ref": "none", "tourism": "information"}}, {"type": "node", "id": 5160975403, "lat": 49.0522035, "lon": 13.5552943, "tags": {"bicycle": "yes", "information": "guidepost", "operator": "cz:K\u010cT", "ref": "none", "tourism": "information"}}, {"type": "node", "id": 5160976947, "lat": 49.0294553, "lon": 13.5195243, "tags": {"bicycle": "yes", "information": "route_marker", "operator": "cz:K\u010cT", "ref": "none", "tourism": "information"}}, {"type": "node", "id": 5160977268, "lat": 49.0234439, "lon": 13.500942, "tags": {"bicycle": "yes", "information": "route_marker", "operator": "cz:K\u010cT", "ref": "none", "tourism": "information"}}, {"type": "node", "id": 5160977279, "lat": 49.0236549, "lon": 13.4965432, "tags": {"bicycle": "yes", "information": "route_marker", "operator": "cz:K\u010cT", "ref": "none", "tourism": "information"}}, {"type": "node", "id": 5160977280, "lat": 49.0375163, "lon": 13.5025352, "tags": {"bicycle": "yes", "information": "route_marker", "operator": "cz:K\u010cT", "ref": "none", "tourism": "information"}}, {"type": "node", "id": 5160977281, "lat": 49.0392183, "lon": 13.5036725, "tags": {"bicycle": "yes", "information": "route_marker", "operator": "cz:K\u010cT", "ref": "none", "tourism": "information"}}, {"type": "node", "id": 5160977282, "lat": 49.0546275, "lon": 13.509619, "tags": {"board_type": "history", "information": "board", "tourism": "information"}}, {"type": "node", "id": 5160977283, "lat": 49.0537126, "lon": 13.5025587, "tags": {"hiking": "yes", "information": "guidepost", "name": "Plavebn\u00ed kan\u00e1l", "operator": "cz:K\u010cT", "ref": "SE028", "tourism": "information"}}, {"type": "node", "id": 5160978486, "lat": 49.0310803, "lon": 13.4469008, "tags": {"board_type": "history", "information": "board", "name": "Archeologick\u00fd v\u00fdzkum mezolitu v okol\u00ed Modravy", "tourism": "information"}}, {"type": "node", "id": 5160978488, "lat": 49.0352678, "lon": 13.4741115, "tags": {"bicycle": "yes", "information": "guidepost", "operator": "cz:K\u010cT", "ref": "none", "tourism": "information"}}, {"type": "node", "id": 5160978489, "lat": 49.0239451, "lon": 13.4936035, "tags": {"bicycle": "yes", "information": "guidepost", "operator": "cz:K\u010cT", "ref": "none", "tourism": "information"}}, {"type": "node", "id": 5160978491, "lat": 49.0238941, "lon": 13.4950476, "tags": {"bicycle": "yes", "information": "guidepost", "operator": "cz:K\u010cT", "ref": "none", "tourism": "information"}}, {"type": "node", "id": 5160979012, "lat": 49.0061935, "lon": 13.5003519, "tags": {"bicycle": "yes", "information": "guidepost", "operator": "cz:K\u010cT", "ref": "none", "tourism": "information"}}, {"type": "node", "id": 5160979013, "lat": 49.0063132, "lon": 13.5003895, "tags": {"ele": "1015", "hiking": "yes", "information": "guidepost", "name": "Modravsk\u00fd potok (most)", "operator": "cz:K\u010cT", "ref": "SE068", "tourism": "information"}}, {"type": "node", "id": 5160979016, "lat": 48.9675476, "lon": 13.4839207, "tags": {"board_type": "nature", "information": "board", "tourism": "information"}}, {"type": "node", "id": 5160979018, "lat": 48.9711745, "lon": 13.4825438}, {"type": "node", "id": 5160979019, "lat": 48.9711891, "lon": 13.4825459}, {"type": "node", "id": 5160979020, "lat": 48.9712808, "lon": 13.4825601}, {"type": "node", "id": 5160979043, "lat": 48.9917872, "lon": 13.5568404, "tags": {"bicycle": "yes", "information": "route_marker", "operator": "cz:K\u010cT", "ref": "none", "tourism": "information"}}, {"type": "node", "id": 5160979044, "lat": 48.9920119, "lon": 13.5567775, "tags": {"board_type": "nature", "information": "board", "name": "\u010cernohorsk\u00fd mo\u010d\u00e1l", "tourism": "information"}}, {"type": "node", "id": 5160979045, "lat": 48.9922214, "lon": 13.5567427, "tags": {"ele": "1125", "hiking": "yes", "information": "guidepost", "name": "Tepl\u00e1 Vltava - u mostu", "operator": "cz:K\u010cT", "ref": "VO405", "tourism": "information"}}, {"type": "node", "id": 5160979046, "lat": 49.002662, "lon": 13.5603581, "tags": {"bicycle": "yes", "information": "route_marker", "operator": "cz:K\u010cT", "ref": "none", "tourism": "information"}}, {"type": "node", "id": 5160979047, "lat": 49.0083576, "lon": 13.5681367, "tags": {"information": "guidepost", "operator": "cz:K\u010cT", "ref": "none", "ski": "yes", "tourism": "information"}}, {"type": "node", "id": 5160979048, "lat": 49.0084457, "lon": 13.5682695, "tags": {"board_type": "history", "information": "board", "name": "Hrab\u011bc\u00ed hu\u0165", "tourism": "information"}}, {"type": "node", "id": 5160979063, "lat": 49.0125556, "lon": 13.5778429, "tags": {"bicycle": "yes", "information": "guidepost", "operator": "cz:K\u010cT", "ref": "none", "tourism": "information"}}, {"type": "node", "id": 5160979064, "lat": 49.0129424, "lon": 13.5780984, "tags": {"bicycle": "yes", "information": "guidepost", "operator": "cz:K\u010cT", "ref": "none", "tourism": "information"}}, {"type": "node", "id": 5160979065, "lat": 49.0140525, "lon": 13.5789594, "tags": {"hiking": "yes", "information": "map", "map_size": "region", "map_type": "scheme", "name": "Stezky p\u0159\u00edrodou a \u010dasem", "tourism": "information"}}, {"type": "node", "id": 5160979067, "lat": 49.0174634, "lon": 13.5796434, "tags": {"bicycle": "yes", "information": "guidepost", "operator": "cz:K\u010cT", "ref": "none", "tourism": "information"}}, {"type": "node", "id": 5160979068, "lat": 49.0190149, "lon": 13.5794556, "tags": {"bicycle": "yes", "information": "guidepost", "operator": "cz:K\u010cT", "ref": "none", "tourism": "information"}}, {"type": "node", "id": 5160979069, "lat": 49.0188742, "lon": 13.5791284, "tags": {"bicycle": "yes", "check_date": "2022-09-12", "hiking": "yes", "information": "map", "map_size": "region", "map_type": "topo", "tourism": "information"}}, {"type": "node", "id": 5160979070, "lat": 49.0190422, "lon": 13.5790881, "tags": {"board_type": "history", "check_date": "2022-09-12", "information": "board", "name": "Historie Kvildska", "tourism": "information"}}, {"type": "node", "id": 5160979071, "lat": 49.0190712, "lon": 13.5790908, "tags": {"bicycle": "yes", "information": "guidepost", "operator": "cz:K\u010cT", "ref": "none", "tourism": "information"}}, {"type": "node", "id": 5160979072, "lat": 49.0193139, "lon": 13.5791552, "tags": {"board_type": "nature", "check_date": "2022-09-12", "information": "board", "tourism": "information"}}, {"type": "node", "id": 5160979074, "lat": 49.0196978, "lon": 13.5797084, "tags": {"bicycle": "yes", "check_date": "2022-09-12", "hiking": "yes", "information": "map", "map_size": "region", "map_type": "topo", "name": "Obec Kvilda", "tourism": "information"}}, {"type": "node", "id": 5160979075, "lat": 49.0203728, "lon": 13.5798418, "tags": {"bicycle": "yes", "information": "guidepost", "operator": "cz:K\u010cT", "ref": "none", "tourism": "information"}}, {"type": "node", "id": 5160979076, "lat": 49.0217237, "lon": 13.5801315, "tags": {"bicycle": "yes", "information": "route_marker", "operator": "cz:K\u010cT", "ref": "none", "tourism": "information"}}, {"type": "node", "id": 5160979081, "lat": 49.0229832, "lon": 13.5808377, "tags": {"bicycle": "yes", "check_date": "2024-10-10", "hiking": "yes", "information": "map", "map_size": "region", "map_type": "topo", "ski": "yes", "tourism": "information"}}, {"type": "node", "id": 5160979321, "lat": 48.9712979, "lon": 13.4825622}, {"type": "node", "id": 5160979325, "lat": 48.9835581, "lon": 13.4921014, "tags": {"bicycle": "yes", "information": "route_marker", "operator": "cz:K\u010cT", "ref": "none", "tourism": "information"}}, {"type": "node", "id": 5160979326, "lat": 48.9881909, "lon": 13.5158175, "tags": {"bicycle": "yes", "information": "route_marker", "operator": "cz:K\u010cT", "ref": "none", "tourism": "information"}}, {"type": "node", "id": 5160979347, "lat": 48.9756961, "lon": 13.5442543, "tags": {"bicycle": "yes", "information": "guidepost", "operator": "cz:K\u010cT", "ref": "none", "tourism": "information"}}, {"type": "node", "id": 5160979356, "lat": 48.9729954, "lon": 13.5508472, "tags": {"board_type": "nature", "information": "board", "tourism": "information"}}, {"type": "node", "id": 5160979376, "lat": 48.9719214, "lon": 13.5628633, "tags": {"board_type": "nature", "check_date": "2024-10-07", "information": "board", "tourism": "information"}}, {"type": "node", "id": 5160979377, "lat": 48.9720305, "lon": 13.5627615, "tags": {"bicycle": "yes", "information": "guidepost", "operator": "cz:K\u010cT", "ref": "none", "tourism": "information"}}, {"type": "node", "id": 5160979378, "lat": 48.9745374, "lon": 13.5606847, "tags": {"board_type": "geology", "information": "board", "name": "Pod drobnohledem", "tourism": "information"}}, {"type": "node", "id": 5185947364, "lat": 49.1203498, "lon": 13.5292746, "tags": {"board_type": "history", "information": "board", "tourism": "information"}}, {"type": "node", "id": 5392799853, "lat": 49.0193199, "lon": 13.5251057, "tags": {"information": "board", "name": "Zona 1", "tourism": "information"}}, {"type": "node", "id": 5392799865, "lat": 48.9958583, "lon": 13.515419, "tags": {"note": "Zona_1", "tourism": "information"}}, {"type": "node", "id": 5392799875, "lat": 48.9881059, "lon": 13.5157678, "tags": {"information": "route_marker", "name": "Richtungspfeil", "ref": "none", "tourism": "information"}}, {"type": "node", "id": 5392799876, "lat": 48.9869183, "lon": 13.5211843, "tags": {"information": "board", "name": "Zona 1", "tourism": "information"}}, {"type": "node", "id": 5392800706, "lat": 48.9680678, "lon": 13.5921189, "tags": {"information": "board", "tourism": "information"}}, {"type": "node", "id": 5392800707, "lat": 48.9680452, "lon": 13.5923742, "tags": {"information": "board", "tourism": "information"}}, {"type": "node", "id": 5392800708, "lat": 48.967762, "lon": 13.5952847, "tags": {"information": "guidepost", "name:de": "Loipen Wegweiser", "tourism": "information"}}, {"type": "node", "id": 5422588915, "lat": 49.0142094, "lon": 13.5839517, "tags": {"amenity": "shelter", "bench": "yes", "shelter_type": "public_transport"}}, {"type": "node", "id": 5591332543, "lat": 49.104169, "lon": 13.5032186, "tags": {"tourism": "viewpoint"}}, {"type": "node", "id": 5591332566, "lat": 49.1079778, "lon": 13.5448657, "tags": {"direction": "11", "tourism": "viewpoint"}}, {"type": "node", "id": 5669650413, "lat": 49.0222011, "lon": 13.5820051, "tags": {"amenity": "shelter", "shelter_type": "picnic_shelter"}}, {"type": "node", "id": 5675029796, "lat": 49.0546694, "lon": 13.5634041, "tags": {"ele": "1045", "hiking": "yes", "information": "guidepost", "name": "Horsk\u00e1 Kvilda", "operator": "cz:K\u010cT", "ref": "SE107", "ski": "yes", "tourism": "information"}}, {"type": "node", "id": 5675036377, "lat": 49.0528329, "lon": 13.5670362, "tags": {"ele": "1045", "hiking": "yes", "information": "guidepost", "name": "Horsk\u00e1 Kvilda", "operator": "cz:K\u010cT", "ref": "SE107", "ski": "yes", "tourism": "information"}}, {"type": "node", "id": 5680021578, "lat": 49.0119792, "lon": 13.5776984, "tags": {"information": "map", "map_size": "local", "map_type": "topo", "tourism": "information"}}, {"type": "node", "id": 5680021579, "lat": 49.0140305, "lon": 13.5789142, "tags": {"amenity": "shelter", "bench": "yes", "shelter_type": "public_transport"}}, {"type": "node", "id": 5680021580, "lat": 49.0140242, "lon": 13.5789492, "tags": {"information": "board", "name": "\u0160umavsk\u00e9 pl\u00e1n\u011b", "tourism": "information"}}, {"type": "node", "id": 5686190639, "lat": 49.1248053, "lon": 13.5785219, "tags": {"board_type": "history", "information": "board", "name": "Zlat\u00e1 stezka", "tourism": "information"}}, {"type": "node", "id": 5686190640, "lat": 49.128914, "lon": 13.5789388, "tags": {"board_type": "history", "information": "board", "name": "Zlat\u00e1 stezka", "tourism": "information"}}, {"type": "node", "id": 5686209198, "lat": 49.1204791, "lon": 13.5775277, "tags": {"information": "map", "map_type": "hiking", "tourism": "information"}}, {"type": "node", "id": 5775056690, "lat": 49.1238014, "lon": 13.5482474, "tags": {"board_type": "history", "information": "board", "name": "Zanikl\u00e1 pap\u00edrna na Losenici", "tourism": "information"}}, {"type": "node", "id": 5796109764, "lat": 49.1095814, "lon": 13.4930804, "tags": {"ele": "640", "hiking": "yes", "information": "guidepost", "name": "Smetan\u016fv smrk", "operator": "cz:K\u010cT", "ref": "SE260", "tourism": "information"}}, {"type": "node", "id": 6026614994, "lat": 49.0419693, "lon": 13.4707372, "tags": {"ele": "1070", "natural": "peak"}}, {"type": "node", "id": 6109168069, "lat": 48.9713438, "lon": 13.5967203}, {"type": "node", "id": 6109168070, "lat": 48.9712977, "lon": 13.5967162}, {"type": "node", "id": 6109168071, "lat": 48.9712956, "lon": 13.5967696}, {"type": "node", "id": 6109168072, "lat": 48.9713418, "lon": 13.5967738}, {"type": "node", "id": 6134753488, "lat": 49.1438283, "lon": 13.5560572}, {"type": "node", "id": 6134753489, "lat": 49.1438279, "lon": 13.5560621}, {"type": "node", "id": 6134753490, "lat": 49.1438343, "lon": 13.5560632}, {"type": "node", "id": 6134753491, "lat": 49.1438345, "lon": 13.556058}, {"type": "node", "id": 6134753492, "lat": 49.1438832, "lon": 13.5554028}, {"type": "node", "id": 6134753493, "lat": 49.1438781, "lon": 13.5554023}, {"type": "node", "id": 6227653326, "lat": 49.1369276, "lon": 13.4605927, "tags": {"amenity": "shelter", "shelter_type": "picnic_shelter"}}, {"type": "node", "id": 6227653327, "lat": 49.1367796, "lon": 13.4606101, "tags": {"tourism": "viewpoint"}}, {"type": "node", "id": 6262089968, "lat": 49.1459052, "lon": 13.4692342, "tags": {"direction": "30", "tourism": "viewpoint"}}, {"type": "node", "id": 6324820566, "lat": 49.0587221, "lon": 13.5176953, "tags": {"ele": "926", "hiking": "yes", "information": "guidepost", "name": "Pechler", "operator": "cz:K\u010cT", "ref": "SE105", "tourism": "information"}}, {"type": "node", "id": 6459025971, "lat": 49.1500914, "lon": 13.5918934}, {"type": "node", "id": 6459025972, "lat": 49.1500417, "lon": 13.5918965}, {"type": "node", "id": 6459025973, "lat": 49.1500407, "lon": 13.5918564}, {"type": "node", "id": 6459025974, "lat": 49.1500903, "lon": 13.5918533}, {"type": "node", "id": 6540453577, "lat": 49.0745551, "lon": 13.4950344, "tags": {"hiking": "yes", "information": "guidepost", "tourism": "information"}}, {"type": "node", "id": 6540453578, "lat": 49.0820211, "lon": 13.4881847, "tags": {"board_type": "history", "information": "board", "name": "Hamernictv\u00ed v okol\u00ed Srn\u00ed", "tourism": "information"}}, {"type": "node", "id": 6703268962, "lat": 49.0138493, "lon": 13.4010952, "tags": {"information": "board", "inscription": "Pozor", "tourism": "information"}}, {"type": "node", "id": 6703268963, "lat": 49.0218118, "lon": 13.4046461, "tags": {"information": "board", "inscription": "Pozor", "tourism": "information"}}, {"type": "node", "id": 6735195952, "lat": 49.0385919, "lon": 13.438603, "tags": {"bicycle": "yes", "information": "guidepost", "source": "survey;GPX", "tourism": "information"}}, {"type": "node", "id": 6735195953, "lat": 49.0352562, "lon": 13.4116827, "tags": {"ele": "1076", "hiking": "yes", "information": "guidepost", "name": "Javo\u0159\u00ed sla\u0165", "operator": "cz:K\u010cT", "ref": "SE064", "tourism": "information"}}, {"type": "node", "id": 6736371016, "lat": 49.1502082, "lon": 13.5919562, "tags": {"description": "mapa", "information": "board", "tourism": "information"}}, {"type": "node", "id": 6743324455, "lat": 49.1481776, "lon": 13.5949662, "tags": {"ele": "925", "hiking": "yes", "information": "guidepost", "name": "Star\u00fd \u017dd\u00e1nov", "operator": "cz:K\u010cT", "ref": "SE039", "tourism": "information"}}, {"type": "node", "id": 6743386530, "lat": 49.1476716, "lon": 13.5985699, "tags": {"board_type": "history", "description": "Star\u00fd \u017dd\u00e1nov, informace o zanikl\u00e9 vsi a statku Peklo a", "information": "board", "name": "\u017dd\u00e1nov", "tourism": "information"}}, {"type": "node", "id": 6871470760, "lat": 49.1020478, "lon": 13.4316138, "tags": {"tourism": "viewpoint"}}, {"type": "node", "id": 6973692697, "lat": 48.9638594, "lon": 13.4178096, "tags": {"information": "guidepost", "tourism": "information"}}, {"type": "node", "id": 7042092269, "lat": 49.1144158, "lon": 13.5062212, "tags": {"information": "map", "tourism": "information"}}, {"type": "node", "id": 7098631577, "lat": 49.0184228, "lon": 13.4876873, "tags": {"ele": "1101", "natural": "peak", "source": "\u010c\u00daZK"}}, {"type": "node", "id": 7098647125, "lat": 49.0098798, "lon": 13.4599822, "tags": {"ele": "1110", "natural": "peak", "source": "\u010c\u00daZK"}}, {"type": "node", "id": 7104759619, "lat": 49.0820904, "lon": 13.5153373}, {"type": "node", "id": 7104759625, "lat": 49.082194, "lon": 13.5153172}, {"type": "node", "id": 7104759626, "lat": 49.0821796, "lon": 13.5153431}, {"type": "node", "id": 7119713175, "lat": 49.1097906, "lon": 13.4926456}, {"type": "node", "id": 7119713176, "lat": 49.1097779, "lon": 13.4926228}, {"type": "node", "id": 7119713177, "lat": 49.109752, "lon": 13.4926328}, {"type": "node", "id": 7119713178, "lat": 49.1097572, "lon": 13.4926619}, {"type": "node", "id": 7119713179, "lat": 49.109753, "lon": 13.4926646}, {"type": "node", "id": 7119713180, "lat": 49.1097629, "lon": 13.4927148}, {"type": "node", "id": 7119713181, "lat": 49.1097986, "lon": 13.4927023}, {"type": "node", "id": 7197560490, "lat": 49.0810167, "lon": 13.5579121, "tags": {"ele": "1141", "hiking": "yes", "information": "guidepost", "name": "Zh\u016f\u0159\u00ed", "operator": "cz:K\u010cT", "ref": "SE175", "tourism": "information"}}, {"type": "node", "id": 7197560507, "lat": 49.0966921, "lon": 13.5525799, "tags": {"ele": "1047", "hiking": "yes", "information": "guidepost", "name": "Pomn\u00edk leteck\u00e9 hav\u00e1rie", "operator": "cz:K\u010cT", "ref": "SE097", "tourism": "information"}}, {"type": "node", "id": 7199712451, "lat": 49.1191688, "lon": 13.476422, "tags": {"ele": "817", "hiking": "yes", "information": "guidepost", "name": "P\u0159edn\u00ed Pa\u0161t\u011b", "operator": "cz:K\u010cT", "ref": "SE187", "tourism": "information"}}, {"type": "node", "id": 7199712452, "lat": 49.1126236, "lon": 13.4604269, "tags": {"ele": "780", "hiking": "yes", "information": "guidepost", "name": "Zadn\u00ed Pa\u0161t\u011b", "operator": "cz:K\u010cT", "ref": "SE186", "tourism": "information"}}, {"type": "node", "id": 7199850470, "lat": 49.1513127, "lon": 13.4247176, "tags": {"ele": "952", "hiking": "yes", "information": "guidepost", "name": "Vint\u00ed\u0159ova sk\u00e1la", "operator": "cz:K\u010cT", "ref": "SE405", "tourism": "information"}}, {"type": "node", "id": 7249598101, "lat": 49.1001659, "lon": 13.5995614, "tags": {"ele": "860", "hiking": "yes", "information": "guidepost", "name": "Popeln\u00e1", "operator": "cz:K\u010cT", "ref": "SE045", "tourism": "information"}}, {"type": "node", "id": 7391645085, "lat": 48.9746764, "lon": 13.560824, "tags": {"description": "Byl z\u0159\u00edzen v r.1943 u chaty K\u010cST pro rusk\u00e9 zajatce se vzd\u011bl\u00e1n\u00edm pro d\u016fln\u00ed \u010dinnost, pot\u0159ebnou pro stavbu bl\u00edzk\u00e9 podzemn\u00ed tov\u00e1rny. Turistick\u00e1 chata existovala v letech 30.6.1923 - 1953.", "name": "Zajateck\u00fd t\u00e1bor, Prameny Vltavy", "note": "http://www.veteranarmy.cz/data/pdf/Tajemstvi_Frantiskova.pdf", "tourism": "attraction", "website": "http://www.lipno-online.cz/2009040011-chata-u-pramene-vltavy-za-2-svetove-valky", "wikidata": "Q12046833", "wikipedia": "cs:Pramen Vltavy"}}, {"type": "node", "id": 7391908696, "lat": 48.9806336, "lon": 13.595983, "tags": {"ele": "1233", "natural": "peak", "source": "\u010c\u00daZK"}}, {"type": "node", "id": 7647306354, "lat": 49.0821133, "lon": 13.5152123}, {"type": "node", "id": 7647306358, "lat": 49.082073, "lon": 13.5152848}, {"type": "node", "id": 7648638029, "lat": 49.041565, "lon": 13.5059396}, {"type": "node", "id": 7648638030, "lat": 49.0415339, "lon": 13.5060506}, {"type": "node", "id": 7648638031, "lat": 49.0413261, "lon": 13.5059347}, {"type": "node", "id": 7648638032, "lat": 49.0413523, "lon": 13.505826}, {"type": "node", "id": 7741371674, "lat": 49.0996269, "lon": 13.4958179, "tags": {"check_date": "2025-05-23", "information": "board", "name": "S\u00edla vody", "tourism": "information"}}, {"type": "node", "id": 7741371676, "lat": 49.0795454, "lon": 13.5115482, "tags": {"board_type": "plants", "information": "board", "name": "Viklany", "tourism": "information"}}, {"type": "node", "id": 7741371677, "lat": 49.081755, "lon": 13.5154259, "tags": {"board_type": "notice", "information": "board", "name": "Ob\u0159\u00ed hrnce", "tourism": "information"}}, {"type": "node", "id": 7741371679, "lat": 49.0884514, "lon": 13.5008739, "tags": {"board_type": "history", "check_date": "2024-10-08", "information": "board", "name": "\u0158eka a lid\u00e9", "tourism": "information"}}, {"type": "node", "id": 7741371681, "lat": 49.0838954, "lon": 13.5112302, "tags": {"check_date": "2025-05-23", "information": "board", "name": "Kamenn\u00e1 mo\u0159e", "tourism": "information"}}, {"type": "node", "id": 7741407086, "lat": 49.1051016, "lon": 13.4943143, "tags": {"information": "board", "name": "\u010ce\u0148kova Pila", "tourism": "information"}}, {"type": "node", "id": 7773745924, "lat": 48.9693286, "lon": 13.507244, "tags": {"board_type": "warning", "information": "board", "inscription": "POZOR St\u00e1tn\u00ed hranice", "tourism": "information"}}, {"type": "node", "id": 7773745925, "lat": 48.9695427, "lon": 13.5074488, "tags": {"ele": "1331", "name": "Mal\u00e1 Mokr\u016fvka", "name:de": "Moorkopf", "natural": "peak", "source": "\u010c\u00daZK", "wikidata": "Q12035052"}}, {"type": "node", "id": 8042561012, "lat": 49.1499376, "lon": 13.4151177, "tags": {"tourism": "viewpoint"}}, {"type": "node", "id": 8042561014, "lat": 49.1501433, "lon": 13.4150572, "tags": {"ele": "923.3", "natural": "peak"}}, {"type": "node", "id": 8069275406, "lat": 49.1387732, "lon": 13.4226071, "tags": {"ele": "957.5", "natural": "peak"}}, {"type": "node", "id": 8069275407, "lat": 49.1369076, "lon": 13.4162431, "tags": {"ele": "907", "natural": "peak"}}, {"type": "node", "id": 8069316093, "lat": 49.1387194, "lon": 13.4225169, "tags": {"name": "Skaln\u00ed \u00fatvary", "reservation": "no", "tourism": "attraction"}}, {"type": "node", "id": 8137188149, "lat": 49.1397137, "lon": 13.442707, "tags": {"board_type": "history", "information": "board", "name": "Kr\u00e1lov\u00e1ck\u00e9 rychty: Stod\u016flky", "tourism": "information"}}, {"type": "node", "id": 8943771360, "lat": 49.0285923, "lon": 13.5873616, "tags": {"tourism": "viewpoint"}}, {"type": "node", "id": 8943771370, "lat": 49.0299808, "lon": 13.5842676, "tags": {"tourism": "viewpoint"}}, {"type": "node", "id": 8943829918, "lat": 49.0311688, "lon": 13.580526, "tags": {"email": "nckvilda@npsumava.cz", "information": "office", "name": "N\u00e1v\u0161t\u011bvnick\u00e9 Centrum Kvilda - jeleni, rys", "name:de": "Besucherzentrum Kvilda", "name:en": "Kvilda Visitor center", "opening_hours": "May-Jun 08:30-16:00; Jul-Aug 08:30-17:00; Sep-Oct 08:30-16:00", "phone": "+420 731 530 556", "tourism": "information", "website": "https://www.npsumava.cz/navstivte-sumavu/navstevnicka-centra/navstevnicke-centrum-kvilda/", "wheelchair": "yes"}}, {"type": "node", "id": 9247072137, "lat": 49.1481011, "lon": 13.4885181, "tags": {"board_type": "history", "information": "board", "tourism": "information"}}, {"type": "node", "id": 9247072145, "lat": 49.1478467, "lon": 13.4904904, "tags": {"information": "guidepost", "tourism": "information"}}, {"type": "node", "id": 9350086943, "lat": 49.0700264, "lon": 13.4042643, "tags": {"ele": "1118.6", "natural": "peak"}}, {"type": "node", "id": 9532882552, "lat": 48.9888772, "lon": 13.45691, "tags": {"ele": "1203", "natural": "peak", "source": "\u010c\u00daZK"}}, {"type": "node", "id": 9532882553, "lat": 48.9927499, "lon": 13.456372, "tags": {"ele": "1188", "natural": "peak", "source": "\u010c\u00daZK"}}, {"type": "node", "id": 9532882554, "lat": 49.0072824, "lon": 13.4188336, "tags": {"ele": "1137", "name": "Medv\u011bd", "natural": "peak", "source": "\u010c\u00daZK"}}, {"type": "node", "id": 9532882555, "lat": 49.0447796, "lon": 13.4154893, "tags": {"ele": "1139", "name": "Javo\u0159\u00ed", "natural": "peak", "source": "\u010c\u00daZK"}}, {"type": "node", "id": 9532882556, "lat": 49.0261675, "lon": 13.4701511, "tags": {"ele": "1052", "natural": "peak", "source": "\u010c\u00daZK"}}, {"type": "node", "id": 9532882557, "lat": 48.9999773, "lon": 13.5833824, "tags": {"ele": "1149", "name": "Gabreta", "natural": "peak", "source": "\u010c\u00daZK"}}, {"type": "node", "id": 9595845383, "lat": 49.014801, "lon": 13.5827991, "tags": {"board_type": "nature", "information": "board", "language:descriptions:cs": "yes", "language:descriptions:de": "yes", "language:descriptions:en": "yes", "name": "Voda", "tourism": "information"}}, {"type": "node", "id": 9595866455, "lat": 49.0134524, "lon": 13.5898412, "tags": {"hiking": "yes", "information": "guidepost", "tourism": "information"}}, {"type": "node", "id": 9595870246, "lat": 49.0125422, "lon": 13.5778309, "tags": {"information": "map", "map_size": "region", "map_type": "topo", "tourism": "information"}}, {"type": "node", "id": 9595874596, "lat": 49.015732, "lon": 13.5799284, "tags": {"direction": "300", "information": "map", "map_size": "region", "map_type": "topo", "tourism": "information"}}, {"type": "node", "id": 9595889630, "lat": 49.0147839, "lon": 13.58278, "tags": {"information": "map", "map_size": "region", "map_type": "topo", "tourism": "information"}}, {"type": "node", "id": 9595890530, "lat": 49.0207085, "lon": 13.5792708, "tags": {"information": "guidepost", "ski": "yes", "tourism": "information"}}, {"type": "node", "id": 9675337790, "lat": 49.1012659, "lon": 13.4831754, "tags": {"ele": "900", "hiking": "yes", "information": "guidepost", "name": "Vodn\u00ed z\u00e1mek", "operator": "cz:K\u010cT", "ref": "SE247", "ski": "yes", "tourism": "information"}}, {"type": "node", "id": 9720636673, "lat": 49.0378089, "lon": 13.5028244, "tags": {"bicycle": "yes", "information": "guidepost", "operator": "cz:K\u010cT", "ref": "none", "tourism": "information"}}, {"type": "node", "id": 9720636674, "lat": 49.038545, "lon": 13.5037427, "tags": {"bicycle": "yes", "information": "guidepost", "operator": "cz:K\u010cT", "ref": "2114/0", "tourism": "information"}}, {"type": "node", "id": 9723994460, "lat": 49.0805665, "lon": 13.4593587, "tags": {"bicycle": "yes", "information": "guidepost", "name": "Mosau", "operator": "cz:K\u010cT", "ref": "2114/10,5", "tourism": "information"}}, {"type": "node", "id": 9924183963, "lat": 49.086951, "lon": 13.4804308}, {"type": "node", "id": 9995128007, "lat": 49.0761716, "lon": 13.490111, "tags": {"information": "guidepost", "tourism": "information"}}, {"type": "node", "id": 9995302225, "lat": 49.0860274, "lon": 13.4922799, "tags": {"ele": "815", "information": "guidepost", "name": "Mraven\u010d\u00ed stezka", "tourism": "information"}}, {"type": "node", "id": 9995302226, "lat": 49.0842814, "lon": 13.4870586, "tags": {"ele": "860", "information": "guidepost", "name": "Mraven\u010d\u00ed stezka", "tourism": "information"}}, {"type": "node", "id": 9998377945, "lat": 49.0614711, "lon": 13.5047789, "tags": {"board_type": "geology", "information": "board", "tourism": "information"}}, {"type": "node", "id": 10006173244, "lat": 49.0756744, "lon": 13.4016058, "tags": {"information": "board", "name": "Pr\u00e1\u0161ilsk\u00e9 jezero", "tourism": "information"}}, {"type": "node", "id": 10013326890, "lat": 49.0377815, "lon": 13.5232969, "tags": {"ele": "1177", "name": "Jelen\u00ed vrch", "natural": "peak", "source": "\u010c\u00daZK"}}, {"type": "node", "id": 10013330719, "lat": 49.0238333, "lon": 13.5143529, "tags": {"board:title": "Horsk\u00e9 louky", "board_type": "plants", "information": "board", "name": "Horsk\u00e9 louky", "ref": "3", "tourism": "information"}}, {"type": "node", "id": 10013331320, "lat": 49.0224374, "lon": 13.5082208, "tags": {"board:title": "Podmacene smrciny", "board_type": "plants", "information": "board", "name": "Podm\u00e1\u010den\u00e9 smr\u010diny", "ref": "2", "tourism": "information"}}, {"type": "node", "id": 10016592277, "lat": 49.0226244, "lon": 13.5094587, "tags": {"information": "guidepost", "tourism": "information"}}, {"type": "node", "id": 10016592278, "lat": 49.0225022, "lon": 13.5094023, "tags": {"information": "guidepost", "tourism": "information"}}, {"type": "node", "id": 10016650496, "lat": 49.0243716, "lon": 13.4983666, "tags": {"board:title": "Mil\u00ed\u0159 na d\u0159ev\u011bn\u00e9 uhl\u00ed", "board:title:de": "Kohlenmeiler", "board_type": "history", "information": "board", "tourism": "information"}}, {"type": "node", "id": 10016772556, "lat": 49.0268623, "lon": 13.5154296, "tags": {"information": "guidepost", "tourism": "information"}}, {"type": "node", "id": 10018191598, "lat": 49.0358803, "lon": 13.5889108, "tags": {"name": "Jedle belokor\u00e1", "tourism": "information"}}, {"type": "node", "id": 10018262088, "lat": 49.0307679, "lon": 13.5896167, "tags": {"name": "Prase divok\u00e9", "tourism": "information"}}, {"type": "node", "id": 10018275407, "lat": 49.0349041, "lon": 13.5855027, "tags": {"name": "Liska obecna", "tourism": "information"}}, {"type": "node", "id": 10018290175, "lat": 49.0303112, "lon": 13.5786085, "tags": {"information": "board", "name": "Navstevnicke centrum Kvilda", "tourism": "information"}}, {"type": "node", "id": 10018290616, "lat": 49.0312568, "lon": 13.5808921, "tags": {"information": "board", "name": "Navstevnicke centrum Kvilda", "tourism": "information"}}, {"type": "node", "id": 10018290695, "lat": 49.0294156, "lon": 13.5880307, "tags": {"name": "Jelenovit\u00ed zij\u00edc\u00ed v Cesk\u00e9 republice;Byl tu jelen?;Co jelenum chutn\u00e1", "tourism": "information"}}, {"type": "node", "id": 10018291645, "lat": 49.0301781, "lon": 13.5886207, "tags": {"name": "Jelen evropsky", "tourism": "information"}}, {"type": "node", "id": 10018291773, "lat": 49.0351703, "lon": 13.5902671, "tags": {"name": "Sojka obecn\u00e1", "tourism": "information"}}, {"type": "node", "id": 10018292497, "lat": 49.0322835, "lon": 13.5818658, "tags": {"board_type": "wildlife", "information": "board", "name": "Los", "tourism": "information"}}, {"type": "node", "id": 10018293959, "lat": 49.0346974, "lon": 13.5870411, "tags": {"name": "Jezevec lesn\u00ed", "tourism": "information"}}, {"type": "node", "id": 10018293960, "lat": 49.0325943, "lon": 13.5902647, "tags": {"name": "Brhl\u00edk lesn\u00ed", "tourism": "information"}}, {"type": "node", "id": 10018295581, "lat": 49.0349526, "lon": 13.5910195, "tags": {"name": "Buk lesn\u00ed", "tourism": "information"}}, {"type": "node", "id": 10018296657, "lat": 49.0305313, "lon": 13.5890832, "tags": {"name": "Danek, sika, jelenec", "tourism": "information"}}, {"type": "node", "id": 10018299574, "lat": 49.0337908, "lon": 13.5908255, "tags": {"name": "Stopn\u00ed dr\u00e1hy", "tourism": "information"}}, {"type": "node", "id": 10018303107, "lat": 49.0317736, "lon": 13.5900499, "tags": {"name": "Smrk ztepily", "tourism": "information"}}, {"type": "node", "id": 10018305936, "lat": 49.033454, "lon": 13.5829163, "tags": {"board_type": "wildlife", "information": "board", "name": "Rys ostrovid", "tourism": "information"}}, {"type": "node", "id": 10018312718, "lat": 49.0353572, "lon": 13.5883067, "tags": {"name": "Prase divok\u00e9", "tourism": "information"}}, {"type": "node", "id": 10038698589, "lat": 49.0352769, "lon": 13.4742917, "tags": {"information": "board", "name": "\u017divot pro mok\u0159ady", "tourism": "information"}}, {"type": "node", "id": 10038702127, "lat": 48.9745107, "lon": 13.5607135, "tags": {"information": "board", "name": "Vltava", "tourism": "information"}}, {"type": "node", "id": 10038704901, "lat": 49.0352517, "lon": 13.4116478, "tags": {"information": "board", "name": "\u017divot pro mok\u0159ady", "tourism": "information"}}, {"type": "node", "id": 10038757369, "lat": 49.0375269, "lon": 13.4423811, "tags": {"information": "board", "name": "Javo\u0159\u00ed Pila", "tourism": "information"}}, {"type": "node", "id": 10135657790, "lat": 49.137649, "lon": 13.4999735, "tags": {"ele": "747", "name": "Babylon", "natural": "peak"}}, {"type": "node", "id": 10146985794, "lat": 49.0744383, "lon": 13.4926528, "tags": {"information": "board", "name": "Datel \u010dern\u00fd", "tourism": "information"}}, {"type": "node", "id": 10147010345, "lat": 49.0730644, "lon": 13.4907775, "tags": {"information": "board", "name": "Babo\u010dka pav\u00ed oko", "tourism": "information"}}, {"type": "node", "id": 10429642663, "lat": 49.0763337, "lon": 13.4031966, "tags": {"amenity": "shelter"}}, {"type": "node", "id": 10430246345, "lat": 49.1416925, "lon": 13.514987, "tags": {"information": "map", "map_size": "region", "map_type": "topo", "tourism": "information"}}, {"type": "node", "id": 10858736377, "lat": 49.1369499, "lon": 13.5520932, "tags": {"board_type": "history", "information": "board", "name": "Ka\u0161persk\u00e9 Hory", "tourism": "information"}}, {"type": "node", "id": 10858736378, "lat": 49.1327353, "lon": 13.5504092, "tags": {"board_type": "nature", "information": "board", "name": "Pozn\u00e1te stopy a zbytky potravy?", "ref": "8", "tourism": "information"}}, {"type": "node", "id": 10858736379, "lat": 49.1288653, "lon": 13.546417, "tags": {"board_type": "nature", "information": "board", "name": "Stopy drobn\u00fdch savc\u016f", "ref": "7", "tourism": "information"}}, {"type": "node", "id": 10858736380, "lat": 49.1259814, "lon": 13.5527629, "tags": {"information": "map", "name": "C\u00edsa\u0159sk\u00fd dv\u016fr", "tourism": "information"}}, {"type": "node", "id": 10858736381, "lat": 49.1255967, "lon": 13.5548269, "tags": {"board_type": "nature", "information": "board", "name": "Kopytn\u00edci", "ref": "6", "tourism": "information"}}, {"type": "node", "id": 10858736387, "lat": 49.1236964, "lon": 13.5598868, "tags": {"board_type": "nature", "information": "board", "name": "Men\u0161\u00ed lasicovit\u00e9 \u0161elmy", "ref": "5", "tourism": "information"}}, {"type": "node", "id": 10858736388, "lat": 49.128228, "lon": 13.5595281, "tags": {"board_type": "nature", "information": "board", "name": "Jezevec lesn\u00ed", "ref": "4", "tourism": "information"}}, {"type": "node", "id": 10858736390, "lat": 49.1304203, "lon": 13.5663836, "tags": {"board_type": "nature", "information": "board", "name": "Vlk obecn\u00fd", "ref": "3", "tourism": "information"}}, {"type": "node", "id": 10858736391, "lat": 49.1312031, "lon": 13.5624831, "tags": {"board_type": "nature", "information": "board", "name": "Rys ostrovid", "ref": "2", "tourism": "information"}}, {"type": "node", "id": 10858736392, "lat": 49.1321018, "lon": 13.5560683, "tags": {"board_type": "nature", "information": "board", "name": "Li\u0161ka a vydra", "ref": "1", "tourism": "information"}}, {"type": "node", "id": 10858736395, "lat": 49.1328831, "lon": 13.5525916, "tags": {"board_type": "nature", "information": "board", "name": "Po stop\u00e1ch savc\u016f Ka\u0161perskohorska", "ref": "0", "tourism": "information"}}, {"type": "node", "id": 10858737781, "lat": 49.132932, "lon": 13.5526632, "tags": {"board_type": "nature", "information": "board", "name": "P\u0159\u00edrodn\u00ed rezervace Am\u00e1lino \u00fadol\u00ed", "tourism": "information"}}, {"type": "node", "id": 10858737782, "lat": 49.1331432, "lon": 13.5506328, "tags": {"board_type": "history", "information": "board", "name": "Cestou zlatokop\u016f", "ref": "3", "tourism": "information"}}, {"type": "node", "id": 10858737787, "lat": 49.1324087, "lon": 13.5626199, "tags": {"board_type": "information", "information": "board", "name": "Regula\u010dn\u00ed n\u00e1dr\u017ee", "tourism": "information"}}, {"type": "node", "id": 10858737791, "lat": 49.1307003, "lon": 13.5773216, "tags": {"board_type": "history", "information": "board", "name": "Cestou zlatokop\u016f", "ref": "5", "tourism": "information"}}, {"type": "node", "id": 10858775177, "lat": 49.1434012, "lon": 13.5545165, "tags": {"board_type": "information", "information": "board", "name": "Cestou zlatokop\u016f", "ref": "1", "tourism": "information"}}, {"type": "node", "id": 10858775178, "lat": 49.1433889, "lon": 13.5545133, "tags": {"board_type": "information", "information": "board", "name": "Stezka str\u00e1\u017ec\u016f hranic", "ref": "1", "tourism": "information"}}, {"type": "node", "id": 10858775179, "lat": 49.1433716, "lon": 13.5545098, "tags": {"information": "map", "name": "Zlat\u00e1 stezka", "tourism": "information"}}, {"type": "node", "id": 11004137584, "lat": 49.148795, "lon": 13.4717464, "tags": {"bicycle": "yes", "information": "guidepost", "operator": "cz:K\u010cT", "ref": "none", "tourism": "information"}}, {"type": "node", "id": 11004137585, "lat": 49.1486283, "lon": 13.4720318, "tags": {"bicycle": "yes", "information": "guidepost", "operator": "cz:K\u010cT", "ref": "none", "tourism": "information"}}, {"type": "node", "id": 11004137586, "lat": 49.1484769, "lon": 13.4718013, "tags": {"bicycle": "yes", "information": "guidepost", "operator": "cz:K\u010cT", "ref": "none", "tourism": "information"}}, {"type": "node", "id": 11004137587, "lat": 49.1372033, "lon": 13.4594844, "tags": {"ele": "960", "hiking": "yes", "information": "guidepost", "name": "Velk\u00fd Babylon", "operator": "cz:K\u010cT", "ref": "SE079", "tourism": "information"}}, {"type": "node", "id": 11004137588, "lat": 49.1190833, "lon": 13.4764719, "tags": {"information": "board", "name": "Prost\u0159edn\u00ed Pa\u0161t\u011b", "tourism": "information"}}, {"type": "node", "id": 11004137589, "lat": 49.1126379, "lon": 13.4604776, "tags": {"board_type": "history", "information": "board", "name": "Zadn\u00ed Pa\u0161t\u011b (Hinterwaid)", "tourism": "information"}}, {"type": "node", "id": 11004137590, "lat": 49.1205255, "lon": 13.4331006, "tags": {"board_type": "history", "information": "board", "name": "Stod\u016flky/Stadln", "tourism": "information"}}, {"type": "node", "id": 11004137600, "lat": 49.1394811, "lon": 13.4428366, "tags": {"bicycle": "yes", "information": "guidepost", "operator": "cz:K\u010cT", "ref": "none", "tourism": "information"}}, {"type": "node", "id": 11004137601, "lat": 49.1208265, "lon": 13.4329945, "tags": {"information": "board", "name": "Stod\u016flky", "tourism": "information"}}, {"type": "node", "id": 11004137602, "lat": 49.1396624, "lon": 13.4428685, "tags": {"board_type": "history", "information": "board", "name": "Putov\u00e1n\u00ed krajem Karla Klostermanna - Mal\u00fd Babylon", "tourism": "information"}}, {"type": "node", "id": 11046028527, "lat": 49.0680483, "lon": 13.4619025, "tags": {"ele": "935", "hiking": "yes", "information": "guidepost", "name": "Hauswaldsk\u00e1 kaple", "operator": "cz:K\u010cT", "ref": "SE257", "tourism": "information"}}, {"type": "node", "id": 11046028530, "lat": 49.0646565, "lon": 13.4609814, "tags": {"board_type": "art", "information": "board", "name": "Karel Klostermann, \u010crty ze \u0160umavy", "tourism": "information"}}, {"type": "node", "id": 11046028540, "lat": 49.0616479, "lon": 13.4623623, "tags": {"board_type": "art", "information": "board", "name": "Karel Klostermann, \u010crty ze \u0160umavy", "tourism": "information"}}, {"type": "node", "id": 11046028541, "lat": 49.0598192, "lon": 13.4615733, "tags": {"board_type": "art", "information": "board", "name": "Karel Klostermann, \u010crty ze \u0160umavy", "tourism": "information"}}, {"type": "node", "id": 11046028542, "lat": 49.0572636, "lon": 13.4602986, "tags": {"board_type": "art", "information": "board", "name": "Karel Klostermann, \u010crty ze \u0160umavy", "tourism": "information"}}, {"type": "node", "id": 11046028543, "lat": 49.0568631, "lon": 13.4604266, "tags": {"board_type": "art", "information": "board", "name": "Karel Klostermann, \u010crty ze \u0160umavy", "tourism": "information"}}, {"type": "node", "id": 11046030200, "lat": 49.1025669, "lon": 13.4304284, "tags": {"board_type": "history", "information": "board", "name": "Album \u0160umavy - Velk\u00fd Bor (Grosshaid)", "tourism": "information"}}, {"type": "node", "id": 11046030201, "lat": 49.1025225, "lon": 13.4307034, "tags": {"board_type": "history", "information": "board", "name": "Velk\u00fd Bor (GrossHaid) Pomn\u00edk ob\u011btem 1. sv\u011btov\u00e9 v\u00e1lky", "tourism": "information"}}, {"type": "node", "id": 11046030202, "lat": 49.1025555, "lon": 13.4304704, "tags": {"bicycle": "yes", "hiking": "yes", "information": "map", "map_size": "region", "map_type": "topo", "name": "Velk\u00fd Bor", "operator": "NP \u0160umava", "tourism": "information"}}, {"type": "node", "id": 11072690673, "lat": 49.0805538, "lon": 13.4601892, "tags": {"board_type": "history", "information": "board", "tourism": "information"}}, {"type": "node", "id": 11072690674, "lat": 49.080559, "lon": 13.4602026, "tags": {"name": "Miniatura Hauswaldsk\u00e9 kaple", "opening_hours": "24/7", "reservation": "no", "tourism": "attraction"}}, {"type": "node", "id": 11096531725, "lat": 48.9673347, "lon": 13.5866799, "tags": {"board_type": "warning", "information": "board", "inscription": "POZOR St\u00e1tn\u00ed hranice", "tourism": "information"}}, {"type": "node", "id": 11096531726, "lat": 48.9652799, "lon": 13.5885196, "tags": {"information": "board", "name": "\u010cESK\u00c1 REPUBLIKA", "tourism": "information"}}, {"type": "node", "id": 11096531727, "lat": 48.965315, "lon": 13.5885163, "tags": {"board_type": "warning", "information": "board", "inscription": "POZOR St\u00e1tn\u00ed hranice", "name": "Goldsteig", "tourism": "information"}}, {"type": "node", "id": 11291127078, "lat": 49.1315403, "lon": 13.5463893}, {"type": "node", "id": 11291127079, "lat": 49.1315221, "lon": 13.5463776}, {"type": "node", "id": 11291127080, "lat": 49.1315315, "lon": 13.5462861}, {"type": "node", "id": 11291127081, "lat": 49.1315499, "lon": 13.5462871}, {"type": "node", "id": 11291127082, "lat": 49.1314509, "lon": 13.5463368}, {"type": "node", "id": 11291127083, "lat": 49.131465, "lon": 13.546251}, {"type": "node", "id": 11291127084, "lat": 49.1314565, "lon": 13.5462908}, {"type": "node", "id": 11291127085, "lat": 49.1314497, "lon": 13.5463836}, {"type": "node", "id": 11291127086, "lat": 49.1315161, "lon": 13.5464386}, {"type": "node", "id": 11291127087, "lat": 49.1314769, "lon": 13.5462133}, {"type": "node", "id": 11291127088, "lat": 49.1315398, "lon": 13.5461801}, {"type": "node", "id": 11374855506, "lat": 49.0290052, "lon": 13.4962295, "tags": {"amenity": "shelter", "shelter_type": "picnic_shelter"}}, {"type": "node", "id": 11374855507, "lat": 49.0290495, "lon": 13.4962405, "tags": {"information": "map", "tourism": "information"}}, {"type": "node", "id": 11374875305, "lat": 49.0419327, "lon": 13.50086, "tags": {"hiking": "yes", "information": "guidepost", "tourism": "information"}}, {"type": "node", "id": 11374875319, "lat": 49.0402852, "lon": 13.5044633, "tags": {"information": "guidepost", "tourism": "information"}}, {"type": "node", "id": 11374875343, "lat": 49.0337816, "lon": 13.499039, "tags": {"board_type": "nature", "information": "board", "name": "Modrava", "tourism": "information"}}, {"type": "node", "id": 11374875344, "lat": 49.031483, "lon": 13.5011707, "tags": {"hiking": "yes", "information": "guidepost", "tourism": "information"}}, {"type": "node", "id": 11374875352, "lat": 49.0245833, "lon": 13.4943168, "tags": {"hiking": "yes", "information": "guidepost", "tourism": "information"}}, {"type": "node", "id": 11377559366, "lat": 49.0352521, "lon": 13.474165, "tags": {"bicycle": "yes", "information": "guidepost", "operator": "cz:K\u010cT", "ref": "SE067;2122/3,5", "ski": "yes", "tourism": "information"}}, {"type": "node", "id": 11401030942, "lat": 49.087103, "lon": 13.4802532, "tags": {"information": "map", "name": "Srn\u00ed", "tourism": "information"}}, {"type": "node", "id": 11435503524, "lat": 49.0238774, "lon": 13.4947576, "tags": {"hiking": "yes", "information": "guidepost", "name": "Modrava", "operator": "Via Czechia", "ref": "none", "tourism": "information"}}, {"type": "node", "id": 11435518762, "lat": 48.9669774, "lon": 13.5931719, "tags": {"hiking": "yes", "information": "guidepost", "name": "Bu\u010dina", "operator": "Via Czechia", "ref": "none", "tourism": "information"}}, {"type": "node", "id": 11486881974, "lat": 49.1438211, "lon": 13.5560628, "tags": {"information": "board", "name": "Kohout\u00ed k\u0159\u00ed\u017e - Arma Christi", "tourism": "information"}}, {"type": "node", "id": 11486901862, "lat": 49.1424008, "lon": 13.5432253, "tags": {"information": "board", "name": "\u0160ibeni\u010dn\u00ed vrch", "tourism": "information"}}, {"type": "node", "id": 11486931001, "lat": 49.1437169, "lon": 13.5556219, "tags": {"board_type": "history", "information": "board", "name": "Mlec\u00ed kameny", "tourism": "information"}}, {"type": "node", "id": 11499385023, "lat": 49.1465345, "lon": 13.5389487, "tags": {"information": "board", "name": "Kaple sv. Erasma", "tourism": "information"}}, {"type": "node", "id": 11499397221, "lat": 49.1475399, "lon": 13.5364362, "tags": {"information": "board", "name": "Kostel sv. Mikul\u00e1\u0161e a Kaple sv. Anny", "tourism": "information"}}, {"type": "node", "id": 11499400429, "lat": 49.1447138, "lon": 13.5461167, "tags": {"information": "board", "name": "Kaple sv. Michala", "tourism": "information"}}, {"type": "node", "id": 11499530945, "lat": 49.0092355, "lon": 13.5732397, "tags": {"information": "board", "name": "Invazivn\u00ed rostliny", "tourism": "information"}}, {"type": "node", "id": 11499568853, "lat": 49.014392, "lon": 13.5910172, "tags": {"information": "board", "name": "Panoramatick\u00fd pohled", "tourism": "information"}}, {"type": "node", "id": 11499571112, "lat": 48.9920045, "lon": 13.5569013, "tags": {"board_type": "history", "information": "board", "name": "Rozd\u011blen\u00e9 sv\u011bty", "name:de": "Getrennte Welt", "tourism": "information"}}, {"type": "node", "id": 11499574729, "lat": 48.9745064, "lon": 13.560768, "tags": {"information": "map", "name": "Stezky p\u0159\u00edrodou a \u010dasem", "tourism": "information"}}, {"type": "node", "id": 11499586441, "lat": 48.9721178, "lon": 13.5681817, "tags": {"information": "board", "name": "K\u016frovec - hollywoodsk\u00e1 p\u0159\u00ed\u0161era?", "tourism": "information"}}, {"type": "node", "id": 11499587474, "lat": 49.0136595, "lon": 13.5857458, "tags": {"information": "board", "name": "Horsk\u00e9 louky a pastviny", "tourism": "information"}}, {"type": "node", "id": 11499611661, "lat": 49.0196743, "lon": 13.5796947, "tags": {"information": "map", "map_size": "region", "name": "B\u00edl\u00e1 stopa \u0160umava", "tourism": "information"}}, {"type": "node", "id": 11499625085, "lat": 49.0199737, "lon": 13.5959417, "tags": {"information": "board", "name": "Pol\u00ed\u010dka", "tourism": "information"}}, {"type": "node", "id": 11499625961, "lat": 49.0216617, "lon": 13.5842253, "tags": {"information": "board", "name": "\u017divot horsk\u00fdch luk", "tourism": "information"}}, {"type": "node", "id": 11499625962, "lat": 49.0216805, "lon": 13.5842682, "tags": {"information": "board", "name": "Prom\u011bny hospoda\u0159en\u00ed", "tourism": "information"}}, {"type": "node", "id": 11499628077, "lat": 49.0224783, "lon": 13.5810317, "tags": {"information": "board", "name": "Fl\u00f3ra a fauna", "tourism": "information"}}, {"type": "node", "id": 11499648380, "lat": 49.019654, "lon": 13.5796806, "tags": {"bicycle": "yes", "check_date": "2022-09-12", "hiking": "yes", "information": "map", "map_size": "region", "map_type": "topo", "name": "Obec Kvilda", "tourism": "information"}}, {"type": "node", "id": 11499651486, "lat": 49.0196058, "lon": 13.5797475, "tags": {"information": "map", "tourism": "information"}}, {"type": "node", "id": 11499661867, "lat": 49.0193467, "lon": 13.579588, "tags": {"information": "map", "name": "Dvojtabule Obec Kvilda", "tourism": "information"}}, {"type": "node", "id": 11499693546, "lat": 49.0190415, "lon": 13.5790664, "tags": {"information": "board", "name": "Kvilda a okol\u00ed", "tourism": "information"}}, {"type": "node", "id": 11499701619, "lat": 49.0153075, "lon": 13.5794753, "tags": {"information": "board", "name": "Milujeme \u0160umavu", "tourism": "information"}}, {"type": "node", "id": 11502684355, "lat": 48.9672167, "lon": 13.5924545, "tags": {"information": "board", "name": "Alpsk\u00e1 vyhl\u00eddka panorama", "name:de": "Alpenblickpanorama", "tourism": "information"}}, {"type": "node", "id": 11502708168, "lat": 48.9662228, "lon": 13.5921223, "tags": {"information": "board", "name": "Zelen\u00fd p\u00e1s Evropy", "tourism": "information"}}, {"type": "node", "id": 11502708369, "lat": 48.966236, "lon": 13.5921257, "tags": {"information": "board", "name": "Na cest\u011b Auf dem Weg", "tourism": "information"}}, {"type": "node", "id": 11502708370, "lat": 48.9662627, "lon": 13.5921719, "tags": {"information": "board", "name": "N\u00e1rodn\u00ed parky \u0160umava a Bavorsk\u00fd les", "tourism": "information"}}, {"type": "node", "id": 11502708371, "lat": 48.9662613, "lon": 13.5922444, "tags": {"information": "board", "name": "V\u00edtejte! Willkommen!", "tourism": "information"}}, {"type": "node", "id": 11502712983, "lat": 48.9669861, "lon": 13.5931999, "tags": {"information": "board", "name": "Bu\u010dina", "tourism": "information"}}, {"type": "node", "id": 11502712984, "lat": 48.9669747, "lon": 13.5931867, "tags": {"information": "map", "name": "Via nova Z Bu\u010diny na Svatou Horu", "tourism": "information"}}, {"type": "node", "id": 11502726929, "lat": 49.1401558, "lon": 13.56419, "tags": {"information": "board", "name": "Na Pr\u00e1dle", "tourism": "information"}}, {"type": "node", "id": 11502749803, "lat": 49.1351195, "lon": 13.5755103, "tags": {"information": "board", "name": "Lesn\u00ed kapli\u010dka Svat\u00e9ho Huberta", "tourism": "information"}}, {"type": "node", "id": 11502789386, "lat": 49.1337163, "lon": 13.5631453, "tags": {"information": "board", "name": "Cestou zlatokop\u016f", "tourism": "information"}}, {"type": "node", "id": 11502800489, "lat": 49.1323613, "lon": 13.565868, "tags": {"information": "board", "name": "\u00fadol\u00ed Zlat\u00e9ho potoka", "tourism": "information"}}, {"type": "node", "id": 11505338842, "lat": 49.1504713, "lon": 13.5918353, "tags": {"information": "map", "name": "\u0160umava Povyd\u0159\u00ed", "tourism": "information"}}, {"type": "node", "id": 11510870995, "lat": 49.1420044, "lon": 13.5607794, "tags": {"information": "board", "name": "Cestou zlatokop\u016f", "tourism": "information"}}, {"type": "node", "id": 11510870996, "lat": 49.1420338, "lon": 13.5607955, "tags": {"information": "board", "name": "\u00dapravna zlatonosn\u00fdch rud v Ka\u0161persk\u00fdch hor\u00e1ch", "tourism": "information"}}, {"type": "node", "id": 11510931271, "lat": 49.1286737, "lon": 13.5967544, "tags": {"information": "board", "name": "Stezka str\u00e1\u017ec\u016f hranice", "name:de": "Der Steig der Grenzw\u00e4chter", "name:en": "The borderguard's path", "ref": "4", "tourism": "information"}}, {"type": "node", "id": 11510934333, "lat": 49.1019045, "lon": 13.592047, "tags": {"information": "board", "name": "Keltsk\u00e9 hradi\u0161t\u011b Ob\u0159\u00ed hrad", "tourism": "information"}}, {"type": "node", "id": 11530291944, "lat": 48.967258, "lon": 13.592622, "tags": {"information": "board", "tourism": "information"}}, {"type": "node", "id": 11530309468, "lat": 48.966259, "lon": 13.5922065, "tags": {"information": "map", "name": "Mapa", "tourism": "information"}}, {"type": "node", "id": 11530358211, "lat": 49.103663, "lon": 13.591945, "tags": {"information": "board", "name": "Keltsk\u00e9 hradi\u0161t\u011b Ob\u0159\u00ed hrad", "tourism": "information"}}, {"type": "node", "id": 11602472079, "lat": 49.030428, "lon": 13.4969312, "tags": {"information": "board", "name": "Vchynice-Tetov", "tourism": "information"}}, {"type": "node", "id": 11610562882, "lat": 49.063774, "lon": 13.4995794, "tags": {"hiking": "yes", "information": "guidepost", "tourism": "information"}}, {"type": "node", "id": 11610562884, "lat": 49.0635315, "lon": 13.5010158, "tags": {"hiking": "yes", "information": "guidepost", "tourism": "information"}}, {"type": "node", "id": 11610562885, "lat": 49.0626299, "lon": 13.5017346, "tags": {"hiking": "yes", "information": "guidepost", "tourism": "information"}}, {"type": "node", "id": 11654692855, "lat": 49.0525726, "lon": 13.5042572, "tags": {"hiking": "yes", "information": "guidepost", "tourism": "information"}}, {"type": "node", "id": 11764722634, "lat": 49.1014514, "lon": 13.4832843, "tags": {"tourism": "viewpoint"}}, {"type": "node", "id": 12043117414, "lat": 49.1511766, "lon": 13.4241467, "tags": {"direction": "247-45", "tourism": "viewpoint"}}, {"type": "node", "id": 12095679941, "lat": 48.9951455, "lon": 13.595451, "tags": {"information": "board", "tourism": "information"}}, {"type": "node", "id": 12095749887, "lat": 49.0240027, "lon": 13.5635447, "tags": {"information": "guidepost", "tourism": "information"}}, {"type": "node", "id": 12095749890, "lat": 49.0255193, "lon": 13.5562223, "tags": {"information": "guidepost", "tourism": "information"}}, {"type": "node", "id": 12095749891, "lat": 49.0311559, "lon": 13.5254614, "tags": {"information": "map", "map_type": "toposcope", "start_date": "2023", "tourism": "information"}}, {"type": "node", "id": 12095749893, "lat": 49.0230167, "lon": 13.5029038, "tags": {"board:title": "Filipohu\u0165sk\u00fd potok", "board_type": "nature", "information": "board", "name": "Filipohu\u0165sk\u00fd potok", "ref": "1", "tourism": "information"}}, {"type": "node", "id": 12095749894, "lat": 49.0270705, "lon": 13.4973612, "tags": {"information": "board", "name": "Modrava", "tourism": "information"}}, {"type": "node", "id": 12095749895, "lat": 49.0283268, "lon": 13.4976987, "tags": {"board_type": "nature", "information": "board", "name": "Modrava", "tourism": "information"}}, {"type": "node", "id": 12095749900, "lat": 49.0604931, "lon": 13.5117797, "tags": {"board_type": "nature", "information": "board", "name": "Povyd\u0159\u00ed", "tourism": "information"}}, {"type": "node", "id": 12095815823, "lat": 49.0552479, "lon": 13.5487262, "tags": {"information": "board", "tourism": "information"}}, {"type": "node", "id": 12095815830, "lat": 49.0519209, "lon": 13.5553057, "tags": {"board_type": "nature", "information": "board", "name": "V\u0159esovi\u0161t\u0115", "name:de": "Heiden", "tourism": "information"}}, {"type": "node", "id": 12095815831, "lat": 49.0295256, "lon": 13.5781252, "tags": {"board_type": "plants", "information": "board", "tourism": "information"}}, {"type": "node", "id": 12095815833, "lat": 49.0250079, "lon": 13.5793872, "tags": {"information": "board", "tourism": "information"}}, {"type": "node", "id": 12095815834, "lat": 49.023147, "lon": 13.5807605}, {"type": "node", "id": 12095815835, "lat": 49.0231516, "lon": 13.5807938}, {"type": "node", "id": 12095815836, "lat": 49.0231685, "lon": 13.5807884}, {"type": "node", "id": 12095815837, "lat": 49.0231639, "lon": 13.5807551}, {"type": "node", "id": 12106785244, "lat": 49.1476329, "lon": 13.5987005, "tags": {"information": "board", "name": "Stezka str\u00e1\u017ec\u016f hranice", "name:de": "Der Steig der Grenzw\u00e4chter", "name:en": "The borderguard's path", "ref": "8", "tourism": "information"}}, {"type": "node", "id": 12107918138, "lat": 49.0753103, "lon": 13.4870913}, {"type": "node", "id": 12107918139, "lat": 49.0751508, "lon": 13.4870583}, {"type": "node", "id": 12107918140, "lat": 49.075161, "lon": 13.48703}, {"type": "node", "id": 12107918141, "lat": 49.0752299, "lon": 13.487088}, {"type": "node", "id": 12107918142, "lat": 49.0752197, "lon": 13.4871159}, {"type": "node", "id": 12107918143, "lat": 49.0753198, "lon": 13.4870992}, {"type": "node", "id": 12107918182, "lat": 49.08706, "lon": 13.4801749}, {"type": "node", "id": 12107918183, "lat": 49.0869417, "lon": 13.4805428}, {"type": "node", "id": 12107918184, "lat": 49.0869851, "lon": 13.4804825}, {"type": "node", "id": 12109107038, "lat": 48.969908, "lon": 13.4065014, "tags": {"board_type": "history", "information": "board", "name": "Nach der Eiszeit", "tourism": "information"}}, {"type": "node", "id": 12114536665, "lat": 48.9639086, "lon": 13.5771764, "tags": {"tourism": "viewpoint"}}, {"type": "node", "id": 12118072766, "lat": 48.9642128, "lon": 13.4479065, "tags": {"check_date": "2024-08-16", "tourism": "viewpoint"}}, {"type": "node", "id": 12190062955, "lat": 49.0649623, "lon": 13.5268243, "tags": {"ele": "1117", "name": "Li\u0161\u00e1k", "natural": "peak", "source": "\u010c\u00daZK"}}, {"type": "node", "id": 12402578741, "lat": 49.0770093, "lon": 13.5073778, "tags": {"ele": "960", "name": "B\u00e1ba", "natural": "peak"}}, {"type": "node", "id": 12402578748, "lat": 49.0755689, "lon": 13.5072054, "tags": {"ele": "941", "natural": "peak"}}, {"type": "node", "id": 12430676669, "lat": 49.107216, "lon": 13.4935199, "tags": {"board_type": "nature", "information": "board", "name": "Otava - vod\u00e1cka trasa", "tourism": "information"}}, {"type": "node", "id": 12430676670, "lat": 49.1072385, "lon": 13.493528, "tags": {"board_type": "nature", "information": "board", "name": "Mapa oblasti", "tourism": "information"}}, {"type": "node", "id": 12430676671, "lat": 49.1072628, "lon": 13.4935415, "tags": {"board_type": "nature", "information": "board", "name": "Ka\u0161persk\u00e9 Hory", "tourism": "information"}}, {"type": "node", "id": 12430686911, "lat": 49.1091117, "lon": 13.4939219, "tags": {"board_type": "history", "information": "board", "name": "\u010ce\u0148kova pila", "tourism": "information"}}, {"type": "node", "id": 12430704531, "lat": 49.1071049, "lon": 13.4940888, "tags": {"board_type": "nature", "information": "board", "name": "Povyd\u0159\u00ed a Zadov", "tourism": "information"}}, {"type": "node", "id": 12430720038, "lat": 49.1062904, "lon": 13.4939573, "tags": {"board_type": "nature", "information": "board", "name": "Povyd\u0159\u00ed, \u010ce\u0148kova pila", "tourism": "information"}}, {"type": "node", "id": 12431207087, "lat": 49.0604674, "lon": 13.511822, "tags": {"board_type": "nature", "information": "board", "name": "Ant\u00fdgl", "tourism": "information"}}, {"type": "node", "id": 12433827538, "lat": 49.0618507, "lon": 13.5049368, "tags": {"board_type": "history", "information": "board", "name": "Hrad Ka\u0161perk", "tourism": "information"}}, {"type": "node", "id": 12434019754, "lat": 49.0617517, "lon": 13.5047454, "tags": {"board_type": "nature", "information": "board", "name": "Vchynicko - Tetovsk\u00fd plavebn\u00ed kan\u00e1l", "tourism": "information"}}, {"type": "node", "id": 12434064680, "lat": 49.0394908, "lon": 13.5037826, "tags": {"board_type": "nature", "information": "board", "name": "Modrava", "tourism": "information"}}, {"type": "node", "id": 12434071764, "lat": 49.059578, "lon": 13.5067926, "tags": {"board_type": "nature", "information": "board", "name": "Rokyta", "tourism": "information"}}, {"type": "node", "id": 12435165494, "lat": 49.0191159, "lon": 13.5795908, "tags": {"board_type": "history", "information": "board", "name": "Sakr\u00e1ln\u00ed stavby", "tourism": "information"}}, {"type": "node", "id": 12435194605, "lat": 49.0192539, "lon": 13.5795989, "tags": {"board_type": "history", "information": "board", "name": "Ve stop\u00e1ch historie \u0160umavy a Bavorsk\u00e9ho lesa", "tourism": "information"}}, {"type": "node", "id": 12441319911, "lat": 48.9622437, "lon": 13.5899377, "tags": {"ele": "1122", "name": "Buchm\u00fchlkopf", "natural": "peak"}}, {"type": "node", "id": 12584551088, "lat": 49.0542424, "lon": 13.5638899, "tags": {"information": "map", "map_type": "topo", "name": "Horsk\u00e1 Kvilda", "tourism": "information"}}, {"type": "node", "id": 12623847384, "lat": 49.1480632, "lon": 13.5360336, "tags": {"amenity": "shelter", "shelter_type": "picnic_shelter"}}, {"type": "node", "id": 12680405058, "lat": 49.1097574, "lon": 13.4926868}, {"type": "node", "id": 12718024703, "lat": 49.1401008, "lon": 13.5142233, "tags": {"information": "map", "map_size": "city", "map_type": "street", "name": "Rej\u0161tejn", "tourism": "information"}}, {"type": "node", "id": 12750098296, "lat": 48.9625401, "lon": 13.5634037}, {"type": "node", "id": 12750098297, "lat": 48.9625772, "lon": 13.5634128}, {"type": "node", "id": 12750098298, "lat": 48.9625833, "lon": 13.5633551}, {"type": "node", "id": 12750098299, "lat": 48.9919373, "lon": 13.5819977}, {"type": "node", "id": 12750098300, "lat": 48.9919492, "lon": 13.5820432}, {"type": "node", "id": 12750105801, "lat": 48.9919757, "lon": 13.5820271}, {"type": "node", "id": 12750105802, "lat": 48.9919639, "lon": 13.5819817}, {"type": "node", "id": 12750105807, "lat": 48.9651905, "lon": 13.5883443}, {"type": "node", "id": 12750105808, "lat": 48.96519, "lon": 13.5883532}, {"type": "node", "id": 12750105809, "lat": 48.965209, "lon": 13.5883557}, {"type": "node", "id": 12750105810, "lat": 48.9652095, "lon": 13.5883468}, {"type": "node", "id": 12751720302, "lat": 49.0189893, "lon": 13.5789886}, {"type": "node", "id": 12751720303, "lat": 49.0190068, "lon": 13.5789822}, {"type": "node", "id": 12751720304, "lat": 49.0190026, "lon": 13.5789556}, {"type": "node", "id": 12751720305, "lat": 49.0189851, "lon": 13.5789619}, {"type": "node", "id": 12830321330, "lat": 49.1465723, "lon": 13.5017171, "tags": {"ele": "730.6", "name": "Nad Kl\u00e1\u0161tersk\u00fdm Ml\u00fdnem", "name:cs": "Nad Kl\u00e1\u0161tersk\u00fdm Ml\u00fdnem", "natural": "peak"}}, {"type": "node", "id": 12850368531, "lat": 49.1469601, "lon": 13.5668613, "tags": {"board_type": "history", "information": "board", "name": "Ka\u0161persk\u00e9 Hory za Jana Lucembursk\u00e9ho", "tourism": "information"}}, {"type": "node", "id": 12927973703, "lat": 49.1229967, "lon": 13.4550615, "tags": {"ele": "1084", "natural": "peak"}}, {"type": "node", "id": 12981875061, "lat": 49.1364614, "lon": 13.5646761, "tags": {"amenity": "shelter", "shelter_type": "picnic_shelter"}}, {"type": "node", "id": 12983936086, "lat": 49.0835404, "lon": 13.5568739, "tags": {"board_type": "nature", "information": "board", "tourism": "information"}}, {"type": "node", "id": 13031855105, "lat": 49.1509245, "lon": 13.4243877, "tags": {"direction": "225-0", "tourism": "viewpoint"}}, {"type": "node", "id": 13042778091, "lat": 49.1420707, "lon": 13.5126727}, {"type": "node", "id": 13042778092, "lat": 49.142038, "lon": 13.5127463}, {"type": "node", "id": 13042778093, "lat": 49.1419894, "lon": 13.5126958}, {"type": "node", "id": 13042778094, "lat": 49.1420221, "lon": 13.5126222}, {"type": "node", "id": 13059392632, "lat": 49.019004, "lon": 13.5789126, "tags": {"amenity": "shelter", "shelter_type": "gazebo"}}, {"type": "node", "id": 13127613518, "lat": 49.023959, "lon": 13.4981533, "tags": {"information": "map", "map_size": "region", "map_type": "topo", "tourism": "information"}}, {"type": "node", "id": 13128292305, "lat": 49.0245247, "lon": 13.498432}, {"type": "node", "id": 13128292306, "lat": 49.0245253, "lon": 13.4984717}, {"type": "node", "id": 13128292307, "lat": 49.0244878, "lon": 13.4984731}, {"type": "node", "id": 13128292308, "lat": 49.0244872, "lon": 13.4984334}, {"type": "node", "id": 13128292321, "lat": 49.0252899, "lon": 13.4985959}, {"type": "node", "id": 13128292322, "lat": 49.0252912, "lon": 13.4986224}, {"type": "node", "id": 13128292323, "lat": 49.0252542, "lon": 13.4986266}, {"type": "node", "id": 13128292324, "lat": 49.0252529, "lon": 13.4986002}, {"type": "node", "id": 13238919303, "lat": 49.0753229, "lon": 13.4870575}, {"type": "node", "id": 13390966199, "lat": 49.0273206, "lon": 13.5198512, "tags": {"board_type": "nature", "information": "board", "name": "Druhotn\u00e9 bezles\u00ed", "tourism": "information"}}, {"type": "node", "id": 13395238933, "lat": 49.0547791, "lon": 13.471677, "tags": {"board_type": "history", "information": "board", "name": "Vchynicko-Tetovsk\u00fd plavebn\u00ed kan\u00e1l \u2013 \u017divot na kan\u00e1lu", "tourism": "information"}}, {"type": "node", "id": 13395244514, "lat": 49.0816325, "lon": 13.459359, "tags": {"board_type": "history", "information": "board", "name": "Vchynicko-Tetovsk\u00fd plavebn\u00ed kan\u00e1l \u2013 Mechov", "tourism": "information"}}, {"type": "node", "id": 13395271097, "lat": 49.0815722, "lon": 13.4592056, "tags": {"information": "map", "tourism": "information"}}, {"type": "node", "id": 13395274605, "lat": 49.0705676, "lon": 13.4652696, "tags": {"board_type": "history", "information": "board", "name": "U Hauswaldsk\u00e9 kaple", "tourism": "information"}}, {"type": "way", "id": 26227029, "nodes": [287178870, 5160979321, 5160979020, 287178873, 287178872, 5160979019, 5160979018, 287178871, 287178870], "tags": {"building": "civic", "building:ruian:type": "15", "information": "office", "name": "H\u00e1jovna B\u0159ezn\u00edk( NP Sumava-Dienststelle)", "ref:ruian:building": "21184453", "source": "cuzk:ruian", "tourism": "information"}}, {"type": "way", "id": 27272468, "nodes": [299361346, 4678056370, 4678056371, 4678056373, 4678056372, 4678056374, 4678056375, 723137872, 723137871, 4678056346, 723137868, 6134753493, 6134753492, 4678056368, 4678056369, 723137869, 299361354, 299361350, 723137906, 4678056349, 4678056350, 4678056351, 4678056348, 723137905, 723137907, 4678056353, 4678056352, 723137911, 4678056366, 4678056365, 4678056364, 6134753491, 6134753490, 6134753489, 6134753488, 4678056356, 4678056367, 4678056355, 4678056354, 723137910, 4678056359, 4678056358, 4678056357, 4678056360, 4678056361, 4678056362, 4678056363, 299361348, 723137914, 4678056345, 4678056347, 299361346], "tags": {"amenity": "place_of_worship", "building": "church", "building:ruian:type": "5", "check_date": "2025-12-20", "denomination": "roman_catholic", "name": "svat\u00e1 Mark\u00e9ta", "ref:ruian:building": "6896847", "religion": "christian", "source": "cuzk:ruian", "tourism": "attraction", "wheelchair": "no", "wikidata": "Q12030623", "wikipedia": "cs:Kostel svat\u00e9 Mark\u00e9ty (Ka\u0161persk\u00e9 Hory)"}}, {"type": "way", "id": 125221234, "nodes": [12107918182, 3086884043, 3086880630, 3086884036, 12107918182], "tags": {"building": "civic", "building:ruian:type": "5", "information": "office", "name": "Informa\u010dn\u00ed centrum Srn\u00ed", "opening_hours": "07:30-12:00,12:30-17:30", "ref:ruian:building": "21197539", "source": "cuzk:ruian", "tourism": "information", "wheelchair": "yes"}}, {"type": "way", "id": 127449837, "nodes": [1410591397, 1410591398, 1410591393, 1410591396, 2257650581, 7119713181, 7119713180, 12680405058, 7119713179, 7119713178, 7119713177, 7119713176, 1410591377, 7119713175, 1410591376, 1410591397], "tags": {"building": "industrial", "building:ruian:type": "16", "frequency": "50", "generator:method": "run-of-the-river", "generator:output:electricity": "100 kW", "generator:source": "hydro", "generator:type": "francis_turbine", "name": "\u010ce\u0148kova Pila", "name:de": "Vinzenzs\u00e4ge", "operator": "\u010cEZ", "operator:wikidata": "Q336735", "power": "generator", "ref:ruian:building": "45159297", "source": "cuzk:ruian", "start_date": "1912", "tourism": "attraction", "wikidata": "Q55443517"}}, {"type": "way", "id": 268823621, "nodes": [2741376533, 12751720303, 2741376530, 12751720302, 2741376528, 12751720305, 2741376532, 12751720304, 2741376533], "tags": {"amenity": "shelter", "bench": "yes", "shelter_type": "weather_shelter", "source": "survey", "survey:date": "2014-03-22"}}, {"type": "way", "id": 303605262, "nodes": [3080022078, 3080022079, 3080022080, 3080022081, 3080022078], "tags": {"amenity": "shelter", "shelter_type": "weather_shelter"}}, {"type": "way", "id": 304161656, "nodes": [9924183963, 12107918184, 12107918183, 3086880619, 9924183963], "tags": {"amenity": "shelter", "building": "transportation", "building:ruian:type": "5", "ref:ruian:building": "42660017", "roof:shape": "skillion", "shelter_type": "public_transport", "source": "cuzk:ruian"}}, {"type": "way", "id": 363372222, "nodes": [3675429127, 3675429128, 3675429129, 3675429130, 3675429127], "tags": {"amenity": "shelter", "name": "B\u0159ezn\u00edk"}}, {"type": "way", "id": 363746151, "nodes": [3678813670, 3678813671, 3678818829, 3678813668, 3678813666, 3678813670], "tags": {"amenity": "shelter", "building": "roof", "shelter_type": "picnic_shelter"}}, {"type": "way", "id": 416579500, "nodes": [12107918143, 4173304287, 12107918142, 12107918141, 12107918140, 12107918139, 4173304275, 4173304276, 4173304288, 13238919303, 12107918138, 12107918143], "tags": {"building": "civic", "building:levels": "3", "building:ruian:type": "15", "description:cs": "yes", "description:de": "yes", "description:en": "yes", "fee": "no", "information": "office", "name": "N\u00e1v\u0161t\u011bvnick\u00e9 Centrum Srn\u00ed - Vlci", "opening_hours": "Mo-Su 08:30-17:00", "ref:ruian:building": "80537677", "roof:shape": "gabled", "source": "cuzk:ruian", "start_date": "2015-10-14", "tourism": "information", "wheelchair": "yes"}}, {"type": "way", "id": 651503357, "nodes": [6109168069, 6109168070, 6109168071, 6109168072, 6109168069], "tags": {"amenity": "shelter", "building": "yes", "picnic_table": "yes", "shelter_type": "public_transport"}}, {"type": "way", "id": 688686362, "nodes": [6459025974, 6459025973, 6459025972, 6459025971, 6459025974], "tags": {"amenity": "shelter", "building": "hut", "fireplace": "yes", "shelter_type": "lean_to"}}, {"type": "way", "id": 818872376, "nodes": [7104759625, 7104759626, 395379416, 7104759619, 395379419, 7647306358, 7647306354, 7104759625], "tags": {"amenity": "shelter", "building": "yes"}}, {"type": "way", "id": 819016408, "nodes": [7648638029, 7648638030, 7648638031, 7648638032, 7648638029], "tags": {"area": "yes", "name": "svazi\u0161t\u011b vor\u016f", "tourism": "attraction"}}, {"type": "way", "id": 1218544340, "nodes": [11291127086, 11291127085, 11291127082, 11291127084, 11291127083, 11291127087, 11291127088, 11291127081, 11291127080, 11291127079, 11291127078, 11291127086], "tags": {"amenity": "shelter", "building": "roof", "layer": "1"}}, {"type": "way", "id": 1306015880, "nodes": [12095815837, 12095815836, 12095815835, 12095815834, 12095815837], "tags": {"amenity": "shelter", "shelter_type": "picnic_shelter"}}, {"type": "way", "id": 1377007215, "nodes": [582505052, 12750098298, 12750098297, 12750098296, 582505052], "tags": {"amenity": "shelter", "bench": "yes", "description": "Unterstand, seitlich offen", "name": "Schutzh\u00fctte Reschbachklause", "shelter_type": "weather_shelter"}}, {"type": "way", "id": 1377007216, "nodes": [12750105802, 12750105801, 12750098300, 12750098299, 12750105802], "tags": {"amenity": "shelter", "picnic_table": "yes", "shelter_type": "picnic_shelter", "source": "survey"}}, {"type": "way", "id": 1377007217, "nodes": [12750105810, 12750105809, 12750105808, 12750105807, 12750105810], "tags": {"amenity": "shelter", "bench": "yes", "name": "Teufelsh\u00e4nge", "shelter_type": "public_transport"}}, {"type": "way", "id": 1419352248, "nodes": [13042778091, 13042778092, 13042778093, 13042778094, 13042778091], "tags": {"amenity": "shelter", "building": "yes", "lightning_protection": "yes", "shelter_type": "picnic_shelter"}}, {"type": "way", "id": 1428005399, "nodes": [13128292305, 13128292306, 13128292307, 13128292308, 13128292305], "tags": {"amenity": "shelter", "bench": "yes", "lockable": "no", "shelter_type": "public_transport", "source": "survey"}}, {"type": "way", "id": 1428005401, "nodes": [13128292321, 13128292322, 13128292323, 13128292324, 13128292321], "tags": {"amenity": "shelter", "bench": "yes", "shelter_type": "public_transport"}}]}