{"version": 0.6, "generator": "Overpass API 0.7.62.8 e802775f", "osm3s": {"timestamp_osm_base": "2026-01-05T16:41:30Z", "copyright": "The data included in this document is from www.openstreetmap.org. The data is made available under ODbL."}, "elements": [{"type": "node", "id": 690267805, "lat": 48.9707994, "lon": 14.2730605, "tags": {"information": "office", "opening_hours": "We-Su 09:00-17:00", "tourism": "information"}}, {"type": "node", "id": 1373174745, "lat": 48.9617722, "lon": 14.2092638, "tags": {"ele": "734", "hiking": "yes", "information": "guidepost", "name": "Sedlo pod Buglatou (rozcest\u00ed)", "operator": "cz:K\u010cT", "ref": "CB195", "tourism": "information"}}, {"type": "node", "id": 1411641358, "lat": 48.9664213, "lon": 14.2970749, "tags": {"bicycle": "yes", "hiking": "yes", "information": "map", "map_size": "region", "map_type": "topo", "name": "Zastaven\u00ed Jankov", "source": "survey", "tourism": "information"}}, {"type": "node", "id": 1474964376, "lat": 48.9662691, "lon": 14.385216, "tags": {"ele": "414", "hiking": "yes", "information": "guidepost", "name": "T\u0159eb\u00edn", "operator": "cz:K\u010cT", "ref": "CB309", "tourism": "information"}}, {"type": "node", "id": 1474964447, "lat": 48.9769497, "lon": 14.3593927, "tags": {"ele": "410", "hiking": "yes", "information": "guidepost", "name": "Dubn\u00e9", "operator": "cz:K\u010cT", "ref": "CB308", "tourism": "information"}}, {"type": "node", "id": 2293729663, "lat": 48.9549037, "lon": 14.2826521, "tags": {"ele": "688", "name": "Skalka", "natural": "peak", "source": "survey", "wikidata": "Q23811906"}}, {"type": "node", "id": 2293729704, "lat": 48.9533232, "lon": 14.2781003, "tags": {"ele": "684", "name": "U \u0160irok\u00e9ho buku", "natural": "peak"}}, {"type": "node", "id": 2354809241, "lat": 49.0913667, "lon": 14.38755, "tags": {"amenity": "shelter", "building": "yes", "shelter_type": "picnic_shelter", "source": "survey", "survey:date": "2013-06-16"}}, {"type": "node", "id": 2371991037, "lat": 48.9764914, "lon": 14.3596884, "tags": {"information": "map", "map_size": "site", "map_type": "scheme", "name": "Dubn\u00e9", "tourism": "information"}}, {"type": "node", "id": 2402488943, "lat": 49.1072231, "lon": 14.3636009}, {"type": "node", "id": 2402488945, "lat": 49.1072332, "lon": 14.3635308}, {"type": "node", "id": 2402488947, "lat": 49.1072616, "lon": 14.3636138}, {"type": "node", "id": 2402488949, "lat": 49.1072716, "lon": 14.3635437}, {"type": "node", "id": 2409794983, "lat": 49.1487468, "lon": 14.3062248}, {"type": "node", "id": 2409794984, "lat": 49.1487471, "lon": 14.3062738}, {"type": "node", "id": 2409794987, "lat": 49.1487634, "lon": 14.3062245}, {"type": "node", "id": 2409794988, "lat": 49.1487651, "lon": 14.3062717}, {"type": "node", "id": 2411044706, "lat": 49.1429535, "lon": 14.3463457}, {"type": "node", "id": 2411044708, "lat": 49.1429586, "lon": 14.3463796}, {"type": "node", "id": 2411044710, "lat": 49.1429987, "lon": 14.346334}, {"type": "node", "id": 2411044712, "lat": 49.1430013, "lon": 14.3463666}, {"type": "node", "id": 2411787622, "lat": 49.1059782, "lon": 14.3012775}, {"type": "node", "id": 2411787640, "lat": 49.1060682, "lon": 14.3011858}, {"type": "node", "id": 2411787645, "lat": 49.1060772, "lon": 14.3012085}, {"type": "node", "id": 2411787650, "lat": 49.1061119, "lon": 14.3011409}, {"type": "node", "id": 2411787653, "lat": 49.1061218, "lon": 14.3011637}, {"type": "node", "id": 2411787664, "lat": 49.1062019, "lon": 14.3010513}, {"type": "node", "id": 2433411858, "lat": 49.1343333, "lon": 14.2830986}, {"type": "node", "id": 2433411863, "lat": 49.1343427, "lon": 14.2831507}, {"type": "node", "id": 2433411865, "lat": 49.1343495, "lon": 14.283091}, {"type": "node", "id": 2433411866, "lat": 49.1343589, "lon": 14.2831443}, {"type": "node", "id": 2433651199, "lat": 49.137824, "lon": 14.2875574}, {"type": "node", "id": 2433651200, "lat": 49.1378256, "lon": 14.2875275}, {"type": "node", "id": 2433651203, "lat": 49.1378507, "lon": 14.2875607}, {"type": "node", "id": 2433651204, "lat": 49.1378523, "lon": 14.2875308}, {"type": "node", "id": 2433765733, "lat": 49.1505796, "lon": 14.24344}, {"type": "node", "id": 2433765735, "lat": 49.1506001, "lon": 14.2434901}, {"type": "node", "id": 2433765736, "lat": 49.150605, "lon": 14.2434158}, {"type": "node", "id": 2433765739, "lat": 49.1506254, "lon": 14.2434659}, {"type": "node", "id": 2433961358, "lat": 49.1436921, "lon": 14.2328586, "tags": {"ele": "435", "name": "Krav\u00ed hora", "natural": "peak"}}, {"type": "node", "id": 2550323623, "lat": 49.1163873, "lon": 14.3308596}, {"type": "node", "id": 2550323627, "lat": 49.1164063, "lon": 14.3309086}, {"type": "node", "id": 2550323631, "lat": 49.1164073, "lon": 14.3308415}, {"type": "node", "id": 2550323638, "lat": 49.1164263, "lon": 14.3308905}, {"type": "node", "id": 2846603834, "lat": 49.1290669, "lon": 14.2483301, "tags": {"board_type": "nature", "information": "board", "name": "Radomilick\u00e1 mok\u0159ina - Bezobratl\u00ed", "ref": "5", "tourism": "information"}}, {"type": "node", "id": 2846603857, "lat": 49.1303147, "lon": 14.2483231, "tags": {"amenity": "shelter", "shelter_type": "picnic_shelter"}}, {"type": "node", "id": 2846603859, "lat": 49.1303431, "lon": 14.2483209, "tags": {"information": "board", "tourism": "information"}}, {"type": "node", "id": 3188776997, "lat": 48.9534665, "lon": 14.2830875, "tags": {"ele": "655", "hiking": "yes", "information": "guidepost", "name": "Sedlo Skalky", "operator": "cz:K\u010cT", "ref": "CB190", "source": "survery", "tourism": "information"}}, {"type": "node", "id": 3425072150, "lat": 49.0040575, "lon": 14.2133981, "tags": {"ele": "514", "name": "Mal\u00fd kopec", "natural": "peak"}}, {"type": "node", "id": 3425072151, "lat": 48.9973055, "lon": 14.2146393, "tags": {"ele": "651", "name": "Bukov\u00e1 hora", "natural": "peak"}}, {"type": "node", "id": 3425072156, "lat": 48.9879918, "lon": 14.2068716, "tags": {"ele": "780", "name": "Chr\u00e1\u0161\u0165ansk\u00fd vrch", "natural": "peak"}}, {"type": "node", "id": 3425072159, "lat": 48.9808382, "lon": 14.2126651, "tags": {"ele": "804", "name": "Vysok\u00e1 B\u011bta", "natural": "peak"}}, {"type": "node", "id": 3425072160, "lat": 49.0022045, "lon": 14.2462786, "tags": {"ele": "485", "name": "Kamenn\u00e1", "natural": "peak"}}, {"type": "node", "id": 3425072161, "lat": 49.00193, "lon": 14.2681332, "tags": {"ele": "448", "name": "Z\u00e1du\u0161n\u00ed vrch", "natural": "peak"}}, {"type": "node", "id": 3425072162, "lat": 49.0002548, "lon": 14.3086239, "tags": {"ele": "441", "name": "Vos\u00ed vrch", "natural": "peak"}}, {"type": "node", "id": 3425072163, "lat": 48.990115, "lon": 14.288103, "tags": {"ele": "456", "name": "Bor", "natural": "peak"}}, {"type": "node", "id": 3425072164, "lat": 48.9803453, "lon": 14.2916562, "tags": {"ele": "472", "name": "Velk\u00fd Bor", "natural": "peak"}}, {"type": "node", "id": 3425072165, "lat": 48.9737787, "lon": 14.2961891, "tags": {"ele": "496", "name": "Doub\u00ed", "natural": "peak"}}, {"type": "node", "id": 3425072166, "lat": 48.9715117, "lon": 14.309202, "tags": {"ele": "489", "name": "Na Vr\u0161\u00edch", "natural": "peak"}}, {"type": "node", "id": 3425072167, "lat": 48.9648973, "lon": 14.3055661, "tags": {"ele": "519", "name": "\u010cihadlo", "natural": "peak"}}, {"type": "node", "id": 3425072168, "lat": 48.9822359, "lon": 14.3296524, "tags": {"ele": "480", "name": "Vr\u00e1\u017ee", "natural": "peak", "wikidata": "Q23809178"}}, {"type": "node", "id": 3425072169, "lat": 48.9745533, "lon": 14.3382354, "tags": {"ele": "477", "name": "Vr\u00e1\u017e", "natural": "peak"}}, {"type": "node", "id": 3425072174, "lat": 48.9598256, "lon": 14.2118712, "tags": {"ele": "761", "name": "Mack\u016fv vrch", "natural": "peak"}}, {"type": "node", "id": 3425072175, "lat": 48.9668766, "lon": 14.2287799, "tags": {"ele": "706", "name": "Vysok\u00e1", "natural": "peak"}}, {"type": "node", "id": 3425072176, "lat": 48.9585576, "lon": 14.236569, "tags": {"ele": "680", "name": "Vysok\u00fd k\u00e1men", "natural": "peak"}}, {"type": "node", "id": 3425072177, "lat": 48.9544504, "lon": 14.2458709, "tags": {"ele": "635", "name": "V\u00fdhledy", "natural": "peak"}}, {"type": "node", "id": 3425072178, "lat": 48.9554438, "lon": 14.2490574, "tags": {"ele": "627", "name": "Zadn\u00ed V\u00fdhledy", "natural": "peak"}}, {"type": "node", "id": 3425072179, "lat": 48.9534923, "lon": 14.2533918, "tags": {"ele": "642", "name": "P\u0159edn\u00ed V\u00fdhledy", "natural": "peak"}}, {"type": "node", "id": 3425072180, "lat": 48.9597718, "lon": 14.2668445, "tags": {"ele": "592", "name": "Na \u0160patenk\u00e1ch", "natural": "peak"}}, {"type": "node", "id": 3902599916, "lat": 49.1058798, "lon": 14.3011019, "tags": {"hiking": "yes", "information": "guidepost", "name": "D\u00edv\u010dice (\u017est)", "operator": "cz:K\u010cT", "ref": "CB237", "tourism": "information"}}, {"type": "node", "id": 3902599918, "lat": 49.0888522, "lon": 14.327196, "tags": {"ele": "389", "hiking": "yes", "information": "guidepost", "name": "Kubat\u016fv pomn\u00edk", "operator": "cz:K\u010cT", "ref": "CB239", "tourism": "information"}}, {"type": "node", "id": 3902599920, "lat": 49.0888133, "lon": 14.3270753, "tags": {"board_type": "history", "information": "board", "name": "S Pekl\u00edkem na vandr - D\u00edv\u010dice", "tourism": "information"}}, {"type": "node", "id": 4039855767, "lat": 49.0981164, "lon": 14.3913672, "tags": {"ele": "500", "name": "Ole\u0161nick\u00fd vrch", "natural": "peak"}}, {"type": "node", "id": 4059934842, "lat": 49.0654897, "lon": 14.3627926, "tags": {"hiking": "yes", "information": "guidepost", "name": "Zliv \u017est.", "operator": "cz:K\u010cT", "ref": "CB242", "tourism": "information"}}, {"type": "node", "id": 4296527733, "lat": 49.0687923, "lon": 14.2313944, "tags": {"bicycle": "yes", "hiking": "yes", "information": "map", "map_size": "region", "map_type": "topo", "name": "Ovocn\u00e1\u0159sk\u00e1 cyklotrasa - Pode\u0159i\u0161t\u011b", "tourism": "information"}}, {"type": "node", "id": 4296527737, "lat": 49.0664382, "lon": 14.2312684, "tags": {"board_type": "history", "information": "board", "name": "Zanikl\u00fd hrad Pod\u011bhusy", "ref": "13", "tourism": "information"}}, {"type": "node", "id": 4298260760, "lat": 49.0681815, "lon": 14.3040058, "tags": {"information": "office", "opening_hours": "May-Sep We-Su 10:00-17:00", "tourism": "information"}}, {"type": "node", "id": 4300565503, "lat": 49.0475934, "lon": 14.2558006, "tags": {"board_type": "history", "information": "board", "name": "Mahou\u0161", "ref": "14", "tourism": "information"}}, {"type": "node", "id": 4300565504, "lat": 49.0475969, "lon": 14.2559414, "tags": {"bicycle": "yes", "hiking": "yes", "information": "map", "map_size": "site", "map_type": "topo", "name": "Mahou\u0161", "tourism": "information"}}, {"type": "node", "id": 4414490770, "lat": 48.9899862, "lon": 14.2655824, "tags": {"bicycle": "yes", "hiking": "yes", "information": "map", "map_size": "region", "map_type": "topo", "tourism": "information"}}, {"type": "node", "id": 4418950070, "lat": 48.9557829, "lon": 14.24252, "tags": {"bicycle": "yes", "hiking": "yes", "information": "map", "map_size": "region", "map_type": "topo", "name": "S Pekl\u00edkem na vandr - Nov\u00e1 Ves", "tourism": "information"}}, {"type": "node", "id": 4458029834, "lat": 48.9835895, "lon": 14.2058523, "tags": {"ele": "738", "hiking": "yes", "information": "guidepost", "name": "Pod Vysokou B\u011btou", "operator": "cz:K\u010cT", "ref": "PT947", "tourism": "information"}}, {"type": "node", "id": 4458716918, "lat": 49.0506501, "lon": 14.2009252, "tags": {"ele": "150", "hiking": "yes", "information": "guidepost", "name": "Na J\u00e1nu", "operator": "cz:K\u010cT", "ref": "PT323", "tourism": "information"}}, {"type": "node", "id": 4518719701, "lat": 49.0123307, "lon": 14.3807613, "tags": {"board_type": "history", "information": "board", "name": "S Pekl\u00edkem na vandr - \u010cejkovice", "tourism": "information"}}, {"type": "node", "id": 4518719702, "lat": 49.012334, "lon": 14.3807137, "tags": {"amenity": "shelter", "shelter_type": "picnic_shelter"}}, {"type": "node", "id": 4695501506, "lat": 48.993137, "lon": 14.3095196, "tags": {"ele": "412", "hiking": "yes", "information": "guidepost", "name": "U Holubovsk\u00e9 ba\u0161ty rozc.", "operator": "cz:K\u010cT", "ref": "CB306", "tourism": "information"}}, {"type": "node", "id": 4695520530, "lat": 49.0205172, "lon": 14.3292848, "tags": {"ele": "405", "hiking": "yes", "information": "guidepost", "name": "B\u0159ehov", "operator": "cz:K\u010cT", "ref": "CB304", "tourism": "information"}}, {"type": "node", "id": 4698955723, "lat": 49.0097996, "lon": 14.312001, "tags": {"ele": "410", "hiking": "yes", "information": "guidepost", "name": "Deht\u00e1\u0159e", "note": "na strom\u011b", "operator": "cz:K\u010cT", "ref": "CB305", "tourism": "information"}}, {"type": "node", "id": 4705413594, "lat": 49.0164021, "lon": 14.3515353, "tags": {"ele": "408", "hiking": "yes", "information": "guidepost", "name": "U Piciny", "operator": "cz:K\u010cT", "ref": "CB303", "source": "survey", "tourism": "information"}}, {"type": "node", "id": 4705430013, "lat": 49.0424511, "lon": 14.3003981, "tags": {"amenity": "shelter", "shelter_type": "picnic_shelter", "source": "survey"}}, {"type": "node", "id": 4705539908, "lat": 49.050299, "lon": 14.247143, "tags": {"amenity": "shelter", "shelter_type": "picnic_shelter", "source": "survey"}}, {"type": "node", "id": 4705566207, "lat": 49.0443135, "lon": 14.2525777, "tags": {"amenity": "shelter", "shelter_type": "picnic_shelter", "source": "survey"}}, {"type": "node", "id": 4716808613, "lat": 49.033052, "lon": 14.2762253, "tags": {"amenity": "shelter", "shelter_type": "picnic_shelter", "source": "survey"}}, {"type": "node", "id": 4716814887, "lat": 49.0566206, "lon": 14.2370587, "tags": {"amenity": "shelter", "shelter_type": "picnic_shelter"}}, {"type": "node", "id": 4716814888, "lat": 49.0565301, "lon": 14.2365172, "tags": {"amenity": "shelter", "shelter_type": "picnic_shelter"}}, {"type": "node", "id": 4716819161, "lat": 49.0717694, "lon": 14.2014972, "tags": {"amenity": "shelter", "shelter_type": "picnic_shelter"}}, {"type": "node", "id": 4716995742, "lat": 49.0725539, "lon": 14.2299537, "tags": {"amenity": "shelter", "shelter_type": "picnic_shelter"}}, {"type": "node", "id": 4755086425, "lat": 49.0722136, "lon": 14.2310461, "tags": {"amenity": "shelter", "shelter_type": "picnic_shelter"}}, {"type": "node", "id": 4789629625, "lat": 48.9729445, "lon": 14.3285672, "tags": {"horse": "yes", "information": "guidepost", "mtb": "no", "name": "Dlouh\u00fd rybn\u00edk", "operator": "cz:K\u010cT", "ref": "CB006", "tourism": "information"}}, {"type": "node", "id": 4789927750, "lat": 48.9797949, "lon": 14.3335372, "tags": {"ele": "445", "hiking": "yes", "information": "guidepost", "name": "Pod Vr\u00e1\u017e\u00ed", "operator": "cz:K\u010cT", "ref": "CB307", "tourism": "information"}}, {"type": "node", "id": 4791991479, "lat": 49.0919462, "lon": 14.3109686, "tags": {"ele": "396", "hiking": "yes", "information": "guidepost", "name": "Zbudov", "operator": "cz:K\u010cT", "ref": "CB369", "tourism": "information"}}, {"type": "node", "id": 4795602653, "lat": 48.9762387, "lon": 14.3614801, "tags": {"amenity": "shelter", "shelter_type": "picnic_shelter", "source": "survey"}}, {"type": "node", "id": 4822164877, "lat": 49.029299, "lon": 14.3746627, "tags": {"ele": "395", "hiking": "yes", "information": "guidepost", "name": "U Ba\u017eantnice", "operator": "cz:K\u010cT", "ref": "CB302", "tourism": "information"}}, {"type": "node", "id": 4822736014, "lat": 49.0112324, "lon": 14.306699, "tags": {"information": "board", "tourism": "information"}}, {"type": "node", "id": 4822820340, "lat": 48.9542833, "lon": 14.2335015, "tags": {"ele": "600", "hiking": "yes", "information": "guidepost", "name": "\u010cesk\u00e9 chalupy", "operator": "cz:K\u010cT", "ref": "CB193", "tourism": "information"}}, {"type": "node", "id": 4822820351, "lat": 48.9576402, "lon": 14.2558658, "tags": {"ele": "560", "hiking": "yes", "information": "guidepost", "name": "U Vacl\u016f", "operator": "cz:K\u010cT", "ref": "CB192", "tourism": "information"}}, {"type": "node", "id": 4824420371, "lat": 48.9559893, "lon": 14.3808203, "tags": {"ele": "445", "hiking": "yes", "information": "guidepost", "name": "Kali\u0161t\u011b", "operator": "cz:K\u010cT", "ref": "CB080", "tourism": "information"}}, {"type": "node", "id": 4974111246, "lat": 48.9707359, "lon": 14.2785399, "tags": {"amenity": "shelter", "shelter_type": "picnic_shelter"}}, {"type": "node", "id": 4977444732, "lat": 48.985015, "lon": 14.2078004, "tags": {"board_type": "nature", "information": "board", "name": "Podhorsk\u00e1 kv\u011btnat\u00e1 bu\u010dina", "tourism": "information"}}, {"type": "node", "id": 4977444733, "lat": 48.9728347, "lon": 14.2182451, "tags": {"board_type": "nature", "information": "board", "name": "Podhorsk\u00e1 kv\u011btnat\u00e1 bu\u010dina", "tourism": "information"}}, {"type": "node", "id": 5049278714, "lat": 49.0315553, "lon": 14.2047562, "tags": {"amenity": "shelter", "shelter_type": "picnic_shelter"}}, {"type": "node", "id": 5148129110, "lat": 48.9687583, "lon": 14.3727, "tags": {"amenity": "shelter", "shelter_type": "picnic_shelter"}}, {"type": "node", "id": 5148129324, "lat": 48.9979798, "lon": 14.3537886, "tags": {"amenity": "shelter", "shelter_type": "picnic_shelter"}}, {"type": "node", "id": 5165913664, "lat": 48.9823308, "lon": 14.3068271, "tags": {"amenity": "shelter", "shelter_type": "picnic_shelter"}}, {"type": "node", "id": 5181374203, "lat": 49.0038319, "lon": 14.3352215, "tags": {"amenity": "shelter", "shelter_type": "picnic_shelter"}}, {"type": "node", "id": 5210942609, "lat": 49.1488437, "lon": 14.2472654, "tags": {"information": "board", "name": "Nau\u010dn\u00e1 stezka V\u00edta Kudli\u010dky", "tourism": "information"}}, {"type": "node", "id": 5210942610, "lat": 49.1488608, "lon": 14.2475035, "tags": {"amenity": "shelter", "shelter_type": "picnic_shelter"}}, {"type": "node", "id": 5210942612, "lat": 49.1437532, "lon": 14.2299755, "tags": {"information": "board", "tourism": "information"}}, {"type": "node", "id": 5210942615, "lat": 49.1408095, "lon": 14.2366691, "tags": {"information": "board", "tourism": "information"}}, {"type": "node", "id": 5210945152, "lat": 49.132379, "lon": 14.232784, "tags": {"information": "board", "name": "Radomilick\u00e1 mok\u0159ina - Ryby", "ref": "4", "tourism": "information"}}, {"type": "node", "id": 5210945163, "lat": 49.1297163, "lon": 14.2443656, "tags": {"information": "board", "name": "Radomilick\u00e1 mok\u0159ina - Ptactvo", "ref": "3", "tourism": "information"}}, {"type": "node", "id": 5210945165, "lat": 49.1251749, "lon": 14.2647206, "tags": {"board_type": "nature", "information": "board", "name": "Radomilick\u00e1 mok\u0159ina", "tourism": "information"}}, {"type": "node", "id": 5210945166, "lat": 49.1257479, "lon": 14.2659722, "tags": {"board_type": "nature", "information": "board", "name": "Radomilick\u00e1 mok\u0159ina", "ref": "1", "tourism": "information"}}, {"type": "node", "id": 5210945167, "lat": 49.1388982, "lon": 14.2298699, "tags": {"board_type": "nature", "description": "Nau\u010dn\u00e1 stezka V\u00edta Kudli\u010dky", "information": "board", "name": "Mok\u0159ady a rybni\u010dn\u00ed soustavy", "tourism": "information"}}, {"type": "node", "id": 5324177530, "lat": 49.0506611, "lon": 14.200687, "tags": {"board_type": "history", "information": "board", "name": "Slovansk\u00e9 hradi\u0161t\u011b Sv. J\u00e1n, archeologick\u00fd park", "ref": "1", "tourism": "information"}}, {"type": "node", "id": 5503531709, "lat": 49.0923283, "lon": 14.2347772, "tags": {"amenity": "shelter", "shelter_type": "picnic_shelter"}}, {"type": "node", "id": 5503531716, "lat": 49.0916672, "lon": 14.2226263, "tags": {"information": "map", "name": "Malovice", "tourism": "information"}}, {"type": "node", "id": 5509107701, "lat": 49.0851331, "lon": 14.2051935, "tags": {"board_type": "history", "information": "board", "name": "Rab\u00edn", "ref": "11", "tourism": "information"}}, {"type": "node", "id": 5509109895, "lat": 49.0319487, "lon": 14.2726357, "tags": {"board_type": "history", "information": "board", "name": "N\u011bm\u010dice", "ref": "15", "tourism": "information"}}, {"type": "node", "id": 5509132673, "lat": 49.0949448, "lon": 14.2316137, "tags": {"board_type": "history", "information": "board", "name": "Malovice a Malovi\u010dky", "ref": "10", "tourism": "information"}}, {"type": "node", "id": 5509132674, "lat": 49.0267806, "lon": 14.2459312, "tags": {"board_type": "history", "information": "board", "name": "Zv\u011b\u0159etice", "ref": "16", "tourism": "information"}}, {"type": "node", "id": 5509176384, "lat": 49.0269505, "lon": 14.2447867, "tags": {"information": "map", "name": "Zv\u011b\u0159etice", "tourism": "information"}}, {"type": "node", "id": 5516912457, "lat": 48.9663789, "lon": 14.2724327, "tags": {"information": "map", "name": "Hola\u0161ovice", "tourism": "information"}}, {"type": "node", "id": 5590907304, "lat": 48.9705376, "lon": 14.2729821, "tags": {"hiking": "yes", "information": "guidepost", "name": "Hola\u0161ovice", "operator": "cz:K\u010cT", "ref": "CB017", "tourism": "information"}}, {"type": "node", "id": 5590918521, "lat": 48.9559878, "lon": 14.2688813, "tags": {"ele": "602", "hiking": "yes", "information": "guidepost", "name": "U Rubal\u016f", "operator": "cz:K\u010cT", "ref": "CB001", "tourism": "information"}}, {"type": "node", "id": 5590936865, "lat": 48.9812442, "lon": 14.2476815, "tags": {"information": "board", "tourism": "information"}}, {"type": "node", "id": 5590936867, "lat": 48.9708903, "lon": 14.2050106, "tags": {"board_type": "nature", "information": "board", "name": "Pralesovit\u00fd su\u0165ov\u00fd les", "tourism": "information"}}, {"type": "node", "id": 5590936868, "lat": 49.0265985, "lon": 14.2369522, "tags": {"information": "map", "name": "Babice", "tourism": "information"}}, {"type": "node", "id": 5602829004, "lat": 49.1292894, "lon": 14.2703821, "tags": {"board_type": "history", "information": "board", "name": "Selsk\u00e9 baroko na Blatech - Z\u00e1blat\u00ed\u010dko", "tourism": "information"}}, {"type": "node", "id": 5715787894, "lat": 49.129488, "lon": 14.2336451, "tags": {"board_type": "nature", "information": "board", "name": "Radomilick\u00e1 mok\u0159ina - Oboj\u017eiveln\u00edci", "ref": "2", "tourism": "information"}}, {"type": "node", "id": 5775614966, "lat": 48.954315, "lon": 14.3280425, "tags": {"amenity": "shelter"}}, {"type": "node", "id": 5775614967, "lat": 48.9542821, "lon": 14.3280101, "tags": {"information": "board", "tourism": "information"}}, {"type": "node", "id": 5964463722, "lat": 48.9575674, "lon": 14.3310141, "tags": {"amenity": "shelter", "shelter_type": "picnic_shelter"}}, {"type": "node", "id": 5964463729, "lat": 48.9689318, "lon": 14.3221357, "tags": {"information": "map", "name": "\u010cakovec", "tourism": "information"}}, {"type": "node", "id": 6053015685, "lat": 49.1233624, "lon": 14.259115, "tags": {"board_type": "history", "information": "board", "name": "Selsk\u00e9 baroko na Blatech - Radomilice", "tourism": "information"}}, {"type": "node", "id": 6053015722, "lat": 49.0424595, "lon": 14.3004564, "tags": {"board_type": "history", "information": "board", "name": "Selsk\u00e9 baroko na Blatech - Mal\u00e9 Chr\u00e1\u0161\u0165any", "tourism": "information"}}, {"type": "node", "id": 6053015723, "lat": 49.0424443, "lon": 14.3004335, "tags": {"board_type": "information", "information": "board", "name": "S Pekl\u00edkem na vandr - Mal\u00e9 Chr\u00e1\u0161\u0165any", "tourism": "information"}}, {"type": "node", "id": 6421997085, "lat": 48.954617, "lon": 14.3800119, "tags": {"horse": "yes", "information": "guidepost", "name": "Kali\u0161t\u011b u Lip\u00ed (stanice)", "operator": "cz:K\u010cT", "ref": "CB019", "tourism": "information"}}, {"type": "node", "id": 6551583600, "lat": 48.964651, "lon": 14.2963199, "tags": {"amenity": "shelter", "shelter_type": "picnic_shelter"}}, {"type": "node", "id": 6551583637, "lat": 49.0099277, "lon": 14.3133217, "tags": {"amenity": "shelter", "shelter_type": "picnic_shelter"}}, {"type": "node", "id": 6700839593, "lat": 49.0244434, "lon": 14.2966851, "tags": {"amenity": "shelter", "shelter_type": "picnic_shelter"}}, {"type": "node", "id": 6726464689, "lat": 48.975344, "lon": 14.3592918, "tags": {"horse": "yes", "information": "guidepost", "name": "Dubn\u00e9", "operator": "cz:K\u010cT", "tourism": "information"}}, {"type": "node", "id": 6753741144, "lat": 48.9664596, "lon": 14.3908346, "tags": {"information": "map", "tourism": "information"}}, {"type": "node", "id": 6781170822, "lat": 49.148667, "lon": 14.3063381, "tags": {"board_type": "information", "information": "board", "name": "Selsk\u00e9 baroko na Blatech - Strachovice", "tourism": "information"}}, {"type": "node", "id": 6781170848, "lat": 49.0921952, "lon": 14.3539137, "tags": {"board_type": "information", "information": "board", "name": "Selsk\u00e9 baroko na Blatech - Mydlovary", "tourism": "information"}}, {"type": "node", "id": 6915365545, "lat": 48.9532018, "lon": 14.2439756, "tags": {"direction": "100-300", "tourism": "viewpoint"}}, {"type": "node", "id": 6920580669, "lat": 49.0691589, "lon": 14.240534, "tags": {"amenity": "shelter", "shelter_type": "picnic_shelter"}}, {"type": "node", "id": 7040586920, "lat": 49.0453525, "lon": 14.3342805, "tags": {"board_type": "history", "information": "board", "name": "Selsk\u00e9 baroko na Blatech - Pi\u0161t\u00edn", "tourism": "information"}}, {"type": "node", "id": 7059859743, "lat": 48.9651828, "lon": 14.3548876, "tags": {"amenity": "shelter", "shelter_type": "lean_to"}}, {"type": "node", "id": 7059867183, "lat": 48.9695505, "lon": 14.3671245, "tags": {"amenity": "shelter", "name": "alt\u00e1n", "shelter_type": "wildlife_hide"}}, {"type": "node", "id": 7283221102, "lat": 49.0399981, "lon": 14.2157411, "tags": {"ele": "516", "name": "V Hej\u010danech", "natural": "peak"}}, {"type": "node", "id": 7283221103, "lat": 49.05004, "lon": 14.2059139, "tags": {"ele": "466", "name": "Hej\u010dany", "natural": "peak"}}, {"type": "node", "id": 7283221105, "lat": 49.0530699, "lon": 14.2260631, "tags": {"ele": "502", "name": "Mu\u017esk\u00fd", "natural": "peak"}}, {"type": "node", "id": 7406542482, "lat": 49.0639049, "lon": 14.3631547, "tags": {"noexit": "yes"}}, {"type": "node", "id": 7406542484, "lat": 49.0639808, "lon": 14.3633452}, {"type": "node", "id": 7499159561, "lat": 49.0615201, "lon": 14.3323766, "tags": {"board_type": "history", "information": "board", "name": "Selsk\u00e9 baroko na Blatech", "tourism": "information"}}, {"type": "node", "id": 7529818926, "lat": 49.0476341, "lon": 14.256233, "tags": {"amenity": "shelter", "shelter_type": "picnic_shelter"}}, {"type": "node", "id": 7818754915, "lat": 48.9659153, "lon": 14.2760925, "tags": {"name": "Hola\u0161ovick\u00fd kruh", "natural": "stone", "tourism": "attraction", "wikidata": "Q8547711", "wikipedia": "cs:Hola\u0161ovick\u00fd kruh"}}, {"type": "node", "id": 7902696890, "lat": 49.124967, "lon": 14.2659354}, {"type": "node", "id": 7902696891, "lat": 49.1249731, "lon": 14.2658655}, {"type": "node", "id": 7902696892, "lat": 49.1249449, "lon": 14.2658598}, {"type": "node", "id": 7902696893, "lat": 49.1249388, "lon": 14.2659297}, {"type": "node", "id": 7902696908, "lat": 49.1062909, "lon": 14.3009596}, {"type": "node", "id": 7902696909, "lat": 49.1063036, "lon": 14.3009888}, {"type": "node", "id": 8050605285, "lat": 48.9663786, "lon": 14.272413, "tags": {"hiking": "yes", "information": "guidepost", "operator": "cz:K\u010cT", "ref": "CB017", "tourism": "information"}}, {"type": "node", "id": 8063876265, "lat": 49.1059882, "lon": 14.3012996}, {"type": "node", "id": 8075789463, "lat": 49.0419108, "lon": 14.2314966, "tags": {"amenity": "shelter", "shelter_type": "picnic_shelter"}}, {"type": "node", "id": 8368928476, "lat": 49.014035, "lon": 14.3813278, "tags": {"information": "map", "map_size": "region", "map_type": "scheme", "name": "Blata", "tourism": "information"}}, {"type": "node", "id": 8368928477, "lat": 49.0140648, "lon": 14.3813223, "tags": {"board_type": "history", "description": "Selsk\u00e9 baroko na Blatech", "information": "board", "name": "\u010cejkovice", "tourism": "information"}}, {"type": "node", "id": 8368928478, "lat": 49.0427581, "lon": 14.3600367, "tags": {"board_type": "history", "description": "Selsk\u00e9 baroko na Blatech", "information": "board", "name": "Rozcest\u00ed u Vojt\u011bcha", "tourism": "information"}}, {"type": "node", "id": 8368928479, "lat": 49.0458775, "lon": 14.3343278, "tags": {"hiking": "yes", "information": "map", "map_size": "region", "map_type": "topo", "name": "Obec Pi\u0161t\u00edn", "tourism": "information"}}, {"type": "node", "id": 8368928480, "lat": 49.0614903, "lon": 14.3323725, "tags": {"information": "map", "map_size": "region", "map_type": "scheme", "name": "Blata", "tourism": "information"}}, {"type": "node", "id": 8368928481, "lat": 49.0425802, "lon": 14.3003519, "tags": {"information": "map", "map_size": "region", "map_type": "scheme", "name": "Blata", "tourism": "information"}}, {"type": "node", "id": 8419277794, "lat": 49.0625964, "lon": 14.3817546, "tags": {"information": "map", "tourism": "information"}}, {"type": "node", "id": 8540941538, "lat": 49.0326554, "lon": 14.3629371}, {"type": "node", "id": 8540941539, "lat": 49.0326347, "lon": 14.3629988}, {"type": "node", "id": 8540941540, "lat": 49.0326478, "lon": 14.363009}, {"type": "node", "id": 8540941541, "lat": 49.0326685, "lon": 14.3629473}, {"type": "node", "id": 8541005609, "lat": 49.0457623, "lon": 14.3341291}, {"type": "node", "id": 8541005610, "lat": 49.0457549, "lon": 14.3341697}, {"type": "node", "id": 8541005611, "lat": 49.0457406, "lon": 14.3341635}, {"type": "node", "id": 8541005612, "lat": 49.045748, "lon": 14.3341229}, {"type": "node", "id": 8576451608, "lat": 49.0869578, "lon": 14.3304372, "tags": {"board_type": "nature", "information": "board", "name": "Pta\u010d\u00ed oblast \u010ceskobud\u011bjovick\u00e9 rybn\u00edky", "tourism": "information"}}, {"type": "node", "id": 8576451609, "lat": 49.0936548, "lon": 14.3085382, "tags": {"board_type": "nature", "information": "board", "name": "Pta\u010d\u00ed oblast \u010ceskobud\u011bjovick\u00e9 rybn\u00edky", "tourism": "information"}}, {"type": "node", "id": 8576451610, "lat": 49.0945788, "lon": 14.2960923, "tags": {"board_type": "nature", "information": "board", "name": "Pta\u010d\u00ed oblast \u010ceskobud\u011bjovick\u00e9 rybn\u00edky", "tourism": "information"}}, {"type": "node", "id": 8933803396, "lat": 48.9797454, "lon": 14.3957681, "tags": {"amenity": "shelter", "shelter_type": "gazebo"}}, {"type": "node", "id": 8988563039, "lat": 49.0728098, "lon": 14.342254, "tags": {"board_type": "nature", "check_date": "2025-12-30", "information": "board", "name": "Pta\u010d\u00ed oblast \u010ceskobud\u011bjovick\u00e9 rybn\u00edky", "tourism": "information"}}, {"type": "node", "id": 9118361694, "lat": 49.1061925, "lon": 14.2077601, "tags": {"amenity": "shelter", "shelter_type": "picnic_shelter"}}, {"type": "node", "id": 9480421742, "lat": 49.103816, "lon": 14.2098277, "tags": {"amenity": "shelter", "shelter_type": "picnic_shelter"}}, {"type": "node", "id": 9615166892, "lat": 48.9572161, "lon": 14.2996575, "tags": {"horse": "yes", "information": "guidepost", "name": "U Beneda", "operator": "cz:K\u010cT", "ref": "CB002", "tourism": "information"}}, {"type": "node", "id": 10219929269, "lat": 48.9667898, "lon": 14.2725657, "tags": {"horse": "yes", "information": "guidepost", "name": "Hola\u0161ovice", "operator": "cz:K\u010cT", "ref": "CB007", "tourism": "information"}}, {"type": "node", "id": 10219971707, "lat": 48.9561383, "lon": 14.2688022, "tags": {"horse": "yes", "information": "guidepost", "name": "Za Rubal\u016f", "operator": "cz:K\u010cT", "ref": "CK010", "tourism": "information"}}, {"type": "node", "id": 10240933625, "lat": 49.0281604, "lon": 14.2366773, "tags": {"amenity": "shelter", "shelter_type": "picnic_shelter"}}, {"type": "node", "id": 10240933626, "lat": 49.0287007, "lon": 14.2367024, "tags": {"amenity": "shelter", "shelter_type": "picnic_shelter"}}, {"type": "node", "id": 10243244553, "lat": 48.9666913, "lon": 14.2970152, "tags": {"horse": "yes", "information": "guidepost", "name": "Jankov", "operator": "cz:K\u010cT", "tourism": "information"}}, {"type": "node", "id": 10264906384, "lat": 48.9524884, "lon": 14.2336906}, {"type": "node", "id": 10264906385, "lat": 48.9525009, "lon": 14.2337577}, {"type": "node", "id": 10264906386, "lat": 48.952534, "lon": 14.2337433}, {"type": "node", "id": 10264906387, "lat": 48.9525215, "lon": 14.2336762}, {"type": "node", "id": 10695105540, "lat": 49.0788093, "lon": 14.2101311}, {"type": "node", "id": 10695105541, "lat": 49.07879, "lon": 14.2101746}, {"type": "node", "id": 10695105542, "lat": 49.0788253, "lon": 14.2102111}, {"type": "node", "id": 10695105543, "lat": 49.0788446, "lon": 14.2101676}, {"type": "node", "id": 10733132022, "lat": 49.0789497, "lon": 14.2629329, "tags": {"amenity": "shelter", "shelter_type": "picnic_shelter"}}, {"type": "node", "id": 10733132023, "lat": 49.0789678, "lon": 14.2630192, "tags": {"information": "map", "tourism": "information"}}, {"type": "node", "id": 10748316272, "lat": 49.0685994, "lon": 14.3042803, "tags": {"information": "board", "name": "Selsk\u00e9 baroko na Blatech - Pl\u00e1stovice", "tourism": "information"}}, {"type": "node", "id": 10748316273, "lat": 49.0921697, "lon": 14.3104414, "tags": {"information": "map", "name": "Selsk\u00e9 baroko na Blatech - Zbudov", "tourism": "information"}}, {"type": "node", "id": 10836628579, "lat": 49.0022422, "lon": 14.3059075, "tags": {"information": "board", "name": "Pta\u010d\u00ed oblast Deht\u00e1\u0159", "tourism": "information"}}, {"type": "node", "id": 10919967066, "lat": 49.0123381, "lon": 14.2114027, "tags": {"horse": "yes", "information": "guidepost", "operator": "cz:K\u010cT", "tourism": "information"}}, {"type": "node", "id": 11230922735, "lat": 48.9741114, "lon": 14.2031079}, {"type": "node", "id": 11230922736, "lat": 48.9740904, "lon": 14.2031063}, {"type": "node", "id": 11230933837, "lat": 48.9740914, "lon": 14.2030781}, {"type": "node", "id": 11230933838, "lat": 48.9741123, "lon": 14.2030797}, {"type": "node", "id": 11459442791, "lat": 49.0656224, "lon": 14.3626422, "tags": {"information": "map", "name": "M\u011bsto Zliv", "tourism": "information"}}, {"type": "node", "id": 11616101914, "lat": 49.0526331, "lon": 14.2933816, "tags": {"board_type": "history", "information": "board", "name": "Selsk\u00e9 baroko na Blatech - Vlhavy", "tourism": "information"}}, {"type": "node", "id": 11638718881, "lat": 49.026781, "lon": 14.2456867, "tags": {"amenity": "shelter", "shelter_type": "picnic_shelter"}}, {"type": "node", "id": 11786569196, "lat": 49.0635133, "lon": 14.362579, "tags": {"board_type": "nature", "information": "board", "name": "Pta\u010d\u00ed oblast \u010ceskobud\u011bjovick\u00e9 rybn\u00edky", "tourism": "information"}}, {"type": "node", "id": 11835175403, "lat": 49.0114433, "lon": 14.2082516, "tags": {"amenity": "shelter", "shelter_type": "picnic_shelter"}}, {"type": "node", "id": 12151924862, "lat": 49.0172813, "lon": 14.2850149, "tags": {"board_type": "wildlife", "information": "board", "name": "Pta\u010d\u00ed oblast Deht\u00e1\u0159", "tourism": "information"}}, {"type": "node", "id": 12478122357, "lat": 49.0652142, "lon": 14.3648953, "tags": {"amenity": "shelter", "shelter_type": "picnic_shelter"}}, {"type": "node", "id": 12634078868, "lat": 48.9662281, "lon": 14.2755828, "tags": {"board_type": "nature", "information": "board", "name": "Hola\u0161ovick\u00fd kamenn\u00fd kruh", "tourism": "information"}}, {"type": "node", "id": 12663179387, "lat": 49.1122665, "lon": 14.3033819, "tags": {"board_type": "nature", "information": "board", "name": "Pta\u010d\u00ed oblast \u010ceskobud\u011bjovick\u00e9 rybn\u00edky", "tourism": "information"}}, {"type": "node", "id": 12663180027, "lat": 49.1151511, "lon": 14.2971621, "tags": {"board_type": "history", "information": "board", "name": "Selsk\u00e9 baroko na Blatech - Dubenec", "tourism": "information"}}, {"type": "node", "id": 12665340435, "lat": 49.1151589, "lon": 14.2971515, "tags": {"information": "map", "map_size": "region", "map_type": "scheme", "name": "Blata", "tourism": "information"}}, {"type": "node", "id": 12699200611, "lat": 49.0637072, "lon": 14.3637865, "tags": {"bicycle": "yes", "information": "guidepost", "operator": "cz:K\u010cT", "ref": "none", "tourism": "information"}}, {"type": "node", "id": 12809413087, "lat": 49.0873239, "lon": 14.3276395, "tags": {"amenity": "shelter", "shelter_type": "picnic_shelter"}}, {"type": "node", "id": 12809413091, "lat": 49.0875103, "lon": 14.3274932, "tags": {"board_type": "information", "information": "board", "name": "Pomn\u00edk rycht\u00e1\u0159e Jakuba Kubaty", "tourism": "information"}}, {"type": "node", "id": 13092488171, "lat": 48.9707542, "lon": 14.2785385}, {"type": "node", "id": 13092488172, "lat": 48.9707342, "lon": 14.2785645}, {"type": "node", "id": 13092488173, "lat": 48.9707203, "lon": 14.2785397}, {"type": "node", "id": 13092488174, "lat": 48.9707403, "lon": 14.2785137}, {"type": "node", "id": 13092488188, "lat": 48.959266, "lon": 14.2572544}, {"type": "node", "id": 13092488189, "lat": 48.9592331, "lon": 14.2572671}, {"type": "node", "id": 13092488190, "lat": 48.9592449, "lon": 14.2573379}, {"type": "node", "id": 13092488191, "lat": 48.9592778, "lon": 14.2573252}, {"type": "node", "id": 13092495924, "lat": 48.9663727, "lon": 14.2724256}, {"type": "node", "id": 13092495925, "lat": 48.9663631, "lon": 14.2724448}, {"type": "node", "id": 13092495926, "lat": 48.9663498, "lon": 14.2724293}, {"type": "node", "id": 13092495927, "lat": 48.9663595, "lon": 14.2724101}, {"type": "node", "id": 13092551257, "lat": 48.9882792, "lon": 14.2666379}, {"type": "node", "id": 13092551258, "lat": 48.988234, "lon": 14.2666441}, {"type": "node", "id": 13092551259, "lat": 48.9882382, "lon": 14.2667135}, {"type": "node", "id": 13092551260, "lat": 48.9882833, "lon": 14.2667072}, {"type": "node", "id": 13120880548, "lat": 48.9965439, "lon": 14.226316}, {"type": "node", "id": 13120880549, "lat": 48.9965554, "lon": 14.2263822}, {"type": "node", "id": 13120880550, "lat": 48.9969173, "lon": 14.2262359}, {"type": "node", "id": 13120880551, "lat": 48.996894, "lon": 14.2261744}, {"type": "node", "id": 13230142481, "lat": 49.0505891, "lon": 14.2009016, "tags": {"board_type": "tourism", "information": "board", "name": "Lineck\u00e1 Stezka - Netolice - hradi\u0161t\u011b", "tourism": "information"}}, {"type": "way", "id": 231925713, "nodes": [2402488949, 2402488945, 2402488943, 2402488947, 2402488949], "tags": {"amenity": "shelter", "building": "yes", "shelter_type": "public_transport"}}, {"type": "way", "id": 232638895, "nodes": [2409794983, 2409794987, 2409794988, 2409794984, 2409794983], "tags": {"amenity": "shelter", "building": "yes", "shelter_type": "public_transport"}}, {"type": "way", "id": 232782546, "nodes": [2411044710, 2411044706, 2411044708, 2411044712, 2411044710], "tags": {"amenity": "shelter", "building": "yes", "shelter_type": "public_transport"}}, {"type": "way", "id": 235256202, "nodes": [2433411865, 2433411866, 2433411863, 2433411858, 2433411865], "tags": {"amenity": "shelter", "building": "civic", "building:ruian:type": "5", "ref:ruian:building": "46966331", "shelter_type": "public_transport", "source": "cuzk:ruian"}}, {"type": "way", "id": 235283157, "nodes": [2433651204, 2433651200, 2433651199, 2433651203, 2433651204], "tags": {"amenity": "shelter", "building": "yes", "shelter_type": "public_transport", "source": "cuzk:km"}}, {"type": "way", "id": 235295205, "nodes": [2433765736, 2433765733, 2433765735, 2433765739, 2433765736], "tags": {"amenity": "shelter", "building": "yes", "shelter_type": "public_transport"}}, {"type": "way", "id": 248200913, "nodes": [2550323631, 2550323623, 2550323627, 2550323638, 2550323631], "tags": {"amenity": "shelter", "shelter_type": "public_transport", "source": "bing"}}, {"type": "way", "id": 792255492, "nodes": [7406542482, 7406542484], "tags": {"bridge": "yes", "highway": "footway", "layer": "1", "name": "Barokn\u00ed kamenn\u00fd most", "tourism": "attraction", "wikidata": "Q38228083"}}, {"type": "way", "id": 846903250, "nodes": [7902696893, 7902696892, 7902696891, 7902696890, 7902696893], "tags": {"amenity": "shelter", "shelter_type": "public_transport"}}, {"type": "way", "id": 865156506, "nodes": [7902696908, 7902696909, 2411787653, 2411787650, 2411787664, 7902696908], "tags": {"amenity": "shelter", "building": "roof", "shelter_type": "public_transport"}}, {"type": "way", "id": 865156507, "nodes": [2411787640, 2411787645, 8063876265, 2411787622, 2411787640], "tags": {"amenity": "shelter", "building": "roof", "shelter_type": "public_transport"}}, {"type": "way", "id": 919711728, "nodes": [8540941541, 8540941540, 8540941539, 8540941538, 8540941541], "tags": {"amenity": "shelter", "building": "roof", "shelter_type": "public_transport"}}, {"type": "way", "id": 919722783, "nodes": [8541005612, 8541005609, 8541005610, 8541005611, 8541005612], "tags": {"amenity": "shelter", "building": "roof", "shelter_type": "public_transport"}}, {"type": "way", "id": 1122292067, "nodes": [10264906387, 10264906386, 10264906385, 10264906384, 10264906387], "tags": {"amenity": "shelter", "shelter_type": "public_transport"}}, {"type": "way", "id": 1149676448, "nodes": [10695105540, 10695105541, 10695105542, 10695105543, 10695105540], "tags": {"amenity": "shelter", "building": "yes"}}, {"type": "way", "id": 1212218650, "nodes": [11230933838, 11230933837, 11230922736, 11230922735, 11230933838], "tags": {"amenity": "shelter", "shelter_type": "picnic_shelter"}}, {"type": "way", "id": 1424400500, "nodes": [13092488171, 13092488172, 13092488173, 13092488174, 13092488171], "tags": {"amenity": "shelter", "building": "yes"}}, {"type": "way", "id": 1424400503, "nodes": [13092488188, 13092488189, 13092488190, 13092488191, 13092488188], "tags": {"amenity": "shelter", "building": "yes"}}, {"type": "way", "id": 1424400505, "nodes": [13092495924, 13092495925, 13092495926, 13092495927, 13092495924], "tags": {"amenity": "shelter", "building": "yes"}}, {"type": "way", "id": 1424414639, "nodes": [13092551257, 13092551258, 13092551259, 13092551260, 13092551257], "tags": {"amenity": "shelter", "building": "yes"}}, {"type": "way", "id": 1427274500, "nodes": [13120880548, 13120880549, 13120880550, 13120880551, 13120880548], "tags": {"amenity": "shelter", "building": "yes"}}]}