{"version": 0.6, "generator": "Overpass API 0.7.62.8 e802775f", "osm3s": {"timestamp_osm_base": "2026-01-05T16:41:30Z", "copyright": "The data included in this document is from www.openstreetmap.org. The data is made available under ODbL."}, "elements": [{"type": "node", "id": 268780296, "lat": 48.5815595, "lon": 14.2335413, "tags": {"ele": "1048", "natural": "peak"}}, {"type": "node", "id": 268780299, "lat": 48.5875617, "lon": 14.2318135, "tags": {"ele": "1012", "name": "Hv\u011bzdn\u00e1", "name:de": "Sternberg", "natural": "peak", "source:ele": "tisicovky.cz", "source:name": "tisicovky.cz"}}, {"type": "node", "id": 268780301, "lat": 48.5914829, "lon": 14.2541481, "tags": {"ele": "952", "natural": "peak", "source": "\u010c\u00daZK"}}, {"type": "node", "id": 268780303, "lat": 48.6062386, "lon": 14.20292, "tags": {"ele": "949", "name": "Nad Lipovou", "natural": "peak"}}, {"type": "node", "id": 268780447, "lat": 48.6073427, "lon": 14.2478472, "tags": {"ele": "927", "name": "Uhl\u00ed\u0159sk\u00fd vrch", "name:cs": "Uhl\u00ed\u0159sk\u00fd vrch", "name:de": "Kohlenh\u00fcgel", "natural": "peak", "source": "\u010c\u00daZK"}}, {"type": "node", "id": 268780448, "lat": 48.6039915, "lon": 14.2946779, "tags": {"ele": "847", "name": "Mart\u00ednkovsk\u00fd vrch", "name:cs": "Mart\u00ednkovsk\u00fd vrch", "name:de": "Martinsberg", "natural": "peak", "source": "\u010c\u00daZK"}}, {"type": "node", "id": 268780449, "lat": 48.5916318, "lon": 14.2959, "tags": {"ele": "940", "name": "Hradi\u0161t\u011b", "natural": "peak", "source": "\u010c\u00daZK"}}, {"type": "node", "id": 268780451, "lat": 48.5825632, "lon": 14.2903814, "tags": {"ele": "984", "name": "Jezev\u010d\u00ed vrch", "name:cs": "Jezev\u010d\u00ed vrch", "name:de": "Dachsh\u00fcgel", "natural": "peak"}}, {"type": "node", "id": 268780454, "lat": 48.5797087, "lon": 14.2854287, "tags": {"created_by": "Potlatch 0.9c", "natural": "peak"}}, {"type": "node", "id": 268780459, "lat": 48.5727463, "lon": 14.2973659, "tags": {"ele": "938", "name": "Kamenn\u00e1", "natural": "peak"}}, {"type": "node", "id": 268780483, "lat": 48.5599656, "lon": 14.2673895, "tags": {"ele": "1125", "name": "Sternstein", "natural": "peak", "source:ele": "Laserscan Gel\u00e4ndemodell auf https://www.doris.at/ und Schild an der Aussichtswarte", "wikidata": "Q2345976", "wikimedia_commons": "Category:Sternstein", "wikipedia": "de:Sternstein"}}, {"type": "node", "id": 268780631, "lat": 48.5715767, "lon": 14.2244839, "tags": {"ele": "959", "name": "Langsteiner Berg", "natural": "peak"}}, {"type": "node", "id": 268780957, "lat": 48.5635515, "lon": 14.3755192, "tags": {"ele": "755", "name": "Buchberg", "natural": "peak"}}, {"type": "node", "id": 268780958, "lat": 48.5586104, "lon": 14.329016, "tags": {"ele": "808", "name": "Radvanovsk\u00fd vrch", "name:de": "Schillerberg", "natural": "peak"}}, {"type": "node", "id": 331455068, "lat": 48.572805, "lon": 14.263466, "tags": {"ele": "920", "name": "Hirschberg", "natural": "peak", "source": "http://www.basemap.at"}}, {"type": "node", "id": 354419163, "lat": 48.6310718, "lon": 14.2783876}, {"type": "node", "id": 354419164, "lat": 48.6312261, "lon": 14.2781469}, {"type": "node", "id": 354419165, "lat": 48.6312351, "lon": 14.2778945}, {"type": "node", "id": 354419166, "lat": 48.6311696, "lon": 14.2776207}, {"type": "node", "id": 354419167, "lat": 48.6306794, "lon": 14.2771302}, {"type": "node", "id": 354419168, "lat": 48.6303612, "lon": 14.2779166}, {"type": "node", "id": 354420639, "lat": 48.6309659, "lon": 14.2782599, "tags": {"tourism": "viewpoint"}}, {"type": "node", "id": 373527175, "lat": 48.7004985, "lon": 14.3889141, "tags": {"ele": "652", "hiking": "yes", "information": "guidepost", "name": "Ro\u017emit\u00e1l na \u0160umav\u011b", "operator": "cz:K\u010cT", "ref": "CK040", "source": "survey", "tourism": "information"}}, {"type": "node", "id": 378430858, "lat": 48.7517623, "lon": 14.3820576, "tags": {"ele": "789", "hiking": "yes", "information": "guidepost", "name": "Silni\u010dn\u00ed domky", "name:cs": "Silni\u010dn\u00ed domky", "place": "locality", "ref": "CK037", "source": "survey", "tourism": "information"}}, {"type": "node", "id": 379843998, "lat": 48.7301194, "lon": 14.3173688, "tags": {"ele": "594", "hiking": "yes", "information": "guidepost", "name": "Slubice", "operator": "cz:K\u010cT", "ref": "CK214", "tourism": "information"}}, {"type": "node", "id": 416326300, "lat": 48.6324623, "lon": 14.2632315, "tags": {"ele": "933", "name": "Lu\u010d", "name:de": "Kienberg", "natural": "peak", "wikidata": "Q30635886", "wikipedia": "cs:Lu\u010d (\u0160umava)"}}, {"type": "node", "id": 444639557, "lat": 48.6067279, "lon": 14.2850307, "tags": {"ele": "695", "hiking": "yes", "information": "guidepost", "name": "Pod Mart\u00ednkovsk\u00fdm vrchem", "operator": "cz:K\u010cT", "ref": "CK093", "tourism": "information"}}, {"type": "node", "id": 444639579, "lat": 48.6017161, "lon": 14.2838504, "tags": {"ele": "730", "hiking": "yes", "information": "guidepost", "name": "Mnichovice", "ref": "CK255", "tourism": "information"}}, {"type": "node", "id": 444639700, "lat": 48.5872441, "lon": 14.274766, "tags": {"ele": "776", "hiking": "yes", "information": "guidepost", "name": "Bombardi\u0161t\u011b (rozc.)", "ref": "CK421", "tourism": "information"}}, {"type": "node", "id": 444639701, "lat": 48.5750075, "lon": 14.2779675, "tags": {"ele": "819", "hiking": "yes", "information": "guidepost", "name": "Hrani\u010dn\u00ed potok (CZ/A)", "ref": "CK422", "tourism": "information"}}, {"type": "node", "id": 469112560, "lat": 48.6560781, "lon": 14.3651676}, {"type": "node", "id": 536296275, "lat": 48.655683, "lon": 14.3645019}, {"type": "node", "id": 536296276, "lat": 48.6555865, "lon": 14.3646818}, {"type": "node", "id": 536296277, "lat": 48.6556132, "lon": 14.3647477}, {"type": "node", "id": 536296278, "lat": 48.6556008, "lon": 14.3648376}, {"type": "node", "id": 536296280, "lat": 48.65566, "lon": 14.3649432}, {"type": "node", "id": 536296283, "lat": 48.656039, "lon": 14.3649719}, {"type": "node", "id": 536296284, "lat": 48.655743, "lon": 14.3648666}, {"type": "node", "id": 536296285, "lat": 48.6558637, "lon": 14.365137}, {"type": "node", "id": 536296286, "lat": 48.6559323, "lon": 14.3651781}, {"type": "node", "id": 536296288, "lat": 48.6560636, "lon": 14.3650394}, {"type": "node", "id": 536296290, "lat": 48.6559786, "lon": 14.3648954}, {"type": "node", "id": 536296292, "lat": 48.6557555, "lon": 14.3648467}, {"type": "node", "id": 536296293, "lat": 48.6557459, "lon": 14.3648714}, {"type": "node", "id": 536296294, "lat": 48.6558816, "lon": 14.3650013}, {"type": "node", "id": 536296295, "lat": 48.6559043, "lon": 14.3650227}, {"type": "node", "id": 536296296, "lat": 48.6559591, "lon": 14.3651854}, {"type": "node", "id": 536296297, "lat": 48.6561198, "lon": 14.3650747}, {"type": "node", "id": 536296298, "lat": 48.656056, "lon": 14.364908}, {"type": "node", "id": 566572112, "lat": 48.6209026, "lon": 14.3801067, "tags": {"information": "board", "name": "Bod z\u00e1chrany CK 040", "name:en": "Rescue point CK 040", "tourism": "information"}}, {"type": "node", "id": 573252234, "lat": 48.5792539, "lon": 14.2144665, "tags": {"ele": "1026", "name": "Hirschenstein", "natural": "peak"}}, {"type": "node", "id": 953766642, "lat": 48.62003, "lon": 14.3048388}, {"type": "node", "id": 1131097445, "lat": 48.620934, "lon": 14.307875}, {"type": "node", "id": 1131097459, "lat": 48.620894, "lon": 14.308124}, {"type": "node", "id": 1131097468, "lat": 48.6199957, "lon": 14.304853}, {"type": "node", "id": 1131097471, "lat": 48.6197791, "lon": 14.306451}, {"type": "node", "id": 1131097557, "lat": 48.620929, "lon": 14.30787}, {"type": "node", "id": 1131097606, "lat": 48.620376, "lon": 14.304739}, {"type": "node", "id": 1131097607, "lat": 48.620921, "lon": 14.307965}, {"type": "node", "id": 1131097611, "lat": 48.620899, "lon": 14.30813}, {"type": "node", "id": 1131097627, "lat": 48.6197808, "lon": 14.3063364}, {"type": "node", "id": 1131097633, "lat": 48.6218929, "lon": 14.3057122}, {"type": "node", "id": 1131097635, "lat": 48.6201168, "lon": 14.3048264}, {"type": "node", "id": 1131097650, "lat": 48.6217475, "lon": 14.3068312}, {"type": "node", "id": 1131097734, "lat": 48.6206672, "lon": 14.3046992}, {"type": "node", "id": 1131097751, "lat": 48.620435, "lon": 14.30472}, {"type": "node", "id": 1131097752, "lat": 48.620913, "lon": 14.307986}, {"type": "node", "id": 1131097765, "lat": 48.620885, "lon": 14.308234}, {"type": "node", "id": 1131097771, "lat": 48.6219791, "lon": 14.3059693}, {"type": "node", "id": 1131097834, "lat": 48.6197989, "lon": 14.3048929}, {"type": "node", "id": 1131097902, "lat": 48.6205763, "lon": 14.3047089}, {"type": "node", "id": 1131097903, "lat": 48.6214077, "lon": 14.3048445}, {"type": "node", "id": 1131097914, "lat": 48.620796, "lon": 14.308203}, {"type": "node", "id": 1131097936, "lat": 48.6218899, "lon": 14.3067173}, {"type": "node", "id": 1131097950, "lat": 48.6218494, "lon": 14.3066023}, {"type": "node", "id": 1131097984, "lat": 48.6199022, "lon": 14.3048244}, {"type": "node", "id": 1131098021, "lat": 48.6209306, "lon": 14.307835}, {"type": "node", "id": 1131098175, "lat": 48.6210203, "lon": 14.3047356}, {"type": "node", "id": 1131098201, "lat": 48.6219561, "lon": 14.3065225}, {"type": "node", "id": 1131098205, "lat": 48.6196897, "lon": 14.3063171}, {"type": "node", "id": 1131098297, "lat": 48.621097, "lon": 14.3047582}, {"type": "node", "id": 1131098351, "lat": 48.6214939, "lon": 14.3071213}, {"type": "node", "id": 1131098356, "lat": 48.6217693, "lon": 14.3069038}, {"type": "node", "id": 1131098372, "lat": 48.620809, "lon": 14.304678}, {"type": "node", "id": 1277673075, "lat": 48.6886952, "lon": 14.3292523, "tags": {"ele": "642", "hiking": "yes", "information": "guidepost", "name": "B\u011ble\u0148", "tourism": "information"}}, {"type": "node", "id": 1277673085, "lat": 48.6571968, "lon": 14.3687239, "tags": {"ele": "569", "hiking": "yes", "information": "guidepost", "name": "Ro\u017emberk nad Vlt. (viadukt)", "operator": "cz:K\u010cT", "ref": "CK134", "source": "survey", "tourism": "information"}}, {"type": "node", "id": 1277673104, "lat": 48.6600179, "lon": 14.3435188, "tags": {"ele": "649", "hiking": "yes", "information": "guidepost", "name": "P\u0159\u00edze\u0159", "operator": "cz:K\u010cT", "source": "survey", "tourism": "information"}}, {"type": "node", "id": 1286208120, "lat": 48.6716303, "lon": 14.387727, "tags": {"ele": "809", "hiking": "yes", "information": "guidepost", "name": "Pod Rozhledem", "operator": "cz:K\u010cT", "ref": "1232/21", "tourism": "information"}}, {"type": "node", "id": 1399661849, "lat": 48.5806547, "lon": 14.2311917, "tags": {"amenity": "place_of_worship", "denomination": "catholic", "historic": "wayside_shrine", "name": "Rotes Marterl", "religion": "christian", "tourism": "attraction"}}, {"type": "node", "id": 1402053463, "lat": 48.6434724, "lon": 14.2227199, "tags": {"information": "office", "name": "Rezeption + Info", "opening_hours": "Mo-Su 08:00-17:00", "tourism": "information"}}, {"type": "node", "id": 1422407262, "lat": 48.625237, "lon": 14.3174295, "tags": {"ele": "615", "hiking": "yes", "information": "guidepost", "name": "Hrudkov (l\u00e9\u010debna)", "ref": "CK292", "tourism": "information"}}, {"type": "node", "id": 1422407278, "lat": 48.6353037, "lon": 14.3246963, "tags": {"ele": "700", "hiking": "yes", "information": "guidepost", "name": "Krav\u00ed hora (rozc.)", "operator": "cz:K\u010cT", "ref": "0133/28", "tourism": "information"}}, {"type": "node", "id": 1422407300, "lat": 48.6407087, "lon": 14.313631, "tags": {"ele": "701", "hiking": "yes", "information": "guidepost", "name": "Lachovice", "operator": "cz:K\u010cT", "ref": "0133/27", "tourism": "information"}}, {"type": "node", "id": 1425068801, "lat": 48.7142427, "lon": 14.3444195, "tags": {"ele": "508", "hiking": "yes", "information": "guidepost", "name": "Brann\u00e1", "ref": "CK129", "tourism": "information"}}, {"type": "node", "id": 1425068802, "lat": 48.6342494, "lon": 14.3201507, "tags": {"ele": "796", "hiking": "yes", "information": "guidepost", "name": "Krav\u00ed hora - vrchol", "operator": "cz:K\u010cT", "ref": "0133/28", "tourism": "information"}}, {"type": "node", "id": 1425068805, "lat": 48.7421538, "lon": 14.3378396, "tags": {"ele": "610", "hiking": "yes", "information": "guidepost", "name": "V\u0161em\u011bry", "ref": "CK127", "tourism": "information"}}, {"type": "node", "id": 1461534101, "lat": 48.6308366, "lon": 14.2807894, "tags": {"bicycle": "yes", "hiking": "yes", "information": "map", "map_size": "region", "map_type": "topo", "mtb": "yes", "name": "Lipensko - \u010certova st\u011bna", "tourism": "information"}}, {"type": "node", "id": 1461534118, "lat": 48.631064, "lon": 14.2808935, "tags": {"ele": "683", "hiking": "yes", "information": "guidepost", "name": "\u010certova st\u011bna", "operator": "cz:K\u010cT", "ref": "CK141;0133/33", "tourism": "information"}}, {"type": "node", "id": 1461562964, "lat": 48.6239142, "lon": 14.2454846, "tags": {"ele": "695", "hiking": "yes", "information": "guidepost", "name": "Lesn\u00ed Kr\u010dma", "operator": "cz:K\u010cT", "ref": "CK090", "tourism": "information"}}, {"type": "node", "id": 1461575762, "lat": 48.6406533, "lon": 14.2238443, "tags": {"bicycle": "yes", "hiking": "yes", "information": "map", "map_size": "region", "map_type": "topo", "mtb": "yes", "name": "Touristick\u00e9 c\u00edle regionu Lipensko - B\u00f6hmerwald", "ski": "yes", "tourism": "information"}}, {"type": "node", "id": 1461736741, "lat": 48.6141508, "lon": 14.3115763, "tags": {"ele": "681", "hiking": "yes", "information": "guidepost", "name": "Vy\u0161\u0161\u00ed Brod (n\u00e1m\u011bst\u00ed)", "official_name": "Vy\u0161\u0161\u00ed Brod (n\u00e1m.)", "operator": "cz:K\u010cT", "ref": "CK273", "tourism": "information"}}, {"type": "node", "id": 1464381649, "lat": 48.6337355, "lon": 14.2377906, "tags": {"ele": "731", "hiking": "yes", "information": "guidepost", "name": "Lipno nad Vltavou (hr\u00e1z)", "operator": "cz:K\u010cT", "ref": "CK067;1271/7", "source": "survey", "tourism": "information"}}, {"type": "node", "id": 1464381655, "lat": 48.6358859, "lon": 14.2319242, "tags": {"ele": "795", "tourism": "viewpoint"}}, {"type": "node", "id": 1570628547, "lat": 48.7509511, "lon": 14.323461}, {"type": "node", "id": 1647202730, "lat": 48.6546991, "lon": 14.2269211, "tags": {"amenity": "shelter", "shelter_type": "picnic_shelter", "source": "survey"}}, {"type": "node", "id": 1691251281, "lat": 48.7508788, "lon": 14.3838916, "tags": {"information": "map", "tourism": "information"}}, {"type": "node", "id": 1839615001, "lat": 48.6526726, "lon": 14.2306532, "tags": {"ele": "941", "height": "40.2 m", "man_made": "tower", "name": "Stezka korunami strom\u016f Lipno", "tourism": "viewpoint", "tower:type": "observation", "website": "https://www.stezkakorunamistromu.cz/", "wheelchair": "yes"}}, {"type": "node", "id": 1872520083, "lat": 48.6136907, "lon": 14.2724883, "tags": {"ele": "850", "hiking": "yes", "information": "guidepost", "name": "Pod Vyklestilkou", "operator": "cz:K\u010cT", "ref": "CK427", "tourism": "information"}}, {"type": "node", "id": 2311048780, "lat": 48.6608815, "lon": 14.2238401, "tags": {"ele": "850", "information": "guidepost", "name": "U Odpo\u010d\u00edvadla", "ref": "CK010", "ski": "yes", "tourism": "information"}}, {"type": "node", "id": 2311048790, "lat": 48.660874, "lon": 14.223796, "tags": {"amenity": "shelter", "shelter_type": "picnic_shelter", "source": "survery"}}, {"type": "node", "id": 2317480126, "lat": 48.6203901, "lon": 14.2534172, "tags": {"hiking": "yes", "information": "guidepost", "name": "Lou\u010dovice (s\u00eddli\u0161t\u011b)", "operator": "cz:K\u010cT", "ref": "CK272", "tourism": "information"}}, {"type": "node", "id": 2317480127, "lat": 48.6325609, "lon": 14.2632675, "tags": {"ele": "933", "hiking": "yes", "information": "guidepost", "name": "Lu\u010d", "operator": "cz:K\u010cT", "ref": "CK064", "tourism": "information"}}, {"type": "node", "id": 2317558850, "lat": 48.6156905, "lon": 14.2645103, "tags": {"ele": "735", "hiking": "yes", "information": "guidepost", "name": "Lou\u010dovice (pod kapli\u010dkou)", "operator": "cz:K\u010cT", "ref": "CK351", "tourism": "information"}}, {"type": "node", "id": 2317558851, "lat": 48.6204882, "lon": 14.2566819, "tags": {"ele": "678", "hiking": "yes", "information": "guidepost", "name": "Lou\u010dovice (vlak)", "official_name": "Lou\u010dovice (\u017dST)", "operator": "cz:K\u010cT", "ref": "CK063", "source": "survey", "tourism": "information"}}, {"type": "node", "id": 2317558852, "lat": 48.6113881, "lon": 14.2728473, "tags": {"ele": "881", "hiking": "yes", "information": "guidepost", "name": "Vyklestilka", "old_ref": "0133/38; 6373/6,5", "operator": "cz:K\u010cT", "ref": "CK142", "tourism": "information"}}, {"type": "node", "id": 2317744837, "lat": 48.6081608, "lon": 14.2947933, "tags": {"ele": "761", "hiking": "yes", "information": "guidepost", "name": "Spo\u010dinut\u00ed panny Marie", "operator": "cz:K\u010cT", "ref": "CK282", "tourism": "information"}}, {"type": "node", "id": 2317744873, "lat": 48.6233819, "lon": 14.3089432, "tags": {"ele": "561", "hiking": "yes", "information": "guidepost", "name": "Vy\u0161\u0161\u00ed Brod - kl\u00e1\u0161ter (\u017est)", "operator": "cz:K\u010cT", "ref": "CK140;0133/30,5;3333/19,5", "tourism": "information"}}, {"type": "node", "id": 2317744974, "lat": 48.6083814, "lon": 14.2947211, "tags": {"direction": "43", "tourism": "viewpoint"}}, {"type": "node", "id": 2320457224, "lat": 48.6300899, "lon": 14.2597039, "tags": {"source": "survey", "tourism": "viewpoint"}}, {"type": "node", "id": 2349315083, "lat": 48.6032235, "lon": 14.2101839, "tags": {"ele": "912", "hiking": "yes", "information": "guidepost", "name": "U P\u0159ekopan\u00e9 hr\u00e1ze", "operator": "cz:K\u010cT", "ref": "CK145", "source": "survey", "tourism": "information"}}, {"type": "node", "id": 2349334649, "lat": 48.6119736, "lon": 14.2749092, "tags": {"ele": "899", "name": "Vyklestilka", "natural": "peak", "summit:register": "no"}}, {"type": "node", "id": 2356375892, "lat": 48.6390496, "lon": 14.2301935, "tags": {"ele": "765", "hiking": "yes", "information": "guidepost", "name": "Lipno nad Vltavou", "operator": "cz:K\u010cT", "ref": "1271/6;3333/19;6372/21;CK066", "tourism": "information"}}, {"type": "node", "id": 2356375898, "lat": 48.6394194, "lon": 14.2465132, "tags": {"ele": "786", "hiking": "yes", "information": "guidepost", "name": "Pod Lu\u010d\u00ed", "operator": "cz:K\u010cT", "ref": "CK065", "source": "survey", "tourism": "information"}}, {"type": "node", "id": 2356375905, "lat": 48.6230609, "lon": 14.275711, "tags": {"ele": "711", "hiking": "yes", "information": "guidepost", "name": "Pod Po\u0161l\u00e1kem (rozcest\u00ed)", "official_name": "Pod Po\u0161l\u00e1kem (rozc.)", "operator": "cz:K\u010cT", "ref": "CK424", "source": "survey", "tourism": "information"}}, {"type": "node", "id": 2356375911, "lat": 48.624533, "lon": 14.2814609, "tags": {"ele": "685", "hiking": "yes", "information": "guidepost", "name": "Pod Po\u0161l\u00e1kem", "operator": "cz:K\u010cT", "ref": "CK352", "source": "survey", "tourism": "information"}}, {"type": "node", "id": 2356376047, "lat": 48.6231141, "lon": 14.2759068, "tags": {"information": "board", "name": "Opatsk\u00e1 stezka II - tabule \u010d. 4", "ref": "4", "source": "survey", "tourism": "information"}}, {"type": "node", "id": 2356376070, "lat": 48.6239489, "lon": 14.2906933, "tags": {"information": "board", "name": "Opatsk\u00e1 stezka II - tabule \u010d. 2", "ref": "2", "source": "survey", "tourism": "information"}}, {"type": "node", "id": 2356376087, "lat": 48.6245164, "lon": 14.284077, "tags": {"amenity": "shelter", "fireplace": "no", "shelter_type": "picnic_shelter", "source": "survey"}}, {"type": "node", "id": 2356376187, "lat": 48.6582752, "lon": 14.2177217, "tags": {"amenity": "shelter", "fireplace": "no", "shelter_type": "picnic_shelter", "source": "survery"}}, {"type": "node", "id": 2460371055, "lat": 48.6278634, "lon": 14.2323562, "tags": {"name": "\u010certovo kopyto", "tourism": "attraction"}}, {"type": "node", "id": 2463407799, "lat": 48.6333812, "lon": 14.2413841, "tags": {"ele": "678", "hiking": "yes", "information": "guidepost", "name": "Lipno nad Vltavou (\u017est)", "ref": "3333/8,5", "source": "survey", "tourism": "information"}}, {"type": "node", "id": 2463407800, "lat": 48.6192152, "lon": 14.2257057, "tags": {"ele": "943", "information": "guidepost", "name": "Medv\u011bd\u00ed hora", "name:cs": "Medv\u011bd\u00ed hora", "name:de": "B\u00e4renberg", "natural": "peak", "wikidata": "Q12036318", "wikipedia": "cs:Medv\u011bd\u00ed hora"}}, {"type": "node", "id": 2463407801, "lat": 48.6212722, "lon": 14.2237775, "tags": {"board_type": "nature", "information": "board", "name": "Medv\u011bd\u00ed hora", "tourism": "information"}}, {"type": "node", "id": 2463407802, "lat": 48.6434323, "lon": 14.2745968, "tags": {"ele": "584", "hiking": "yes", "information": "guidepost", "name": "Pod \u010certovou st\u011bnou (rozcest\u00ed)", "operator": "cz:K\u010cT", "ref": "CK062", "source": "survey", "tourism": "information"}}, {"type": "node", "id": 2463407803, "lat": 48.6267954, "lon": 14.2400413, "tags": {"description": "skaln\u00ed \u00fatvar - na za\u010d\u00e1tku minul\u00e9ho stolet\u00ed \u00fakryt poustevn\u00edka", "ele": "761", "hiking": "yes", "information": "guidepost", "name": "Poustevna", "ref": "CK312", "source": "survey", "tourism": "information"}}, {"type": "node", "id": 2463407804, "lat": 48.6292619, "lon": 14.2372932, "tags": {"board_type": "history", "check_date": "2022-08-01", "information": "board", "name": "Poustevna", "source": "survey", "tourism": "information"}}, {"type": "node", "id": 2463407805, "lat": 48.6215291, "lon": 14.2234439, "tags": {"ele": "889", "hiking": "yes", "information": "guidepost", "name": "U Medv\u011bd\u00ed st\u011bny", "ref": "CK069", "source": "survey", "tourism": "information"}}, {"type": "node", "id": 2463407806, "lat": 48.6292671, "lon": 14.2372683, "tags": {"ele": "758", "hiking": "yes", "information": "guidepost", "name": "U Poustevny", "ref": "CK311", "source": "survey", "tourism": "information"}}, {"type": "node", "id": 2463407848, "lat": 48.6191786, "lon": 14.2255825, "tags": {"source": "survey", "tourism": "viewpoint"}}, {"type": "node", "id": 2463407868, "lat": 48.6206185, "lon": 14.2236229, "tags": {"hiking": "yes", "information": "guidepost", "operator": "cz:K\u010cT", "ref": "CK069", "source": "survey", "tourism": "information"}}, {"type": "node", "id": 2463407874, "lat": 48.6212588, "lon": 14.2237719, "tags": {"amenity": "shelter", "name": "U Medv\u011bd\u00ed st\u011bny", "shelter_type": "picnic_shelter", "source": "survey"}}, {"type": "node", "id": 2463407879, "lat": 48.6213749, "lon": 14.2215777, "tags": {"hiking": "yes", "information": "guidepost", "operator": "cz:K\u010cT", "ref": "CK073", "source": "survey", "tourism": "information"}}, {"type": "node", "id": 2463407908, "lat": 48.6439699, "lon": 14.2867453, "tags": {"ele": "576", "hiking": "yes", "information": "guidepost", "name": "\u010certova st\u011bna (\u017est)", "operator": "cz:K\u010cT", "ref": "CK092", "source": "gps", "tourism": "information"}}, {"type": "node", "id": 2463407909, "lat": 48.6278988, "lon": 14.2322494, "tags": {"ele": "782", "hiking": "yes", "information": "guidepost", "name": "\u010certovo kopyto", "ref": "CK074", "source": "survey", "tourism": "information"}}, {"type": "node", "id": 2463415598, "lat": 48.630837, "lon": 14.280747, "tags": {"board_type": "nature", "information": "board", "name": "Pstruhov\u00fd rev\u00edr Vltava 29 P", "tourism": "information"}}, {"type": "node", "id": 2463415601, "lat": 48.630889, "lon": 14.2791464, "tags": {"board_type": "nature", "information": "board", "name": "N\u00e1rodn\u00ed p\u0159\u00edrodn\u00ed rezervace \u010certova st\u011bna - Lu\u010d", "tourism": "information"}}, {"type": "node", "id": 2463415603, "lat": 48.6309302, "lon": 14.2781861, "tags": {"ele": "683", "hiking": "yes", "information": "guidepost", "name": "\u010certova st\u011bna", "operator": "cz:K\u010cT", "ref": "CK141", "tourism": "information"}}, {"type": "node", "id": 2615333779, "lat": 48.5670778, "lon": 14.2843912, "tags": {"name": "Affetschl\u00e4ger Berg", "natural": "peak"}}, {"type": "node", "id": 2615333784, "lat": 48.5625199, "lon": 14.2894325, "tags": {"name": "Pilzstein", "natural": "stone", "source": "http://www.basemap.at", "tourism": "attraction"}}, {"type": "node", "id": 2929661045, "lat": 48.6403314, "lon": 14.3167742, "tags": {"information": "route_marker", "tourism": "information"}}, {"type": "node", "id": 2929661062, "lat": 48.6405959, "lon": 14.3166142, "tags": {"information": "route_marker", "tourism": "information"}}, {"type": "node", "id": 2946431524, "lat": 48.6583849, "lon": 14.2168257, "tags": {"ele": "986", "hiking": "yes", "information": "guidepost", "name": "Alpsk\u00e1 vyhl\u00eddka", "operator": "cz:K\u010cT", "ref": "CK082", "tourism": "information"}}, {"type": "node", "id": 3047983289, "lat": 48.5519315, "lon": 14.3307363, "tags": {"name": "Schwedenschanze", "tourism": "attraction", "wheelchair": "no"}}, {"type": "node", "id": 3113255912, "lat": 48.5808412, "lon": 14.3575438, "tags": {"ele": "586", "hiking": "yes", "information": "guidepost", "name": "Ml\u00fdnec (rozc.)", "operator": "cz:K\u010cT", "ref": "1205/5,5;CK286", "source": "survery", "tourism": "information"}}, {"type": "node", "id": 3113255913, "lat": 48.5689075, "lon": 14.345093, "tags": {"ele": "652", "hiking": "yes", "information": "guidepost", "name": "Radvanov (odb.)", "operator": "cz:K\u010cT", "ref": "1250/3,5;CK285", "source": "survery", "tourism": "information"}}, {"type": "node", "id": 3113255914, "lat": 48.5941717, "lon": 14.333366, "tags": {"ele": "631", "foot": "yes", "hiking": "yes", "information": "guidepost", "name": "Stud\u00e1neck\u00fd rybn\u00edk", "operator": "cz:K\u010cT", "ref": "6314/2,5", "source": "survery", "tourism": "information"}}, {"type": "node", "id": 3113255916, "lat": 48.5927249, "lon": 14.3862665, "tags": {"ele": "576", "hiking": "yes", "information": "guidepost", "name": "Vltavice v\u011bt\u0161\u00ed", "operator": "cz:K\u010cT", "ref": "1250/9", "source": "survery", "tourism": "information"}}, {"type": "node", "id": 3243653938, "lat": 48.6089622, "lon": 14.2878009, "tags": {"board_type": "history", "information": "board", "name": "Lineck\u00e1 stezka - Maria Rast am Stein", "source": "survey", "tourism": "information"}}, {"type": "node", "id": 3243653939, "lat": 48.6089932, "lon": 14.2878503, "tags": {"amenity": "shelter", "shelter_type": "picnic_shelter", "source": "survey"}}, {"type": "node", "id": 3282887173, "lat": 48.6211753, "lon": 14.3075496}, {"type": "node", "id": 3323060263, "lat": 48.5598536, "lon": 14.2674133}, {"type": "node", "id": 3323060270, "lat": 48.559871, "lon": 14.2674524}, {"type": "node", "id": 3323060271, "lat": 48.5598761, "lon": 14.2673806}, {"type": "node", "id": 3323060277, "lat": 48.5599013, "lon": 14.2674084}, {"type": "node", "id": 3338042025, "lat": 48.7289049, "lon": 14.3155559}, {"type": "node", "id": 3452082820, "lat": 48.6073418, "lon": 14.2656192, "tags": {"ele": "892", "name": "Brod", "natural": "peak", "source": "\u010c\u00daZK"}}, {"type": "node", "id": 3452082821, "lat": 48.5712129, "lon": 14.3765233, "tags": {"ele": "719", "name": "Poledn\u00ed vrch", "natural": "peak"}}, {"type": "node", "id": 3452082822, "lat": 48.587808, "lon": 14.373841, "tags": {"ele": "657", "name": "Pahorek", "natural": "peak"}}, {"type": "node", "id": 3452082823, "lat": 48.5920446, "lon": 14.3531129, "tags": {"ele": "674", "name": "Doln\u00ed les", "natural": "peak"}}, {"type": "node", "id": 3452082824, "lat": 48.6042203, "lon": 14.3460212, "tags": {"ele": "755", "name": "Herbertovsk\u00fd vrch", "natural": "peak"}}, {"type": "node", "id": 3452082825, "lat": 48.6123003, "lon": 14.3201325, "tags": {"ele": "627", "name": "Nad H\u0159i\u0161t\u011bm", "natural": "peak"}}, {"type": "node", "id": 3452082826, "lat": 48.6084059, "lon": 14.3190274, "tags": {"ele": "625", "name": "Bu\u010dina", "natural": "peak"}}, {"type": "node", "id": 3452082827, "lat": 48.6149744, "lon": 14.3702254, "tags": {"ele": "710", "name": "\u010cern\u00fd les", "natural": "peak"}}, {"type": "node", "id": 3452082828, "lat": 48.6120733, "lon": 14.3963823, "tags": {"ele": "649", "name": "Dvo\u0159i\u0161\u0165sk\u00fd kopec", "natural": "peak"}}, {"type": "node", "id": 3576844953, "lat": 48.5719687, "lon": 14.2432704, "tags": {"hiking": "yes", "information": "guidepost", "tourism": "information"}}, {"type": "node", "id": 3576844954, "lat": 48.5722179, "lon": 14.2458229, "tags": {"hiking": "yes", "information": "guidepost", "tourism": "information"}}, {"type": "node", "id": 3576844955, "lat": 48.5724996, "lon": 14.2529682, "tags": {"hiking": "yes", "information": "guidepost", "tourism": "information"}}, {"type": "node", "id": 3576844956, "lat": 48.5725644, "lon": 14.2448243, "tags": {"hiking": "yes", "information": "guidepost", "tourism": "information"}}, {"type": "node", "id": 3576844957, "lat": 48.5727679, "lon": 14.2451656, "tags": {"hiking": "yes", "information": "guidepost", "tourism": "information"}}, {"type": "node", "id": 3638764070, "lat": 48.5528394, "lon": 14.3744138, "tags": {"ele": "765", "name": "Steinbauerberg", "natural": "peak", "source": "basemap.at"}}, {"type": "node", "id": 3714887246, "lat": 48.6549669, "lon": 14.3670233, "tags": {"ele": "548", "hiking": "yes", "information": "guidepost", "name": "Ro\u017emberk n.Vlt. (n\u00e1m., bus)", "operator": "cz:K\u010cT", "ref": "CK136", "tourism": "information"}}, {"type": "node", "id": 3715834655, "lat": 48.6566673, "lon": 14.3653759, "tags": {"ele": "565", "hiking": "yes", "information": "guidepost", "name": "Ro\u017emberk n. Vlt. (z\u00e1m.)", "operator": "cz:K\u010cT", "ref": "0133/21;CK135", "source": "http://www.mapillary.com", "tourism": "information"}}, {"type": "node", "id": 3777792574, "lat": 48.6411897, "lon": 14.223646, "tags": {"addr:city": "Lipno nad Vltavou", "addr:conscriptionnumber": "118", "addr:country": "CZ", "addr:housenumber": "118", "addr:place": "Slupe\u010dn\u00e1", "addr:postcode": "38278", "disused": "yes", "information": "office", "internet_access": "wlan", "internet_access:fee": "no", "name": "Turistick\u00e9 centrum Lipenska", "phone": "+420 724 901 901", "source:addr": "cuzk:ruian", "tourism": "information", "website": "http://www.lipensko.com/"}}, {"type": "node", "id": 3822551661, "lat": 48.6197554, "lon": 14.3067742}, {"type": "node", "id": 3822551663, "lat": 48.6197722, "lon": 14.306779}, {"type": "node", "id": 3822551664, "lat": 48.6198006, "lon": 14.3071446}, {"type": "node", "id": 3822551666, "lat": 48.6198164, "lon": 14.3070843}, {"type": "node", "id": 3822551673, "lat": 48.6201836, "lon": 14.3074536}, {"type": "node", "id": 3822551674, "lat": 48.6201985, "lon": 14.3073975}, {"type": "node", "id": 3822551676, "lat": 48.6203747, "lon": 14.3080358}, {"type": "node", "id": 3822551704, "lat": 48.6212994, "lon": 14.3048538}, {"type": "node", "id": 3823378611, "lat": 48.6303579, "lon": 14.2775952}, {"type": "node", "id": 3823378612, "lat": 48.6304905, "lon": 14.277331}, {"type": "node", "id": 3823378613, "lat": 48.6308728, "lon": 14.2773076}, {"type": "node", "id": 3824422868, "lat": 48.6197654, "lon": 14.3049119}, {"type": "node", "id": 3824422874, "lat": 48.6215097, "lon": 14.3071643}, {"type": "node", "id": 3924145745, "lat": 48.7422756, "lon": 14.4003442, "tags": {"check_date": "2025-11-11", "information": "map", "map_type": "topo", "name": "Polu\u0161ka", "tourism": "information"}}, {"type": "node", "id": 3924145746, "lat": 48.7267666, "lon": 14.3380841, "tags": {"ele": "533", "hiking": "yes", "information": "guidepost", "name": "Z\u00e1to\u0148", "operator": "cz:K\u010cT", "ref": "CK128", "tourism": "information"}}, {"type": "node", "id": 3948196431, "lat": 48.5518262, "lon": 14.3332266, "tags": {"ele": "703", "hiking": "yes", "information": "guidepost", "name": "Nejji\u017en\u011bj\u0161\u00ed bod \u010cR", "operator": "cz:K\u010cT", "ref": "CK353", "tourism": "information"}}, {"type": "node", "id": 3948196432, "lat": 48.5525256, "lon": 14.3313978, "tags": {"ele": "720", "hiking": "yes", "information": "guidepost", "name": "Radvanov CZ / A", "operator": "cz:K\u010cT", "ref": "CK350", "tourism": "information"}}, {"type": "node", "id": 3948218167, "lat": 48.6566148, "lon": 14.3872681, "tags": {"hiking": "yes", "information": "guidepost", "name": "Svitanov", "operator": "cz:K\u010cT", "ref": "CK150", "tourism": "information"}}, {"type": "node", "id": 3948311340, "lat": 48.6568574, "lon": 14.3423423, "tags": {"hiking": "yes", "information": "guidepost", "name": "P\u0159\u00edze\u0159", "operator": "cz:K\u010cT", "tourism": "information"}}, {"type": "node", "id": 3949439743, "lat": 48.6728195, "lon": 14.2868022, "tags": {"tourism": "viewpoint"}}, {"type": "node", "id": 3949441823, "lat": 48.6771681, "lon": 14.2878895, "tags": {"hiking": "yes", "information": "guidepost", "name": "Mal\u0161\u00edn", "note": "u zast\u00e1vky", "operator": "cz:K\u010cT", "tourism": "information"}}, {"type": "node", "id": 3949441990, "lat": 48.6769602, "lon": 14.2878041, "tags": {"hiking": "yes", "information": "map", "map_type": "topo", "tourism": "information"}}, {"type": "node", "id": 3949519217, "lat": 48.7426792, "lon": 14.3108642, "tags": {"hiking": "yes", "information": "guidepost", "name": "Ha\u0161lovice", "operator": "cz:K\u010cT", "ref": "CK464", "tourism": "information"}}, {"type": "node", "id": 4010444509, "lat": 48.6153059, "lon": 14.3120052, "tags": {"information": "map", "tourism": "information"}}, {"type": "node", "id": 4055293883, "lat": 48.6217012, "lon": 14.3052963, "tags": {"entrance": "main"}}, {"type": "node", "id": 4144037094, "lat": 48.6200566, "lon": 14.3048368}, {"type": "node", "id": 4173974998, "lat": 48.579833, "lon": 14.2393882}, {"type": "node", "id": 4173974999, "lat": 48.5798362, "lon": 14.2393366}, {"type": "node", "id": 4173975000, "lat": 48.5798782, "lon": 14.2393945}, {"type": "node", "id": 4173975001, "lat": 48.5798813, "lon": 14.2393429}, {"type": "node", "id": 4311925761, "lat": 48.6173475, "lon": 14.3109795, "tags": {"information": "map", "tourism": "information"}}, {"type": "node", "id": 4403143860, "lat": 48.6438578, "lon": 14.2354842, "tags": {"information": "board", "tourism": "information"}}, {"type": "node", "id": 4403143861, "lat": 48.6439376, "lon": 14.2354089, "tags": {"ele": "874", "hiking": "yes", "information": "guidepost", "name": "U Kramol\u00edna", "operator": "cz:K\u010cT", "ref": "CK236", "tourism": "information"}}, {"type": "node", "id": 4412947664, "lat": 48.6199273, "lon": 14.3079257, "tags": {"amenity": "shelter", "name": "alt\u00e1n"}}, {"type": "node", "id": 4585224195, "lat": 48.5810525, "lon": 14.2095507, "tags": {"hiking": "yes", "information": "guidepost", "name": "Windparkrunde", "operator": "TV Vorderwei\u00dfenbach", "ref": "43a", "tourism": "information"}}, {"type": "node", "id": 4616049332, "lat": 48.6212239, "lon": 14.3048237}, {"type": "node", "id": 4616049333, "lat": 48.6210668, "lon": 14.3047441}, {"type": "node", "id": 4677981445, "lat": 48.7151953, "lon": 14.3426661}, {"type": "node", "id": 4677981446, "lat": 48.7152746, "lon": 14.3426959}, {"type": "node", "id": 4688746147, "lat": 48.5608588, "lon": 14.3413396, "tags": {"ele": "690", "hiking": "yes", "information": "guidepost", "name": "Radvanov (b\u00fdv.osada)", "operator": "cz:K\u010cT", "ref": "CK349", "tourism": "information"}}, {"type": "node", "id": 4703836674, "lat": 48.590726, "lon": 14.3257441, "tags": {"ele": "731", "hiking": "yes", "information": "guidepost", "name": "Stud\u00e1nky", "operator": "cz:K\u010cT", "ref": "CK294", "tourism": "information"}}, {"type": "node", "id": 4745242372, "lat": 48.6558035, "lon": 14.3646591}, {"type": "node", "id": 4745242373, "lat": 48.6558188, "lon": 14.3649308}, {"type": "node", "id": 4745242374, "lat": 48.6557623, "lon": 14.3648713}, {"type": "node", "id": 4745242375, "lat": 48.6556972, "lon": 14.3647654}, {"type": "node", "id": 4745242376, "lat": 48.6557756, "lon": 14.364663}, {"type": "node", "id": 4745242377, "lat": 48.6557894, "lon": 14.3646816}, {"type": "node", "id": 4745242378, "lat": 48.6560107, "lon": 14.3648709}, {"type": "node", "id": 4745242379, "lat": 48.656016, "lon": 14.3648612}, {"type": "node", "id": 4745242380, "lat": 48.6560101, "lon": 14.364848}, {"type": "node", "id": 4745242381, "lat": 48.6560037, "lon": 14.3648566}, {"type": "node", "id": 4745242382, "lat": 48.6559877, "lon": 14.3648376}, {"type": "node", "id": 4745242383, "lat": 48.6559766, "lon": 14.3648552}, {"type": "node", "id": 4745242384, "lat": 48.6559611, "lon": 14.3648346}, {"type": "node", "id": 4745242385, "lat": 48.6559715, "lon": 14.3648172}, {"type": "node", "id": 4745242386, "lat": 48.6559537, "lon": 14.364792}, {"type": "node", "id": 4745242387, "lat": 48.6559414, "lon": 14.3648114}, {"type": "node", "id": 4745242388, "lat": 48.6559264, "lon": 14.3647918}, {"type": "node", "id": 4745242389, "lat": 48.6559384, "lon": 14.3647711}, {"type": "node", "id": 4745242390, "lat": 48.6559208, "lon": 14.3647473}, {"type": "node", "id": 4745242391, "lat": 48.6559087, "lon": 14.3647666}, {"type": "node", "id": 4745242392, "lat": 48.655894, "lon": 14.3647463}, {"type": "node", "id": 4745242393, "lat": 48.6559058, "lon": 14.3647249}, {"type": "node", "id": 4745242394, "lat": 48.6558867, "lon": 14.3646985}, {"type": "node", "id": 4745242395, "lat": 48.655874, "lon": 14.3647202}, {"type": "node", "id": 4745242396, "lat": 48.6558591, "lon": 14.3647022}, {"type": "node", "id": 4745242397, "lat": 48.6558708, "lon": 14.3646782}, {"type": "node", "id": 4745242398, "lat": 48.6558529, "lon": 14.3646526}, {"type": "node", "id": 4745242399, "lat": 48.6558418, "lon": 14.364671}, {"type": "node", "id": 4745242400, "lat": 48.655832, "lon": 14.3646559}, {"type": "node", "id": 4745242401, "lat": 48.6558373, "lon": 14.3646495}, {"type": "node", "id": 4745242402, "lat": 48.655832, "lon": 14.3646412}, {"type": "node", "id": 4745242403, "lat": 48.6558376, "lon": 14.3646314}, {"type": "node", "id": 4745242404, "lat": 48.65582, "lon": 14.3646085}, {"type": "node", "id": 4745242405, "lat": 48.6558232, "lon": 14.3646024}, {"type": "node", "id": 4745242406, "lat": 48.6558141, "lon": 14.3645909}, {"type": "node", "id": 4745242407, "lat": 48.655798, "lon": 14.364616}, {"type": "node", "id": 4745242408, "lat": 48.6557744, "lon": 14.3645885}, {"type": "node", "id": 4745242409, "lat": 48.6557264, "lon": 14.3645235}, {"type": "node", "id": 4745242410, "lat": 48.6557375, "lon": 14.3645031}, {"type": "node", "id": 4745242411, "lat": 48.6557128, "lon": 14.3644745}, {"type": "node", "id": 4745242412, "lat": 48.6556952, "lon": 14.3645239}, {"type": "node", "id": 4745242413, "lat": 48.6556892, "lon": 14.3645317}, {"type": "node", "id": 4745242414, "lat": 48.6556775, "lon": 14.3645259}, {"type": "node", "id": 4745242415, "lat": 48.6556681, "lon": 14.3645384}, {"type": "node", "id": 4745242416, "lat": 48.6556703, "lon": 14.3645574}, {"type": "node", "id": 4745242417, "lat": 48.6556279, "lon": 14.3646082}, {"type": "node", "id": 4745242418, "lat": 48.6556019, "lon": 14.3645655}, {"type": "node", "id": 4745242419, "lat": 48.6555687, "lon": 14.3646189}, {"type": "node", "id": 4745242420, "lat": 48.6555996, "lon": 14.3647054}, {"type": "node", "id": 4745242421, "lat": 48.6556189, "lon": 14.3647308}, {"type": "node", "id": 4745242422, "lat": 48.6560991, "lon": 14.3651115}, {"type": "node", "id": 4745242423, "lat": 48.6561084, "lon": 14.3650965}, {"type": "node", "id": 4745242424, "lat": 48.6561017, "lon": 14.3650616}, {"type": "node", "id": 4745242425, "lat": 48.6560929, "lon": 14.365078}, {"type": "node", "id": 4745242426, "lat": 48.6560915, "lon": 14.3650762}, {"type": "node", "id": 4745242427, "lat": 48.6560924, "lon": 14.365059}, {"type": "node", "id": 4745242428, "lat": 48.6560845, "lon": 14.3650482}, {"type": "node", "id": 4745242429, "lat": 48.656074, "lon": 14.3650516}, {"type": "node", "id": 4745242430, "lat": 48.6560764, "lon": 14.365018}, {"type": "node", "id": 4745242431, "lat": 48.6560534, "lon": 14.3649847}, {"type": "node", "id": 4745242432, "lat": 48.6560676, "lon": 14.3649292}, {"type": "node", "id": 4745242433, "lat": 48.6560461, "lon": 14.3649211}, {"type": "node", "id": 4745242434, "lat": 48.6560278, "lon": 14.3648907}, {"type": "node", "id": 4745242435, "lat": 48.6560255, "lon": 14.3648927}, {"type": "node", "id": 4785036932, "lat": 48.6146723, "lon": 14.3118096, "tags": {"addr:city": "Vy\u0161\u0161\u00ed Brod", "addr:conscriptionnumber": "104", "addr:country": "CZ", "addr:housenumber": "104", "addr:place": "Vy\u0161\u0161\u00ed Brod", "addr:postcode": "38273", "addr:street": "N\u00e1m\u011bst\u00ed", "information": "office", "internet_access": "yes", "name": "Turistick\u00e9 informa\u010dn\u00ed centrum Vy\u0161\u0161\u00ed Brod", "phone": "+420 380 746 627", "source:addr": "cuzk:ruian", "source:loc": "survey", "tourism": "information", "website": "http://www.mestovyssibrod.cz/"}}, {"type": "node", "id": 4837995255, "lat": 48.6498414, "lon": 14.2160404, "tags": {"ele": "801", "hiking": "yes", "information": "guidepost", "name": "Za Slupe\u010dnou", "operator": "cz:K\u010cT", "ref": "CK083", "tourism": "information"}}, {"type": "node", "id": 4837996121, "lat": 48.6561919, "lon": 14.2088574, "tags": {"ele": "993", "hiking": "yes", "information": "guidepost", "name": "Kali\u0161t\u011b", "operator": "cz:K\u010cT", "ref": "CK237", "tourism": "information"}}, {"type": "node", "id": 4837996127, "lat": 48.6518792, "lon": 14.2035896, "tags": {"ele": "862", "hiking": "yes", "information": "guidepost", "name": "Pl\u00edskov", "operator": "cz:K\u010cT", "ref": "CK087", "tourism": "information"}}, {"type": "node", "id": 4838135263, "lat": 48.6118455, "lon": 14.2747378, "tags": {"ele": "887", "hiking": "yes", "information": "guidepost", "name": "Vyklestilka vrchol", "operator": "cz:K\u010cT", "ref": "CK470", "tourism": "information"}}, {"type": "node", "id": 4838136569, "lat": 48.6043117, "lon": 14.2336947, "tags": {"ele": "866", "hiking": "yes", "information": "guidepost", "name": "Kr\u00e1sn\u00e9 pole", "operator": "cz:K\u010cT", "ref": "CK143", "tourism": "information"}}, {"type": "node", "id": 4838136584, "lat": 48.6289626, "lon": 14.2768675, "tags": {"ele": "643", "hiking": "yes", "information": "guidepost", "name": "Pod \u010certovou st\u011bnou", "operator": "cz:K\u010cT", "ref": "CK091", "tourism": "information"}}, {"type": "node", "id": 4936537627, "lat": 48.6567195, "lon": 14.3653633, "tags": {"bicycle": "yes", "hiking": "yes", "information": "map", "map_size": "region", "map_type": "topo", "name": "Ro\u017emberk nad Vltavou", "tourism": "information"}}, {"type": "node", "id": 5038251226, "lat": 48.552912, "lon": 14.2127419, "tags": {"hiking": "yes", "information": "guidepost", "tourism": "information"}}, {"type": "node", "id": 5038251227, "lat": 48.5536668, "lon": 14.2125639, "tags": {"hiking": "yes", "information": "guidepost", "tourism": "information"}}, {"type": "node", "id": 5316457215, "lat": 48.6224969, "lon": 14.3065508, "tags": {"information": "office", "tourism": "information"}}, {"type": "node", "id": 5316538979, "lat": 48.6211933, "lon": 14.3074413, "tags": {"information": "office", "tourism": "information"}}, {"type": "node", "id": 5316539005, "lat": 48.6206661, "lon": 14.3046961}, {"type": "node", "id": 5316539006, "lat": 48.6205757, "lon": 14.3047059}, {"type": "node", "id": 5316539014, "lat": 48.6197523, "lon": 14.3057127}, {"type": "node", "id": 5316539017, "lat": 48.6197292, "lon": 14.3059163}, {"type": "node", "id": 5316541021, "lat": 48.6197072, "lon": 14.3061557}, {"type": "node", "id": 5316541029, "lat": 48.6209305, "lon": 14.3078311}, {"type": "node", "id": 5316541032, "lat": 48.6213886, "lon": 14.3073043}, {"type": "node", "id": 5316541054, "lat": 48.620348, "lon": 14.3047517, "tags": {"barrier": "gate"}}, {"type": "node", "id": 5316541055, "lat": 48.6213098, "lon": 14.3048896, "tags": {"barrier": "gate", "width": "5.8"}}, {"type": "node", "id": 5316541091, "lat": 48.6218102, "lon": 14.3054678}, {"type": "node", "id": 5316541093, "lat": 48.6216853, "lon": 14.3052713}, {"type": "node", "id": 5316541094, "lat": 48.6213192, "lon": 14.3049223}, {"type": "node", "id": 5316664143, "lat": 48.614595, "lon": 14.311869, "tags": {"information": "map", "tourism": "information"}}, {"type": "node", "id": 5318559777, "lat": 48.5518081, "lon": 14.3332343, "tags": {"name": "KOL\u00cdK - nejji\u017en\u011bj\u0161\u00ed bod \u010cR", "tourism": "information"}}, {"type": "node", "id": 5320401373, "lat": 48.6233679, "lon": 14.3089595, "tags": {"information": "map", "map_type": "topo", "tourism": "information"}}, {"type": "node", "id": 5329432167, "lat": 48.7223209, "lon": 14.3825968, "tags": {"ele": "703", "hiking": "yes", "information": "guidepost", "name": "Mo\u010derady", "note": "zarostl\u00fd smr\u010dky vedle domu \u010d. 67", "operator": "cz:K\u010cT", "ref": "CK039", "tourism": "information"}}, {"type": "node", "id": 5473101506, "lat": 48.5965091, "lon": 14.2173222}, {"type": "node", "id": 5473101507, "lat": 48.5964836, "lon": 14.2173258}, {"type": "node", "id": 5473101508, "lat": 48.5964816, "lon": 14.2172951}, {"type": "node", "id": 5473101509, "lat": 48.5965071, "lon": 14.2172914}, {"type": "node", "id": 5605204421, "lat": 48.6737745, "lon": 14.3080901, "tags": {"ele": "711", "hiking": "yes", "information": "guidepost", "name": "V\u011btrn\u00e1", "operator": "cz:K\u010cT", "ref": "CK231", "tourism": "information"}}, {"type": "node", "id": 5608590315, "lat": 48.6232236, "lon": 14.3091596, "tags": {"bicycle": "yes", "information": "guidepost", "operator": "cz:K\u010cT", "ref": "none", "tourism": "information"}}, {"type": "node", "id": 5857407237, "lat": 48.5632817, "lon": 14.3712638, "tags": {"hiking": "yes", "information": "guidepost", "tourism": "information"}}, {"type": "node", "id": 5859489634, "lat": 48.5688733, "lon": 14.3750391, "tags": {"board_type": "nature", "description": "10 M\u00fchlen-Wanderweg", "information": "board", "source": "survey", "tourism": "information"}}, {"type": "node", "id": 5859489635, "lat": 48.5688613, "lon": 14.3750749, "tags": {"board_type": "notice", "description": "Plan M\u00fchlviertler Museumstra\u00dfe", "information": "board", "tourism": "information"}}, {"type": "node", "id": 5859489636, "lat": 48.568852, "lon": 14.3750709, "tags": {"hiking": "yes", "information": "guidepost", "note": "10 M\u00fchlenweg (gelb) 154", "source": "survey", "tourism": "information"}}, {"type": "node", "id": 5859489665, "lat": 48.5688489, "lon": 14.3751735, "tags": {"hiking": "yes", "information": "guidepost", "note": "10 M\u00fchlenweg (gelb); 51 M\u00fcller-Rundweg (lila)", "source": "survey", "tourism": "information"}}, {"type": "node", "id": 5859489668, "lat": 48.5688665, "lon": 14.3750801}, {"type": "node", "id": 5859489669, "lat": 48.568843, "lon": 14.3750573}, {"type": "node", "id": 5859489670, "lat": 48.5688573, "lon": 14.3750236}, {"type": "node", "id": 5859489671, "lat": 48.5688808, "lon": 14.3750464}, {"type": "node", "id": 5859505117, "lat": 48.5659504, "lon": 14.371701, "tags": {"colour": "yellow", "hiking": "yes", "information": "guidepost", "note": "M\u00fcllerrundweg 51", "source": "survey", "tourism": "information"}}, {"type": "node", "id": 5859505120, "lat": 48.5677786, "lon": 14.3738394, "tags": {"colour": "yellow", "hiking": "yes", "information": "guidepost", "note": "M\u00fcllerrundweg 51 (2,80 km)", "source": "survey", "tourism": "information"}}, {"type": "node", "id": 5859505130, "lat": 48.5681212, "lon": 14.3742867, "tags": {"hiking": "yes", "information": "guidepost", "note": "10 M\u00fchlenweg (gelb) 154", "source": "survey", "tourism": "information"}}, {"type": "node", "id": 5859505131, "lat": 48.5692562, "lon": 14.3761287, "tags": {"board_type": "warning", "direction": "5", "information": "board", "inscription": "POZOR St\u00e1tn\u00ed hranice", "note": "10 M\u00fchlenweg (gelb) 154", "source": "survey", "tourism": "information"}}, {"type": "node", "id": 5859533957, "lat": 48.5609501, "lon": 14.3800199, "tags": {"colour": "yellow", "hiking": "yes", "information": "guidepost", "note": "M\u00fcllerrundweg 51", "source": "survey", "tourism": "information"}}, {"type": "node", "id": 5859561636, "lat": 48.5572661, "lon": 14.3798623, "tags": {"colour": "yellow", "hiking": "yes", "information": "guidepost", "note": "Waldkapelle; Kreuzweg", "source": "survey", "tourism": "information"}}, {"type": "node", "id": 5859578197, "lat": 48.5531846, "lon": 14.3816688, "tags": {"bicycle": "yes", "information": "guidepost", "name": "R5", "tourism": "information"}}, {"type": "node", "id": 5879432813, "lat": 48.5967109, "lon": 14.2164169, "tags": {"ele": "951", "hiking": "yes", "information": "guidepost", "name": "Kapli\u010dky", "operator": "cz:K\u010cT", "ref": "CK144", "source": "survey", "tourism": "information"}}, {"type": "node", "id": 6058470768, "lat": 48.5811034, "lon": 14.3191527, "tags": {"ele": "739", "hiking": "yes", "information": "guidepost", "name": "Stud\u00e1nky (CZ/A)", "operator": "cz:K\u010cT", "tourism": "information"}}, {"type": "node", "id": 6534298063, "lat": 48.6042237, "lon": 14.2139123, "tags": {"board_type": "nature", "information": "board", "name": "Ra\u0161elini\u0161t\u011b Kapli\u010dky", "tourism": "information"}}, {"type": "node", "id": 6534298064, "lat": 48.6059405, "lon": 14.2442777, "tags": {"board_type": "nature", "information": "board", "name": "Uhl\u00ed\u0159sk\u00fd vrch", "tourism": "information"}}, {"type": "node", "id": 6635561845, "lat": 48.5864355, "lon": 14.209474, "tags": {"hiking": "yes", "information": "guidepost", "mtb": "yes", "tourism": "information"}}, {"type": "node", "id": 6635561846, "lat": 48.5861145, "lon": 14.2111688, "tags": {"hiking": "yes", "information": "guidepost", "mtb": "yes", "tourism": "information"}}, {"type": "node", "id": 6681101375, "lat": 48.6002162, "lon": 14.2896348, "tags": {"bicycle": "yes", "hiking": "yes", "information": "map", "map_size": "region", "map_type": "street", "mtb": "yes", "tourism": "information"}}, {"type": "node", "id": 6782026259, "lat": 48.57906, "lon": 14.2312525, "tags": {"bicycle": "no", "hiking": "yes", "information": "guidepost", "mtb": "yes", "tourism": "information"}}, {"type": "node", "id": 7306326998, "lat": 48.5687539, "lon": 14.2360067, "tags": {"board_type": "nature", "information": "board", "name": "Moor bei Vorderwei\u00dfenbach", "tourism": "information"}}, {"type": "node", "id": 7427916500, "lat": 48.6192659, "lon": 14.2256089, "tags": {"ele": "943", "hiking": "yes", "information": "guidepost", "name": "Medv\u011bd\u00ed hora", "operator": "cz:K\u010cT", "ref": "CK073", "source": "survey", "tourism": "information"}}, {"type": "node", "id": 7652983685, "lat": 48.6236054, "lon": 14.3070877, "tags": {"name:fr": "Location cano\u00eb", "tourism": "attraction"}}, {"type": "node", "id": 7777442090, "lat": 48.5519435, "lon": 14.3306174, "tags": {"board_type": "history", "information": "board", "name": "2. Doe Schwedenschanzen bei Rading", "name:cs": "2. \u0160v\u00e9dsk\u00e9 \u0161ance u Radvanova", "tourism": "information"}}, {"type": "node", "id": 7777442091, "lat": 48.5519737, "lon": 14.3305931, "tags": {"board_type": "history", "information": "board", "name": "1. Die Salzstra\u00dfe - 1000 Jahre Segen, 300 Jahre Zankapfel", "name:cs": "1. Soln\u00e1 stezka - 1000 let prosp\u011bchu a 300 let sv\u00e1ru", "tourism": "information"}}, {"type": "node", "id": 7777442100, "lat": 48.5524512, "lon": 14.3313723, "tags": {"hiking": "yes", "information": "guidepost", "ref": "none", "tourism": "information"}}, {"type": "node", "id": 7777442144, "lat": 48.5525661, "lon": 14.3314351, "tags": {"information": "board", "name": "Lineck\u00e1 stezka - mezi ji\u017en\u00edmi \u010cechami a Podunaj\u00edm", "tourism": "information"}}, {"type": "node", "id": 7777442145, "lat": 48.5526326, "lon": 14.3313521, "tags": {"information": "board", "name": "P\u0159\u00edrodn\u00ed park Vy\u0161ebrodsko", "tourism": "information"}}, {"type": "node", "id": 7777442146, "lat": 48.5526447, "lon": 14.3314166, "tags": {"information": "map", "map_size": "region", "name": "Radvanov", "name:cs": "Radvanov", "name:de": "Rading", "tourism": "information"}}, {"type": "node", "id": 7777442158, "lat": 48.5594009, "lon": 14.3398473, "tags": {"information": "board", "name": "Zanikl\u00e1 osada Radv\u00e1nov", "tourism": "information"}}, {"type": "node", "id": 7777442161, "lat": 48.5595767, "lon": 14.3400061, "tags": {"information": "board", "tourism": "information"}}, {"type": "node", "id": 7777442163, "lat": 48.5906374, "lon": 14.3259204, "tags": {"amenity": "shelter", "shelter_type": "picnic_shelter"}}, {"type": "node", "id": 7777442164, "lat": 48.5906453, "lon": 14.325974, "tags": {"information": "board", "name": "Lineck\u00e1 stezka - Stud\u00e1nky", "tourism": "information"}}, {"type": "node", "id": 7777442194, "lat": 48.6196026, "lon": 14.3043592, "tags": {"board_type": "nature", "information": "board", "name": "V\u00edtejte na Opatsk\u00e9 stezce I", "name:de": "Abtweg I - Tafel Nr. 1", "ref": "1", "tourism": "information"}}, {"type": "node", "id": 7777442195, "lat": 48.6196211, "lon": 14.3043588, "tags": {"board_type": "notice", "check_date": "2025-09-06", "information": "board", "name": "Pozor! Nebezpe\u010d\u00ed p\u00e1du strom\u016f", "tourism": "information"}}, {"type": "node", "id": 7777442196, "lat": 48.6195041, "lon": 14.3043042, "tags": {"board_type": "technician", "check_date": "2025-09-06", "information": "board", "name": "MVE kl\u00e1\u0161tera Vy\u0161\u0161\u00ed Brod", "tourism": "information"}}, {"type": "node", "id": 7783023667, "lat": 48.7433235, "lon": 14.397224, "tags": {"ele": "852", "hiking": "yes", "information": "guidepost", "name": "Zahr\u00e1dka", "operator": "cz:K\u010cT", "ref": "CK038", "tourism": "information"}}, {"type": "node", "id": 7850777143, "lat": 48.6528899, "lon": 14.230874, "tags": {"information": "guidepost", "tourism": "information"}}, {"type": "node", "id": 7850777144, "lat": 48.6525436, "lon": 14.2311244, "tags": {"information": "guidepost", "tourism": "information"}}, {"type": "node", "id": 7850777145, "lat": 48.6527189, "lon": 14.2311031, "tags": {"information": "guidepost", "tourism": "information"}}, {"type": "node", "id": 7858679699, "lat": 48.6210414, "lon": 14.2567719, "tags": {"information": "board", "name": "Lou\u010dovice", "tourism": "information"}}, {"type": "node", "id": 7896458435, "lat": 48.6192742, "lon": 14.3493445}, {"type": "node", "id": 7896458436, "lat": 48.6192515, "lon": 14.3493028}, {"type": "node", "id": 7896458437, "lat": 48.6192287, "lon": 14.3493311}, {"type": "node", "id": 7896458438, "lat": 48.6192515, "lon": 14.3493728}, {"type": "node", "id": 7896477995, "lat": 48.6244494, "lon": 14.2453838}, {"type": "node", "id": 7896477996, "lat": 48.6244169, "lon": 14.2453714}, {"type": "node", "id": 7896477997, "lat": 48.6244115, "lon": 14.2454041}, {"type": "node", "id": 7896477998, "lat": 48.6244439, "lon": 14.2454166}, {"type": "node", "id": 8080682793, "lat": 48.6574551, "lon": 14.3687468, "tags": {"bicycle": "yes", "information": "guidepost", "operator": "cz:K\u010cT", "ref": "none", "tourism": "information"}}, {"type": "node", "id": 8294129806, "lat": 48.5726731, "lon": 14.2257634, "tags": {"name": "Predigtstein", "tourism": "attraction", "wheelchair": "no"}}, {"type": "node", "id": 8294129807, "lat": 48.5697984, "lon": 14.2267759, "tags": {"board_type": "history", "information": "board", "name": "Predigtstein", "tourism": "information"}}, {"type": "node", "id": 8671594026, "lat": 48.6314794, "lon": 14.2366122, "tags": {"information": "board", "tourism": "information"}}, {"type": "node", "id": 8671594027, "lat": 48.6314541, "lon": 14.2366505, "tags": {"information": "board", "name": "Vodn\u00ed d\u00edlo Lipno l", "tourism": "information"}}, {"type": "node", "id": 8671594028, "lat": 48.615807, "lon": 14.2644288, "tags": {"board_type": "history", "information": "board", "name": "Opatsk\u00e1 stezka II - tabule \u010d. 5", "ref": "5", "tourism": "information"}}, {"type": "node", "id": 8671594030, "lat": 48.5961632, "lon": 14.2157183, "tags": {"board_type": "history", "information": "board", "name": "Kapli\u010dky", "name:de": "Kapellen", "tourism": "information"}}, {"type": "node", "id": 8912011743, "lat": 48.6386576, "lon": 14.2260116, "tags": {"amenity": "shelter", "bench": "yes", "bin": "yes", "shelter_type": "public_transport"}}, {"type": "node", "id": 9039602952, "lat": 48.6489054, "lon": 14.3245081, "tags": {"ele": "783", "name": "\u017dumbersk\u00fd kopec", "natural": "peak"}}, {"type": "node", "id": 9041473036, "lat": 48.6788875, "lon": 14.2792372, "tags": {"ele": "856", "name": "Mal\u0161\u00ednsk\u00fd k\u00e1men", "natural": "peak"}}, {"type": "node", "id": 9041473037, "lat": 48.6422348, "lon": 14.3352649, "tags": {"ele": "701", "name": "Hl\u00e1sn\u00fd kopec", "natural": "peak"}}, {"type": "node", "id": 9041473038, "lat": 48.6678871, "lon": 14.3461033, "tags": {"ele": "785", "name": "Strnad\u00ed kopec", "natural": "peak", "source": "\u010c\u00daZK"}}, {"type": "node", "id": 9041473039, "lat": 48.6615708, "lon": 14.3899758, "tags": {"ele": "870", "name": "\u017dib\u0159idovsk\u00fd vrch", "natural": "peak", "source": "\u010c\u00daZK"}}, {"type": "node", "id": 9041473040, "lat": 48.669379, "lon": 14.3880829, "tags": {"ele": "854", "name": "Na rozhledu", "natural": "peak", "source": "\u010c\u00daZK"}}, {"type": "node", "id": 9041473041, "lat": 48.6934829, "lon": 14.3772038, "tags": {"ele": "797", "name": "T\u0159e\u0161\u0148ovick\u00fd kopec", "natural": "peak", "source": "\u010c\u00daZK"}}, {"type": "node", "id": 9041473042, "lat": 48.6828929, "lon": 14.3395333, "tags": {"ele": "822", "name": "Veleneck\u00fd vrch", "natural": "peak", "source": "\u010c\u00daZK"}}, {"type": "node", "id": 9041473043, "lat": 48.6575553, "lon": 14.3833569, "tags": {"ele": "816", "natural": "peak", "source": "\u010c\u00daZK"}}, {"type": "node", "id": 9041473044, "lat": 48.6479187, "lon": 14.384052, "tags": {"ele": "797", "natural": "peak", "source": "\u010c\u00daZK"}}, {"type": "node", "id": 9041473045, "lat": 48.6792928, "lon": 14.384165, "tags": {"ele": "837", "natural": "peak", "source": "\u010c\u00daZK"}}, {"type": "node", "id": 9271460181, "lat": 48.6985663, "lon": 14.3325853, "tags": {"ele": "779", "name": "Z\u00e1bra\u0148sk\u00fd vrch", "natural": "peak", "source": "\u010c\u00daZK"}}, {"type": "node", "id": 9376429814, "lat": 48.5611933, "lon": 14.2377649, "tags": {"board_type": "nature", "information": "board", "name": "Lebensraum Wiesenhain", "operator": "Gemeinde Vorderwei\u00dfenbach", "tourism": "information"}}, {"type": "node", "id": 9376439755, "lat": 48.557397, "lon": 14.2306906, "tags": {"board_type": "nature", "information": "board", "name": "Lebensraum Wald", "operator": "Gemeinde Vorderwei\u00dfenbach", "tourism": "information"}}, {"type": "node", "id": 9376439766, "lat": 48.5549233, "lon": 14.2248404, "tags": {"hiking": "yes", "information": "guidepost", "tourism": "information"}}, {"type": "node", "id": 9376441773, "lat": 48.5599773, "lon": 14.2399858, "tags": {"board_type": "plants", "information": "board", "name": "Heidelbeere Heilpflanze", "operator": "Gemeinde Vorderwei\u00dfenbach", "tourism": "information"}}, {"type": "node", "id": 9376441774, "lat": 48.560003, "lon": 14.2398919, "tags": {"board_type": "nature", "information": "board", "name": "Heidelbeere \u00d6kologie", "operator": "Gemeinde Vorderwei\u00dfenbach", "tourism": "information"}}, {"type": "node", "id": 9376441775, "lat": 48.5600434, "lon": 14.2397665, "tags": {"board_type": "history", "information": "board", "name": "Heidelbeere", "operator": "Gemeinde Vorderwei\u00dfenbach", "tourism": "information"}}, {"type": "node", "id": 9376441793, "lat": 48.5565169, "lon": 14.2446046, "tags": {"bicycle": "yes", "hiking": "yes", "information": "guidepost", "tourism": "information"}}, {"type": "node", "id": 9376441794, "lat": 48.5565675, "lon": 14.2442807, "tags": {"bicycle": "yes", "hiking": "yes", "information": "guidepost", "tourism": "information"}}, {"type": "node", "id": 9437336711, "lat": 48.6339941, "lon": 14.3202509, "tags": {"ele": "796", "name": "Krav\u00ed hora", "name:de": "Kuhberg", "natural": "peak", "summit:register": "yes", "tourism": "viewpoint", "wikidata": "Q15951646", "wikipedia": "cs:Krav\u00ed hora (\u0160umavsk\u00e9 podh\u016f\u0159\u00ed)"}}, {"type": "node", "id": 9461387992, "lat": 48.5598538, "lon": 14.2674258}, {"type": "node", "id": 9461387993, "lat": 48.5598558, "lon": 14.267401}, {"type": "node", "id": 9461387994, "lat": 48.5598685, "lon": 14.2673833}, {"type": "node", "id": 9461387995, "lat": 48.5598845, "lon": 14.2673816}, {"type": "node", "id": 9461387996, "lat": 48.5598973, "lon": 14.267396}, {"type": "node", "id": 9461387997, "lat": 48.5599013, "lon": 14.2674218}, {"type": "node", "id": 9461387998, "lat": 48.5598942, "lon": 14.2674436}, {"type": "node", "id": 9461387999, "lat": 48.5598796, "lon": 14.267453}, {"type": "node", "id": 9461388000, "lat": 48.5598634, "lon": 14.267448}, {"type": "node", "id": 9461388001, "lat": 48.5598995, "lon": 14.2674333}, {"type": "node", "id": 9461388002, "lat": 48.5598876, "lon": 14.2674507}, {"type": "node", "id": 9461388003, "lat": 48.5598576, "lon": 14.2674376}, {"type": "node", "id": 9461388004, "lat": 48.5598609, "lon": 14.2673907}, {"type": "node", "id": 9461388005, "lat": 48.559892, "lon": 14.2673876}, {"type": "node", "id": 9772884904, "lat": 48.6437317, "lon": 14.2209593, "tags": {"addr:city": "Lipno nad Vltavou", "addr:housenumber": "307", "addr:place": "Lipno nad Vltavou", "addr:postcode": "38278", "email": "info@lipno.info", "facebook": "https://www.facebook.com/skiareallipno/", "information": "office", "name": "Infocentrum Lipno", "opening_hours": "Mo-Su 08:00-17:00", "tourism": "information", "website": "https://www.lipno.info/infocentrum.html#"}}, {"type": "node", "id": 9774649462, "lat": 48.6512008, "lon": 14.2346297, "tags": {"information": "map", "map_size": "region", "tourism": "information"}}, {"type": "node", "id": 9774696886, "lat": 48.6526531, "lon": 14.2315828, "tags": {"information": "map", "map_size": "region", "map_type": "hiking", "name": "Lipno nad Vlavou - Kramolin", "tourism": "information"}}, {"type": "node", "id": 9775355333, "lat": 48.6411326, "lon": 14.2236413, "tags": {"information": "map", "map_size": "region", "map_type": "street", "tourism": "information"}}, {"type": "node", "id": 9779775256, "lat": 48.6400091, "lon": 14.225494, "tags": {"information": "map", "map_size": "local", "map_type": "hiking;ski;bicycle", "tourism": "information"}}, {"type": "node", "id": 9780048113, "lat": 48.6401566, "lon": 14.2254077, "tags": {"information": "terminal", "tourism": "information"}}, {"type": "node", "id": 9780091826, "lat": 48.6412864, "lon": 14.2240286}, {"type": "node", "id": 9780091827, "lat": 48.6412969, "lon": 14.2240109}, {"type": "node", "id": 9780091828, "lat": 48.6413033, "lon": 14.2239891}, {"type": "node", "id": 9780091829, "lat": 48.6412352, "lon": 14.2239025}, {"type": "node", "id": 9780091830, "lat": 48.6412214, "lon": 14.2239166}, {"type": "node", "id": 9780091831, "lat": 48.6412115, "lon": 14.2239369}, {"type": "node", "id": 9780091832, "lat": 48.6412066, "lon": 14.223961}, {"type": "node", "id": 9856176127, "lat": 48.7289631, "lon": 14.3319406, "tags": {"amenity": "shelter", "shelter_type": "public_transport"}}, {"type": "node", "id": 9883856142, "lat": 48.7510987, "lon": 14.3233808}, {"type": "node", "id": 9883856143, "lat": 48.7509641, "lon": 14.3236139}, {"type": "node", "id": 9883856144, "lat": 48.750897, "lon": 14.3235271}, {"type": "node", "id": 9883856145, "lat": 48.7510415, "lon": 14.3233085}, {"type": "node", "id": 9919339351, "lat": 48.6562869, "lon": 14.3655017, "tags": {"tourism": "viewpoint"}}, {"type": "node", "id": 9919339352, "lat": 48.6563691, "lon": 14.3652169, "tags": {"tourism": "viewpoint"}}, {"type": "node", "id": 9919981349, "lat": 48.6571891, "lon": 14.3661832, "tags": {"tourism": "viewpoint"}}, {"type": "node", "id": 9919981354, "lat": 48.6560594, "lon": 14.3652203}, {"type": "node", "id": 9920829982, "lat": 48.700856, "lon": 14.3963242, "tags": {"ele": "751", "name": "Jel\u00ednka", "natural": "peak", "source": "\u010c\u00daZK"}}, {"type": "node", "id": 9921240406, "lat": 48.6568791, "lon": 14.3669372, "tags": {"tourism": "viewpoint"}}, {"type": "node", "id": 9921288105, "lat": 48.6551132, "lon": 14.3667208, "tags": {"information": "yes", "name": "Turistick\u00e9 informa\u010dn\u00ed centrum Ro\u017emberk", "tourism": "information", "website": "https://www.hotelrozmberk.cz/tourist-information-center/"}}, {"type": "node", "id": 9921288108, "lat": 48.6538177, "lon": 14.3655463, "tags": {"name": "Vyhl\u00eddka pana \u0160alamouna", "tourism": "viewpoint"}}, {"type": "node", "id": 9921924074, "lat": 48.6559328, "lon": 14.3649729}, {"type": "node", "id": 9922509281, "lat": 48.6413047, "lon": 14.2239653}, {"type": "node", "id": 9922509282, "lat": 48.6413011, "lon": 14.2239421}, {"type": "node", "id": 9922509283, "lat": 48.6412929, "lon": 14.2239218}, {"type": "node", "id": 9922509284, "lat": 48.6412808, "lon": 14.2239064}, {"type": "node", "id": 9922509285, "lat": 48.6412661, "lon": 14.2238976}, {"type": "node", "id": 9922509286, "lat": 48.6412504, "lon": 14.2238963}, {"type": "node", "id": 9922509287, "lat": 48.6412073, "lon": 14.2239861}, {"type": "node", "id": 9922509288, "lat": 48.6412135, "lon": 14.2240095}, {"type": "node", "id": 9922509289, "lat": 48.6412245, "lon": 14.2240284}, {"type": "node", "id": 9922509290, "lat": 48.641239, "lon": 14.2240408}, {"type": "node", "id": 9922509291, "lat": 48.6412554, "lon": 14.2240451}, {"type": "node", "id": 9922509292, "lat": 48.6412718, "lon": 14.2240409}, {"type": "node", "id": 9926506373, "lat": 48.6418298, "lon": 14.2443261, "tags": {"natural": "peak"}}, {"type": "node", "id": 9939523142, "lat": 48.6201174, "lon": 14.3048086}, {"type": "node", "id": 9949523984, "lat": 48.6213802, "lon": 14.307314}, {"type": "node", "id": 10069114176, "lat": 48.6608288, "lon": 14.3623878, "tags": {"board_type": "history", "information": "board", "name": "K\u0159\u00ed\u017eov\u00e1 cesta na Studenec", "tourism": "information"}}, {"type": "node", "id": 10109216201, "lat": 48.6216402, "lon": 14.2226595, "tags": {"tourism": "viewpoint"}}, {"type": "node", "id": 10301032361, "lat": 48.7289441, "lon": 14.3156308}, {"type": "node", "id": 10301032362, "lat": 48.7289347, "lon": 14.3155222}, {"type": "node", "id": 10860634261, "lat": 48.6405546, "lon": 14.2221991, "tags": {"board_type": "sport", "information": "board", "name": "Olympijsk\u00e1 galerie", "tourism": "information"}}, {"type": "node", "id": 10860652718, "lat": 48.6416688, "lon": 14.2200021, "tags": {"information": "board", "name": "Lipno", "tourism": "information"}}, {"type": "node", "id": 10870554402, "lat": 48.6141739, "lon": 14.2900579, "tags": {"board_type": "nature", "information": "board", "name": "Vodop\u00e1dy sv. Wolfganga", "ref": "4", "tourism": "information"}}, {"type": "node", "id": 10870558234, "lat": 48.6245629, "lon": 14.2813817, "tags": {"board_type": "nature", "information": "board", "name": "Opatsk\u00e1 stezka II - tabule \u010d. 3", "ref": "3", "tourism": "information"}}, {"type": "node", "id": 10870614739, "lat": 48.6361224, "lon": 14.2758342, "tags": {"information": "board", "name": "N\u00e1rodn\u00ed p\u0159\u00edrodn\u00ed rezervace \u010certova st\u011bna - Lu\u010d", "tourism": "information"}}, {"type": "node", "id": 10870680139, "lat": 48.6242785, "lon": 14.2672509, "tags": {"information": "board", "name": "N\u00e1rodn\u00ed p\u0159\u00edrodn\u00ed rezervace \u010certova st\u011bna - Lu\u010d", "tourism": "information"}}, {"type": "node", "id": 10880235643, "lat": 48.619807, "lon": 14.2607536, "tags": {"description": "Ru\u010dn\u011b malovan\u00e1 mapa regionu", "information": "map", "name": "\u010ceskokrumlovsko", "tourism": "information"}}, {"type": "node", "id": 10880246423, "lat": 48.6308958, "lon": 14.2761156, "tags": {"information": "board", "name": "Prvosjezd \u010certov\u00fdch proud\u016f", "tourism": "information"}}, {"type": "node", "id": 10898677364, "lat": 48.6293233, "lon": 14.3712239, "tags": {"information": "map", "name": "\u010cesk\u00fd ryb\u00e1\u0159sk\u00fd svaz", "tourism": "information"}}, {"type": "node", "id": 11042353041, "lat": 48.6228208, "lon": 14.3064578, "tags": {"information": "board", "name": "Nav\u0161tivte Cisterci\u00e1tsk\u00e9 opatstv\u00ed Vy\u0161\u0161\u00ed Brod", "tourism": "information"}}, {"type": "node", "id": 11042358305, "lat": 48.622835, "lon": 14.3065356, "tags": {"information": "map", "name": "Vy\u0161\u0161\u00ed Brod", "tourism": "information"}}, {"type": "node", "id": 11052710623, "lat": 48.7135519, "lon": 14.3429792, "tags": {"information": "map", "tourism": "information"}}, {"type": "node", "id": 11123627668, "lat": 48.6619903, "lon": 14.2081339, "tags": {"information": "guidepost", "tourism": "information"}}, {"type": "node", "id": 11123713936, "lat": 48.6551839, "lon": 14.2039773, "tags": {"information": "guidepost", "tourism": "information"}}, {"type": "node", "id": 11123734213, "lat": 48.6551996, "lon": 14.2042702, "tags": {"tourism": "information"}}, {"type": "node", "id": 11140030148, "lat": 48.5750296, "lon": 14.2779005, "tags": {"direction": "220", "information": "board", "name": "\u010cESK\u00c1 REPUBLIKA", "tourism": "information"}}, {"type": "node", "id": 11140030149, "lat": 48.5750245, "lon": 14.2779408, "tags": {"board_type": "warning", "direction": "50", "information": "board", "inscription": "POZOR St\u00e1tn\u00ed hranice", "tourism": "information"}}, {"type": "node", "id": 11140030150, "lat": 48.5747792, "lon": 14.2776291, "tags": {"direction": "135", "information": "board", "name": "ACHTUNG, Staatsgrenze", "tourism": "information"}}, {"type": "node", "id": 11140817135, "lat": 48.5545935, "lon": 14.3275303, "tags": {"board_type": "warning", "information": "board", "inscription": "POZOR St\u00e1tn\u00ed hranice", "tourism": "information"}}, {"type": "node", "id": 11140817136, "lat": 48.5578513, "lon": 14.326212, "tags": {"board_type": "warning", "direction": "90", "information": "board", "inscription": "POZOR St\u00e1tn\u00ed hranice", "tourism": "information"}}, {"type": "node", "id": 11140817138, "lat": 48.5525555, "lon": 14.3314044, "tags": {"direction": "180", "information": "board", "name": "\u010cesk\u00e1 Republika", "tourism": "information"}}, {"type": "node", "id": 11141086674, "lat": 48.5714267, "lon": 14.3867385, "tags": {"board_type": "warning", "direction": "330", "information": "board", "inscription": "POZOR St\u00e1tn\u00ed hranice", "tourism": "information"}}, {"type": "node", "id": 11141135179, "lat": 48.5774871, "lon": 14.3936063, "tags": {"board_type": "warning", "direction": "5", "information": "board", "inscription": "POZOR St\u00e1tn\u00ed hranice", "tourism": "information"}}, {"type": "node", "id": 11141910150, "lat": 48.5943339, "lon": 14.3919579, "tags": {"board_type": "warning", "direction": "5", "information": "board", "inscription": "POZOR St\u00e1tn\u00ed hranice", "tourism": "information"}}, {"type": "node", "id": 11198463362, "lat": 48.5598507, "lon": 14.2568206, "tags": {"name": "1000m -Platzerl", "tourism": "attraction"}}, {"type": "node", "id": 11215399339, "lat": 48.6187488, "lon": 14.3097228, "tags": {"information": "guidepost", "tourism": "information"}}, {"type": "node", "id": 11215399343, "lat": 48.6210452, "lon": 14.3088309, "tags": {"amenity": "shelter"}}, {"type": "node", "id": 11218005199, "lat": 48.5751061, "lon": 14.2780459, "tags": {"information": "map", "map_size": "region", "name": "\u0160umava-Lipno", "tourism": "information"}}, {"type": "node", "id": 11218011246, "lat": 48.6856258, "lon": 14.381129, "tags": {"amenity": "shelter"}}, {"type": "node", "id": 11230894139, "lat": 48.5844491, "lon": 14.2299872, "tags": {"board_type": "warning", "direction": "35", "information": "board", "inscription": "POZOR St\u00e1tn\u00ed hranice", "tourism": "information"}}, {"type": "node", "id": 11230894140, "lat": 48.5827289, "lon": 14.2343592, "tags": {"board_type": "warning", "direction": "35", "information": "board", "inscription": "POZOR St\u00e1tn\u00ed hranice", "tourism": "information"}}, {"type": "node", "id": 11230894141, "lat": 48.5813541, "lon": 14.237327, "tags": {"board_type": "warning", "direction": "50", "information": "board", "inscription": "POZOR St\u00e1tn\u00ed hranice", "tourism": "information"}}, {"type": "node", "id": 11230894142, "lat": 48.5800175, "lon": 14.238357, "tags": {"information": "board", "inscription": "Pozor St\u00e1tn\u00ed hranice", "name": "Pozor St\u00e1tn\u00ed hranice", "tourism": "information"}}, {"type": "node", "id": 11230894143, "lat": 48.5777063, "lon": 14.2414406, "tags": {"board_type": "warning", "direction": "5", "information": "board", "inscription": "POZOR St\u00e1tn\u00ed hranice", "tourism": "information"}}, {"type": "node", "id": 11230998158, "lat": 48.5727286, "lon": 14.2846808, "tags": {"board_type": "warning", "direction": "20", "information": "board", "inscription": "POZOR St\u00e1tn\u00ed hranice", "tourism": "information"}}, {"type": "node", "id": 11231267548, "lat": 48.5644642, "lon": 14.3090068, "tags": {"board_type": "warning", "direction": "35", "information": "board", "inscription": "POZOR St\u00e1tn\u00ed hranice", "tourism": "information"}}, {"type": "node", "id": 11231267549, "lat": 48.5641065, "lon": 14.3111458, "tags": {"board_type": "warning", "direction": "20", "information": "board", "inscription": "POZOR St\u00e1tn\u00ed hranice", "tourism": "information"}}, {"type": "node", "id": 11231267550, "lat": 48.5635784, "lon": 14.3144395, "tags": {"board_type": "warning", "direction": "15", "information": "board", "inscription": "POZOR St\u00e1tn\u00ed hranice", "tourism": "information"}}, {"type": "node", "id": 11231267551, "lat": 48.5633593, "lon": 14.316696, "tags": {"direction": "195", "information": "board", "name": "\u010cESK\u00c1 REPUBLIKA", "tourism": "information"}}, {"type": "node", "id": 11231267552, "lat": 48.5634138, "lon": 14.3178044, "tags": {"board_type": "warning", "direction": "5", "information": "board", "inscription": "POZOR St\u00e1tn\u00ed hranice", "tourism": "information"}}, {"type": "node", "id": 11231267553, "lat": 48.5630007, "lon": 14.32107, "tags": {"board_type": "warning", "direction": "5", "information": "board", "inscription": "POZOR St\u00e1tn\u00ed hranice", "tourism": "information"}}, {"type": "node", "id": 11231267554, "lat": 48.5628214, "lon": 14.3245354, "tags": {"board_type": "warning", "direction": "90", "information": "board", "inscription": "POZOR St\u00e1tn\u00ed hranice", "tourism": "information"}}, {"type": "node", "id": 11231267555, "lat": 48.5598014, "lon": 14.3253917, "tags": {"board_type": "warning", "direction": "70", "information": "board", "inscription": "POZOR St\u00e1tn\u00ed hranice", "tourism": "information"}}, {"type": "node", "id": 11232250837, "lat": 48.5576481, "lon": 14.3271493, "tags": {"board_type": "warning", "direction": "45", "information": "board", "inscription": "POZOR St\u00e1tn\u00ed hranice", "tourism": "information"}}, {"type": "node", "id": 11232290869, "lat": 48.5748005, "lon": 14.3594138, "tags": {"board_type": "warning", "direction": "5", "information": "board", "inscription": "POZOR St\u00e1tn\u00ed hranice", "tourism": "information"}}, {"type": "node", "id": 11232290870, "lat": 48.5748597, "lon": 14.3624474, "tags": {"board_type": "warning", "direction": "5", "information": "board", "inscription": "POZOR St\u00e1tn\u00ed hranice", "tourism": "information"}}, {"type": "node", "id": 11232290871, "lat": 48.5751139, "lon": 14.3662199, "tags": {"board_type": "warning", "direction": "95", "information": "board", "inscription": "POZOR St\u00e1tn\u00ed hranice", "tourism": "information"}}, {"type": "node", "id": 11232290872, "lat": 48.5727278, "lon": 14.3682752, "tags": {"board_type": "warning", "direction": "90", "information": "board", "inscription": "POZOR St\u00e1tn\u00ed hranice", "tourism": "information"}}, {"type": "node", "id": 11232290873, "lat": 48.5698486, "lon": 14.368529, "tags": {"board_type": "warning", "direction": "55", "information": "board", "inscription": "POZOR St\u00e1tn\u00ed hranice", "tourism": "information"}}, {"type": "node", "id": 11232290874, "lat": 48.5697443, "lon": 14.3704669, "tags": {"board_type": "warning", "direction": "355", "information": "board", "inscription": "POZOR St\u00e1tn\u00ed hranice", "tourism": "information"}}, {"type": "node", "id": 11232290875, "lat": 48.5694355, "lon": 14.38044, "tags": {"board_type": "warning", "direction": "5", "information": "board", "inscription": "POZOR St\u00e1tn\u00ed hranice", "tourism": "information"}}, {"type": "node", "id": 11232290876, "lat": 48.5701586, "lon": 14.3837847, "tags": {"board_type": "warning", "direction": "5", "information": "board", "inscription": "POZOR St\u00e1tn\u00ed hranice", "tourism": "information"}}, {"type": "node", "id": 11232294167, "lat": 48.5521349, "lon": 14.3327039, "tags": {"board_type": "warning", "direction": "30", "information": "board", "inscription": "POZOR St\u00e1tn\u00ed hranice", "tourism": "information"}}, {"type": "node", "id": 11232294168, "lat": 48.5746154, "lon": 14.357554, "tags": {"board_type": "warning", "direction": "305", "information": "board", "inscription": "POZOR St\u00e1tn\u00ed hranice", "tourism": "information"}}, {"type": "node", "id": 11232416196, "lat": 48.5730161, "lon": 14.3888246, "tags": {"board_type": "warning", "direction": "305", "information": "board", "inscription": "POZOR St\u00e1tn\u00ed hranice", "tourism": "information"}}, {"type": "node", "id": 11232416197, "lat": 48.5750112, "lon": 14.3908121, "tags": {"board_type": "warning", "direction": "310", "information": "board", "inscription": "POZOR St\u00e1tn\u00ed hranice", "tourism": "information"}}, {"type": "node", "id": 11310561297, "lat": 48.5525334, "lon": 14.3308268, "tags": {"board_type": "warning", "direction": "5", "information": "board", "inscription": "POZOR St\u00e1tn\u00ed hranice", "tourism": "information"}}, {"type": "node", "id": 11311279358, "lat": 48.5749977, "lon": 14.3633778, "tags": {"board_type": "warning", "direction": "180", "information": "board", "inscription": "ACHTUNG Staatsgrenze", "tourism": "information"}}, {"type": "node", "id": 11347001446, "lat": 48.6266931, "lon": 14.3176626, "tags": {"ele": "615", "information": "guidepost", "name": "Hrudkov (L\u00e9\u010debna) 615m", "tourism": "information"}}, {"type": "node", "id": 11347001447, "lat": 48.628855, "lon": 14.3192855, "tags": {"information": "route_marker", "tourism": "information"}}, {"type": "node", "id": 11347024995, "lat": 48.6290791, "lon": 14.3145413, "tags": {"amenity": "shelter", "shelter_type": "lean_to"}}, {"type": "node", "id": 11347025042, "lat": 48.6339881, "lon": 14.3202694, "tags": {"name": "Kuhberg -  Krav\u00ed Hora", "tourism": "viewpoint"}}, {"type": "node", "id": 11366899683, "lat": 48.6218028, "lon": 14.305166, "tags": {"information": "map", "name": "Opatsk\u00e1 stezka I a II", "operator": "Lesy \u010cR", "tourism": "information"}}, {"type": "node", "id": 11366899694, "lat": 48.6210518, "lon": 14.3063944, "tags": {"board_type": "information", "information": "board", "name": "Cisterci\u00e1ci Vy\u0161\u0161\u00ed Brod", "tourism": "information"}}, {"type": "node", "id": 11366899697, "lat": 48.618133, "lon": 14.3021457, "tags": {"board_type": "nature", "information": "board", "name": "Lesn\u00ed chr\u00e1mov\u00ed", "name:de": "Abtweg I - Tafel Nr. 1", "ref": "2", "tourism": "information"}}, {"type": "node", "id": 11366899698, "lat": 48.6166325, "lon": 14.2969301, "tags": {"board_type": "nature", "information": "board", "name": "Tradice kamenictv\u00ed na vy\u0161ebrodsku", "name:de": "Abtweg I - Tafel Nr. 1", "ref": "3", "tourism": "information"}}, {"type": "node", "id": 11366925108, "lat": 48.6088575, "lon": 14.2962342, "tags": {"ele": "735", "hiking": "yes", "information": "guidepost", "name": "Pod spo\u010dinut\u00edm P. Marie", "operator": "cz:K\u010cT", "ref": "CK408", "tourism": "information"}}, {"type": "node", "id": 11366925111, "lat": 48.6043965, "lon": 14.2999177, "tags": {"board_type": "history", "information": "board", "name": "Dr. Friedrich Nitsche (1835 - 1923)", "tourism": "information", "website": "https://encyklopedie.ckrumlov.cz/en/osobno_frinit/"}}, {"type": "node", "id": 11366925118, "lat": 48.6141461, "lon": 14.3116286, "tags": {"bicycle": "yes", "information": "guidepost", "operator": "cz:K\u010cT", "tourism": "information"}}, {"type": "node", "id": 11366971223, "lat": 48.6211357, "lon": 14.3089837, "tags": {"board_type": "history", "information": "board", "name": "Lineck\u00e1 stezka - vy\u0161ebrodsk\u00fd kl\u00e1\u0161ter", "tourism": "information"}}, {"type": "node", "id": 11368493646, "lat": 48.6737676, "lon": 14.2890151, "tags": {"amenity": "shelter", "shelter_type": "picnic_shelter"}}, {"type": "node", "id": 11462901969, "lat": 48.6194716, "lon": 14.2449963, "tags": {"information": "board", "tourism": "information"}}, {"type": "node", "id": 11847154721, "lat": 48.6259452, "lon": 14.3054382, "tags": {"information": "board", "name": "Ilustra\u010dn\u00ed sch\u00e9ma vodn\u00ed elektr\u00e1rny Lipno II.", "tourism": "information"}}, {"type": "node", "id": 11882043821, "lat": 48.6274712, "lon": 14.2922768, "tags": {"information": "guidepost", "tourism": "information"}}, {"type": "node", "id": 11882043851, "lat": 48.6010941, "lon": 14.2841707, "tags": {"information": "guidepost", "tourism": "information"}}, {"type": "node", "id": 11882043854, "lat": 48.6007088, "lon": 14.2837051, "tags": {"information": "guidepost", "tourism": "information"}}, {"type": "node", "id": 11882043862, "lat": 48.6002767, "lon": 14.2905894, "tags": {"information": "guidepost", "tourism": "information"}}, {"type": "node", "id": 11885894762, "lat": 48.6209578, "lon": 14.3089775, "tags": {"board_type": "sight", "information": "board", "name": "Nav\u0161tivte Cisterci\u00e1ck\u00e9 opatstv\u00ed Vy\u0161\u0161\u00ed Brod, perlu \u0160umavy a cel\u00fdch ji\u017en\u00edch \u010cech", "tourism": "information"}}, {"type": "node", "id": 11901183738, "lat": 48.6219661, "lon": 14.3065959}, {"type": "node", "id": 11901183739, "lat": 48.6218735, "lon": 14.3066706}, {"type": "node", "id": 11901183740, "lat": 48.6219606, "lon": 14.3065262}, {"type": "node", "id": 11901183748, "lat": 48.6219773, "lon": 14.3060119}, {"type": "node", "id": 11921720814, "lat": 48.6564051, "lon": 14.3670782, "tags": {"information": "board", "name": "V\u00edt\u00e1me v\u00e1s na hrad\u011b Ro\u017emberku", "tourism": "information"}}, {"type": "node", "id": 11921758781, "lat": 48.6567329, "lon": 14.3653632, "tags": {"information": "map", "map_size": "region", "map_type": "topo", "name": "Turistick\u00e1 v\u00fdv\u011bsn\u00ed mapa", "tourism": "information"}}, {"type": "node", "id": 12013335532, "lat": 48.7488681, "lon": 14.3248676}, {"type": "node", "id": 12013335533, "lat": 48.7488499, "lon": 14.3249122}, {"type": "node", "id": 12013335534, "lat": 48.7488205, "lon": 14.3249099}, {"type": "node", "id": 12013335535, "lat": 48.7488038, "lon": 14.3248699}, {"type": "node", "id": 12013335536, "lat": 48.748819, "lon": 14.32483}, {"type": "node", "id": 12013335537, "lat": 48.7488509, "lon": 14.3248269}, {"type": "node", "id": 12013335538, "lat": 48.7486968, "lon": 14.3250544}, {"type": "node", "id": 12013335539, "lat": 48.7486786, "lon": 14.325099}, {"type": "node", "id": 12013335540, "lat": 48.7486492, "lon": 14.3250967}, {"type": "node", "id": 12013335541, "lat": 48.7486324, "lon": 14.3250567}, {"type": "node", "id": 12013335542, "lat": 48.7486476, "lon": 14.3250168}, {"type": "node", "id": 12013335543, "lat": 48.7486796, "lon": 14.3250137}, {"type": "node", "id": 12013335544, "lat": 48.7485331, "lon": 14.3253319}, {"type": "node", "id": 12013335545, "lat": 48.7485148, "lon": 14.3253765}, {"type": "node", "id": 12013335546, "lat": 48.7484854, "lon": 14.3253742}, {"type": "node", "id": 12013335547, "lat": 48.7484687, "lon": 14.3253342}, {"type": "node", "id": 12013335548, "lat": 48.7484839, "lon": 14.3252943}, {"type": "node", "id": 12013335549, "lat": 48.7485159, "lon": 14.3252912}, {"type": "node", "id": 12013335550, "lat": 48.748487, "lon": 14.3251536}, {"type": "node", "id": 12013335551, "lat": 48.7484687, "lon": 14.3251982}, {"type": "node", "id": 12013335552, "lat": 48.7484393, "lon": 14.3251959}, {"type": "node", "id": 12013335553, "lat": 48.7484226, "lon": 14.3251559}, {"type": "node", "id": 12013335554, "lat": 48.7484378, "lon": 14.3251159}, {"type": "node", "id": 12013335555, "lat": 48.7484697, "lon": 14.3251128}, {"type": "node", "id": 12013335556, "lat": 48.749053, "lon": 14.3247243}, {"type": "node", "id": 12013335557, "lat": 48.7490325, "lon": 14.3247665}, {"type": "node", "id": 12013335558, "lat": 48.7490033, "lon": 14.3247606}, {"type": "node", "id": 12013335559, "lat": 48.7489888, "lon": 14.3247188}, {"type": "node", "id": 12013335560, "lat": 48.749006, "lon": 14.3246808}, {"type": "node", "id": 12013335561, "lat": 48.749038, "lon": 14.3246816}, {"type": "node", "id": 12013335562, "lat": 48.7490872, "lon": 14.3244543}, {"type": "node", "id": 12013335563, "lat": 48.7490576, "lon": 14.3244816}, {"type": "node", "id": 12013335564, "lat": 48.7490321, "lon": 14.3244594}, {"type": "node", "id": 12013335565, "lat": 48.7490291, "lon": 14.3244122}, {"type": "node", "id": 12013335566, "lat": 48.7490546, "lon": 14.324387}, {"type": "node", "id": 12013335567, "lat": 48.749084, "lon": 14.3244061}, {"type": "node", "id": 12013335568, "lat": 48.7492076, "lon": 14.3247561}, {"type": "node", "id": 12013355669, "lat": 48.7491762, "lon": 14.3247783}, {"type": "node", "id": 12013355670, "lat": 48.7491524, "lon": 14.3247519}, {"type": "node", "id": 12013355671, "lat": 48.7491529, "lon": 14.3247046}, {"type": "node", "id": 12013355672, "lat": 48.74918, "lon": 14.3246838}, {"type": "node", "id": 12013355673, "lat": 48.7492078, "lon": 14.3247077}, {"type": "node", "id": 12013355674, "lat": 48.749302, "lon": 14.3251177}, {"type": "node", "id": 12013355675, "lat": 48.7492732, "lon": 14.3251433}, {"type": "node", "id": 12013355676, "lat": 48.7492468, "lon": 14.3251198}, {"type": "node", "id": 12013355677, "lat": 48.7492449, "lon": 14.3250725}, {"type": "node", "id": 12013355678, "lat": 48.749271, "lon": 14.3250487}, {"type": "node", "id": 12013355679, "lat": 48.7492999, "lon": 14.3250694}, {"type": "node", "id": 12014949569, "lat": 48.715952, "lon": 14.3428545}, {"type": "node", "id": 12014949570, "lat": 48.7159542, "lon": 14.342943}, {"type": "node", "id": 12014949571, "lat": 48.7158438, "lon": 14.3429494}, {"type": "node", "id": 12014949572, "lat": 48.7158416, "lon": 14.342861}, {"type": "node", "id": 12014949578, "lat": 48.7151854, "lon": 14.3426822}, {"type": "node", "id": 12015882256, "lat": 48.7152589, "lon": 14.3427898}, {"type": "node", "id": 12015882257, "lat": 48.7151738, "lon": 14.3427574}, {"type": "node", "id": 12017240987, "lat": 48.7158823, "lon": 14.3426242}, {"type": "node", "id": 12017240988, "lat": 48.7158791, "lon": 14.3426527}, {"type": "node", "id": 12017240989, "lat": 48.7158499, "lon": 14.3426451}, {"type": "node", "id": 12017240990, "lat": 48.7158531, "lon": 14.3426166}, {"type": "node", "id": 12017241004, "lat": 48.7152409, "lon": 14.3427829}, {"type": "node", "id": 12017241010, "lat": 48.7151846, "lon": 14.3427615}, {"type": "node", "id": 12017241022, "lat": 48.7149654, "lon": 14.3425487}, {"type": "node", "id": 12017241023, "lat": 48.7149515, "lon": 14.3425712}, {"type": "node", "id": 12017241024, "lat": 48.714935, "lon": 14.3425641}, {"type": "node", "id": 12017241025, "lat": 48.714929, "lon": 14.3425406}, {"type": "node", "id": 12017241026, "lat": 48.7149391, "lon": 14.3425214}, {"type": "node", "id": 12017241027, "lat": 48.7149571, "lon": 14.3425231}, {"type": "node", "id": 12033002051, "lat": 48.6401138, "lon": 14.2257104}, {"type": "node", "id": 12033002052, "lat": 48.6400859, "lon": 14.2257639}, {"type": "node", "id": 12033002053, "lat": 48.6400775, "lon": 14.2257595}, {"type": "node", "id": 12033002054, "lat": 48.6401156, "lon": 14.2257218}, {"type": "node", "id": 12033002055, "lat": 48.6401152, "lon": 14.2257336}, {"type": "node", "id": 12033002056, "lat": 48.6401124, "lon": 14.2257446}, {"type": "node", "id": 12033002057, "lat": 48.6401075, "lon": 14.2257539}, {"type": "node", "id": 12033002058, "lat": 48.6401011, "lon": 14.2257605}, {"type": "node", "id": 12033002059, "lat": 48.6400937, "lon": 14.225764}, {"type": "node", "id": 12033002060, "lat": 48.6400705, "lon": 14.225751}, {"type": "node", "id": 12033002061, "lat": 48.6400659, "lon": 14.2257395}, {"type": "node", "id": 12033002062, "lat": 48.6400642, "lon": 14.2257263}, {"type": "node", "id": 12033002063, "lat": 48.6400655, "lon": 14.225713}, {"type": "node", "id": 12033002064, "lat": 48.6400697, "lon": 14.2257012}, {"type": "node", "id": 12033002065, "lat": 48.6400764, "lon": 14.2256922}, {"type": "node", "id": 12033002066, "lat": 48.6400846, "lon": 14.2256872}, {"type": "node", "id": 12033002067, "lat": 48.6400935, "lon": 14.2256867}, {"type": "node", "id": 12033002068, "lat": 48.640102, "lon": 14.2256908}, {"type": "node", "id": 12033003769, "lat": 48.640109, "lon": 14.225699}, {"type": "node", "id": 12035513692, "lat": 48.6467098, "lon": 14.2214131}, {"type": "node", "id": 12035513693, "lat": 48.6466875, "lon": 14.2214794}, {"type": "node", "id": 12035513694, "lat": 48.6466767, "lon": 14.2214799}, {"type": "node", "id": 12035513695, "lat": 48.6467123, "lon": 14.2214268}, {"type": "node", "id": 12035513696, "lat": 48.6467121, "lon": 14.2214409}, {"type": "node", "id": 12035513697, "lat": 48.6467092, "lon": 14.2214544}, {"type": "node", "id": 12035513698, "lat": 48.6467037, "lon": 14.2214659}, {"type": "node", "id": 12035513699, "lat": 48.6466963, "lon": 14.2214745}, {"type": "node", "id": 12035513700, "lat": 48.6466664, "lon": 14.2214749}, {"type": "node", "id": 12035513701, "lat": 48.6466579, "lon": 14.2214649}, {"type": "node", "id": 12035513702, "lat": 48.6466521, "lon": 14.2214511}, {"type": "node", "id": 12035513703, "lat": 48.6466497, "lon": 14.2214351}, {"type": "node", "id": 12035513704, "lat": 48.6466511, "lon": 14.2214189}, {"type": "node", "id": 12035513705, "lat": 48.6466559, "lon": 14.2214043}, {"type": "node", "id": 12035513706, "lat": 48.6466638, "lon": 14.2213931}, {"type": "node", "id": 12035513707, "lat": 48.6466737, "lon": 14.2213865}, {"type": "node", "id": 12035513708, "lat": 48.6466845, "lon": 14.2213855}, {"type": "node", "id": 12035513709, "lat": 48.6466949, "lon": 14.22139}, {"type": "node", "id": 12035513710, "lat": 48.6467037, "lon": 14.2213996}, {"type": "node", "id": 12037282121, "lat": 48.6225043, "lon": 14.2606844}, {"type": "node", "id": 12037282122, "lat": 48.6224875, "lon": 14.2606961}, {"type": "node", "id": 12037282123, "lat": 48.6224297, "lon": 14.2605064}, {"type": "node", "id": 12037282124, "lat": 48.6224465, "lon": 14.2604947}, {"type": "node", "id": 12037287960, "lat": 48.6214914, "lon": 14.2570003}, {"type": "node", "id": 12037287961, "lat": 48.6214759, "lon": 14.2570338}, {"type": "node", "id": 12037287962, "lat": 48.6214508, "lon": 14.2570283}, {"type": "node", "id": 12037287963, "lat": 48.6214422, "lon": 14.2570002}, {"type": "node", "id": 12037287964, "lat": 48.6214569, "lon": 14.2569647}, {"type": "node", "id": 12037287965, "lat": 48.6214821, "lon": 14.2569708}, {"type": "node", "id": 12039460472, "lat": 48.6164726, "lon": 14.305269}, {"type": "node", "id": 12039460473, "lat": 48.6164711, "lon": 14.3052396}, {"type": "node", "id": 12039460474, "lat": 48.6164101, "lon": 14.3052468}, {"type": "node", "id": 12039460475, "lat": 48.6164116, "lon": 14.3052762}, {"type": "node", "id": 12039460701, "lat": 48.619914, "lon": 14.3048666}, {"type": "node", "id": 12039460702, "lat": 48.6199845, "lon": 14.3048239}, {"type": "node", "id": 12039470978, "lat": 48.6213927, "lon": 14.3072996}, {"type": "node", "id": 12043146409, "lat": 48.6210918, "lon": 14.3089944, "tags": {"information": "board", "tourism": "information"}}, {"type": "node", "id": 12043146410, "lat": 48.6210508, "lon": 14.3089933, "tags": {"information": "board", "tourism": "information"}}, {"type": "node", "id": 12043593599, "lat": 48.6203031, "lon": 14.3047628}, {"type": "node", "id": 12043593627, "lat": 48.6203648, "lon": 14.3047441}, {"type": "node", "id": 12047296186, "lat": 48.6313308, "lon": 14.2781709}, {"type": "node", "id": 12047296187, "lat": 48.6303649, "lon": 14.2777371}, {"type": "node", "id": 12097292688, "lat": 48.6451177, "lon": 14.3177366, "tags": {"information": "board", "name": "chov Bizona americk\u00e9ho", "tourism": "information"}}, {"type": "node", "id": 12110372450, "lat": 48.7314217, "lon": 14.2108761}, {"type": "node", "id": 12110372451, "lat": 48.7314069, "lon": 14.2108943}, {"type": "node", "id": 12110372452, "lat": 48.7313912, "lon": 14.2108651}, {"type": "node", "id": 12110372453, "lat": 48.7314061, "lon": 14.2108469}, {"type": "node", "id": 12304905265, "lat": 48.6514884, "lon": 14.2345893, "tags": {"board_type": "nature", "information": "board", "name": "Jako na dlani", "ref": "2", "tourism": "information"}}, {"type": "node", "id": 12304905266, "lat": 48.6514991, "lon": 14.2345586, "tags": {"tourism": "viewpoint"}}, {"type": "node", "id": 12304905267, "lat": 48.6509076, "lon": 14.2347584, "tags": {"board_type": "nature", "information": "board", "name": "Lipno, jak ho nezn\u00e1me", "ref": "3", "tourism": "information"}}, {"type": "node", "id": 12304907040, "lat": 48.6488716, "lon": 14.2366612, "tags": {"board_type": "nature", "information": "board", "name": "Potkal jsi v\u0161echna zv\u00ed\u0159ata?", "tourism": "information"}}, {"type": "node", "id": 12304907041, "lat": 48.6478264, "lon": 14.2399797, "tags": {"board_type": "nature", "information": "board", "name": "V\u00edtejte v lese", "ref": "5", "tourism": "information"}}, {"type": "node", "id": 12304907042, "lat": 48.6478926, "lon": 14.2400766, "tags": {"board_type": "nature", "information": "board", "name": "Eduka\u010dn\u00ed dendrofon", "tourism": "information"}}, {"type": "node", "id": 12304907043, "lat": 48.6502725, "lon": 14.2408879, "tags": {"tourism": "viewpoint"}}, {"type": "node", "id": 12304907045, "lat": 48.6507064, "lon": 14.2420305, "tags": {"board_type": "nature", "information": "board", "name": "Pexeso s apkou", "tourism": "information"}}, {"type": "node", "id": 12304907046, "lat": 48.6507503, "lon": 14.2421349, "tags": {"board_type": "nature", "information": "board", "name": "P\u0159\u00edb\u011bhy obyvatel lesa", "ref": "6", "tourism": "information"}}, {"type": "node", "id": 12304907047, "lat": 48.6520711, "lon": 14.2421368, "tags": {"board_type": "nature", "information": "board", "name": "Hlasy lesa", "tourism": "information"}}, {"type": "node", "id": 12304907048, "lat": 48.6531354, "lon": 14.2419321, "tags": {"board_type": "nature", "information": "board", "name": "Louky kv\u011bt", "ref": "8", "tourism": "information"}}, {"type": "node", "id": 12304907049, "lat": 48.6531385, "lon": 14.2419018, "tags": {"board_type": "nature", "information": "board", "name": "Bylinkomluva", "tourism": "information"}}, {"type": "node", "id": 12304907051, "lat": 48.656972, "lon": 14.241936, "tags": {"board_type": "nature", "information": "board", "name": "Kdo by zvl\u00e1dl del\u0161\u00ed t\u016fru, ty nebo ovce \u0161umavka?", "ref": "9", "tourism": "information"}}, {"type": "node", "id": 12304907052, "lat": 48.6572761, "lon": 14.2424167, "tags": {"board_type": "nature", "information": "board", "name": "V\u00edtejte v oblasti dne\u0161n\u00edho ov\u010d\u00edna, ale tak\u00e9 na pastvin\u00e1ch kramol\u00ednsk\u00fdch vol\u016f", "ref": "10", "tourism": "information"}}, {"type": "node", "id": 12467161142, "lat": 48.6584859, "lon": 14.3640227, "tags": {"board_type": "nature", "information": "board", "name": "Vltava Ro\u017emberk - V\u011bt\u0159n\u00ed", "tourism": "information"}}, {"type": "node", "id": 12467161381, "lat": 48.6585373, "lon": 14.3652741, "tags": {"board_type": "nature", "information": "board", "name": "Vltava Ro\u017emberk - V\u011bt\u0159n\u00ed", "tourism": "information"}}, {"type": "node", "id": 12529533110, "lat": 48.6004936, "lon": 14.3367841, "tags": {"access": "yes", "amenity": "shelter", "bench": "yes", "capacity": "4", "fee": "no", "fireplace": "no", "name": "\u00datulna U T\u011bchoraze", "note": "https://lesycr.cz/tiskova-zprava/jedenatricet-pristresku-ve-kterych-se-da-v-nouzi-i-prespat-za-rok-postavily-u-dalkovych-turistickych-tras-lesy-ceske-republiky/", "operator": "Lesy \u010cR", "shelter_type": "basic_hut"}}, {"type": "node", "id": 12529533116, "lat": 48.7051913, "lon": 14.3509431, "tags": {"access": "yes", "amenity": "shelter", "bench": "yes", "capacity": "4", "fee": "no", "fireplace": "no", "name": "\u00datulna \u010ce\u0159\u00edn", "note": "https://lesycr.cz/tiskova-zprava/jedenatricet-pristresku-ve-kterych-se-da-v-nouzi-i-prespat-za-rok-postavily-u-dalkovych-turistickych-tras-lesy-ceske-republiky/", "operator": "Lesy \u010cR", "shelter_type": "basic_hut"}}, {"type": "node", "id": 12861276320, "lat": 48.751457, "lon": 14.2688118}, {"type": "node", "id": 12861276321, "lat": 48.751437, "lon": 14.2688493}, {"type": "node", "id": 12861276322, "lat": 48.7513993, "lon": 14.268803}, {"type": "node", "id": 12861276323, "lat": 48.7514193, "lon": 14.2687655}, {"type": "node", "id": 12907670621, "lat": 48.7261698, "lon": 14.2706954}, {"type": "node", "id": 12907670622, "lat": 48.7261357, "lon": 14.2706819}, {"type": "node", "id": 12907670623, "lat": 48.7261274, "lon": 14.27073}, {"type": "node", "id": 12907670624, "lat": 48.7261615, "lon": 14.2707436}, {"type": "node", "id": 12907670647, "lat": 48.7210737, "lon": 14.2936626, "tags": {"information": "board", "tourism": "information"}}, {"type": "node", "id": 12907670665, "lat": 48.7377432, "lon": 14.3286839, "tags": {"information": "guidepost", "tourism": "information"}}, {"type": "node", "id": 12947424762, "lat": 48.7453345, "lon": 14.229612, "tags": {"board_type": "history", "information": "board", "tourism": "information"}}, {"type": "node", "id": 12952509998, "lat": 48.7506064, "lon": 14.3054596, "tags": {"name": "Vyhl\u00eddka na samot\u011b u lesa", "tourism": "viewpoint"}}, {"type": "node", "id": 12952702075, "lat": 48.7289715, "lon": 14.3155939}, {"type": "node", "id": 12956470156, "lat": 48.7455465, "lon": 14.3129756}, {"type": "node", "id": 12956470157, "lat": 48.7455572, "lon": 14.3130278}, {"type": "node", "id": 12956470158, "lat": 48.7454973, "lon": 14.3130561}, {"type": "node", "id": 12956470159, "lat": 48.7454866, "lon": 14.313004}, {"type": "node", "id": 13026341212, "lat": 48.6560315, "lon": 14.3652993}, {"type": "node", "id": 13026341213, "lat": 48.6559429, "lon": 14.3652315}, {"type": "node", "id": 13026580774, "lat": 48.6608334, "lon": 14.3612848}, {"type": "node", "id": 13026580775, "lat": 48.6607912, "lon": 14.3613964}, {"type": "node", "id": 13026580776, "lat": 48.6607476, "lon": 14.3613585}, {"type": "node", "id": 13026580777, "lat": 48.6607898, "lon": 14.361247}, {"type": "node", "id": 13038823095, "lat": 48.6266259, "lon": 14.2319415, "tags": {"information": "route_marker", "material": "stone", "note": "Stein mit Markierungspfeil", "ref": "Blue /Withe ,Arrow (Pfeil)", "tourism": "information"}}, {"type": "node", "id": 13038889465, "lat": 48.6299382, "lon": 14.245832, "tags": {"name": "Strudelstrein", "tourism": "attraction"}}, {"type": "node", "id": 13078623540, "lat": 48.6748509, "lon": 14.3088327, "tags": {"information": "guidepost", "tourism": "information"}}, {"type": "node", "id": 13078623542, "lat": 48.6740047, "lon": 14.3085384, "tags": {"information": "map", "map_size": "region", "tourism": "information"}}, {"type": "node", "id": 13078642673, "lat": 48.6772304, "lon": 14.287865}, {"type": "node", "id": 13078642674, "lat": 48.6772073, "lon": 14.2879168}, {"type": "node", "id": 13078642675, "lat": 48.6772007, "lon": 14.2879127}, {"type": "node", "id": 13078642676, "lat": 48.6772336, "lon": 14.2878754}, {"type": "node", "id": 13078642677, "lat": 48.6772343, "lon": 14.2878869}, {"type": "node", "id": 13078642678, "lat": 48.6772324, "lon": 14.287898}, {"type": "node", "id": 13078642679, "lat": 48.6772282, "lon": 14.2879075}, {"type": "node", "id": 13078642680, "lat": 48.6772221, "lon": 14.2879142}, {"type": "node", "id": 13078642681, "lat": 48.6772148, "lon": 14.2879175}, {"type": "node", "id": 13078642682, "lat": 48.6771953, "lon": 14.2879056}, {"type": "node", "id": 13078642683, "lat": 48.6771917, "lon": 14.2878964}, {"type": "node", "id": 13078642684, "lat": 48.6771902, "lon": 14.2878858}, {"type": "node", "id": 13078642685, "lat": 48.677191, "lon": 14.2878751}, {"type": "node", "id": 13078642686, "lat": 48.677194, "lon": 14.2878654}, {"type": "node", "id": 13078642687, "lat": 48.6771989, "lon": 14.2878576}, {"type": "node", "id": 13078642688, "lat": 48.6772052, "lon": 14.2878525}, {"type": "node", "id": 13078642689, "lat": 48.6772122, "lon": 14.2878507}, {"type": "node", "id": 13078642690, "lat": 48.6772192, "lon": 14.2878524}, {"type": "node", "id": 13078642691, "lat": 48.6772255, "lon": 14.2878573}, {"type": "node", "id": 13107934062, "lat": 48.6728856, "lon": 14.2867423}, {"type": "node", "id": 13107934063, "lat": 48.6728693, "lon": 14.2867498}, {"type": "node", "id": 13107934064, "lat": 48.6728642, "lon": 14.2867245}, {"type": "node", "id": 13107934065, "lat": 48.6728805, "lon": 14.286717}, {"type": "node", "id": 13120627670, "lat": 48.6438475, "lon": 14.2209766, "tags": {"board_type": "tourism", "information": "board", "name": "Lapino", "tourism": "information"}}, {"type": "node", "id": 13128250848, "lat": 48.643817, "lon": 14.2208615, "tags": {"board_type": "tourism", "information": "board", "name": "Lipno", "tourism": "information"}}, {"type": "node", "id": 13230130054, "lat": 48.6435456, "lon": 14.2205091, "tags": {"board_type": "tourism", "information": "terminal", "name": "Lipno", "tourism": "information"}}, {"type": "node", "id": 13414226291, "lat": 48.5600371, "lon": 14.2676006, "tags": {"information": "board", "tourism": "information"}}, {"type": "way", "id": 31661935, "nodes": [354419163, 354419164, 12047296186, 354419165, 354419166, 3823378613, 354419167, 3823378612, 3823378611, 12047296187, 354419168, 354419163], "tags": {"fixme": "position, size", "name": "\u010certova st\u011bna", "name:de": "Teufelswand", "natural": "scree", "source": "clue", "tourism": "attraction", "wheelchair": "no", "wikidata": "Q8548209", "wikipedia": "cs:\u010certova st\u011bna-Lu\u010d"}}, {"type": "way", "id": 42850466, "nodes": [536296296, 536296286, 536296285, 536296280, 536296278, 536296277, 4745242421, 4745242420, 536296276, 4745242419, 4745242418, 4745242417, 4745242416, 4745242415, 4745242414, 4745242413, 4745242412, 536296275, 4745242411, 4745242410, 4745242409, 4745242408, 4745242407, 4745242406, 4745242405, 4745242404, 4745242403, 4745242402, 4745242401, 4745242400, 4745242399, 4745242398, 4745242397, 4745242396, 4745242395, 4745242394, 4745242393, 4745242392, 4745242391, 4745242390, 4745242389, 4745242388, 4745242387, 4745242386, 4745242385, 4745242384, 4745242383, 4745242382, 4745242381, 4745242380, 4745242379, 4745242378, 4745242435, 4745242434, 4745242433, 536296298, 4745242432, 536296283, 4745242431, 4745242430, 536296288, 4745242429, 4745242428, 4745242427, 4745242426, 4745242425, 4745242424, 536296297, 4745242423, 4745242422, 469112560]}, {"type": "way", "id": 42850467, "nodes": [4745242377, 4745242376, 4745242375, 536296292, 536296284, 536296293, 4745242374, 4745242373, 536296294, 536296295, 9921924074]}, {"type": "way", "id": 325689565, "nodes": [3323060271, 9461387994, 9461388004, 9461387993, 3323060263, 9461387992, 9461388003, 9461388000, 3323060270, 9461387999, 9461388002, 9461387998, 9461388001, 9461387997, 3323060277, 9461387996, 9461388005, 9461387995, 3323060271], "tags": {"building": "yes", "man_made": "tower", "name": "Sternsteinwarte", "tourism": "viewpoint", "tower:type": "observation", "wheelchair": "no", "wikidata": "Q119949637", "wikimedia_commons": "Category:Sternsteinwarte"}}, {"type": "way", "id": 416660790, "nodes": [4173975000, 4173974998, 4173974999, 4173975001, 4173975000], "tags": {"amenity": "shelter", "building": "yes"}}, {"type": "way", "id": 568999821, "nodes": [5473101509, 5473101506, 5473101507, 5473101508, 5473101509], "tags": {"amenity": "shelter", "bench": "yes", "building": "yes"}}, {"type": "way", "id": 620151871, "nodes": [5859489671, 5859489668, 5859489635, 5859489669, 5859489670, 5859489634, 5859489671], "tags": {"amenity": "shelter", "building": "yes", "name": "M\u00fchlenweg-Rast", "shelter": "yes", "shelter_type": "weather_shelter"}}, {"type": "way", "id": 794188350, "nodes": [3824422868, 1131097834, 1131097984, 12039460701, 12039460702, 1131097468, 953766642, 4144037094, 1131097635, 9939523142, 12043593599, 5316541054, 12043593627, 1131097606, 1131097751, 1131097902, 5316539006, 5316539005, 1131097734, 1131098372, 1131098175, 4616049333, 1131098297, 4616049332, 3822551704, 5316541055, 5316541094, 1131097903, 5316541093, 4055293883, 5316541091, 1131097633, 1131097771, 11901183748, 1131098201, 1131097950, 11901183740, 11901183738, 11901183739, 1131097936, 1131097650, 1131098356, 1131098351, 3824422874, 12039470978, 5316541032, 9949523984, 3282887173, 5316541029, 1131098021, 1131097557, 1131097445, 1131097607, 1131097752, 1131097459, 1131097611, 1131097765, 1131097914, 3822551676, 3822551673, 3822551674, 3822551664, 3822551666, 3822551663, 3822551661, 1131097471, 1131097627, 1131098205, 5316541021, 5316539017, 5316539014, 3824422868], "tags": {"alt_name": "Vy\u0161ebrodsk\u00fd kl\u00e1\u0161ter", "amenity": "monastery", "community:gender": "male", "contact:email": "cist@klastervyssibrod.cz", "contact:phone": "+420 380 746 674", "contact:website": "https://www.klastervyssibrod.cz/", "denomination": "roman_catholic", "historic": "yes", "name": "Cisterci\u00e1ck\u00fd kl\u00e1\u0161ter Vy\u0161\u0161\u00ed Brod", "name:de": "Zisterzienserkloster Hohenfurth", "name:hu": "Vy\u0161\u0161\u00ed Brod-i ciszterci ap\u00e1ts\u00e1g", "religion": "christian", "start_date": "1259", "tourism": "attraction", "wikipedia": "cs:Vy\u0161ebrodsk\u00fd kl\u00e1\u0161ter"}}, {"type": "way", "id": 846373524, "nodes": [7896458438, 7896458437, 7896458436, 7896458435, 7896458438], "tags": {"amenity": "shelter", "shelter_type": "public_transport"}}, {"type": "way", "id": 846373526, "nodes": [7896477998, 7896477997, 7896477996, 7896477995, 7896477998], "tags": {"amenity": "shelter", "shelter_type": "public_transport"}}, {"type": "way", "id": 1064938758, "nodes": [9922509287, 9922509288, 9922509289, 9922509290, 9922509291, 9922509292, 9780091826, 9780091827, 9780091828, 9922509281, 9922509282, 9922509283, 9922509284, 9922509285, 9922509286, 9780091829, 9780091830, 9780091831, 9780091832, 9922509287], "tags": {"amenity": "shelter", "building": "yes", "shelter_type": "weather_shelter"}}, {"type": "way", "id": 1078044673, "nodes": [9883856142, 9883856143, 9883856144, 1570628547, 9883856145, 9883856142], "tags": {"amenity": "shelter", "building": "yes"}}, {"type": "way", "id": 1082629602, "nodes": [469112560, 9919981354, 13026341212, 13026341213, 536296296]}, {"type": "way", "id": 1082629604, "nodes": [9921924074, 536296290, 4745242372, 4745242377]}, {"type": "way", "id": 1296472478, "nodes": [12013335532, 12013335533, 12013335534, 12013335535, 12013335536, 12013335537, 12013335532], "tags": {"amenity": "shelter", "building": "yes"}}, {"type": "way", "id": 1296472479, "nodes": [12013335538, 12013335539, 12013335540, 12013335541, 12013335542, 12013335543, 12013335538], "tags": {"amenity": "shelter", "building": "yes"}}, {"type": "way", "id": 1296472480, "nodes": [12013335544, 12013335545, 12013335546, 12013335547, 12013335548, 12013335549, 12013335544], "tags": {"amenity": "shelter", "building": "yes"}}, {"type": "way", "id": 1296472481, "nodes": [12013335550, 12013335551, 12013335552, 12013335553, 12013335554, 12013335555, 12013335550], "tags": {"amenity": "shelter", "building": "yes"}}, {"type": "way", "id": 1296472482, "nodes": [12013335556, 12013335557, 12013335558, 12013335559, 12013335560, 12013335561, 12013335556], "tags": {"amenity": "shelter", "building": "yes"}}, {"type": "way", "id": 1296472483, "nodes": [12013335562, 12013335563, 12013335564, 12013335565, 12013335566, 12013335567, 12013335562], "tags": {"amenity": "shelter", "building": "yes"}}, {"type": "way", "id": 1296472484, "nodes": [12013335568, 12013355669, 12013355670, 12013355671, 12013355672, 12013355673, 12013335568], "tags": {"amenity": "shelter", "building": "yes"}}, {"type": "way", "id": 1296472485, "nodes": [12013355674, 12013355675, 12013355676, 12013355677, 12013355678, 12013355679, 12013355674], "tags": {"amenity": "shelter", "building": "yes"}}, {"type": "way", "id": 1296629719, "nodes": [12014949569, 12014949570, 12014949571, 12014949572, 12014949569], "tags": {"amenity": "shelter", "building": "yes"}}, {"type": "way", "id": 1296742052, "nodes": [4677981446, 12015882256, 12017241004, 12017241010, 12015882257, 12014949578, 4677981445, 4677981446], "tags": {"amenity": "shelter", "building": "yes"}}, {"type": "way", "id": 1296950034, "nodes": [12017240987, 12017240988, 12017240989, 12017240990, 12017240987], "tags": {"amenity": "shelter", "building": "yes", "shelter_type": "public_transport"}}, {"type": "way", "id": 1296950039, "nodes": [12017241022, 12017241023, 12017241024, 12017241025, 12017241026, 12017241027, 12017241022], "tags": {"amenity": "shelter", "building": "yes", "shelter_type": "gazebo"}}, {"type": "way", "id": 1298977927, "nodes": [12033002060, 12033002061, 12033002062, 12033002063, 12033002064, 12033002065, 12033002066, 12033002067, 12033002068, 12033003769, 12033002051, 12033002054, 12033002055, 12033002056, 12033002057, 12033002058, 12033002059, 12033002052, 12033002053, 12033002060], "tags": {"amenity": "shelter", "building": "yes", "shelter_type": "lean_to"}}, {"type": "way", "id": 1299225877, "nodes": [12035513700, 12035513701, 12035513702, 12035513703, 12035513704, 12035513705, 12035513706, 12035513707, 12035513708, 12035513709, 12035513710, 12035513692, 12035513695, 12035513696, 12035513697, 12035513698, 12035513699, 12035513693, 12035513694, 12035513700], "tags": {"amenity": "shelter", "building": "yes", "shelter_type": "gazebo"}}, {"type": "way", "id": 1299462544, "nodes": [12037282121, 12037282122, 12037282123, 12037282124, 12037282121], "tags": {"amenity": "shelter", "bench": "no", "bin": "no", "building": "yes"}}, {"type": "way", "id": 1299466618, "nodes": [12037287960, 12037287961, 12037287962, 12037287963, 12037287964, 12037287965, 12037287960], "tags": {"amenity": "shelter", "building": "yes", "shelter_type": "gazebo"}}, {"type": "way", "id": 1299713348, "nodes": [12039460472, 12039460473, 12039460474, 12039460475, 12039460472], "tags": {"amenity": "shelter", "building": "yes"}}, {"type": "way", "id": 1307736914, "nodes": [12110372450, 12110372451, 12110372452, 12110372453, 12110372450], "tags": {"amenity": "shelter", "building": "yes", "shelter_type": "public_transport"}}, {"type": "way", "id": 1389355849, "nodes": [12861276320, 12861276321, 12861276322, 12861276323, 12861276320], "tags": {"amenity": "shelter", "bench": "yes", "building": "yes", "lit": "no", "shelter_type": "gazebo"}}, {"type": "way", "id": 1394248114, "nodes": [12907670621, 12907670622, 12907670623, 12907670624, 12907670621], "tags": {"amenity": "shelter", "building": "yes"}}, {"type": "way", "id": 1409597811, "nodes": [12952702075, 10301032362, 3338042025, 10301032361, 12952702075], "tags": {"amenity": "shelter", "building": "yes"}}, {"type": "way", "id": 1410055465, "nodes": [12956470156, 12956470157, 12956470158, 12956470159, 12956470156], "tags": {"amenity": "shelter", "building": "yes"}}, {"type": "way", "id": 1417539247, "nodes": [13026580774, 13026580775, 13026580776, 13026580777, 13026580774], "tags": {"amenity": "shelter", "building": "yes"}}, {"type": "way", "id": 1423104104, "nodes": [13078642682, 13078642683, 13078642684, 13078642685, 13078642686, 13078642687, 13078642688, 13078642689, 13078642690, 13078642691, 13078642673, 13078642676, 13078642677, 13078642678, 13078642679, 13078642680, 13078642681, 13078642674, 13078642675, 13078642682], "tags": {"amenity": "shelter", "bench": "yes", "building": "yes", "shelter_type": "gazebo"}}, {"type": "way", "id": 1425945861, "nodes": [13107934062, 13107934063, 13107934064, 13107934065, 13107934062], "tags": {"amenity": "shelter", "building": "yes"}}, {"type": "relation", "id": 298546, "members": [{"type": "way", "ref": 42850466, "role": "outer"}, {"type": "way", "ref": 1082629602, "role": "outer"}, {"type": "way", "ref": 42850467, "role": "inner"}, {"type": "way", "ref": 1082629604, "role": "inner"}], "tags": {"addr:city": "Ro\u017emberk nad Vltavou", "addr:conscriptionnumber": "68", "addr:country": "CZ", "addr:housenumber": "68", "addr:place": "Ro\u017emberk nad Vltavou", "addr:postcode": "38218", "building": "civic", "building:flats": "1", "building:levels": "1", "building:ruian:type": "5", "castle_type": "defensive", "castle_type:cs": "hrad", "email": "rozmberk@npu.cz", "historic": "castle", "name": "Hrad Ro\u017emberk", "name:de": "Burg Rosenberg", "name:en": "Ro\u017emberk Castle", "phone": "+420 380 749 838", "ref:ruian:addr": "16546610", "ref:ruian:building": "16427301", "source": "cuzk:ruian", "tourism": "attraction", "type": "multipolygon", "website": "http://www.hrad-rozmberk.eu", "wikidata": "Q775712", "wikipedia": "cs:Ro\u017emberk (hrad)"}}]}