{"version": 0.6, "generator": "Overpass API 0.7.62.8 e802775f", "osm3s": {"timestamp_osm_base": "2026-01-04T12:18:28Z", "copyright": "The data included in this document is from www.openstreetmap.org. The data is made available under ODbL."}, "elements": [{"type": "node", "id": 38903191, "lat": 49.1915526, "lon": 13.051509, "tags": {"name": "Lam", "operator": "Regental Bahnbetriebs-GmbH", "public_transport": "station", "railway": "station", "railway:ref": "NLAM", "train": "yes", "wikidata": "Q108408408"}}, {"type": "node", "id": 318478783, "lat": 49.1640394, "lon": 12.8078913, "tags": {"alt_name": "Blaibach(Oberpfalz)", "name": "Blaibach(Oberpf)", "public_transport": "station", "rail": "yes", "railway": "halt", "railway:ref": "NBLA", "train": "yes", "wheelchair": "yes", "wikidata": "Q116019185"}}, {"type": "node", "id": 322702818, "lat": 49.0286036, "lon": 12.8206368, "tags": {"aerialway": "station", "aerialway:access": "entry", "public_transport": "station"}}, {"type": "node", "id": 373260914, "lat": 49.0720556, "lon": 13.0005019, "tags": {"name": "Gumpenried-Asbach", "operator": "Die L\u00e4nderbahn GmbH DLB", "public_transport": "station", "railway": "halt", "railway:ref": "NGPA", "train": "yes", "wikidata": "Q118602032"}}, {"type": "node", "id": 373267606, "lat": 49.0706312, "lon": 12.9653281, "tags": {"alt_name": "Nu\u00dfberg-Sch\u00f6nau (Wanderbahn)", "departures_board": "timetable", "name": "Nu\u00dfberg-Sch\u00f6nau", "operator": "Wanderbahn im Regental e.V.", "public_transport": "station", "railway": "station", "railway:ref": "NNBS", "train": "yes", "usage": "tourism", "website": "https://www.wanderbahn.de/", "wikidata": "Q118847849"}}, {"type": "node", "id": 373267680, "lat": 49.0644018, "lon": 12.9440975, "tags": {"alt_name": "Gstadt (Wanderbahn)", "departures_board": "timetable", "name": "Gstadt", "operator": "Wanderbahn im Regental e.V.", "public_transport": "station", "railway": "halt", "railway:ref": "NSDT", "train": "yes", "usage": "tourism", "website": "https://www.wanderbahn.de/", "wikidata": "Q118737767"}}, {"type": "node", "id": 377079078, "lat": 49.0782901, "lon": 12.8902532, "tags": {"name": "Viechtach", "operator": "Die L\u00e4nderbahn GmbH DLB", "public_transport": "station", "railway": "station", "railway:ref": "NVIC", "train": "yes", "wheelchair": "no", "wikidata": "Q118732527"}}, {"type": "node", "id": 416577357, "lat": 49.1952996, "lon": 13.0028529, "tags": {"name": "Arrach", "operator": "Regental Bahnbetriebs-GmbH", "public_transport": "station", "railway": "halt", "railway:ref": "NARR", "train": "yes", "wikidata": "Q67876909"}}, {"type": "node", "id": 416864673, "lat": 49.1640126, "lon": 12.768235, "tags": {"name": "Miltach", "public_transport": "station", "railway": "halt", "railway:ref": "NMLT", "train": "yes", "wheelchair": "yes", "wikidata": "Q116017635"}}, {"type": "node", "id": 649579318, "lat": 49.2236495, "lon": 12.9747635, "tags": {"aerialway": "station", "public_transport": "station"}}, {"type": "node", "id": 649579324, "lat": 49.2270454, "lon": 12.9720655, "tags": {"aerialway": "station", "public_transport": "station"}}, {"type": "node", "id": 1674612007, "lat": 49.275199, "lon": 12.8140573, "tags": {"name": "Arnschwang", "operator": "DB InfraGO AG", "public_transport": "station", "railway": "station", "railway:ref": "NARG", "railway:station_category": "6", "train": "yes", "uic_ref": "8000606", "wikidata": "Q116016801"}}, {"type": "node", "id": 1695207182, "lat": 48.9285363, "lon": 13.027864, "tags": {"aerialway": "station", "public_transport": "station"}}, {"type": "node", "id": 1695207235, "lat": 48.9299055, "lon": 13.0397947, "tags": {"aerialway": "station", "public_transport": "station"}}, {"type": "node", "id": 1695207255, "lat": 48.9299368, "lon": 13.0397354, "tags": {"aerialway": "station", "public_transport": "station"}}, {"type": "node", "id": 1695207327, "lat": 48.9311427, "lon": 13.0383024, "tags": {"aerialway": "station", "aerialway:access": "entry", "internet_access": "no", "name": "Nordhanglift", "public_transport": "station"}}, {"type": "node", "id": 1695207373, "lat": 48.9316001, "lon": 13.0373247, "tags": {"aerialway": "station", "name": "Riegellift", "public_transport": "station"}}, {"type": "node", "id": 1695207451, "lat": 48.9337352, "lon": 13.0411108, "tags": {"aerialway": "station", "name": "Forsthauslifte", "public_transport": "station"}}, {"type": "node", "id": 1695207468, "lat": 48.9337639, "lon": 13.0412059, "tags": {"aerialway": "station", "name": "Forsthauslifte", "public_transport": "station"}}, {"type": "node", "id": 2116817917, "lat": 49.0290707, "lon": 12.9915282, "tags": {"name": "Teisnach Rohde & Schwarz", "operator": "Die L\u00e4nderbahn GmbH DLB", "public_transport": "station", "railway": "halt", "train": "yes", "wikidata": "Q119547698"}}, {"type": "node", "id": 2324580746, "lat": 48.933012, "lon": 13.0448322}, {"type": "node", "id": 2367304990, "lat": 49.0533867, "lon": 13.0142385, "tags": {"description": "Direkter Zugang zur Bahnstation besteht nur vom Ort Piflitz, nicht vom namensgebenden Ort B\u00f6brach. Hier m\u00fcsste der Fluss per Boot \u00fcberquert werden. Der Halt wird nur von Sonderfahrten der Wanderbahn im Museumsbetrieb angefahren.", "heritage": "yes", "name": "B\u00f6brach", "public_transport": "station", "railway": "halt", "railway:ref": "NBOB", "train": "yes", "wikidata": "Q118139252"}}, {"type": "node", "id": 2367304995, "lat": 49.0130266, "lon": 12.9935911, "tags": {"name": "Patersdorf", "operator": "Die L\u00e4nderbahn GmbH DLB", "public_transport": "station", "railway": "halt", "railway:ref": "NPAD", "train": "yes", "wikidata": "Q118799826"}}, {"type": "node", "id": 2367305003, "lat": 48.9896925, "lon": 12.9913869, "tags": {"name": "Ruhmannsfelden", "operator": "Die L\u00e4nderbahn GmbH DLB", "public_transport": "station", "railway": "halt", "railway:ref": "NRUF", "train": "yes", "wikidata": "Q118746724"}}, {"type": "node", "id": 2367427268, "lat": 48.9581991, "lon": 12.9834877, "tags": {"name": "Gotteszell", "public_transport": "station", "railway": "station", "railway:ref": "NGZ", "railway:station_category": "6", "train": "yes", "wheelchair": "yes", "wikidata": "Q118894265"}}, {"type": "node", "id": 2704171778, "lat": 49.3099593, "lon": 12.839485, "tags": {"name": "Furth im Wald", "operator": "DB InfraGO AG", "public_transport": "station", "railway": "station", "railway:ref": "NFW", "railway:station_category": "5", "train": "yes", "uic_ref": "8002159", "wheelchair": "no", "wikidata": "Q65965694"}}, {"type": "node", "id": 3255616464, "lat": 48.9283699, "lon": 13.0276196}, {"type": "node", "id": 3255616465, "lat": 48.9283847, "lon": 13.0276791}, {"type": "node", "id": 3255616466, "lat": 48.9283446, "lon": 13.0277023}, {"type": "node", "id": 3255616467, "lat": 48.9283298, "lon": 13.0276427}, {"type": "node", "id": 3255631715, "lat": 48.9283379, "lon": 13.027638}, {"type": "node", "id": 3635143508, "lat": 49.20491, "lon": 12.9251649, "tags": {"disused:name": "Hohenwarth (Niederbay) Campingplatz", "name": "Hohenwarth Campingplatz", "operator": "Regental Bahnbetriebs-GmbH", "public_transport": "station", "rail": "yes", "railway": "halt", "railway:ref": "NHWNC", "train": "yes", "wikidata": "Q118875270"}}, {"type": "node", "id": 3635143509, "lat": 49.2053164, "lon": 12.9432342, "tags": {"alt_name": "Hohenwarth (Niederbay)", "name": "Hohenwarth", "operator": "Regental Bahnbetriebs-GmbH", "public_transport": "station", "rail": "yes", "railway": "halt", "railway:ref": "NHWN", "train": "yes", "wikidata": "Q118875212"}}, {"type": "node", "id": 3639141272, "lat": 49.1911741, "lon": 13.0279206, "tags": {"name": "Frahelsbruck", "operator": "Regental Bahnbetriebs-GmbH", "public_transport": "station", "rail": "yes", "railway": "halt", "railway:ref": "NFHB", "train": "yes", "wikidata": "Q118558913"}}, {"type": "node", "id": 3639181952, "lat": 49.2025781, "lon": 12.8779242, "tags": {"name": "Grafenwiesen", "network": "Oberpfalzbahn", "operator": "Regental Bahnbetriebs-GmbH", "public_transport": "station", "rail": "yes", "railway": "halt", "railway:ref": "NGFW", "train": "yes", "wheelchair": "yes", "wikidata": "Q118590894"}}, {"type": "node", "id": 3639182320, "lat": 49.1747546, "lon": 12.8650381, "tags": {"alt_name": "Zellerthal", "name": "Zellertal", "network": "Oberpfalzbahn", "operator": "Regental Bahnbetriebs-GmbH", "public_transport": "station", "rail": "yes", "railway": "halt", "railway:ref": "NZLT", "train": "yes", "wheelchair": "yes", "wikidata": "Q119990199"}}, {"type": "node", "id": 3639182385, "lat": 49.1728492, "lon": 12.8517881, "tags": {"name": "Bad K\u00f6tzting", "operator": "DB InfraGO AG", "public_transport": "station", "railway": "station", "railway:ref": "NKZ", "railway:station_category": "6", "ref:station": "3390", "train": "yes", "wheelchair": "yes", "wikidata": "Q108408446"}}, {"type": "node", "id": 3639231907, "lat": 49.2069389, "lon": 12.9001259, "tags": {"name": "Watzelsteg", "operator": "Regental Bahnbetriebs-GmbH", "public_transport": "station", "rail": "yes", "railway": "halt", "railway:ref": "NWAS", "train": "yes", "wheelchair": "yes", "wikidata": "Q118724760"}}, {"type": "node", "id": 4235133009, "lat": 49.3094829, "lon": 12.8384351, "tags": {"amenity": "bus_station", "bus": "yes", "name": "Furth im Wald, Bahnhof", "public_transport": "station"}}, {"type": "node", "id": 4440175087, "lat": 49.2903523, "lon": 12.6830821, "tags": {"name": "Balbersdorf", "public_transport": "station", "railway": "halt", "railway:ref": "NBAF", "train": "yes", "wikidata": "Q116017592"}}, {"type": "node", "id": 4445227506, "lat": 49.1966624, "lon": 12.7452348, "tags": {"name": "Chamerau", "public_transport": "station", "railway": "halt", "railway:ref": "NCHA", "train": "yes", "wikidata": "Q116016430"}}, {"type": "node", "id": 4541110971, "lat": 49.2177119, "lon": 12.7275921, "tags": {"abandoned:railway": "station", "disused": "halt", "disused:railway": "halt", "end_date": "2005", "name": "Runding", "public_transport": "station", "railway": "disused_halt", "wikidata": "Q118746731"}}, {"type": "node", "id": 4698831309, "lat": 48.9691388, "lon": 13.0531567, "tags": {"name": "Triefenried", "public_transport": "station", "railway": "station", "railway:ref": "NTRI", "railway:station_category": "6", "train": "yes", "wheelchair": "yes", "wikidata": "Q118733343"}}, {"type": "node", "id": 4708247300, "lat": 49.2429092, "lon": 12.7293867, "tags": {"name": "Kothmai\u00dfling", "operator": "DB Netz AG", "public_transport": "station", "railway": "halt", "railway:ref": "NKMG", "railway:station_category": "6", "train": "yes", "uic_ref": "8003413", "wikidata": "Q116017447"}}, {"type": "node", "id": 4735884989, "lat": 49.2557409, "lon": 12.7767991, "tags": {"name": "Weiding", "operator": "DB Netz AG", "public_transport": "station", "railway": "halt", "railway:ref": "NWDG", "railway:station_category": "7", "train": "yes", "uic_ref": "8006264", "wikidata": "Q116019034"}}, {"type": "node", "id": 6695540710, "lat": 49.0694216, "lon": 12.9148988, "tags": {"name": "Schnitzm\u00fchle", "public_transport": "station", "railway": "halt", "railway:ref": "NSNI", "train": "yes", "uic_ref": "8070670", "wikidata": "Q119575339"}}, {"type": "node", "id": 8554104599, "lat": 48.9331073, "lon": 13.0449033}, {"type": "node", "id": 8554104600, "lat": 48.9330158, "lon": 13.0451877}, {"type": "node", "id": 8554104601, "lat": 48.9328681, "lon": 13.0447249}, {"type": "node", "id": 8554104602, "lat": 48.9328332, "lon": 13.0448246, "tags": {"aerialway": "station", "aerialway:access": "both", "aerialway:summer:access": "both", "name": "Talstation", "public_transport": "station"}}, {"type": "node", "id": 8554104604, "lat": 48.9328023, "lon": 13.0449294}, {"type": "node", "id": 8554104605, "lat": 48.9326453, "lon": 13.0449114}, {"type": "node", "id": 8554104606, "lat": 48.932671, "lon": 13.0448315}, {"type": "node", "id": 8587405910, "lat": 49.0391489, "lon": 12.9944854, "tags": {"name": "Teisnach", "operator": "Die L\u00e4nderbahn GmbH DLB", "public_transport": "station", "railway": "station", "railway:ref": "NTEN", "train": "yes", "wikidata": "Q118733545"}}, {"type": "node", "id": 11002100421, "lat": 49.2057767, "lon": 12.8841535, "tags": {"disused": "halt", "disused:railway": "halt", "name": "Allemann", "public_transport": "station", "railway": "disused_halt", "wikidata": "Q119850193"}}, {"type": "node", "id": 11025426832, "lat": 49.1028929, "lon": 12.8644363, "tags": {"disused": "halt", "disused:railway": "halt", "name": "Tresdorf-West", "public_transport": "station", "railway": "disused_halt", "wikidata": "Q119557551"}}, {"type": "node", "id": 11038664152, "lat": 49.158918, "lon": 12.8277446, "tags": {"disused": "halt", "disused:railway": "halt", "name": "Pulling (b K\u00f6tzting)", "public_transport": "station", "railway": "disused_halt", "wikidata": "Q119989645"}}, {"type": "node", "id": 11074709755, "lat": 49.1408287, "lon": 12.7636006, "tags": {"disused": "halt", "disused:railway": "halt", "name": "Untervierau", "public_transport": "station", "railway": "disused_halt", "wikidata": "Q120023622"}}, {"type": "way", "id": 319153352, "nodes": [3255616464, 3255616465, 3255616466, 3255616467, 3255631715, 3255616464], "tags": {"aerialway": "station", "building": "yes", "public_transport": "station"}}, {"type": "way", "id": 921350115, "nodes": [8554104599, 8554104600, 8554104605, 8554104606, 8554104604, 8554104602, 8554104601, 2324580746, 8554104599], "tags": {"addr:city": "Bischofsmais", "addr:housenumber": "3", "addr:postcode": "94253", "addr:street": "Unterbreitenau", "aerialway": "station", "building": "yes", "name": "Talstation Gei\u00dfkopfsesselbahn", "operator": "Geisskopfbahn Unterbreitenau", "public_transport": "station"}}]}